Index,Place Id,Name,Address,Category,Status,Latitude,Longitude,Link,SearchKeyword
1,na_noloc,,,,,,,,"Chemist, Islamabad"
5,dwatsonchemistf11mar_33.683312_72.989063,D.WATSON CHEMIST F-11 MARKAZ,,Pharmacy,Open,33.6833125,72.9890625,https://www.google.com/maps/place/D.WATSON+CHEMIST+F-11+MARKAZ/data=!4m7!3m6!1s0x38dfbde30aaec387:0x63e245b47f3a883d!8m2!3d33.6833125!4d72.9890625!16s%2Fg%2F1tdj2l7b!19sChIJh8OuCuO93zgRPYg6f7RF4mM?authuser=0&hl=en&rclk=1,"Chemist, Islamabad"
37,dwatsonchemistf10mar_33.696252_73.012942,D. Watson Chemist F-10 Markaz,"D. Watson Chemist F-10 Markaz
4.1(415)
Pharmacy ·  · Street 7D
Open ⋅ Closes 12 AM · +92 51 2215784",Pharmacy,Open,33.6962516,73.0129417,https://www.google.com/maps/place/D.+Watson+Chemist+F-10+Markaz/data=!4m7!3m6!1s0x38dfbe6b158ee389:0x252aaeebe811707c!8m2!3d33.6962516!4d73.0129417!16s%2Fg%2F11dymm56c8!19sChIJieOOFWu-3zgRfHAR6OuuKiU?authuser=0&hl=en&rclk=1,"Chemist, Islamabad"
38,dwatsonchemistf6mark_33.729701_73.075424,D.WATSON CHEMIST F-6 MARKAZ,"D.WATSON CHEMIST F-6 MARKAZ
4.3(255)
Pharmacy ·  · P3HG+W53, School Rd
Open ⋅ Closes 1 AM · +92 51 8438111",Pharmacy,Open,33.7297008,73.0754236,https://www.google.com/maps/place/D.WATSON+CHEMIST+F-6+MARKAZ/data=!4m7!3m6!1s0x38dfbf775cc17be5:0xbe2ed3739e338621!8m2!3d33.7297008!4d73.0754236!16s%2Fg%2F1wcxbgb2!19sChIJ5XvBXHe_3zgRIYYznnPTLr4?authuser=0&hl=en&rclk=1,"Chemist, Islamabad"
39,shaheenchemistcosmet_33.708933_73.055365,Shaheen Chemist & Cosmetics,"Shaheen Chemist & Cosmetics
4.1(113)
Pharmacy ·  · Din Pavallions Plaza, Jinnah Ave
Open ⋅ Closes 12 AM · +92 333 7805798",Pharmacy,Open,33.7089326,73.0553648,https://www.google.com/maps/place/Shaheen+Chemist+%26+Cosmetics/data=!4m7!3m6!1s0x38dfbfbbab763b39:0xa0a5678fb3810fb0!8m2!3d33.7089326!4d73.0553648!16s%2Fg%2F1td4snhq!19sChIJOTt2q7u_3zgRsA-Bs49npaA?authuser=0&hl=en&rclk=1,"Chemist, Islamabad"
40,shaheenchemist_33.699194_73.048815,Shaheen Chemist,"Shaheen Chemist
4.1(89)
Pharmacy · Allah Dad Plaza, Markaz Rd
Open ⋅ Closes 1 AM · +92 51 2252215",Pharmacy,Open,33.6991939,73.0488153,https://www.google.com/maps/place/Shaheen+Chemist/data=!4m7!3m6!1s0x38dfbfc9d1ce94e1:0x549deca7538bcd9e!8m2!3d33.6991939!4d73.0488153!16s%2Fg%2F1tp06gtr!19sChIJ4ZTO0cm_3zgRns2LU6fsnVQ?authuser=0&hl=en&rclk=1,"Chemist, Islamabad"
41,shaheenchemist_33.669321_73.000151,Shaheen Chemist,"Shaheen Chemist
4.2(1,107)
Pharmacy ·  · M292+P3C
Open ⋅ Closes 1 AM · +92 51 2360246",Pharmacy,Open,33.6693209,73.0001512,https://www.google.com/maps/place/Shaheen+Chemist/data=!4m7!3m6!1s0x38df95f8db82c109:0x9cfd1bc97169daeb!8m2!3d33.6693209!4d73.0001512!16s%2Fg%2F11f2wmbkpl!19sChIJCcGC2_iV3zgR69ppcckb_Zw?authuser=0&hl=en&rclk=1,"Chemist, Islamabad"
42,shaheenchemisti8mark_33.667365_73.075329,Shaheen Chemist I-8 Markaz,"Shaheen Chemist I-8 Markaz
4.3(1,255)
Pharmacy ·  · Time Square Plaza
Open ⋅ Closes 1 AM · +92 51 4938118",Pharmacy,Open,33.6673652,73.0753292,https://www.google.com/maps/place/Shaheen+Chemist+I-8+Markaz/data=!4m7!3m6!1s0x38df95458e97813f:0xb5f0722222b74857!8m2!3d33.6673652!4d73.0753292!16s%2Fg%2F11bzrgc0_c!19sChIJP4GXjkWV3zgRV0i3IiJy8LU?authuser=0&hl=en&rclk=1,"Chemist, Islamabad"
43,shaheenchemist_33.683349_72.988874,Shaheen Chemist,"Shaheen Chemist
4.2(191)
Pharmacy ·  · Ground Floor, Hassan arcade
Open ⋅ Closes 2 AM · +92 51 2228011",Pharmacy,Open,33.6833491,72.9888739,https://www.google.com/maps/place/Shaheen+Chemist/data=!4m7!3m6!1s0x38dfbde3a00b995b:0x6561a4a3c97a82bf!8m2!3d33.6833491!4d72.9888739!16s%2Fg%2F1ts_4zqh!19sChIJW5kLoOO93zgRv4J6yaOkYWU?authuser=0&hl=en&rclk=1,"Chemist, Islamabad"
44,dwatsonchemist_33.645820_72.964309,D-Watson Chemist,"D-Watson Chemist
3.8(157)
Pharmacy · 
Open ⋅ Closes 12 AM · +92 51 2306848",Pharmacy,Open,33.6458197,72.9643094,https://www.google.com/maps/place/D-Watson+Chemist/data=!4m7!3m6!1s0x38df976883796ebd:0x8349d9eb40d9411!8m2!3d33.6458197!4d72.9643094!16s%2Fg%2F11j0brb027!19sChIJvW55g2iX3zgREZQNtJ6dNAg?authuser=0&hl=en&rclk=1,"Chemist, Islamabad"
45,dwatsonchemistbluear_33.708921_73.055395,D.WATSON CHEMIST BLUE AREA,"D.WATSON CHEMIST BLUE AREA
4.2(479)
Pharmacy ·  · KHYBER PLAZA, Street 30
Open ⋅ Closes 1 AM · +92 51 8444479",Pharmacy,Open,33.7089212,73.0553945,https://www.google.com/maps/place/D.WATSON+CHEMIST+BLUE+AREA/data=!4m7!3m6!1s0x38dfbfdef1cd8a4f:0xde203c5003893d3d!8m2!3d33.7089212!4d73.0553945!16s%2Fg%2F11sps_6svj!19sChIJT4rN8d6_3zgRPT2JA1A8IN4?authuser=0&hl=en&rclk=1,"Chemist, Islamabad"
46,dwatsonpharmacy_33.615468_73.138649,D.WATSON PHARMACY,"D.WATSON PHARMACY
3.9(151)
Pharmacy · Ghauri Town Phase 5-A, Plot 26,27 Zohaib Arcade
Open ⋅ Closes 1 AM · +92 51 2157564",Pharmacy,Open,33.6154682,73.1386485,https://www.google.com/maps/place/D.WATSON+PHARMACY/data=!4m7!3m6!1s0x38dfebb62483883d:0xb1a65ad42f50feac!8m2!3d33.6154682!4d73.1386485!16s%2Fg%2F11fp3vyj1x!19sChIJPYiDJLbr3zgRrP5QL9RaprE?authuser=0&hl=en&rclk=1,"Chemist, Islamabad"
47,dwatsonchemistg9mark_33.690286_73.030647,D. Watson Chemist G-9 Markaz,"D. Watson Chemist G-9 Markaz
4.0(228)
Pharmacy · Awami trade center، Shop 1-3, Awami Trade Center، basement Rohtas Rd
Open ⋅ Closes 12 AM · +92 51 2852211",Pharmacy,Open,33.690286,73.030647,https://www.google.com/maps/place/D.+Watson+Chemist+G-9+Markaz/data=!4m7!3m6!1s0x38dfbe30ef66402d:0xdd0133f59925ade8!8m2!3d33.690286!4d73.030647!16s%2Fg%2F11clygtz1t!19sChIJLUBm7zC-3zgR6K0lmfUzAd0?authuser=0&hl=en&rclk=1,"Chemist, Islamabad"
48,waheedchemistoptics_33.699121_73.048635,Waheed Chemist & Optics,"Waheed Chemist & Optics
4.3(113)
Pharmacy ·  · M2XX+JFR, Markaz Rd
Open ⋅ Closes 12 AM · +92 51 2260703",Pharmacy,Open,33.6991215,73.0486346,https://www.google.com/maps/place/Waheed+Chemist+%26+Optics/data=!4m7!3m6!1s0x38dfbfc9c4e9d999:0x4bc932adb5543879!8m2!3d33.6991215!4d73.0486346!16s%2Fg%2F1thf6ynt!19sChIJmdnpxMm_3zgReThUta0yyUs?authuser=0&hl=en&rclk=1,"Chemist, Islamabad"
49,shaheenchemist_33.729777_73.075132,Shaheen Chemist,"Shaheen Chemist
4.1(274)
Pharmacy · Super Market, School Rd
Open ⋅ Closes 1 AM · +92 51 2824759",Pharmacy,Open,33.7297769,73.0751324,https://www.google.com/maps/place/Shaheen+Chemist/data=!4m7!3m6!1s0x38dfbf775c83948d:0xcd706144fe5ecd02!8m2!3d33.7297769!4d73.0751324!16s%2Fg%2F1tcxbkzt!19sChIJjZSDXHe_3zgRAs1e_kRhcM0?authuser=0&hl=en&rclk=1,"Chemist, Islamabad"
50,dwatsonpharmacy_33.602030_73.158243,D Watson Pharmacy,"D Watson Pharmacy
4.3(45)
Pharmacy ·  · Greens, Business Avenue
Open ⋅ Closes 1 AM · +92 51 8447777",Pharmacy,Open,33.6020305,73.1582434,https://www.google.com/maps/place/D+Watson+Pharmacy/data=!4m7!3m6!1s0x38dfed62919c1b11:0x1020f964cd52fb13!8m2!3d33.6020305!4d73.1582434!16s%2Fg%2F11k9kfm7dj!19sChIJERuckWLt3zgRE_tSzWT5IBA?authuser=0&hl=en&rclk=1,"Chemist, Islamabad"
51,alsalehachemist_33.717340_73.083884,Al-Saleha Chemist,"Al-Saleha Chemist
4.4(48)
Pharmacy · Mir Trade Centre Municipal Rd Melody Market
Open ⋅ Closes 2 AM · +92 51 2206929",Pharmacy,Open,33.7173398,73.0838836,https://www.google.com/maps/place/Al-Saleha+Chemist/data=!4m7!3m6!1s0x38dfbf86478e504b:0x2ac5d879f889e640!8m2!3d33.7173398!4d73.0838836!16s%2Fg%2F12mk_3ds2!19sChIJS1COR4a_3zgRQOaJ-HnYxSo?authuser=0&hl=en&rclk=1,"Chemist, Islamabad"
52,dwatsonchemisti8mark_33.668171_73.074693,D.WATSON CHEMIST I-8 MARKAZ,"D.WATSON CHEMIST I-8 MARKAZ
3.7(131)
Drug store · Unnamed Road
Open ⋅ Closes 1 AM · +92 51 8487354",Drug store,Open,33.6681706,73.0746933,https://www.google.com/maps/place/D.WATSON+CHEMIST+I-8+MARKAZ/data=!4m7!3m6!1s0x38df9579dd566593:0x92538ca163347db6!8m2!3d33.6681706!4d73.0746933!16s%2Fg%2F11ftx5hjyn!19sChIJk2VW3XmV3zgRtn00Y6GMU5I?authuser=0&hl=en&rclk=1,"Chemist, Islamabad"
53,dlightpharmacy_33.708688_73.055937,D-Light Pharmacy,"D-Light Pharmacy
4.1(35)
Pharmacy · Khyber Plaza, AKM Fazl-ul-Haq Rd
Open 24 hours · +92 51 2347363",Pharmacy,Open 24 hours,33.7086875,73.0559375,https://www.google.com/maps/place/D-Light+Pharmacy/data=!4m7!3m6!1s0x38dfbfbba8ca80e1:0x73268a4d58e72ecc!8m2!3d33.7086875!4d73.0559375!16s%2Fg%2F11xhx58g4!19sChIJ4YDKqLu_3zgRzC7nWE2KJnM?authuser=0&hl=en&rclk=1,"Chemist, Islamabad"
54,dwatsoni10markaz_33.646627_73.036484,D Watson I-10 Markaz,"D Watson I-10 Markaz
4.2(236)
Pharmacy · Korang Road
Open ⋅ Closes 12 AM · +92 51 4867777",Pharmacy,Open,33.6466267,73.0364839,https://www.google.com/maps/place/D+Watson+I-10+Markaz/data=!4m7!3m6!1s0x38df95768b231e99:0x1058909df0ba869e!8m2!3d33.6466267!4d73.0364839!16s%2Fg%2F11hyhjjt07!19sChIJmR4ji3aV3zgRnoa68J2QWBA?authuser=0&hl=en&rclk=1,"Chemist, Islamabad"
55,najeebpharmacye113_33.703118_72.978995,Najeeb Pharmacy E-11/3,"Najeeb Pharmacy E-11/3
4.3(104)
Pharmacy · Paris Arcade street no 36 shop no 1, 23 Street 51
Open 24 hours · +92 51 2318039",Pharmacy,Open 24 hours,33.7031183,72.9789955,https://www.google.com/maps/place/Najeeb+Pharmacy+E-11%2F3/data=!4m7!3m6!1s0x38dfbdcfaea47527:0x559427a732cf0afd!8m2!3d33.7031183!4d72.9789955!16s%2Fg%2F12mkz7rp1!19sChIJJ3Wkrs-93zgR_QrPMqcnlFU?authuser=0&hl=en&rclk=1,"Chemist, Islamabad"
56,alnoorchemist_33.710495_73.039088,Al-Noor Chemist,"Al-Noor Chemist
4.7(21)
Pharmacy · Kashif Plaza, Shop 5, Block 4B, F-8 Markaz, F-8, Islamabad, ICT
Open ⋅ Closes 11 PM · +92 51 2260540",Pharmacy,Open,33.7104946,73.0390878,https://www.google.com/maps/place/Al-Noor+Chemist/data=!4m7!3m6!1s0x38dfbe52be050367:0x40e6e2f3ff1e8c17!8m2!3d33.7104946!4d73.0390878!16s%2Fg%2F11xnq96ms!19sChIJZwMFvlK-3zgRF4we__Pi5kA?authuser=0&hl=en&rclk=1,"Chemist, Islamabad"
57,medxpharmacy_33.706145_73.086526,Med-X Pharmacy,"Med-X Pharmacy
4.3(23)
Pharmacy ·  · Shop No. 04,05,06,07, Plot, 15 Khayaban-e-Suhrwardy
Open ⋅ Closes 12 AM · +92 323 9195951",Pharmacy,Open,33.7061451,73.0865264,https://www.google.com/maps/place/Med-X+Pharmacy/data=!4m7!3m6!1s0x38dfbfea444f8481:0x5e17929a83db3b3f!8m2!3d33.7061451!4d73.0865264!16s%2Fg%2F11mv_2ms0n!19sChIJgYRPROq_3zgRPzvbg5qSF14?authuser=0&hl=en&rclk=1,"Chemist, Islamabad"
58,luckypharmacy_33.675827_73.013755,Lucky Pharmacy,"Lucky Pharmacy
4.3(32)
Pharmacy · M2G7+8GJ, Bela Rd
Open ⋅ Closes 12 AM · +92 51 6133233",Pharmacy,Open,33.6758272,73.013755,https://www.google.com/maps/place/Lucky+Pharmacy/data=!4m7!3m6!1s0x38dfbe1e55cc2629:0xbe48580bba230d4b!8m2!3d33.6758272!4d73.013755!16s%2Fg%2F1tjff6h0!19sChIJKSbMVR6-3zgRSw0jugtYSL4?authuser=0&hl=en&rclk=1,"Chemist, Islamabad"
59,dwatsonchemistandsup_33.633688_72.922813,D.Watson Chemist and Superstore,"D.Watson Chemist and Superstore
3.8(69)
Pharmacy · 
Open ⋅ Closes 11:30 PM · +92 51 2743000",Pharmacy,Open,33.6336875,72.9228125,https://www.google.com/maps/place/D.Watson+Chemist+and+Superstore/data=!4m7!3m6!1s0x38df978527e3c1bf:0x81b1dd7c715931fd!8m2!3d33.6336875!4d72.9228125!16s%2Fg%2F11tp4j7plz!19sChIJv8HjJ4WX3zgR_TFZcXzdsYE?authuser=0&hl=en&rclk=1,"Chemist, Islamabad"
60,dwatsonchemistdhapha_33.531099_73.160096,D.WATSON CHEMIST DHA PHASE II,"D.WATSON CHEMIST DHA PHASE II
4.2(86)
Pharmacy · Building No, 42 Jinnah Boulevard
Open ⋅ Closes 1 AM · +92 51 6101287",Pharmacy,Open,33.5310994,73.1600957,https://www.google.com/maps/place/D.WATSON+CHEMIST+DHA+PHASE+II/data=!4m7!3m6!1s0x38dfed544626b4cb:0x66af4870aa1b7f46!8m2!3d33.5310994!4d73.1600957!16s%2Fg%2F11l28lnjl3!19sChIJy7QmRlTt3zgRRn8bqnBIr2Y?authuser=0&hl=en&rclk=1,"Chemist, Islamabad"
61,waltonpharmacyi10_33.648287_73.040510,Walton Pharmacy I-10,"Walton Pharmacy I-10
4.6(71)
Pharmacy · 
Open ⋅ Closes 12:30 AM · +92 300 6862448",Pharmacy,Open,33.6482869,73.0405098,https://www.google.com/maps/place/Walton+Pharmacy+I-10/data=!4m7!3m6!1s0x38df95a7621d61c5:0x5cdb1feeec3135ff!8m2!3d33.6482869!4d73.0405098!16s%2Fg%2F12mkzhz1l!19sChIJxWEdYqeV3zgR_zUx7O4f21w?authuser=0&hl=en&rclk=1,"Chemist, Islamabad"
62,ameerpharmacy_33.699184_73.048760,Ameer Pharmacy,"Ameer Pharmacy
4.1(11)
Pharmacy · Al-Abbas Plaza
Open ⋅ Closes 12 AM · +92 51 2253329",Pharmacy,Open,33.6991843,73.0487602,https://www.google.com/maps/place/Ameer+Pharmacy/data=!4m7!3m6!1s0x38dfbfc8e36d49b5:0x77d909ac723fbf43!8m2!3d33.6991843!4d73.0487602!16s%2Fg%2F12mkwb59z!19sChIJtUlt48i_3zgRQ78_cqwJ2Xc?authuser=0&hl=en&rclk=1,"Chemist, Islamabad"
63,shaheenchemist_33.692839_73.013923,Shaheen Chemist,"Shaheen Chemist
3.9(113)
Pharmacy · Shop No. 2, Capital Trade Center, Ground Floor، N#212 Street 54
Open ⋅ Closes 12 AM · +92 51 2809764",Pharmacy,Open,33.6928386,73.0139234,https://www.google.com/maps/place/Shaheen+Chemist/data=!4m7!3m6!1s0x38dfbe14fd8d43f9:0x321214ce436b5d55!8m2!3d33.6928386!4d73.0139234!16s%2Fg%2F11bz0xh2kx!19sChIJ-UON_RS-3zgRVV1rQ84UEjI?authuser=0&hl=en&rclk=1,"Chemist, Islamabad"
64,najeebpharmacye112_33.699954_72.972996,Najeeb pharmacy E-11/2,"Najeeb pharmacy E-11/2
4.2(111)
Pharmacy · Street 45 Khalid Bin Waleed Rd
Open 24 hours · +92 51 2318030",Pharmacy,Open 24 hours,33.699954,72.972996,https://www.google.com/maps/place/Najeeb+pharmacy+E-11%2F2/data=!4m7!3m6!1s0x38dfbd87d298706f:0x9e350756e7bd651!8m2!3d33.699954!4d72.972996!16s%2Fg%2F11jbhqr9pn!19sChIJb3CY0oe93zgRUdZ7bnVQ4wk?authuser=0&hl=en&rclk=1,"Chemist, Islamabad"
65,pakistanpharmacy_33.698845_73.048117,Pakistan Pharmacy,"Pakistan Pharmacy
4.0(50)
Pharmacy · M2XX+G6Q, Markaz Rd
Open 24 hours · +92 51 2340024",Pharmacy,Open 24 hours,33.6988446,73.0481168,https://www.google.com/maps/place/Pakistan+Pharmacy/data=!4m7!3m6!1s0x38dfbfc82d233bbf:0x39d93d1f9a4a5dd7!8m2!3d33.6988446!4d73.0481168!16s%2Fg%2F11clt0x6rw!19sChIJvzsjLci_3zgR111Kmh892Tk?authuser=0&hl=en&rclk=1,"Chemist, Islamabad"
66,najeebpharmacyf11_33.682952_72.988597,Najeeb Pharmacy F-11,"Najeeb Pharmacy F-11
3.9(74)
Pharmacy · Hilal Rd
Open 24 hours · +92 51 2107575",Pharmacy,Open 24 hours,33.6829517,72.9885966,https://www.google.com/maps/place/Najeeb+Pharmacy+F-11/data=!4m7!3m6!1s0x38dfbde37390bd13:0xd4af4a6d90ff22bf!8m2!3d33.6829517!4d72.9885966!16s%2Fg%2F11dxh_fcgd!19sChIJE72Qc-O93zgRvyL_kG1Kr9Q?authuser=0&hl=en&rclk=1,"Chemist, Islamabad"
67,shaheenchemistpwd_33.572482_73.147276,Shaheen Chemist PWD,"Shaheen Chemist PWD
4.1(78)
Pharmacy ·  · Main PWD Rd
Open ⋅ Closes 1 AM · +92 51 6102894",Pharmacy,Open,33.5724815,73.1472763,https://www.google.com/maps/place/Shaheen+Chemist+PWD/data=!4m7!3m6!1s0x38dfec45579177db:0xc5c0e954d8973d03!8m2!3d33.5724815!4d73.1472763!16s%2Fg%2F11hbspn4st!19sChIJ23eRV0Xs3zgRAz2X2FTpwMU?authuser=0&hl=en&rclk=1,"Chemist, Islamabad"
68,bspharmacyg15_33.633556_72.923162,B&S Pharmacy G-15,"B&S Pharmacy G-15
4.6(13)
Pharmacy ·  · Lower Ground, Khyber, St 4
Open ⋅ Closes 11:45 PM · +92 51 2304627",Pharmacy,Open,33.6335556,72.9231621,https://www.google.com/maps/place/B%26S+Pharmacy+G-15/data=!4m7!3m6!1s0x38df97bdfe3f7655:0xf28a30662b22ed44!8m2!3d33.6335556!4d72.9231621!16s%2Fg%2F11df3p69q5!19sChIJVXY__r2X3zgRRO0iK2YwivI?authuser=0&hl=en&rclk=1,"Chemist, Islamabad"
69,alrehmatpharmacy_33.571534_73.176391,Al Rehmat Pharmacy,"Al Rehmat Pharmacy
4.8(87)
Pharmacy · Liaquat Ave
Open ⋅ Closes 1 AM · +92 51 5964143",Pharmacy,Open,33.5715335,73.1763907,https://www.google.com/maps/place/Al+Rehmat+Pharmacy/data=!4m7!3m6!1s0x38dfed82750dcb3d:0x45406b3ce243d7f9!8m2!3d33.5715335!4d73.1763907!16s%2Fg%2F11sgqz0_d8!19sChIJPcsNdYLt3zgR-ddD4jxrQEU?authuser=0&hl=en&rclk=1,"Chemist, Islamabad"
70,elixirpharmacy_33.686032_73.045185,Elixir Pharmacy,"Elixir Pharmacy
4.7(30)
Pharmacy · service road E, Street 55
Open ⋅ Closes 12:30 AM · +92 51 2852691",Pharmacy,Open,33.6860324,73.0451853,https://www.google.com/maps/place/Elixir+Pharmacy/data=!4m7!3m6!1s0x38dfbfd2353d8099:0x616b83ccc7d09960!8m2!3d33.6860324!4d73.0451853!16s%2Fg%2F12mkz9kkh!19sChIJmYA9NdK_3zgRYJnQx8yDa2E?authuser=0&hl=en&rclk=1,"Chemist, Islamabad"
71,alaminpharmacy_33.668385_72.997243,Al-Amin pharmacy,"Al-Amin pharmacy
4.3(10)
Pharmacy · Shah Nawaz Plaza, Shop 4, Plot 11, Sachal Sarmast Rd, G-11 Markaz, G-11
Open ⋅ Closes 12 AM · +92 345 5106697",Pharmacy,Open,33.6683853,72.9972434,https://www.google.com/maps/place/Al-Amin+pharmacy/data=!4m7!3m6!1s0x38df95ff1b135e3f:0xc3e1750345a09710!8m2!3d33.6683853!4d72.9972434!16s%2Fg%2F1jkxntn5z!19sChIJP14TG_-V3zgREJegRQN14cM?authuser=0&hl=en&rclk=1,"Chemist, Islamabad"
72,hudsonchemist_33.684545_73.242737,Hudson Chemist,"Hudson Chemist
4.3(29)
Pharmacy · M6MV+R39, Ground floor,Allhussain Arcade
Open ⋅ Closes 11 PM · +92 333 5455535",Pharmacy,Open,33.6845454,73.2427366,https://www.google.com/maps/place/Hudson+Chemist/data=!4m7!3m6!1s0x38dfe9c3b89bee29:0x5d06ca7f8b8348fb!8m2!3d33.6845454!4d73.2427366!16s%2Fg%2F11n0j09jxt!19sChIJKe6buMPp3zgR-0iDi3_KBl0?authuser=0&hl=en&rclk=1,"Chemist, Islamabad"
73,medicentpharmacy_33.547459_73.136976,Medicent pharmacy,"Medicent pharmacy
5.0(17)
Pharmacy ·  · marina, Medicent plaza 44 bahria, Corniche Road
Open ⋅ Closes 10 PM · +92 331 5154484",Pharmacy,Open,33.5474591,73.1369761,https://www.google.com/maps/place/Medicent+pharmacy/data=!4m7!3m6!1s0x38dfed6f77ce6265:0x4d4e17a660f931b7!8m2!3d33.5474591!4d73.1369761!16s%2Fg%2F11q2x2phlw!19sChIJZWLOd2_t3zgRtzH5YKYXTk0?authuser=0&hl=en&rclk=1,"Chemist, Islamabad"
74,lemonpharmacycosmeti_33.684266_73.041694,Lemon Pharmacy Cosmetics,"Lemon Pharmacy Cosmetics
4.3(12)
Pharmacy ·  · I & T Center, STREET 55, BLOCK 44, SHOP 3
Open ⋅ Closes 12 AM · +92 51 2808026",Pharmacy,Open,33.6842663,73.0416941,https://www.google.com/maps/place/Lemon+Pharmacy+Cosmetics/data=!4m7!3m6!1s0x38dfbf0fa3c39f63:0xdad7cd0fe33cef88!8m2!3d33.6842663!4d73.0416941!16s%2Fg%2F11q1lwfy52!19sChIJY5_Dow-_3zgRiO884w_N19o?authuser=0&hl=en&rclk=1,"Chemist, Islamabad"
75,najeebpharmacyf10_33.697156_73.010837,Najeeb Pharmacy F-10,"Najeeb Pharmacy F-10
3.8(54)
Pharmacy · M2W6+X7G Najeeb pharmacy, near Jamil sweets
Open 24 hours · +92 51 2107676",Pharmacy,Open 24 hours,33.6971555,73.0108369,https://www.google.com/maps/place/Najeeb+Pharmacy+F-10/data=!4m7!3m6!1s0x38dfbf6a711a6eaf:0x651354b17b4ec5ef!8m2!3d33.6971555!4d73.0108369!16s%2Fg%2F11q20kp4c2!19sChIJr24acWq_3zgR78VOe7FUE2U?authuser=0&hl=en&rclk=1,"Chemist, Islamabad"
76,shaheenchemist_33.521095_73.104451,Shaheen Chemist,"Shaheen Chemist
3.2(154)
Pharmacy ·  · Shop #1, centre point 57, near DHA Bridge
Open ⋅ Closes 12 AM · +92 51 5411104",Pharmacy,Open,33.5210952,73.1044509,https://www.google.com/maps/place/Shaheen+Chemist/data=!4m7!3m6!1s0x38dfed5b6e66de5f:0x5efec1ab880d03ac!8m2!3d33.5210952!4d73.1044509!16s%2Fg%2F11b6gpxk1h!19sChIJX95mblvt3zgRrAMNiKvB_l4?authuser=0&hl=en&rclk=1,"Chemist, Islamabad"
77,akrampharmacy_33.699131_73.048754,Akram Pharmacy,"Akram Pharmacy
3.7(10)
Pharmacy · M2XX+MG2, Markaz Rd
Open ⋅ Closes 12 AM · +92 51 2255515",Pharmacy,Open,33.6991308,73.0487539,https://www.google.com/maps/place/Akram+Pharmacy/data=!4m7!3m6!1s0x38dfbfc9cfff69cb:0x73a185c16b1c689e!8m2!3d33.6991308!4d73.0487539!16s%2Fg%2F1pp2wxvzl!19sChIJy2n_z8m_3zgRnmgca8GFoXM?authuser=0&hl=en&rclk=1,"Chemist, Islamabad"
78,alkausardrugstore_33.729384_73.077039,Al-Kausar Drug Store,"Al-Kausar Drug Store
4.2(12)
Pharmacy · School Rd, F-6 Markaz, F-6
Open ⋅ Closes 10 PM · +92 51 8311550",Pharmacy,Open,33.729384,73.0770395,https://www.google.com/maps/place/Al-Kausar+Drug+Store/data=!4m7!3m6!1s0x38dfbf79c113c8e9:0x9864efa90d2f59cf!8m2!3d33.729384!4d73.0770395!16s%2Fg%2F12mkz8kq6!19sChIJ6cgTwXm_3zgRz1kvDanvZJg?authuser=0&hl=en&rclk=1,"Chemist, Islamabad"
79,yashfipharmacy_33.534917_73.170945,Yashfi Pharmacy,"Yashfi Pharmacy
4.2(19)
Pharmacy · J, Street 22
Open 24 hours · +92 301 7777322",Pharmacy,Open 24 hours,33.5349168,73.170945,https://www.google.com/maps/place/Yashfi+Pharmacy/data=!4m7!3m6!1s0x38dfed7ed509f95f:0x74266b74193cfc80!8m2!3d33.5349168!4d73.170945!16s%2Fg%2F11d_tls3hq!19sChIJX_kJ1X7t3zgRgPw8GXRrJnQ?authuser=0&hl=en&rclk=1,"Chemist, Islamabad"
80,barqpharmacy_33.653379_73.016353,BARQ PHARMACY,"BARQ PHARMACY
3.7(15)
Pharmacy · opposite PAEC General Hospital
Open ⋅ Closes 9 PM · +92 51 8912082",Pharmacy,Open,33.6533789,73.0163528,https://www.google.com/maps/place/BARQ+PHARMACY/data=!4m7!3m6!1s0x38df95d1b1880543:0x15a8311fae1353fe!8m2!3d33.6533789!4d73.0163528!16s%2Fg%2F11nwx7_yfv!19sChIJQwWIsdGV3zgR_lMTrh8xqBU?authuser=0&hl=en&rclk=1,"Chemist, Islamabad"
81,dwatsonchemistbahria_33.557806_73.135551,D.WATSON CHEMIST BAHRIA TOWN Phase VI,"D.WATSON CHEMIST BAHRIA TOWN Phase VI
4.0(89)
Pharmacy · Fortune Arcade, Central Ave
Open ⋅ Closes 12 AM · +92 51 8770603",Pharmacy,Open,33.5578057,73.1355507,https://www.google.com/maps/place/D.WATSON+CHEMIST+BAHRIA+TOWN+Phase+VI/data=!4m7!3m6!1s0x38dfed32b6cc9919:0x50774312c3f5baf6!8m2!3d33.5578057!4d73.1355507!16s%2Fg%2F11qy972ytb!19sChIJGZnMtjLt3zgR9rr1wxJDd1A?authuser=0&hl=en&rclk=1,"Chemist, Islamabad"
82,najeebpharmacyg134_33.650576_72.971680,Najeeb Pharmacy G-13/4,"Najeeb Pharmacy G-13/4
3.1(19)
Pharmacy · G, Punjab Market،, Street 138, G 13/4 Attique plaza, 13/4
Open 24 hours · +92 51 2154700",Pharmacy,Open 24 hours,33.6505764,72.9716796,https://www.google.com/maps/place/Najeeb+Pharmacy+G-13%2F4/data=!4m7!3m6!1s0x38df979d957a2937:0xd344abcd7ecc5815!8m2!3d33.6505764!4d72.9716796!16s%2Fg%2F11kj7106_1!19sChIJNyl6lZ2X3zgRFVjMfs2rRNM?authuser=0&hl=en&rclk=1,"Chemist, Islamabad"
83,medxpharmacy_33.669184_73.073893,Med-X Pharmacy,"Med-X Pharmacy
4.6(45)
Pharmacy
Open ⋅ Closes 12 AM · +92 51 4864549",Pharmacy,Open,33.6691844,73.0738928,https://www.google.com/maps/place/Med-X+Pharmacy/data=!4m7!3m6!1s0x38df954516816441:0x560ae8b79c72d0c8!8m2!3d33.6691844!4d73.0738928!16s%2Fg%2F11g6r24b36!19sChIJQWSBFkWV3zgRyNBynLfoClY?authuser=0&hl=en&rclk=1,"Chemist, Islamabad"
84,nuskhapharmacy_33.570889_73.176375,Nuskha Pharmacy,"Nuskha Pharmacy
4.9(32)
Pharmacy · Shop#3, Al Murtaza Arcade
Open ⋅ Closes 11 PM",Pharmacy,Open,33.5708893,73.1763747,https://www.google.com/maps/place/Nuskha+Pharmacy/data=!4m7!3m6!1s0x38dfed81ba6b577f:0xe247ccda061689ae!8m2!3d33.5708893!4d73.1763747!16s%2Fg%2F11hm5y3_mv!19sChIJf1druoHt3zgRrokWBtrMR-I?authuser=0&hl=en&rclk=1,"Chemist, Islamabad"
85,saifpharmacy_33.716254_73.084756,Saif Pharmacy,"Saif Pharmacy
4.6(11)
Pharmacy · Shop 13, Block, Melody Market, Mohammadia Plaza, 4 Municipal Rd
Open ⋅ Closes 12 AM · +92 51 2824550",Pharmacy,Open,33.7162539,73.0847562,https://www.google.com/maps/place/Saif+Pharmacy/data=!4m7!3m6!1s0x38dfbf87d3554575:0x9d4b969bd8e9c01a!8m2!3d33.7162539!4d73.0847562!16s%2Fg%2F12mkw809l!19sChIJdUVV04e_3zgRGsDp2JuWS50?authuser=0&hl=en&rclk=1,"Chemist, Islamabad"
86,newaleespharmacy_33.632070_72.921556,New Alees Pharmacy,"New Alees Pharmacy
4.8(74)
Pharmacy ·  · Nomi Arcade Main Road Number 1, Markaz
Open ⋅ Closes 12 AM · +92 51 2328292",Pharmacy,Open,33.6320702,72.9215562,https://www.google.com/maps/place/New+Alees+Pharmacy/data=!4m7!3m6!1s0x38df979610de2cbd:0xbba8e8063ed353f0!8m2!3d33.6320702!4d72.9215562!16s%2Fg%2F11cs0sfh8m!19sChIJvSzeEJaX3zgR8FPTPgboqLs?authuser=0&hl=en&rclk=1,"Chemist, Islamabad"
87,allatifpharmacy_33.530808_73.160573,Al Latif Pharmacy,"Al Latif Pharmacy
4.0(91)
Pharmacy · Plaza #29. Akhter Arcade, Jinnah Boulevard
Open ⋅ Closes 2 AM · +92 51 5418574",Pharmacy,Open,33.5308085,73.1605727,https://www.google.com/maps/place/Al+Latif+Pharmacy/data=!4m7!3m6!1s0x38dfedf47a226c2d:0x95be901a9c55c328!8m2!3d33.5308085!4d73.1605727!16s%2Fg%2F11j0h8t15f!19sChIJLWwievTt3zgRKMNVnBqQvpU?authuser=0&hl=en&rclk=1,"Chemist, Islamabad"
88,shaheenchemistgrocer_33.621218_73.146344,SHAHEEN CHEMIST & GROCERY,"SHAHEEN CHEMIST & GROCERY
3.5(26)
Pharmacy · town, Ghauri Town Phase 5-A Ghori, ph Street 5-A
Open ⋅ Closes 12:30 AM · +92 332 0510403",Pharmacy,Open,33.621218,73.1463441,https://www.google.com/maps/place/SHAHEEN+CHEMIST+%26+GROCERY/data=!4m7!3m6!1s0x38dfeb53d745ef57:0x156a3db5d6c91dbc!8m2!3d33.621218!4d73.1463441!16s%2Fg%2F11tfkjmn8m!19sChIJV-9F11Pr3zgRvB3J1rU9ahU?authuser=0&hl=en&rclk=1,"Chemist, Islamabad"
89,jansonspharmacy_33.699195_73.048790,Jan Sons Pharmacy,"Jan Sons Pharmacy
4.8(13)
Pharmacy ·  · Shop#5, Block#19 Allahdad Plaza
Open ⋅ Closes 11:30 PM · +92 51 8460951",Pharmacy,Open,33.6991951,73.0487896,https://www.google.com/maps/place/Jan+Sons+Pharmacy/data=!4m7!3m6!1s0x38dfbf1142179987:0x745bd2aa7a269aa9!8m2!3d33.6991951!4d73.0487896!16s%2Fg%2F11mwvv02_v!19sChIJh5kXQhG_3zgRqZomeqrSW3Q?authuser=0&hl=en&rclk=1,"Chemist, Islamabad"
90,accesspharmacy_33.667992_73.075569,Access Pharmacy,"Access Pharmacy
3.6(22)
Pharmacy · EOBI PLAZA
Open ⋅ Closes 3 AM · +92 333 5341516",Pharmacy,Open,33.6679917,73.0755688,https://www.google.com/maps/place/Access+Pharmacy/data=!4m7!3m6!1s0x38df95edf4a17003:0xcb59fc5738b60425!8m2!3d33.6679917!4d73.0755688!16s%2Fg%2F11hffw29c6!19sChIJA3Ch9O2V3zgRJQS2OFf8Wcs?authuser=0&hl=en&rclk=1,"Chemist, Islamabad"
91,alrehmanpharmacyandc_33.668497_72.997092,Al-rehman Pharmacy and Cosmetics,"Al-rehman Pharmacy and Cosmetics
4.2(24)
Pharmacy ·  · Shahnawaz Plaza، islamabad Shahnawaz Plaza، Markaz
Open ⋅ Closes 1 AM · +92 51 2363555",Pharmacy,Open,33.6684973,72.9970924,https://www.google.com/maps/place/Al-rehman+Pharmacy+and+Cosmetics/data=!4m7!3m6!1s0x38df95ff04a668bd:0xc13d1b35cee56117!8m2!3d33.6684973!4d72.9970924!16s%2Fg%2F1tfzkqdk!19sChIJvWimBP-V3zgRF2HlzjUbPcE?authuser=0&hl=en&rclk=1,"Chemist, Islamabad"
92,healerspharmacy_33.675555_73.013984,Healer's Pharmacy,"Healer's Pharmacy
3.4(9)
Pharmacy · M2G7+6HH
Open 24 hours · +92 51 2353592",Pharmacy,Open 24 hours,33.6755554,73.0139844,https://www.google.com/maps/place/Healer%27s+Pharmacy/data=!4m7!3m6!1s0x38dfbe1fad259199:0x8b2ef78e214e5f7e!8m2!3d33.6755554!4d73.0139844!16s%2Fg%2F11g8k8jwz9!19sChIJmZElrR--3zgRfl9OIY73Los?authuser=0&hl=en&rclk=1,"Chemist, Islamabad"
93,buttpharmacy_33.670378_73.105307,Butt Pharmacy,"Butt Pharmacy
4.3(4)
Pharmacy · M4C4+543
Open ⋅ Closes 11 PM · +92 51 2842331",Pharmacy,Open,33.6703782,73.1053073,https://www.google.com/maps/place/Butt+Pharmacy/data=!4m7!3m6!1s0x38dfeabbf84f109b:0x93f4b172b12f6241!8m2!3d33.6703782!4d73.1053073!16s%2Fg%2F11d_wn3dml!19sChIJmxBP-Lvq3zgRQWIvsXKx9JM?authuser=0&hl=en&rclk=1,"Chemist, Islamabad"
94,pharmapluspharmacy_33.708799_73.153966,Pharma Plus Pharmacy,"Pharma Plus Pharmacy
4.7(15)
Pharmacy · Jinnah Rd
Open ⋅ Closes 3 AM · +92 51 2612743",Pharmacy,Open,33.7087989,73.153966,https://www.google.com/maps/place/Pharma+Plus+Pharmacy/data=!4m7!3m6!1s0x38dfc12a89f1cedb:0xa8bedcd06649cd9e!8m2!3d33.7087989!4d73.153966!16s%2Fg%2F11g_x6m5sl!19sChIJ287xiSrB3zgRns1JZtDcvqg?authuser=0&hl=en&rclk=1,"Chemist, Islamabad"
95,taryaaqpharmacyhomed_33.677819_73.016847,"Taryaaq Pharmacy ( Home Delivery Available, WhatsApp your Prescription)","Taryaaq Pharmacy ( Home Delivery Available, WhatsApp your Prescription)
4.5(38)
Pharmacy · Basement Floor, Alfarooq Plaza, 8-9 Sawan Rd
Open ⋅ Closes 12 AM · +92 300 8556606",Pharmacy,Open,33.6778194,73.0168466,"https://www.google.com/maps/place/Taryaaq+Pharmacy+%28+Home+Delivery+Available,+WhatsApp+your+Prescription%29/data=!4m7!3m6!1s0x38dfbf00204ad2e3:0x838e13c6015a374f!8m2!3d33.6778194!4d73.0168466!16s%2Fg%2F11vs_00671!19sChIJ49JKIAC_3zgRTzdaAcYTjoM?authuser=0&hl=en&rclk=1","Chemist, Islamabad"
96,bilalchemist_33.540848_73.142401,Bilal Chemist,"Bilal Chemist
4.0(11)
Pharmacy · Service Rd
Open ⋅ Closes 10:30 PM · +92 312 5176189",Pharmacy,Open,33.540848,73.142401,https://www.google.com/maps/place/Bilal+Chemist/data=!4m7!3m6!1s0x38dfeda240b16ec3:0x754abf77fa049859!8m2!3d33.540848!4d73.142401!16s%2Fg%2F11cnm880zy!19sChIJw26xQKLt3zgRWZgE-ne_SnU?authuser=0&hl=en&rclk=1,"Chemist, Islamabad"
97,dwatsonchemistpwd_33.571423_73.145174,D.WATSON CHEMIST PWD,"D.WATSON CHEMIST PWD
4.0(366)
Pharmacy
Open ⋅ Closes 1 AM · +92 51 5156072",Pharmacy,Open,33.5714228,73.1451738,https://www.google.com/maps/place/D.WATSON+CHEMIST+PWD/data=!4m7!3m6!1s0x38dfec506d0f60b3:0xe1696b495c91df2e!8m2!3d33.5714228!4d73.1451738!16s%2Fg%2F11cnbxhnyz!19sChIJs2APbVDs3zgRLt-RXElraeE?authuser=0&hl=en&rclk=1,"Chemist, Islamabad"
98,tahirpharmacy_33.517177_73.084955,Tahir Pharmacy,"Tahir Pharmacy
4.3(43)
Pharmacy · AAA Riveria, Plot no 100 A, Springs Commercial, Quid Chowk Phase, 7
Open ⋅ Closes 3 AM · +92 51 8489915",Pharmacy,Open,33.5171766,73.0849554,https://www.google.com/maps/place/Tahir+Pharmacy/data=!4m7!3m6!1s0x38df932d2abbe5cd:0xd97b7356c94a6aa!8m2!3d33.5171766!4d73.0849554!16s%2Fg%2F11y35hyb9_!19sChIJzeW7Ki2T3zgRqqaUbDW3lw0?authuser=0&hl=en&rclk=1,"Chemist, Islamabad"
99,najeebchemist_33.690439_72.975109,Najeeb Chemist,"Najeeb Chemist
4.3(14)
Pharmacy ·  · Darbar Golra Sharif, Golra Rd
Open ⋅ Closes 11 PM · +92 51 2318030",Pharmacy,Open,33.6904389,72.9751094,https://www.google.com/maps/place/Najeeb+Chemist/data=!4m7!3m6!1s0x38dfbdc1f1191e61:0x1eca4fb2616d0a42!8m2!3d33.6904389!4d72.9751094!16s%2Fg%2F11c5rmnpcp!19sChIJYR4Z8cG93zgRQgptYbJPyh4?authuser=0&hl=en&rclk=1,"Chemist, Islamabad"
100,midwestchemist_33.679227_73.213411,Midwest Chemist,"Midwest Chemist
4.9(51)
Pharmacy · Midwest heights
Open ⋅ Closes 12 AM · +92 337 0660222",Pharmacy,Open,33.6792267,73.2134108,https://www.google.com/maps/place/Midwest+Chemist/data=!4m7!3m6!1s0x38dfe90017f09281:0x24a8ce940193f44c!8m2!3d33.6792267!4d73.2134108!16s%2Fg%2F11why6zs6x!19sChIJgZLwFwDp3zgRTPSTAZTOqCQ?authuser=0&hl=en&rclk=1,"Chemist, Islamabad"
101,chaudharypharmacy_33.643188_73.162063,Chaudhary Pharmacy,"Chaudhary Pharmacy
5.0(33)
Pharmacy
Open 24 hours · +92 312 5454067",Pharmacy,Open 24 hours,33.6431875,73.1620625,https://www.google.com/maps/place/Chaudhary+Pharmacy/data=!4m7!3m6!1s0x38dfebc90f88adf5:0x8ea80e8c6e40e066!8m2!3d33.6431875!4d73.1620625!16s%2Fg%2F11g9vlljlf!19sChIJ9a2ID8nr3zgRZuBAbowOqI4?authuser=0&hl=en&rclk=1,"Chemist, Islamabad"
102,zbpharmacy_33.570312_73.143651,ZB PHARMACY,"ZB PHARMACY
2.9(15)
Pharmacy · Main Double Rd
Open 24 hours · +92 312 5423333",Pharmacy,Open 24 hours,33.5703124,73.1436507,https://www.google.com/maps/place/ZB+PHARMACY/data=!4m7!3m6!1s0x38dfedd3f03cef4b:0xb42dfeb02506e0ff!8m2!3d33.5703124!4d73.1436507!16s%2Fg%2F11r97t0vjs!19sChIJS-888NPt3zgR_-AGJbD-LbQ?authuser=0&hl=en&rclk=1,"Chemist, Islamabad"
103,islamabdpharmapharma_33.658479_72.856157,ISLAMABD PHARMA PHARMACY & HEALTH CARE CENTRE,"ISLAMABD PHARMA PHARMACY & HEALTH CARE CENTRE
4.7(15)
Pharmacy ·  · MV43+W6C, Markaz Rd
Open ⋅ Closes 12 AM · +92 51 2766660",Pharmacy,Open,33.6584786,72.8561569,https://www.google.com/maps/place/ISLAMABD+PHARMA+PHARMACY+%26+HEALTH+CARE+CENTRE/data=!4m7!3m6!1s0x38dfa3cc982ead61:0xb70a1fe013f72e7f!8m2!3d33.6584786!4d72.8561569!16s%2Fg%2F11qn6v1m3h!19sChIJYa0umMyj3zgRfy73E-AfCrc?authuser=0&hl=en&rclk=1,"Chemist, Islamabad"
104,tahirpharmacy_33.686755_72.836336,Tahir Pharmacy,"Tahir Pharmacy
4.5(48)
Pharmacy · B17, Lower Ground, Ak hieghts, near Safa cafe, Mini Markaz
Open ⋅ Closes 12 AM · +92 322 8881025",Pharmacy,Open,33.6867549,72.8363361,https://www.google.com/maps/place/Tahir+Pharmacy/data=!4m7!3m6!1s0x38dfa362c046f3c1:0x68f3ed506b3659c3!8m2!3d33.6867549!4d72.8363361!16s%2Fg%2F11j1nh4946!19sChIJwfNGwGKj3zgRw1k2a1Dt82g?authuser=0&hl=en&rclk=1,"Chemist, Islamabad"
105,almuslimpharmacy_33.699772_72.973948,AL MUSLIM PHARMACY,"AL MUSLIM PHARMACY
4.4(22)
Pharmacy · Landmark Plaza, Street 44
Open ⋅ Closes 1:30 AM · +92 51 2304848",Pharmacy,Open,33.6997718,72.973948,https://www.google.com/maps/place/AL+MUSLIM+PHARMACY/data=!4m7!3m6!1s0x38dfbd9638ea9fe1:0xdd06728b47c38c8c!8m2!3d33.6997718!4d72.973948!16s%2Fg%2F11nnrwzdng!19sChIJ4Z_qOJa93zgRjIzDR4tyBt0?authuser=0&hl=en&rclk=1,"Chemist, Islamabad"
106,pillzpharmacy_33.601410_73.157091,Pillz Pharmacy,"Pillz Pharmacy
4.8(35)
Pharmacy · Samama Gulberg
Open ⋅ Closes 3 AM · +92 315 7290000",Pharmacy,Open,33.6014102,73.157091,https://www.google.com/maps/place/Pillz+Pharmacy/data=!4m7!3m6!1s0x38dfed146492fc11:0xe475381c143568c0!8m2!3d33.6014102!4d73.157091!16s%2Fg%2F11qq4dcy3w!19sChIJEfySZBTt3zgRwGg1FBw4deQ?authuser=0&hl=en&rclk=1,"Chemist, Islamabad"
107,zainabpharmacy_33.697083_73.051026,Zainab Pharmacy,"Zainab Pharmacy
4.3(14)
Pharmacy ·  · Medicine Plaza, M3W2+R86 Zainab Pharmacy, Markaz, opposite Hanna Road
Open ⋅ Closes 2 AM · +92 51 2340095",Pharmacy,Open,33.6970831,73.0510257,https://www.google.com/maps/place/Zainab+Pharmacy/data=!4m7!3m6!1s0x38dfbfc837750cd7:0x40185ab86a261347!8m2!3d33.6970831!4d73.0510257!16s%2Fg%2F11qn9s0_hn!19sChIJ1wx1N8i_3zgRRxMmarhaGEA?authuser=0&hl=en&rclk=1,"Chemist, Islamabad"
108,khadimalharmainpharm_33.551369_73.166542,Khadim Al Harmain Pharmacy and Clinic,"Khadim Al Harmain Pharmacy and Clinic
4.8(9)
Pharmacy · 8, Mini market, 7 Harmain plaza, Street 7
Open ⋅ Closes 11 PM · +92 325 5877754",Pharmacy,Open,33.5513688,73.1665421,https://www.google.com/maps/place/Khadim+Al+Harmain+Pharmacy+and+Clinic/data=!4m7!3m6!1s0x38dfedd53a1a3f29:0x6c3ebf4ea985ca1b!8m2!3d33.5513688!4d73.1665421!16s%2Fg%2F11lcdyxj0b!19sChIJKT8aOtXt3zgRG8qFqU6_Pmw?authuser=0&hl=en&rclk=1,"Chemist, Islamabad"
109,tmpharmacy_33.676061_73.014120,TM Pharmacy,"TM Pharmacy
4.6(13)
Pharmacy · Bela Rd
Open ⋅ Closes 12 AM · +92 322 4369794",Pharmacy,Open,33.6760611,73.0141201,https://www.google.com/maps/place/TM+Pharmacy/data=!4m7!3m6!1s0x38dfbe1fab03d88f:0x1d0176acb790f663!8m2!3d33.6760611!4d73.0141201!16s%2Fg%2F11d_8l_063!19sChIJj9gDqx--3zgRY_aQt6x2AR0?authuser=0&hl=en&rclk=1,"Chemist, Islamabad"
110,dwatsonb17islamabad_33.688033_72.829400,D. Watson B-17 Islamabad,"D. Watson B-17 Islamabad
3.7(47)
Pharmacy · PLOT B-17, Royal Signature
Open ⋅ Closes 12 AM · +92 51 8952106",Pharmacy,Open,33.688033,72.8293998,https://www.google.com/maps/place/D.+Watson+B-17+Islamabad/data=!4m7!3m6!1s0x38dfa3007fe35e95:0xcd0ef816be3f208f!8m2!3d33.688033!4d72.8293998!16s%2Fg%2F11ln4n0fdv!19sChIJlV7jfwCj3zgRjyA_vhb4Ds0?authuser=0&hl=en&rclk=1,"Chemist, Islamabad"
111,hameedpharmacy_33.711203_73.037854,Hameed Pharmacy,"Hameed Pharmacy
3.7(19)
Pharmacy · Shehnaz Plaza, Plot, 14-Y Johar Rd
Open ⋅ Closes 11 PM · +92 51 8485644",Pharmacy,Open,33.7112032,73.0378542,https://www.google.com/maps/place/Hameed+Pharmacy/data=!4m7!3m6!1s0x38dfbe52f0b9d443:0xc0f1f99b408a0586!8m2!3d33.7112032!4d73.0378542!16s%2Fg%2F11zbqqcbp!19sChIJQ9S58FK-3zgRhgWKQJv58cA?authuser=0&hl=en&rclk=1,"Chemist, Islamabad"
112,islamabadpharmacyand_33.658444_73.059370,Islamabad Pharmacy and cosmetics,"Islamabad Pharmacy and cosmetics
4.1(14)
Pharmacy · M355+9PH
Open ⋅ Closes 1 AM · +92 51 4858283",Pharmacy,Open,33.6584444,73.0593705,https://www.google.com/maps/place/Islamabad+Pharmacy+and+cosmetics/data=!4m7!3m6!1s0x38df95d26ade2037:0xc77648ee02e78735!8m2!3d33.6584444!4d73.0593705!16s%2Fg%2F11j9ckgl_f!19sChIJNyDeatKV3zgRNYfnAu5Idsc?authuser=0&hl=en&rclk=1,"Chemist, Islamabad"
113,royalchemistcosmetic_33.720976_73.058207,Royal Chemist & Cosmetics,"Royal Chemist & Cosmetics
2.7(3)
Pharmacy · Shop 10, Block 12E, Bhitai Rd, F-7 Markaz, F-7, Islamabad, ICT
+92 51 2650513",Pharmacy,,33.7209761,73.0582074,https://www.google.com/maps/place/Royal+Chemist+%26+Cosmetics/data=!4m7!3m6!1s0x38dfbfa732abd815:0x5480c509f80b5b87!8m2!3d33.7209761!4d73.0582074!16s%2Fg%2F11xfk3736!19sChIJFdirMqe_3zgRh1sL-AnFgFQ?authuser=0&hl=en&rclk=1,"Chemist, Islamabad"
114,familypharmacy_33.648063_72.966938,Family pharmacy,"Family pharmacy
4.7(70)
Pharmacy · No Street 122
Open ⋅ Closes 11 PM · +92 51 2154743",Pharmacy,Open,33.6480625,72.9669375,https://www.google.com/maps/place/Family+pharmacy/data=!4m7!3m6!1s0x38df975eac1095c3:0x245f8a07cece4dad!8m2!3d33.6480625!4d72.9669375!16s%2Fg%2F11fv3kgr6d!19sChIJw5UQrF6X3zgRrU3OzgeKXyQ?authuser=0&hl=en&rclk=1,"Chemist, Islamabad"
115,absonpharmacyandcosm_33.567698_73.154700,Abson Pharmacy and cosmetics,"Abson Pharmacy and cosmetics
5.0(6)
Pharmacy · H593+3VG, Soan Ave
Open ⋅ Closes 12 AM",Pharmacy,Open,33.5676975,73.1546995,https://www.google.com/maps/place/Abson+Pharmacy+and+cosmetics/data=!4m7!3m6!1s0x38dfed5402351e7b:0xd7d6bd8129fd52bd!8m2!3d33.5676975!4d73.1546995!16s%2Fg%2F11hh81jsr1!19sChIJex41AlTt3zgRvVL9KYG91tc?authuser=0&hl=en&rclk=1,"Chemist, Islamabad"
116,capitalpharmacy_33.684332_73.117902,Capital Pharmacy,"Capital Pharmacy
5.0(5)
Pharmacy · Shop no.1, Al sheikh plaza, Main market
Open ⋅ Closes 11 PM · +92 300 5405494",Pharmacy,Open,33.6843325,73.1179025,https://www.google.com/maps/place/Capital+Pharmacy/data=!4m7!3m6!1s0x38dfeb1bc7e0f1af:0xd75f3e612d580aa3!8m2!3d33.6843325!4d73.1179025!16s%2Fg%2F11jt8rnllr!19sChIJr_Hgxxvr3zgRowpYLWE-X9c?authuser=0&hl=en&rclk=1,"Chemist, Islamabad"
117,downtownpharmacyf10m_33.697556_73.011087,Downtown Pharmacy-F10 Markaz,"Downtown Pharmacy-F10 Markaz
4.7(15)
Pharmacy · Maroof International Hospital, Ground floor Insaf Plaza, Markaz, in front of Emergency gate
Open ⋅ Closes 11:30 PM · +92 51 4718632",Pharmacy,Open,33.6975565,73.0110871,https://www.google.com/maps/place/Downtown+Pharmacy-F10+Markaz/data=!4m7!3m6!1s0x38dfbf6e4b34e36f:0x2d77e7cffd434794!8m2!3d33.6975565!4d73.0110871!16s%2Fg%2F11kpld1lv0!19sChIJb-M0S26_3zgRlEdD_c_ndy0?authuser=0&hl=en&rclk=1,"Chemist, Islamabad"
118,medicalstore_33.693013_73.059032,Medical Store,"Medical Store
3.8(16)
Pharmacy · Khumrial Centre, St 22, G-8-4, G-8
+92 317 3824809",Pharmacy,,33.6930126,73.0590319,https://www.google.com/maps/place/Medical+Store/data=!4m7!3m6!1s0x38dfbfc377699507:0x342e468cb3703140!8m2!3d33.6930126!4d73.0590319!16s%2Fg%2F12mkzc9mg!19sChIJB5Vpd8O_3zgRQDFws4xGLjQ?authuser=0&hl=en&rclk=1,"Chemist, Islamabad"
119,fourstarpharmacy_33.723182_73.082577,Four Star Pharmacy,"Four Star Pharmacy
4.1(9)
Pharmacy · Hajveri Plaza, Shop 3, 22/B, Jinnah Ave, Block B, Blue Area
Open ⋅ Closes 9 PM · +92 51 2604410",Pharmacy,Open,33.7231815,73.0825768,https://www.google.com/maps/place/Four+Star+Pharmacy/data=!4m7!3m6!1s0x38dfbf817a7b076d:0x415a39da4d35351e!8m2!3d33.7231815!4d73.0825768!16s%2Fg%2F12mkw9q1x!19sChIJbQd7eoG_3zgRHjU1Tdo5WkE?authuser=0&hl=en&rclk=1,"Chemist, Islamabad"
120,leafcarepharmacy_33.688048_72.819609,Leaf Care Pharmacy,"Leaf Care Pharmacy
3.4(19)
Pharmacy · Ground Floor CPEC Arcade, B-1 Markaz, MR11
Open ⋅ Closes 12 AM · +92 332 9469093",Pharmacy,Open,33.6880477,72.8196093,https://www.google.com/maps/place/Leaf+Care+Pharmacy/data=!4m7!3m6!1s0x38dfa3c668748151:0xf8a30c3536061b02!8m2!3d33.6880477!4d72.8196093!16s%2Fg%2F11rd49fky6!19sChIJUYF0aMaj3zgRAhsGNjUMo_g?authuser=0&hl=en&rclk=1,"Chemist, Islamabad"
121,maroofpharmacy_33.697695_73.011966,Maroof Pharmacy,"Maroof Pharmacy
4.0(22)
Pharmacy ·  · M2X6+3QG
Open 24 hours · +92 330 5562211",Pharmacy,Open 24 hours,33.6976948,73.0119663,https://www.google.com/maps/place/Maroof+Pharmacy/data=!4m7!3m6!1s0x38dfbe6b9c5a62cb:0x89b72b1ef19008c4!8m2!3d33.6976948!4d73.0119663!16s%2Fg%2F11rvtj9qb!19sChIJy2JanGu-3zgRxAiQ8R4rt4k?authuser=0&hl=en&rclk=1,"Chemist, Islamabad"
122,sehatpharmacy_33.708742_73.055885,Sehat Pharmacy,"Sehat Pharmacy
4.5(2)
Pharmacy · Shop No 2, Khyber plaza 2, G-15 Markaz
Open 24 hours",Pharmacy,Open 24 hours,33.7087416,73.0558845,https://www.google.com/maps/place/Sehat+Pharmacy/data=!4m7!3m6!1s0x38dfbfe24755ca9d:0xe7d5e953f0389f92!8m2!3d33.7087416!4d73.0558845!16s%2Fg%2F11qp23_hc3!19sChIJncpVR-K_3zgRkp848FPp1ec?authuser=0&hl=en&rclk=1,"Chemist, Islamabad"
123,hfpharmacyandcosmeti_33.648753_73.223004,HF Pharmacy and Cosmetics,"HF Pharmacy and Cosmetics
4.9(10)
Pharmacy · J6XF+G62, Thanda Pani, Lehtrar Rd
Open ⋅ Closes 11 PM · +92 331 5800752",Pharmacy,Open,33.6487531,73.2230044,https://www.google.com/maps/place/HF+Pharmacy+and+Cosmetics/data=!4m7!3m6!1s0x38dfe9cfaa7478c1:0xa28823d5ade8fe64!8m2!3d33.6487531!4d73.2230044!16s%2Fg%2F11h4kwkqq0!19sChIJwXh0qs_p3zgRZP7ordUjiKI?authuser=0&hl=en&rclk=1,"Chemist, Islamabad"
124,binhayyanpharmacy_33.711728_73.038265,Bin-Hayyan Pharmacy,"Bin-Hayyan Pharmacy
4.1(10)
Pharmacy · Shop # 4,5 Ground Floor Pacific Centre
Open 24 hours · +92 51 2744703",Pharmacy,Open 24 hours,33.7117284,73.0382654,https://www.google.com/maps/place/Bin-Hayyan+Pharmacy/data=!4m7!3m6!1s0x38dfbfc3113d58b7:0x32f34621a2f075f0!8m2!3d33.7117284!4d73.0382654!16s%2Fg%2F11pv637z6g!19sChIJt1g9EcO_3zgR8HXwoiFG8zI?authuser=0&hl=en&rclk=1,"Chemist, Islamabad"
125,riteaidpharmacy_33.645053_72.963569,Rite Aid Pharmacy,"Rite Aid Pharmacy
4.7(31)
Pharmacy ·  · JXW7+2CG, Street 162
Open ⋅ Closes 12:30 AM · +92 370 1323084",Pharmacy,Open,33.6450527,72.9635692,https://www.google.com/maps/place/Rite+Aid+Pharmacy/data=!4m7!3m6!1s0x38df9638ada8b95f:0x6741133fc7dce4e!8m2!3d33.6450527!4d72.9635692!16s%2Fg%2F11c1p6gcd4!19sChIJX7morTiW3zgRTs59_DMRdAY?authuser=0&hl=en&rclk=1,"Chemist, Islamabad"
126,msonspharmacycosmeti_33.569274_73.201178,M.Son's Pharmacy & Cosmetics,"M.Son's Pharmacy & Cosmetics
4.4(13)
Pharmacy · Haramain Plaza, Street 2
Open ⋅ Closes 1 AM · +92 323 9519846",Pharmacy,Open,33.5692736,73.2011778,https://www.google.com/maps/place/M.Son%27s+Pharmacy+%26+Cosmetics/data=!4m7!3m6!1s0x38dfef5234154ad3:0xb4ef681a2607bf10!8m2!3d33.5692736!4d73.2011778!16s%2Fg%2F11t4wt6278!19sChIJ00oVNFLv3zgREL8HJhpo77Q?authuser=0&hl=en&rclk=1,"Chemist, Islamabad"
127,alrehaabpharmacy_33.729488_73.075132,Al Rehaab Pharmacy,"Al Rehaab Pharmacy
4.9(25)
Pharmacy · 1st floor,Plot # 11, Block B,F-6 markaz,super market
Open ⋅ Closes 11:30 PM · +92 51 2726922",Pharmacy,Open,33.7294881,73.075132,https://www.google.com/maps/place/Al+Rehaab+Pharmacy/data=!4m7!3m6!1s0x38dfbff6b9b935ff:0xee401f05d0875fd2!8m2!3d33.7294881!4d73.075132!16s%2Fg%2F11ss87l32f!19sChIJ_zW5ufa_3zgR0l-H0AUfQO4?authuser=0&hl=en&rclk=1,"Chemist, Islamabad"
128,iqbalpharmacy_33.650326_72.971394,Iqbal Pharmacy,"Iqbal Pharmacy
5.0(12)
Pharmacy · Street no 149 Sector
Open ⋅ Closes 10 PM · +92 51 2154555",Pharmacy,Open,33.6503265,72.9713936,https://www.google.com/maps/place/Iqbal+Pharmacy/data=!4m7!3m6!1s0x38df97faed5f8db3:0x13642958d3149faf!8m2!3d33.6503265!4d72.9713936!16s%2Fg%2F11nybj3ft9!19sChIJs41f7fqX3zgRr58U01gpZBM?authuser=0&hl=en&rclk=1,"Chemist, Islamabad"
129,maxmedicos_33.519897_73.087527,Max Medicos,"Max Medicos
4.1(25)
Pharmacy · North Commercial D, Bahria Expy
Open ⋅ Closes 12 AM · +92 300 8108329",Pharmacy,Open,33.5198966,73.0875268,https://www.google.com/maps/place/Max+Medicos/data=!4m7!3m6!1s0x38df935c0b4efdc1:0xcf9da349e10033f8!8m2!3d33.5198966!4d73.0875268!16s%2Fg%2F11qsslp18f!19sChIJwf1OC1yT3zgR-DMA4Umjnc8?authuser=0&hl=en&rclk=1,"Chemist, Islamabad"
130,hareempharmacy_33.717914_73.073233,HAREEM PHARMACY,"HAREEM PHARMACY
4.2(9)
Pharmacy · Office no 7 3rd floor, Aaly Plaza, SHOP#3 7th Ave
Open ⋅ Closes 11 PM · +92 51 2342225",Pharmacy,Open,33.7179145,73.0732333,https://www.google.com/maps/place/HAREEM+PHARMACY/data=!4m7!3m6!1s0x38dfbfed22817f69:0x84e8ffadb92c40f5!8m2!3d33.7179145!4d73.0732333!16s%2Fg%2F11h6v0ljw6!19sChIJaX-BIu2_3zgR9UAsua3_6IQ?authuser=0&hl=en&rclk=1,"Chemist, Islamabad"
131,dwatsonchemistbaraka_30.362957_68.996698,D.WATSON CHEMIST BARAKAHU,"D.WATSON CHEMIST BARAKAHU
4.0(233)
Cosmetics store
Open ⋅ Closes 11 PM · +92 51 8447777",Cosmetics store,Open,30.3629572,68.9966984,https://www.google.com/maps/place/D.WATSON+CHEMIST+BARAKAHU/data=!4m7!3m6!1s0x38dfc3d543f8b919:0x25d872698047210f!8m2!3d30.3629572!4d68.9966984!16s%2Fg%2F1yghd1d0q!19sChIJGbn4Q9XD3zgRDyFHgGly2CU?authuser=0&hl=en&rclk=1,"Chemist, Islamabad"
132,mrchemist_33.722150_73.036472,Mr Chemist,"Mr Chemist
4.5(4)
Pharmacy · Naval Shopping Center, 9 Street 24
Open 24 hours · +92 345 5932919",Pharmacy,Open 24 hours,33.7221502,73.0364724,https://www.google.com/maps/place/Mr+Chemist/data=!4m7!3m6!1s0x38dfbeff17400001:0x3440dd030b5f10fe!8m2!3d33.7221502!4d73.0364724!16s%2Fg%2F11c6szt63z!19sChIJAQBAF_--3zgR_hBfCwPdQDQ?authuser=0&hl=en&rclk=1,"Chemist, Islamabad"
133,citychemist_33.631982_73.123029,City Chemist,"City Chemist
3.0(2)
Pharmacy · Lehtrar Rd
Open ⋅ Closes 9 PM · +92 341 8044228",Pharmacy,Open,33.6319817,73.1230292,https://www.google.com/maps/place/City+Chemist/data=!4m7!3m6!1s0x38dfeb102988dac1:0x20ba92cd0e6a637c!8m2!3d33.6319817!4d73.1230292!16s%2Fg%2F11c6f0k0jm!19sChIJwdqIKRDr3zgRfGNqDs2SuiA?authuser=0&hl=en&rclk=1,"Chemist, Islamabad"
134,tahirpharmacy_33.658846_72.855427,Tahir Pharmacy,"Tahir Pharmacy
4.7(19)
Pharmacy · D17, Islamabad arcade, opposite family & children park, near zee mart
Open ⋅ Closes 12 AM · +92 324 8881025",Pharmacy,Open,33.6588456,72.8554266,https://www.google.com/maps/place/Tahir+Pharmacy/data=!4m7!3m6!1s0x38dfa322089a1111:0x3466a31d84dfb1be!8m2!3d33.6588456!4d72.8554266!16s%2Fg%2F11pkbm7kys!19sChIJERGaCCKj3zgRvrHfhB2jZjQ?authuser=0&hl=en&rclk=1,"Chemist, Islamabad"
135,chemist_33.693460_73.013790,Chemist,"Chemist
4.0(1)
Pharmacy · F-10 Markaz, F-10, Islamabad, ICT",Pharmacy,,33.69346,73.01379,https://www.google.com/maps/place/Chemist/data=!4m7!3m6!1s0x38dfbe14e1a8f4a9:0x3e6ca1a7ef566f75!8m2!3d33.69346!4d73.01379!16s%2Fg%2F11xlkt479!19sChIJqfSo4RS-3zgRdW9W76ehbD4?authuser=0&hl=en&rclk=1,"Chemist, Islamabad"
136,shaheenchemist_33.638509_73.044780,Shaheen Chemist,"Shaheen Chemist
5.0(1)
Pharmacy · J2QV+CW2, Al Hameed Plaza Kachahri Road Marir Hassan
Open now · +92 321 5000052",Pharmacy,Open now,33.6385088,73.0447802,https://www.google.com/maps/place/Shaheen+Chemist/data=!4m7!3m6!1s0x38df95ae9d03f4c7:0xce9e95549b78a82b!8m2!3d33.6385088!4d73.0447802!16s%2Fg%2F11h27mq36y!19sChIJx_QDna6V3zgRK6h4m1SVns4?authuser=0&hl=en&rclk=1,"Chemist, Islamabad"
137,chemistshop_33.672498_73.140788,Chemist Shop,"Chemist Shop
4.1(7)
Pharmacy · M4CR+X8V
Open ⋅ Closes 11 PM",Pharmacy,Open,33.6724976,73.1407877,https://www.google.com/maps/place/Chemist+Shop/data=!4m7!3m6!1s0x38dfea612cc0a4f3:0x8810363a4cac8434!8m2!3d33.6724976!4d73.1407877!16s%2Fg%2F11f_j30tj1!19sChIJ86TALGHq3zgRNISsTDo2EIg?authuser=0&hl=en&rclk=1,"Chemist, Islamabad"
138,bootspharmacygrocery_33.624677_72.972474,Boots Pharmacy Grocery Cosmetics,"Boots Pharmacy Grocery Cosmetics
3.7(61)
Pharmacy · Ground Floor، Jhangeer Multiplex, Main Peshawar Rd
Open ⋅ Closes 12 AM · +92 335 6110132",Pharmacy,Open,33.624677,72.9724735,https://www.google.com/maps/place/Boots+Pharmacy+Grocery+Cosmetics/data=!4m7!3m6!1s0x38df968a7826735f:0x83c4369dd147e77!8m2!3d33.624677!4d72.9724735!16s%2Fg%2F1hf4sg0zb!19sChIJX3MmeIqW3zgRd34U3WlDPAg?authuser=0&hl=en&rclk=1,"Chemist, Islamabad"
139,alsalehapharmacy_33.646455_73.036540,Al-Saleha Pharmacy,"Al-Saleha Pharmacy
3.9(17)
Pharmacy · J2WP+HJM, Sohni Rd
Open ⋅ Closes 11 PM · +92 51 4102892",Pharmacy,Open,33.6464547,73.0365396,https://www.google.com/maps/place/Al-Saleha+Pharmacy/data=!4m7!3m6!1s0x38df95eeae83fc47:0x9cd2d0acc8e4afd7!8m2!3d33.6464547!4d73.0365396!16s%2Fg%2F11fkqhl6nf!19sChIJR_yDru6V3zgR16_kyKzQ0pw?authuser=0&hl=en&rclk=1,"Chemist, Islamabad"
140,friendspharmacy_33.722708_73.082177,Friends Pharmacy,"Friends Pharmacy
4.2(5)
Pharmacy · Shop No. 1-A, Ground Floor, 21-E, Huma Plaza, AKM Fazl-ul-Haq Rd
Open ⋅ Closes 12 AM · +92 334 5162191",Pharmacy,Open,33.7227082,73.0821773,https://www.google.com/maps/place/Friends+Pharmacy/data=!4m7!3m6!1s0x38dfbff41f2bbd35:0xb5ac79fc46f8e529!8m2!3d33.7227082!4d73.0821773!16s%2Fg%2F11sk8cll0v!19sChIJNb0rH_S_3zgRKeX4Rvx5rLU?authuser=0&hl=en&rclk=1,"Chemist, Islamabad"
141,primepharmacyandopti_33.616125_73.137640,Prime Pharmacy AND Optics,"Prime Pharmacy AND Optics
4.4(20)
Pharmacy
Open ⋅ Closes 1 AM · +92 51 2157753",Pharmacy,Open,33.6161253,73.1376402,https://www.google.com/maps/place/Prime+Pharmacy+AND+Optics/data=!4m7!3m6!1s0x38dfeb6360957663:0x9a983bd031accae1!8m2!3d33.6161253!4d73.1376402!16s%2Fg%2F11h7c_5trx!19sChIJY3aVYGPr3zgR4cqsMdA7mJo?authuser=0&hl=en&rclk=1,"Chemist, Islamabad"
142,dwatsonchemist_33.526808_73.105582,D. Watson Chemist,"D. Watson Chemist
4.2(86)
Pharmacy · G4G4+P6G
Open ⋅ Closes 1 AM · +92 51 5138211",Pharmacy,Open,33.5268082,73.1055818,https://www.google.com/maps/place/D.+Watson+Chemist/data=!4m7!3m6!1s0x38dfed4389bb78fb:0xcad8a113b60da870!8m2!3d33.5268082!4d73.1055818!16s%2Fg%2F11c531ssnd!19sChIJ-3i7iUPt3zgRcKgNthOh2Mo?authuser=0&hl=en&rclk=1,"Chemist, Islamabad"
143,dwatsonchemists_33.637461_73.063176,D. Watson Chemists,"D. Watson Chemists
4.1(194)
Pharmacy · Shop # 7, 8, 9. Al-Hamra Center, Haidri Chowk, Saidpur Rd
Open ⋅ Closes 12 AM · +92 51 4581001",Pharmacy,Open,33.6374611,73.0631763,https://www.google.com/maps/place/D.+Watson+Chemists/data=!4m7!3m6!1s0x38df951fe5f6aefd:0xeced00be676eaabf!8m2!3d33.6374611!4d73.0631763!16s%2Fg%2F12hl93k6y!19sChIJ_a725R-V3zgRv6puZ74A7ew?authuser=0&hl=en&rclk=1,"Chemist, Islamabad"
144,kashmirpharmacy_33.698987_73.048552,Kashmir Pharmacy,"Kashmir Pharmacy
3.4(13)
Pharmacy · Shop No. 2-B, Allah Dad Plaza
Open ⋅ Closes 12 AM",Pharmacy,Open,33.6989867,73.0485523,https://www.google.com/maps/place/Kashmir+Pharmacy/data=!4m7!3m6!1s0x38dfbf9c82035137:0xf2b6a4a86adcacdf!8m2!3d33.6989867!4d73.0485523!16s%2Fg%2F11nfw45qpq!19sChIJN1EDgpy_3zgR36zcaqiktvI?authuser=0&hl=en&rclk=1,"Chemist, Islamabad"
145,medzonepharmacy_33.702706_72.948077,Medzone Pharmacy,"Medzone Pharmacy
4.6(20)
Pharmacy · shop no 5, centre plaza, 6
Open 24 hours · +92 331 5552205",Pharmacy,Open 24 hours,33.7027065,72.9480772,https://www.google.com/maps/place/Medzone+Pharmacy/data=!4m7!3m6!1s0x38dfbd4d8c3bd489:0xf1d8e354c815db77!8m2!3d33.7027065!4d72.9480772!16s%2Fg%2F11vpy2vrvz!19sChIJidQ7jE293zgRd9sVyFTj2PE?authuser=0&hl=en&rclk=1,"Chemist, Islamabad"
1,na_noloc,,,,,,,,"Chemist, Islamabad"
5,dwatsonchemistf11mar_33.683312_72.989063,D.WATSON CHEMIST F-11 MARKAZ,,Pharmacy,Open,33.6833125,72.9890625,https://www.google.com/maps/place/D.WATSON+CHEMIST+F-11+MARKAZ/data=!4m7!3m6!1s0x38dfbde30aaec387:0x63e245b47f3a883d!8m2!3d33.6833125!4d72.9890625!16s%2Fg%2F1tdj2l7b!19sChIJh8OuCuO93zgRPYg6f7RF4mM?authuser=0&hl=en&rclk=1,"Chemist, Islamabad"
37,dwatsonchemistf10mar_33.696252_73.012942,D. Watson Chemist F-10 Markaz,"D. Watson Chemist F-10 Markaz
4.1(415)
Pharmacy ·  · Street 7D
Open ⋅ Closes 12 AM · +92 51 2215784",Pharmacy,Open,33.6962516,73.0129417,https://www.google.com/maps/place/D.+Watson+Chemist+F-10+Markaz/data=!4m7!3m6!1s0x38dfbe6b158ee389:0x252aaeebe811707c!8m2!3d33.6962516!4d73.0129417!16s%2Fg%2F11dymm56c8!19sChIJieOOFWu-3zgRfHAR6OuuKiU?authuser=0&hl=en&rclk=1,"Chemist, Islamabad"
38,dwatsonchemistf6mark_33.729701_73.075424,D.WATSON CHEMIST F-6 MARKAZ,"D.WATSON CHEMIST F-6 MARKAZ
4.3(255)
Pharmacy ·  · P3HG+W53, School Rd
Open ⋅ Closes 1 AM · +92 51 8438111",Pharmacy,Open,33.7297008,73.0754236,https://www.google.com/maps/place/D.WATSON+CHEMIST+F-6+MARKAZ/data=!4m7!3m6!1s0x38dfbf775cc17be5:0xbe2ed3739e338621!8m2!3d33.7297008!4d73.0754236!16s%2Fg%2F1wcxbgb2!19sChIJ5XvBXHe_3zgRIYYznnPTLr4?authuser=0&hl=en&rclk=1,"Chemist, Islamabad"
39,shaheenchemistcosmet_33.708933_73.055365,Shaheen Chemist & Cosmetics,"Shaheen Chemist & Cosmetics
4.1(113)
Pharmacy ·  · Din Pavallions Plaza, Jinnah Ave
Open ⋅ Closes 12 AM · +92 333 7805798",Pharmacy,Open,33.7089326,73.0553648,https://www.google.com/maps/place/Shaheen+Chemist+%26+Cosmetics/data=!4m7!3m6!1s0x38dfbfbbab763b39:0xa0a5678fb3810fb0!8m2!3d33.7089326!4d73.0553648!16s%2Fg%2F1td4snhq!19sChIJOTt2q7u_3zgRsA-Bs49npaA?authuser=0&hl=en&rclk=1,"Chemist, Islamabad"
40,shaheenchemist_33.699194_73.048815,Shaheen Chemist,"Shaheen Chemist
4.1(89)
Pharmacy · Allah Dad Plaza, Markaz Rd
Open ⋅ Closes 1 AM · +92 51 2252215",Pharmacy,Open,33.6991939,73.0488153,https://www.google.com/maps/place/Shaheen+Chemist/data=!4m7!3m6!1s0x38dfbfc9d1ce94e1:0x549deca7538bcd9e!8m2!3d33.6991939!4d73.0488153!16s%2Fg%2F1tp06gtr!19sChIJ4ZTO0cm_3zgRns2LU6fsnVQ?authuser=0&hl=en&rclk=1,"Chemist, Islamabad"
41,shaheenchemist_33.669321_73.000151,Shaheen Chemist,"Shaheen Chemist
4.2(1,107)
Pharmacy ·  · M292+P3C
Open ⋅ Closes 1 AM · +92 51 2360246",Pharmacy,Open,33.6693209,73.0001512,https://www.google.com/maps/place/Shaheen+Chemist/data=!4m7!3m6!1s0x38df95f8db82c109:0x9cfd1bc97169daeb!8m2!3d33.6693209!4d73.0001512!16s%2Fg%2F11f2wmbkpl!19sChIJCcGC2_iV3zgR69ppcckb_Zw?authuser=0&hl=en&rclk=1,"Chemist, Islamabad"
42,shaheenchemisti8mark_33.667365_73.075329,Shaheen Chemist I-8 Markaz,"Shaheen Chemist I-8 Markaz
4.3(1,255)
Pharmacy ·  · Time Square Plaza
Open ⋅ Closes 1 AM · +92 51 4938118",Pharmacy,Open,33.6673652,73.0753292,https://www.google.com/maps/place/Shaheen+Chemist+I-8+Markaz/data=!4m7!3m6!1s0x38df95458e97813f:0xb5f0722222b74857!8m2!3d33.6673652!4d73.0753292!16s%2Fg%2F11bzrgc0_c!19sChIJP4GXjkWV3zgRV0i3IiJy8LU?authuser=0&hl=en&rclk=1,"Chemist, Islamabad"
43,shaheenchemist_33.683349_72.988874,Shaheen Chemist,"Shaheen Chemist
4.2(191)
Pharmacy ·  · Ground Floor, Hassan arcade
Open ⋅ Closes 2 AM · +92 51 2228011",Pharmacy,Open,33.6833491,72.9888739,https://www.google.com/maps/place/Shaheen+Chemist/data=!4m7!3m6!1s0x38dfbde3a00b995b:0x6561a4a3c97a82bf!8m2!3d33.6833491!4d72.9888739!16s%2Fg%2F1ts_4zqh!19sChIJW5kLoOO93zgRv4J6yaOkYWU?authuser=0&hl=en&rclk=1,"Chemist, Islamabad"
44,dwatsonchemist_33.645820_72.964309,D-Watson Chemist,"D-Watson Chemist
3.8(157)
Pharmacy · 
Open ⋅ Closes 12 AM · +92 51 2306848",Pharmacy,Open,33.6458197,72.9643094,https://www.google.com/maps/place/D-Watson+Chemist/data=!4m7!3m6!1s0x38df976883796ebd:0x8349d9eb40d9411!8m2!3d33.6458197!4d72.9643094!16s%2Fg%2F11j0brb027!19sChIJvW55g2iX3zgREZQNtJ6dNAg?authuser=0&hl=en&rclk=1,"Chemist, Islamabad"
45,dwatsonchemistbluear_33.708921_73.055395,D.WATSON CHEMIST BLUE AREA,"D.WATSON CHEMIST BLUE AREA
4.2(479)
Pharmacy ·  · KHYBER PLAZA, Street 30
Open ⋅ Closes 1 AM · +92 51 8444479",Pharmacy,Open,33.7089212,73.0553945,https://www.google.com/maps/place/D.WATSON+CHEMIST+BLUE+AREA/data=!4m7!3m6!1s0x38dfbfdef1cd8a4f:0xde203c5003893d3d!8m2!3d33.7089212!4d73.0553945!16s%2Fg%2F11sps_6svj!19sChIJT4rN8d6_3zgRPT2JA1A8IN4?authuser=0&hl=en&rclk=1,"Chemist, Islamabad"
