Index,Place Id,Name,Address,Category,Status,Latitude,Longitude,Link,SearchKeyword
1,na_noloc,,,,,,,,"Clanic, Islamabad"
5,islamabadspecialistc_33.696991_73.051271,Islamabad Specialist Clinic G-8 Markaz Islamabad,,Medical clinic,Open,33.6969906,73.0512707,https://www.google.com/maps/place/Islamabad+Specialist+Clinic+G-8+Markaz+Islamabad/data=!4m7!3m6!1s0x38dfbf6482f6aa81:0xae209a86fda47a8b!8m2!3d33.6969906!4d73.0512707!16s%2Fg%2F11hf72mc2q!19sChIJgar2gmS_3zgRi3qk_YaaIK4?authuser=0&hl=en&rclk=1,"Clanic, Islamabad"
37,drajmalosmanfatimacl_33.688607_73.013056,Dr. Ajmal Osman | Fatima Clinic F-10 | Top/Best (No.1) Specialist of Islamabad & Rawalpindi,"Dr. Ajmal Osman | Fatima Clinic F-10 | Top/Best (No.1) Specialist of Islamabad & Rawalpindi
4.8(184)
Hospital ·  · House 93 Street 44
Open ⋅ Closes 12 AM · +92 323 6833333",Hospital,Open,33.6886072,73.013056,https://www.google.com/maps/place/Dr.+Ajmal+Osman+%7C+Fatima+Clinic+F-10+%7C+Top%2FBest+%28No.1%29+Specialist+of+Islamabad+%26+Rawalpindi/data=!4m7!3m6!1s0x38dfbe1693dca1a1:0x4d05249fbcd133d5!8m2!3d33.6886072!4d73.013056!16s%2Fg%2F11fxx64hvf!19sChIJoaHckxa-3zgR1TPRvJ8kBU0?authuser=0&hl=en&rclk=1,"Clanic, Islamabad"
38,hmdiagnosticsandclin_33.698479_73.048750,HM Diagnostics and Clinics,"HM Diagnostics and Clinics
4.8(213)
Medical clinic · Basement shop no. 11 & 12 Crescent Arcade, Road
Open ⋅ Closes 10 PM · +92 321 5199295",Medical clinic,Open,33.6984794,73.0487497,https://www.google.com/maps/place/HM+Diagnostics+and+Clinics/data=!4m7!3m6!1s0x38dfbfd2f102e0f9:0x3e7c6653ba9236fd!8m2!3d33.6984794!4d73.0487497!16s%2Fg%2F11jx6jbvnp!19sChIJ-eAC8dK_3zgR_TaSulNmfD4?authuser=0&hl=en&rclk=1,"Clanic, Islamabad"
39,lelotuscliniquetopsk_33.706189_73.037792,Le Lotus Clinique - Top Skin Care Clinic in Islamabad,"Le Lotus Clinique - Top Skin Care Clinic in Islamabad
4.8(793)
Dermatologist · Besides Studio M & Kitchen Cuisine Restaurant, Allah Wali Market, 1 Street 33
Open ⋅ Closes 7 PM · +92 318 5457381",Dermatologist,Open,33.7061886,73.0377925,https://www.google.com/maps/place/Le+Lotus+Clinique+-+Top+Skin+Care+Clinic+in+Islamabad/data=!4m7!3m6!1s0x38dfbf08effa8d9f:0xa430311967c12e8f!8m2!3d33.7061886!4d73.0377925!16s%2Fg%2F11r2rnrl71!19sChIJn4367wi_3zgRjy7BZxkxMKQ?authuser=0&hl=en&rclk=1,"Clanic, Islamabad"
40,alfatimaclinicislama_33.716399_73.084738,"Al fatima Clinic, islamabad","Al fatima Clinic, islamabad
3.7(26)
Medical Center ·  · Ground Floor, Melody Market, Islamabad Medical and Surgical Centre
Open 24 hours · +92 336 2824124",Medical Center,Open 24 hours,33.7163989,73.0847375,"https://www.google.com/maps/place/Al+fatima+Clinic,+islamabad/data=!4m7!3m6!1s0x38dfbf7c8641b7cf:0x1713a8999cc921b!8m2!3d33.7163989!4d73.0847375!16s%2Fg%2F11sjrnmzyv!19sChIJz7dBhny_3zgRG5LMmYk6cQE?authuser=0&hl=en&rclk=1","Clanic, Islamabad"
41,islamabadfamilyclini_33.642228_73.127788,Islamabad Family Clinic,"Islamabad Family Clinic
5.0(24)
Health consultant · Gardyzi colony, Barma
Open ⋅ Closes 10 PM · +92 323 5555082",Health consultant,Open,33.642228,73.1277884,https://www.google.com/maps/place/Islamabad+Family+Clinic/data=!4m7!3m6!1s0x38dfeb43850c74e3:0xce7e92b616b34742!8m2!3d33.642228!4d73.1277884!16s%2Fg%2F11qg6616pd!19sChIJ43QMhUPr3zgRQkezFraSfs4?authuser=0&hl=en&rclk=1,"Clanic, Islamabad"
42,lelotuscliniqueskinc_33.530342_73.133320,Le Lotus Clinique - Skin Care Clinic in Islamabad,"Le Lotus Clinique - Skin Care Clinic in Islamabad
4.9(708)
Skin care clinic ·  · Crystal Heights Plaza # 14 Bank Al Habib Building, G.T. Rd
Open ⋅ Closes 7 PM · +92 335 5181166",Skin care clinic,Open,33.5303419,73.1333203,https://www.google.com/maps/place/Le+Lotus+Clinique+-+Skin+Care+Clinic+in+Islamabad/data=!4m7!3m6!1s0x38dfed2bebf3dc4f:0x31619be77520b7d7!8m2!3d33.5303419!4d73.1333203!16s%2Fg%2F11g0dgv39c!19sChIJT9zz6yvt3zgR17cgdeebYTE?authuser=0&hl=en&rclk=1,"Clanic, Islamabad"
43,graceinternationalho_33.663460_72.887963,Grace International Hospital Islamabad,"Grace International Hospital Islamabad
2.8(46)
Hospital · 
Open 24 hours · +92 301 5710777",Hospital,Open 24 hours,33.6634596,72.8879628,https://www.google.com/maps/place/Grace+International+Hospital+Islamabad/data=!4m7!3m6!1s0x38dfa3e8224f80f1:0x89bea84f88237fda!8m2!3d33.6634596!4d72.8879628!16s%2Fg%2F11lg2nf5v3!19sChIJ8YBPIuij3zgR2n8jiE-ovok?authuser=0&hl=en&rclk=1,"Clanic, Islamabad"
44,islamabadentcenterpv_33.697989_73.048847,"Islamabad ENT Center-Pvt.Ltd"" (Rhinoplasty) Ear, Nose, Throat Specialist's, Surgeon's","Islamabad ENT Center-Pvt.Ltd"" (Rhinoplasty) Ear, Nose, Throat Specialist's, Surgeon's
4.8(186)
Otolaryngology clinic ·  · officia 20 Ground Floor, executive Complex, Back Side PSO Pump, Markaz, near TCS Office
Open ⋅ Closes 9 PM · +92 342 4512784",Otolaryngology clinic,Open,33.6979885,73.0488475,"https://www.google.com/maps/place/Islamabad+ENT+Center-Pvt.Ltd%22+%28Rhinoplasty%29+Ear,+Nose,+Throat+Specialist%27s,+Surgeon%27s/data=!4m7!3m6!1s0x38dfbfbf21ad4751:0xd3a073468163936!8m2!3d33.6979885!4d73.0488475!16s%2Fg%2F11mwys_dgl!19sChIJUUetIb-_3zgRNjkWaDQHOg0?authuser=0&hl=en&rclk=1","Clanic, Islamabad"
45,avicennaclinic_33.710497_73.038990,Avicenna Clinic,"Avicenna Clinic
5.0(4)
Medical clinic ·  · Khasif Plaza, Parking, offJohar Road
Open ⋅ Closes 11 PM · +92 51 8448474",Medical clinic,Open,33.7104968,73.03899,https://www.google.com/maps/place/Avicenna+Clinic/data=!4m7!3m6!1s0x38dfbfae8c8e2981:0xabae6ce0c269947!8m2!3d33.7104968!4d73.03899!16s%2Fg%2F11fn242f7y!19sChIJgSmOjK6_3zgRR5kmDM7mugo?authuser=0&hl=en&rclk=1,"Clanic, Islamabad"
46,drsamanwaseembestder_33.722529_73.060211,DR SAMAN WASEEM | Best Dermatologist in Islamabad | Best Skin Specialist | Best Laser Clinic | Derma Bliss,"DR SAMAN WASEEM | Best Dermatologist in Islamabad | Best Skin Specialist | Best Laser Clinic | Derma Bliss
4.8(245)
Skin care clinic · Jinnah Super Market, Shop 8-13, Lower Ground Floor PAKLAND Trade Center, next to Bareeze
Open ⋅ Closes 7 PM · +92 302 8866556",Skin care clinic,Open,33.7225293,73.0602112,https://www.google.com/maps/place/DR+SAMAN+WASEEM+%7C+Best+Dermatologist+in+Islamabad+%7C+Best+Skin+Specialist+%7C+Best+Laser+Clinic+%7C+Derma+Bliss/data=!4m7!3m6!1s0x38dfbfa0c6ba1861:0x8fc387a7941089ad!8m2!3d33.7225293!4d73.0602112!16s%2Fg%2F11g9s_9px0!19sChIJYRi6xqC_3zgRrYkQlKeHw48?authuser=0&hl=en&rclk=1,"Clanic, Islamabad"
47,dynamicclinicislamab_33.723608_73.057472,Dynamic Clinic islamabad,"Dynamic Clinic islamabad
4.9(13)
Skin care clinic · Ammar Center F-7 Markaz, ISB, Markaz
Open ⋅ Closes 8 PM · +92 51 2656491",Skin care clinic,Open,33.7236077,73.0574718,https://www.google.com/maps/place/Dynamic+Clinic+islamabad/data=!4m7!3m6!1s0x85421ccf8a220589:0xa82247ac8dd20281!8m2!3d33.7236077!4d73.0574718!16s%2Fg%2F11m5qjw5mr!19sChIJiQUiis8cQoURgQLSjaxHIqg?authuser=0&hl=en&rclk=1,"Clanic, Islamabad"
48,imranzcliniccertifie_33.669177_73.075760,Imranz Clinic - Certified Sexologist in Islamabad & Rawalpindi,"Imranz Clinic - Certified Sexologist in Islamabad & Rawalpindi
4.6(50)
Sexologist · Suite No 9, 1st Floor, Twin City Center, Markaz
Open ⋅ Closes 6 PM · +92 311 1120007",Sexologist,Open,33.669177,73.0757595,https://www.google.com/maps/place/Imranz+Clinic+-+Certified+Sexologist+in+Islamabad+%26+Rawalpindi/data=!4m7!3m6!1s0x38df950c11db12d9:0x1787f93aaf3c430a!8m2!3d33.669177!4d73.0757595!16s%2Fg%2F11v42p5h26!19sChIJ2RLbEQyV3zgRCkM8rzr5hxc?authuser=0&hl=en&rclk=1,"Clanic, Islamabad"
49,draasmatayyabkhanisl_33.715395_73.054802,DR AASMA TAYYAB KHAN - Islamabad laser and skin clinic | Best dermatologist in Islamabad | Best laser clinic,"DR AASMA TAYYAB KHAN - Islamabad laser and skin clinic | Best dermatologist in Islamabad | Best laser clinic
4.9(927)
Dermatologist · Faisal Market، plot 6, first floor, Islamabad Laser and Skin Clinic Al-Sheikh Plaza
Open ⋅ Closes 5 PM · +92 331 5005904",Dermatologist,Open,33.7153949,73.0548025,https://www.google.com/maps/place/DR+AASMA+TAYYAB+KHAN+-+Islamabad+laser+and+skin+clinic+%7C+Best+dermatologist+in+Islamabad+%7C+Best+laser+clinic/data=!4m7!3m6!1s0x38dfbf719ba93491:0xae95545bd08cc6f5!8m2!3d33.7153949!4d73.0548025!16s%2Fg%2F11s_s620p9!19sChIJkTSpm3G_3zgR9caM0FtUla4?authuser=0&hl=en&rclk=1,"Clanic, Islamabad"
50,zobiahospitalg9islam_33.677978_73.030205,Zobia Hospital G-9 Islamabad,"Zobia Hospital G-9 Islamabad
3.5(103)
Hospital ·  · Street 30
Open 24 hours · +92 51 2261130",Hospital,Open 24 hours,33.6779776,73.0302046,https://www.google.com/maps/place/Zobia+Hospital+G-9+Islamabad/data=!4m7!3m6!1s0x38dfbf80a2b451a5:0x316fd483f145e55d!8m2!3d33.6779776!4d73.0302046!16s%2Fg%2F11h336n5v0!19sChIJpVG0ooC_3zgRXeVF8YPUbzE?authuser=0&hl=en&rclk=1,"Clanic, Islamabad"
51,aayanhealthclinic_33.705295_73.068247,Aayan Health Clinic,"Aayan Health Clinic
4.6(19)
Medical clinic ·  · Sitara، Shop # 1-2, Kohsar Cinema Building. Sitara Market, Islamabad G-7 Markaz، Market
Open ⋅ Closes 11 PM · +92 51 2606816",Medical clinic,Open,33.7052947,73.0682471,https://www.google.com/maps/place/Aayan+Health+Clinic/data=!4m7!3m6!1s0x38dfbf94f6965785:0x4ac781ac8c060939!8m2!3d33.7052947!4d73.0682471!16s%2Fg%2F11c1ngy_97!19sChIJhVeW9pS_3zgROQkGjKyBx0o?authuser=0&hl=en&rclk=1,"Clanic, Islamabad"
52,thefamilyclinic_33.722563_73.060438,The Family Clinic,"The Family Clinic
4.0(59)
Medical clinic · Jinnah super Market, Pak Land trade center, 3rd floor Office no 8 F7/2
Open ⋅ Closes 5 PM · +92 51 2651666",Medical clinic,Open,33.7225625,73.0604375,https://www.google.com/maps/place/The+Family+Clinic/data=!4m7!3m6!1s0x38dfbfd01869359d:0xa42e70676acb0d42!8m2!3d33.7225625!4d73.0604375!16s%2Fg%2F11v9byxh_3!19sChIJnTVpGNC_3zgRQg3LamdwLqQ?authuser=0&hl=en&rclk=1,"Clanic, Islamabad"
53,pafhospitalislamabad_33.708229_73.015313,PAF Hospital Islamabad,"PAF Hospital Islamabad
3.7(690)
Doctor ·  · Main Margalla Rd
Open 24 hours · +92 51 9564000",Doctor,Open 24 hours,33.708229,73.015313,https://www.google.com/maps/place/PAF+Hospital+Islamabad/data=!4m7!3m6!1s0x38dfbf22bfada2c1:0xa4d9acbf9789555b!8m2!3d33.708229!4d73.015313!16s%2Fg%2F11gmgd5zhy!19sChIJwaKtvyK_3zgRW1WJl7-s2aQ?authuser=0&hl=en&rclk=1,"Clanic, Islamabad"
54,glamorousprptherapyc_33.668064_73.074335,Glamorous PRP Therapy Clinic Islamabad - PRP Face & Hair,"Glamorous PRP Therapy Clinic Islamabad - PRP Face & Hair
4.9(39)
Dermatologist · Office No 32, 1st Floor, City Centre, 31
Open 24 hours · +92 333 5705871",Dermatologist,Open 24 hours,33.6680644,73.0743347,https://www.google.com/maps/place/Glamorous+PRP+Therapy+Clinic+Islamabad+-+PRP+Face+%26+Hair/data=!4m7!3m6!1s0x38dfbf1975d8b5e5:0x11d67fccb0a2f02b!8m2!3d33.6680644!4d73.0743347!16s%2Fg%2F11jt3psrd_!19sChIJ5bXYdRm_3zgRK_CisMx_1hE?authuser=0&hl=en&rclk=1,"Clanic, Islamabad"
55,drtaliyasclinic_33.689457_73.039991,Dr. Taliya's Clinic,"Dr. Taliya's Clinic
3.9(117)
Medical Center ·  · Street #66, Noor Plaza, Taqwa Market
Open 24 hours · +92 51 2260010",Medical Center,Open 24 hours,33.6894567,73.0399914,https://www.google.com/maps/place/Dr.+Taliya%27s+Clinic/data=!4m7!3m6!1s0x38dfbe32c93d4c9b:0x57e939cbc65699b5!8m2!3d33.6894567!4d73.0399914!16s%2Fg%2F11b5s2gj9_!19sChIJm0w9yTK-3zgRtZlWxss56Vc?authuser=0&hl=en&rclk=1,"Clanic, Islamabad"
56,zaiultrasoundclinic_33.710258_73.058354,ZAI Ultrasound Clinic,"ZAI Ultrasound Clinic
4.9(64)
Medical diagnostic imaging center ·  · 5 Ground Floor, Ghulam Rasool Plaza, 107 AKM Fazl-ul-Haq Rd
Open ⋅ Closes 5 PM · +92 343 2806111",Medical diagnostic imaging center,Open,33.7102582,73.0583536,https://www.google.com/maps/place/ZAI+Ultrasound+Clinic/data=!4m7!3m6!1s0x38dfbfbc9dbc6abb:0xa4a7b30592432e72!8m2!3d33.7102582!4d73.0583536!16s%2Fg%2F1tq4pgls!19sChIJu2q8nby_3zgRci5DkgWzp6Q?authuser=0&hl=en&rclk=1,"Clanic, Islamabad"
57,myhairclinicislamaba_33.677936_72.984491,My Hair Clinic Islamabad,"My Hair Clinic Islamabad
4.5(53)
Medical clinic · House # 120 Street 9
Open ⋅ Closes 8 PM · +92 317 5555930",Medical clinic,Open,33.6779362,72.9844906,https://www.google.com/maps/place/My+Hair+Clinic+Islamabad/data=!4m7!3m6!1s0x38dfbdfae53c5ef9:0x34d663814e6f6a14!8m2!3d33.6779362!4d72.9844906!16s%2Fg%2F11c1txn6b1!19sChIJ-V485fq93zgRFGpvToFj1jQ?authuser=0&hl=en&rclk=1,"Clanic, Islamabad"
58,skinestheticsclinici_33.694753_72.999705,Skin Esthetics Clinic Islamabad,"Skin Esthetics Clinic Islamabad
4.8(112)
Skin care clinic · Idrees Market, Street 11A
Open ⋅ Closes 8 PM · +92 319 0531845",Skin care clinic,Open,33.6947529,72.9997047,https://www.google.com/maps/place/Skin+Esthetics+Clinic+Islamabad/data=!4m7!3m6!1s0x38dfbe3257cb5a49:0x36c80a2ed8fcff8f!8m2!3d33.6947529!4d72.9997047!16s%2Fg%2F11fsls9cc8!19sChIJSVrLVzK-3zgRj__82C4KyDY?authuser=0&hl=en&rclk=1,"Clanic, Islamabad"
59,wellmedclinicvccinat_33.668146_72.997229,Well Med Clinic & Vccination Centre,"Well Med Clinic & Vccination Centre
4.2(16)
Hospital · Ground floor, with Faysal Bank, Alanyat Plaza, Markaz
Closed ⋅ Opens 6 PM · +92 336 8360622",Hospital,Closed,33.6681456,72.997229,https://www.google.com/maps/place/Well+Med+Clinic+%26+Vccination+Centre/data=!4m7!3m6!1s0x38df95fefcd5e79b:0xd58cb2de6bb95435!8m2!3d33.6681456!4d72.997229!16s%2Fg%2F11bc8cd852!19sChIJm-fV_P6V3zgRNVS5a96yjNU?authuser=0&hl=en&rclk=1,"Clanic, Islamabad"
60,shifafoundationfalah_33.676556_73.064461,Shifa Foundation Falahee Clinic,"Shifa Foundation Falahee Clinic
4.8(5)
Hospital · Al Shifa international Hospital, Gate 8
Open 24 hours · +92 51 4603460",Hospital,Open 24 hours,33.6765565,73.0644615,https://www.google.com/maps/place/Shifa+Foundation+Falahee+Clinic/data=!4m7!3m6!1s0x38df956087335543:0xb952b5e66878c846!8m2!3d33.6765565!4d73.0644615!16s%2Fg%2F11d_v94dn6!19sChIJQ1Uzh2CV3zgRRsh4aOa1Urk?authuser=0&hl=en&rclk=1,"Clanic, Islamabad"
61,uppalsclinic_33.717171_73.052568,Uppals Clinic,"Uppals Clinic
3.9(89)
Medical clinic ·  · house 21 Bhittai Rd
+92 301 5039090",Medical clinic,,33.7171712,73.0525684,https://www.google.com/maps/place/Uppals+Clinic/data=!4m7!3m6!1s0x38dfbfa603cd09af:0x300e889467b1c7f0!8m2!3d33.7171712!4d73.0525684!16s%2Fg%2F11x9yfrvf!19sChIJrwnNA6a_3zgR8MexZ5SIDjA?authuser=0&hl=en&rclk=1,"Clanic, Islamabad"
62,aestheticshubclinici_33.607265_73.167453,Aesthetics Hub Clinic Islamabad Gulberg Green,"Aesthetics Hub Clinic Islamabad Gulberg Green
4.8(138)
Skin care clinic · greens, G-20, Diamnond mall and residency, south ave Gulburg
Open ⋅ Closes 7 PM · +92 310 4456844",Skin care clinic,Open,33.6072653,73.1674528,https://www.google.com/maps/place/Aesthetics+Hub+Clinic+Islamabad+Gulberg+Green/data=!4m7!3m6!1s0x38df95ae61222609:0x1ccf605ea85e8240!8m2!3d33.6072653!4d73.1674528!16s%2Fg%2F11s5920tg1!19sChIJCSYiYa6V3zgRQIJeqF5gzxw?authuser=0&hl=en&rclk=1,"Clanic, Islamabad"
63,pehchaanclinic_33.710968_73.041057,Pehchaan Clinic,"Pehchaan Clinic
4.9(51)
Medical Center ·  · 2nd floor, Pakland Medical Centre
Open ⋅ Closes 9 PM · +92 315 2780873",Medical Center,Open,33.7109677,73.0410567,https://www.google.com/maps/place/Pehchaan+Clinic/data=!4m7!3m6!1s0x38dfbf58b14b0f51:0x388686e073bb9c6f!8m2!3d33.7109677!4d73.0410567!16s%2Fg%2F11vj42nwhh!19sChIJUQ9LsVi_3zgRb5y7c-CGhjg?authuser=0&hl=en&rclk=1,"Clanic, Islamabad"
64,alimedicalcentre_33.710413_73.042016,Ali Medical Centre,"Ali Medical Centre
3.4(730)
Private hospital ·  · P26Q+JWM, Kohistan Rd
Open 24 hours · +92 51 8090200",Private hospital,Open 24 hours,33.7104129,73.0420161,https://www.google.com/maps/place/Ali+Medical+Centre/data=!4m7!3m6!1s0x38dfbfad680bca0d:0x8035f4aacf56cf3d!8m2!3d33.7104129!4d73.0420161!16s%2Fg%2F1tgw88nw!19sChIJDcoLaK2_3zgRPc9Wz6r0NYA?authuser=0&hl=en&rclk=1,"Clanic, Islamabad"
65,ayeshamedicalcenter_33.670191_72.985973,Ayesha Medical Center,"Ayesha Medical Center
4.4(20)
Medical Center · House # 957 Service Rd W
Open ⋅ Closes 11 PM · +92 345 5703585",Medical Center,Open,33.6701912,72.9859725,https://www.google.com/maps/place/Ayesha+Medical+Center/data=!4m7!3m6!1s0x38df97d86e55bc95:0xaed8902b349726ca!8m2!3d33.6701912!4d72.9859725!16s%2Fg%2F11h7f8jvnm!19sChIJlbxVbtiX3zgRyiaXNCuQ2K4?authuser=0&hl=en&rclk=1,"Clanic, Islamabad"
66,mishalclinic_33.666969_73.073381,Mishal Clinic,"Mishal Clinic
5.0(20)
Medical Center ·  · Zaki center, Tipu Sultan Rd، near VIP Square
Closed ⋅ Opens 6:39 PM Sat · +92 51 4938111",Medical Center,Closed,33.6669686,73.0733808,https://www.google.com/maps/place/Mishal+Clinic/data=!4m7!3m6!1s0x38df9545c0ea3195:0x856209bd2ba37090!8m2!3d33.6669686!4d73.0733808!16s%2Fg%2F12mkz5vx7!19sChIJlTHqwEWV3zgRkHCjK70JYoU?authuser=0&hl=en&rclk=1,"Clanic, Islamabad"
67,thedoctorsclinic_33.642235_72.972730,The Doctors Clinic,"The Doctors Clinic
5.0(8)
Medical clinic · Street 1 Khayaban-e-Faiz Rd
Open ⋅ Closes 10 PM · +92 348 9876817",Medical clinic,Open,33.6422354,72.97273,https://www.google.com/maps/place/The+Doctors+Clinic/data=!4m7!3m6!1s0x38df97723f5af091:0xc9628f80ac97ea13!8m2!3d33.6422354!4d72.97273!16s%2Fg%2F11gvx98c48!19sChIJkfBaP3KX3zgRE-qXrICPYsk?authuser=0&hl=en&rclk=1,"Clanic, Islamabad"
68,thelaserinnclinicdrt_33.694911_72.986082,The Laser Inn Clinic Dr. Talat,"The Laser Inn Clinic Dr. Talat
4.7(30)
Medical clinic · 208 St 12
Closed ⋅ Opens 4 PM · +92 331 5273608",Medical clinic,Closed,33.6949114,72.9860825,https://www.google.com/maps/place/The+Laser+Inn+Clinic+Dr.+Talat/data=!4m7!3m6!1s0x38dfbdbe7840795d:0xb745a442b89481ac!8m2!3d33.6949114!4d72.9860825!16s%2Fg%2F11grprk8z6!19sChIJXXlAeL693zgRrIGUuEKkRbc?authuser=0&hl=en&rclk=1,"Clanic, Islamabad"
70,icnhrclinic_33.632700_72.924260,ICNHR clinic,"ICNHR clinic
4.3(12)
Medical Center · JWMF+3PC
Closed ⋅ Opens 6 PM Sat · +92 315 9462266",Medical Center,Closed,33.6327,72.9242598,https://www.google.com/maps/place/ICNHR+clinic/data=!4m7!3m6!1s0x38df979662963f27:0x59b54be9a861f1bc!8m2!3d33.6327!4d72.9242598!16s%2Fg%2F11hf39d9m2!19sChIJJz-WYpaX3zgRvPFhqOlLtVk?authuser=0&hl=en&rclk=1,"Clanic, Islamabad"
71,arclinicsphysiothera_33.546380_73.128109,AR CLINICS - Physiotherapy and Aesthetics,"AR CLINICS - Physiotherapy and Aesthetics
4.9(156)
Physical therapy clinic ·  · Plaza 56 & 58, Marina Complex, Corniche Road
Open ⋅ Closes 10 PM · +92 318 5119014",Physical therapy clinic,Open,33.5463798,73.128109,https://www.google.com/maps/place/AR+CLINICS+-+Physiotherapy+and+Aesthetics/data=!4m7!3m6!1s0x38dfed02afffb97d:0x73d954749bd1fdea!8m2!3d33.5463798!4d73.128109!16s%2Fg%2F11qbs6mncg!19sChIJfbn_rwLt3zgR6v3Rm3RU2XM?authuser=0&hl=en&rclk=1,"Clanic, Islamabad"
72,imranclinic_33.744026_73.109403,Imran clinic,"Imran clinic
5.0(4)
Hospital · P4V5+JQ6, Nurpur Rd
+92 333 5546809",Hospital,,33.744026,73.1094027,https://www.google.com/maps/place/Imran+clinic/data=!4m7!3m6!1s0x38dfc13578cb2781:0x93ed69ddb8377a1f!8m2!3d33.744026!4d73.1094027!16s%2Fg%2F11j79gvllp!19sChIJgSfLeDXB3zgRH3o3uN1p7ZM?authuser=0&hl=en&rclk=1,"Clanic, Islamabad"
73,drhijrataestheticcli_33.696894_73.050999,Dr. Hijrat Aesthetic Clinic,"Dr. Hijrat Aesthetic Clinic
4.9(220)
Plastic surgery clinic ·  · ADC, Dr. Hijrat Aesthetic Plastic Surgery, Hair transplant & Laser Clinic IDC
Open ⋅ Closes 6 PM · +92 51 2266400",Plastic surgery clinic,Open,33.6968941,73.0509985,https://www.google.com/maps/place/Dr.+Hijrat+Aesthetic+Clinic/data=!4m7!3m6!1s0x38dfbf4f040ca6eb:0xf7c0681570fab156!8m2!3d33.6968941!4d73.0509985!16s%2Fg%2F11fpr3mk9g!19sChIJ66YMBE-_3zgRVrH6cBVowPc?authuser=0&hl=en&rclk=1,"Clanic, Islamabad"
74,khwajaclinic_33.722045_73.080911,Khwaja Clinic,"Khwaja Clinic
3.1(10)
Medical Center ·  · P3CJ+R97, Service Rd
+92 51 2274009",Medical Center,,33.7220445,73.0809107,https://www.google.com/maps/place/Khwaja+Clinic/data=!4m7!3m6!1s0x38dfbf83e9d0b6b1:0x506166da257a1f0!8m2!3d33.7220445!4d73.0809107!16s%2Fg%2F1v6p7705!19sChIJsbbQ6YO_3zgR8KFXom0WBgU?authuser=0&hl=en&rclk=1,"Clanic, Islamabad"
75,drnadasclinic_33.690311_73.014434,Dr. Nada's Clinic,"Dr. Nada's Clinic
4.4(339)
Medical Center ·  · House 161 Street 47
Closed ⋅ Opens 3 PM · +92 334 1111028",Medical Center,Closed,33.6903113,73.0144339,https://www.google.com/maps/place/Dr.+Nada%27s+Clinic/data=!4m7!3m6!1s0x38dfbf2d903c8c3b:0x44d3b80306ce2bde!8m2!3d33.6903113!4d73.0144339!16s%2Fg%2F11qyldsh8x!19sChIJO4w8kC2_3zgR3ivOBgO400Q?authuser=0&hl=en&rclk=1,"Clanic, Islamabad"
77,esteticaskinandlaser_33.727518_73.087079,"Estetica Skin and Laser | Blue Area, Islamabad","Estetica Skin and Laser | Blue Area, Islamabad
4.6(412)
Skin care clinic · Block R F 6/4 Blue Area F6
Open ⋅ Closes 11:31 PM · +92 311 1100492",Skin care clinic,Open,33.7275182,73.0870787,"https://www.google.com/maps/place/Estetica+Skin+and+Laser+%7C+Blue+Area,+Islamabad/data=!4m7!3m6!1s0x38dfbf43fae82389:0x7010d9b29e675d88!8m2!3d33.7275182!4d73.0870787!16s%2Fg%2F11v3fjwtxl!19sChIJiSPo-kO_3zgRiF1nnrLZEHA?authuser=0&hl=en&rclk=1","Clanic, Islamabad"
78,doctorsclinicnilorei_33.653078_73.239280,Doctors Clinic Nilore Islamabad,"Doctors Clinic Nilore Islamabad
5.0(9)
Medical clinic ·  · Raja Aziz Market, Al madni Town
Closed ⋅ Opens 5 PM · +92 309 6007765",Medical clinic,Closed,33.6530784,73.2392796,https://www.google.com/maps/place/Doctors+Clinic+Nilore+Islamabad/data=!4m7!3m6!1s0x38dfe95dc3f8aae7:0x3f3c64b3525275a9!8m2!3d33.6530784!4d73.2392796!16s%2Fg%2F11r36qm_ws!19sChIJ56r4w13p3zgRqXVSUrNkPD8?authuser=0&hl=en&rclk=1,"Clanic, Islamabad"
79,drshyfaniazibestaest_33.721653_73.057423,Dr.Shyfa Niazi—Best Aesthetic Physician in Islamabad,"Dr.Shyfa Niazi—Best Aesthetic Physician in Islamabad
4.9(90)
Skin care clinic · unit no 6, Block 12C, jinnah super market
+92 334 1800048",Skin care clinic,,33.721653,73.0574232,https://www.google.com/maps/place/Dr.Shyfa+Niazi%E2%80%94Best+Aesthetic+Physician+in+Islamabad/data=!4m7!3m6!1s0x38dfbf482787548d:0x392ae135365bc032!8m2!3d33.721653!4d73.0574232!16s%2Fg%2F11y3kzp98z!19sChIJjVSHJ0i_3zgRMsBbNjXhKjk?authuser=0&hl=en&rclk=1,"Clanic, Islamabad"
80,familyclinic_33.653259_73.061309,Family Clinic,"Family Clinic
2.3(3)
Medical clinic · M336+8G3 Chaudhry Market, Street 38
Closed ⋅ Opens 6 PM · +92 51 4449405",Medical clinic,Closed,33.6532594,73.0613094,https://www.google.com/maps/place/Family+Clinic/data=!4m7!3m6!1s0x38df9515d36e66d9:0x64193d5d3ff8ae77!8m2!3d33.6532594!4d73.0613094!16s%2Fg%2F12mkwfslj!19sChIJ2WZu0xWV3zgRd674P109GWQ?authuser=0&hl=en&rclk=1,"Clanic, Islamabad"
81,islamabadphysiothera_33.668328_73.150913,Islamabad Physiotherapy Clinic Islamabad,"Islamabad Physiotherapy Clinic Islamabad
5.0(78)
Physical therapy clinic · Park, Greens Avenue, Road
Closed ⋅ Opens 3 PM · +92 332 8214183",Physical therapy clinic,Closed,33.6683279,73.1509134,https://www.google.com/maps/place/Islamabad+Physiotherapy+Clinic+Islamabad/data=!4m7!3m6!1s0x38dfebe41569a977:0xe6da5699ef02744d!8m2!3d33.6683279!4d73.1509134!16s%2Fg%2F11j927349b!19sChIJd6lpFeTr3zgRTXQC75lW2uY?authuser=0&hl=en&rclk=1,"Clanic, Islamabad"
82,salamatclinic_33.569156_73.140131,SALAMAT CLINIC,"SALAMAT CLINIC
5.0(2)
Hospital ·  · 29, PWD Housing Society Sector B
Open ⋅ Closes 6 PM · +92 300 5554850",Hospital,Open,33.5691565,73.140131,https://www.google.com/maps/place/SALAMAT+CLINIC/data=!4m7!3m6!1s0x38dfeda3381d7b07:0xfbe4ca62597e7a6d!8m2!3d33.5691565!4d73.140131!16s%2Fg%2F11f5tv1b00!19sChIJB3sdOKPt3zgRbXp-WWLK5Ps?authuser=0&hl=en&rclk=1,"Clanic, Islamabad"
83,asiamemorialclinic_33.708713_73.083774,Asia Memorial Clinic,"Asia Memorial Clinic
3.5(6)
Hospital ·  · 1 Street 48
+92 51 2624386",Hospital,,33.7087131,73.0837738,https://www.google.com/maps/place/Asia+Memorial+Clinic/data=!4m7!3m6!1s0x38dfbfd466622c5f:0xb86b8aa6364d707a!8m2!3d33.7087131!4d73.0837738!16s%2Fg%2F11j81nj4_w!19sChIJXyxiZtS_3zgRenBNNqaKa7g?authuser=0&hl=en&rclk=1,"Clanic, Islamabad"
84,hijamaislamabadclini_33.735879_73.171489,Hijama Islamabad Clinic | Hijama Center,"Hijama Islamabad Clinic | Hijama Center
5.0(13)
Medical clinic ·  · Imran Plaza، main Murree Rd، near Umania Restaurant
Open ⋅ Closes 10 PM · +92 315 5006060",Medical clinic,Open,33.7358788,73.1714894,https://www.google.com/maps/place/Hijama+Islamabad+Clinic+%7C+Hijama+Center/data=!4m7!3m6!1s0x38df99c315757565:0xb7a0f0a2864dcdb1!8m2!3d33.7358788!4d73.1714894!16s%2Fg%2F11gvsckv84!19sChIJZXV1FcOZ3zgRsc1NhqLwoLc?authuser=0&hl=en&rclk=1,"Clanic, Islamabad"
85,smartmedicaldiagnost_33.698436_73.048823,Smart Medical & Diagnostics Centre ( SMDC),"Smart Medical & Diagnostics Centre ( SMDC)
5.0(415)
Medical Center ·  · Crescent Arcade, opp. Motorway Expess
Open ⋅ Closes 10 PM · +92 51 2340383",Medical Center,Open,33.6984362,73.0488229,https://www.google.com/maps/place/Smart+Medical+%26+Diagnostics+Centre+%28+SMDC%29/data=!4m7!3m6!1s0x38dfbf2235ed90a7:0x1fa908fbadbd9842!8m2!3d33.6984362!4d73.0488229!16s%2Fg%2F11jpd2vqlr!19sChIJp5DtNSK_3zgRQpi9rfsIqR8?authuser=0&hl=en&rclk=1,"Clanic, Islamabad"
86,infertilityivfclinic_33.697939_73.048766,Infertility & Ivf Clinic Islamabad,"Infertility & Ivf Clinic Islamabad
5.0(1)
Fertility clinic · 73°02'55.6""E, 33°41'52.3""N
Open ⋅ Closes 5 PM · +92 330 8884300",Fertility clinic,Open,33.6979394,73.0487657,https://www.google.com/maps/place/Infertility+%26+Ivf+Clinic+Islamabad/data=!4m7!3m6!1s0x6ff197a3a1982659:0x34f8e3d73d108533!8m2!3d33.6979394!4d73.0487657!16s%2Fg%2F11wvw9xp9t!19sChIJWSaYoaOX8W8RM4UQPdfj-DQ?authuser=0&hl=en&rclk=1,"Clanic, Islamabad"
87,smartclinichomepatie_33.632244_72.928900,"Smart Clinic , Home Patients Care , oxygen cylinder(آکسیجن سیلنڈر) & medical equipment","Smart Clinic , Home Patients Care , oxygen cylinder(آکسیجن سیلنڈر) & medical equipment
5.0(12)
Medical Center · shop#B-1, Khor German Plaza, 4, 4
Open 24 hours · +92 316 1716780",Medical Center,Open 24 hours,33.6322443,72.9289004,"https://www.google.com/maps/place/Smart+Clinic+,+Home+Patients+Care+,+oxygen+cylinder%28%D8%A2%DA%A9%D8%B3%DB%8C%D8%AC%D9%86+%D8%B3%DB%8C%D9%84%D9%86%DA%88%D8%B1%29+%26+medical+equipment%E2%80%AD/data=!4m7!3m6!1s0x38df9705f030270b:0xb3b55c08a586a231!8m2!3d33.6322443!4d72.9289004!16s%2Fg%2F11shdl4jxk!19sChIJCycw8AWX3zgRMaKGpQhctbM?authuser=0&hl=en&rclk=1","Clanic, Islamabad"
88,draftabmedicalclinic_33.672711_73.106522,Dr Aftab Medical clinic,"Dr Aftab Medical clinic
4.3(13)
Medical Center · 13 Street 16
+92 331 5330584",Medical Center,,33.672711,73.1065225,https://www.google.com/maps/place/Dr+Aftab+Medical+clinic/data=!4m7!3m6!1s0x38dfeb3400b851fd:0xaae457941c4f28f4!8m2!3d33.672711!4d73.1065225!16s%2Fg%2F11h_009214!19sChIJ_VG4ADTr3zgR9ChPHJRX5Ko?authuser=0&hl=en&rclk=1,"Clanic, Islamabad"
89,drshehzadmunirclinic_33.699021_73.048481,Dr Shehzad Munir Clinic,"Dr Shehzad Munir Clinic
4.8(18)
Medical clinic · Allah Dad Plaza
+92 313 5187116",Medical clinic,,33.6990214,73.0484811,https://www.google.com/maps/place/Dr+Shehzad+Munir+Clinic/data=!4m7!3m6!1s0x38dfbfc9c5adfb19:0x5d575853db92ee07!8m2!3d33.6990214!4d73.0484811!16s%2Fg%2F12mkw78sy!19sChIJGfutxcm_3zgRB-6S21NYV10?authuser=0&hl=en&rclk=1,"Clanic, Islamabad"
90,familyhealthclinic_33.721045_73.088302,Family Health Clinic,"Family Health Clinic
5.0(1)
Medical Center · 24 Street 89",Medical Center,,33.7210448,73.0883024,https://www.google.com/maps/place/Family+Health+Clinic/data=!4m7!3m6!1s0x38dfc078c9062ad5:0x8583ed8cc47397fe!8m2!3d33.7210448!4d73.0883024!16s%2Fg%2F1tgdrhx6!19sChIJ1SoGyXjA3zgR_pdzxIztg4U?authuser=0&hl=en&rclk=1,"Clanic, Islamabad"
91,caremedicalcenter_33.698542_73.048703,Care+ Medical Center,"Care+ Medical Center
3.9(208)
Private hospital ·  · 20-C, M2XX+F95 Crescent Arcade
Open 24 hours · +92 51 111 111 097",Private hospital,Open 24 hours,33.6985419,73.0487032,https://www.google.com/maps/place/Care%2B+Medical+Center/data=!4m7!3m6!1s0x38dfbf4b32a7fb61:0xca3ac0299b9d7aa4!8m2!3d33.6985419!4d73.0487032!16s%2Fg%2F11g3y4qzr_!19sChIJYfunMku_3zgRpHqdmynAOso?authuser=0&hl=en&rclk=1,"Clanic, Islamabad"
92,theaestheticskinandh_33.645413_72.963304,The Aesthetic Skin and Hair Clinic,"The Aesthetic Skin and Hair Clinic
4.8(29)
Skin care clinic · G, 13/1 Main Double road
Open ⋅ Closes 10 PM · +92 333 1587913",Skin care clinic,Open,33.6454135,72.9633042,https://www.google.com/maps/place/The+Aesthetic+Skin+and+Hair+Clinic/data=!4m7!3m6!1s0x38df9714f19e807f:0x2671325f2b8aaa1c!8m2!3d33.6454135!4d72.9633042!16s%2Fg%2F11ts_70yb0!19sChIJf4Ce8RSX3zgRHKqKK18ycSY?authuser=0&hl=en&rclk=1,"Clanic, Islamabad"
93,drsariasheikh6dskina_33.722610_73.060325,Dr. Saria Sheikh | 6D Skin Aesthetic Clinic Islamabad,"Dr. Saria Sheikh | 6D Skin Aesthetic Clinic Islamabad
4.7(58)
Skin care clinic · Pakland Plaza
Open ⋅ Closes 8 PM · +92 324 5495755",Skin care clinic,Open,33.7226104,73.0603248,https://www.google.com/maps/place/Dr.+Saria+Sheikh+%7C+6D+Skin+Aesthetic+Clinic+Islamabad/data=!4m7!3m6!1s0x38dfbfa6e688218f:0x8fb2e2d82bdce54f!8m2!3d33.7226104!4d73.0603248!16s%2Fg%2F11sybq8v09!19sChIJjyGI5qa_3zgRT-XcK9jiso8?authuser=0&hl=en&rclk=1,"Clanic, Islamabad"
94,ultrasonicclinic_33.712644_73.062595,Ultrasonic Clinic,"Ultrasonic Clinic
4.0(3)
Medical clinic · P377+325
Open ⋅ Closes 7 PM · +92 51 8357428",Medical clinic,Open,33.7126443,73.0625947,https://www.google.com/maps/place/Ultrasonic+Clinic/data=!4m7!3m6!1s0x38dfbfbd356c0001:0xd6e975baee1317cf!8m2!3d33.7126443!4d73.0625947!16s%2Fg%2F11f3j8z8hn!19sChIJAQBsNb2_3zgRzxcT7rp16dY?authuser=0&hl=en&rclk=1,"Clanic, Islamabad"
95,drsalmanhairtranspla_33.618183_73.197846,Dr Salman Hair Transplant Plastic Surgery & Aesthetics Clinic Islamabad,"Dr Salman Hair Transplant Plastic Surgery & Aesthetics Clinic Islamabad
4.8(51)
Skin care clinic · Farm House D, 568 Margalla Avenue
Open ⋅ Closes 8 PM · +92 317 6777555",Skin care clinic,Open,33.6181829,73.1978457,https://www.google.com/maps/place/Dr+Salman+Hair+Transplant+Plastic+Surgery+%26+Aesthetics+Clinic+Islamabad/data=!4m7!3m6!1s0x38dfbfba8f24e343:0xe7d364f21c109b7e!8m2!3d33.6181829!4d73.1978457!16s%2Fg%2F11tmwv_5cb!19sChIJQ-Mkj7q_3zgRfpsQHPJk0-c?authuser=0&hl=en&rclk=1,"Clanic, Islamabad"
97,drahmedshahabgpclini_33.725127_73.044353,Dr. Ahmed Shahab (GP Clinic),"Dr. Ahmed Shahab (GP Clinic)
5.0(28)
Medical clinic ·  · house 250 Street 23
Open ⋅ Closes 6 PM · +92 300 8541212",Medical clinic,Open,33.7251266,73.0443527,https://www.google.com/maps/place/Dr.+Ahmed+Shahab+%28GP+Clinic%29/data=!4m7!3m6!1s0x38dfbf01418163d5:0x5c7b230c44970cd!8m2!3d33.7251266!4d73.0443527!16s%2Fg%2F11dxl9g2z9!19sChIJ1WOBQQG_3zgRzXBJxDCyxwU?authuser=0&hl=en&rclk=1,"Clanic, Islamabad"
98,glamorousaestheticsi_33.667128_73.076444,"Glamorous Aesthetics Islamabad - Hair Transplant, Plastic Surgery, Skincare, Fillers, Threads, Breast Implants, Vaginoplasty","Glamorous Aesthetics Islamabad - Hair Transplant, Plastic Surgery, Skincare, Fillers, Threads, Breast Implants, Vaginoplasty
4.9(186)
Skin care clinic · OFFICE NUMBER LG 20, 21 Interlace Rd
Open 24 hours · +92 333 0030084",Skin care clinic,Open 24 hours,33.6671277,73.0764442,"https://www.google.com/maps/place/Glamorous+Aesthetics+Islamabad+-+Hair+Transplant,+Plastic+Surgery,+Skincare,+Fillers,+Threads,+Breast+Implants,+Vaginoplasty/data=!4m7!3m6!1s0x38df95007865c76f:0x464ba23326aa3f4f!8m2!3d33.6671277!4d73.0764442!16s%2Fg%2F11lyry3zww!19sChIJb8dleACV3zgRTz-qJjOiS0Y?authuser=0&hl=en&rclk=1","Clanic, Islamabad"
99,drfaridullahkhanzimr_33.711115_73.041550,Dr Faridullah Khan Zimri (Islamabad Orthopedic and Spine Clinic),"Dr Faridullah Khan Zimri (Islamabad Orthopedic and Spine Clinic)
4.8(705)
Orthopedic clinic ·  · Rawal Arcade, Ground Floor Plot 13-C
Open ⋅ Closes 7 PM · +92 51 2266066",Orthopedic clinic,Open,33.7111145,73.0415504,https://www.google.com/maps/place/Dr+Faridullah+Khan+Zimri+%28Islamabad+Orthopedic+and+Spine+Clinic%29/data=!4m7!3m6!1s0x38dfbfc9a8629e41:0xee0449aed8852dc7!8m2!3d33.7111145!4d73.0415504!16s%2Fg%2F11r9911vm1!19sChIJQZ5iqMm_3zgRxy2F2K5JBO4?authuser=0&hl=en&rclk=1,"Clanic, Islamabad"
100,capitalspecialistcli_33.699260_73.047100,Capital Specialist Clinic,"Capital Specialist Clinic
No reviews
Medical Center ·  · 310 Ravi Rd
Open ⋅ Closes 11 PM · +92 315 5159616",Medical Center,Open,33.69926,73.0470996,https://www.google.com/maps/place/Capital+Specialist+Clinic/data=!4m7!3m6!1s0x38dfbfc9fb729b37:0x2499a1fe5febc1fd!8m2!3d33.69926!4d73.0470996!16s%2Fg%2F1tmptc1w!19sChIJN5ty-8m_3zgR_cHrX_6hmSQ?authuser=0&hl=en&rclk=1,"Clanic, Islamabad"
101,noorclinic_33.667111_72.997841,NOOR CLINIC,"NOOR CLINIC
4.0(3)
Medical clinic · Shop # 3 & 19 , Capital plaza
Open ⋅ Closes 10 PM · +92 333 5371687",Medical clinic,Open,33.6671109,72.9978412,https://www.google.com/maps/place/NOOR+CLINIC/data=!4m7!3m6!1s0x38df95fec01a0a1d:0x8762fe0f7be9f421!8m2!3d33.6671109!4d72.9978412!16s%2Fg%2F11dfx4_py7!19sChIJHQoawP6V3zgRIfTpew_-Yoc?authuser=0&hl=en&rclk=1,"Clanic, Islamabad"
102,margalladentalclinic_33.711916_73.060884,Margalla Dental Clinic,"Margalla Dental Clinic
4.8(45)
Dental clinic · Office no1,1st Floor, Moscow Plaza, 64-E Jinnah Ave, above Jahangir restaurant
Closed ⋅ Opens 5 PM · +92 314 9007700",Dental clinic,Closed,33.7119156,73.0608835,https://www.google.com/maps/place/Margalla+Dental+Clinic/data=!4m7!3m6!1s0x38dfbfbd29ceec13:0x288ceffed66ebf31!8m2!3d33.7119156!4d73.0608835!16s%2Fg%2F11_l_q6_5!19sChIJE-zOKb2_3zgRMb9u1v7vjCg?authuser=0&hl=en&rclk=1,"Clanic, Islamabad"
103,entplusclinic_33.570820_73.178413,ENT Plus Clinic,"ENT Plus Clinic
4.2(6)
Otolaryngology clinic · Shop 5, Lower Ground, Markaz, Jinnah Centre
Closed ⋅ Opens 3:30 PM · +92 333 5101134",Otolaryngology clinic,Closed,33.5708199,73.1784126,https://www.google.com/maps/place/ENT+Plus+Clinic/data=!4m7!3m6!1s0x38dfebdd89b95cef:0x5e7fe1a6c1b61bee!8m2!3d33.5708199!4d73.1784126!16s%2Fg%2F11kvm8g4nt!19sChIJ71y5id3r3zgR7hu2wabhf14?authuser=0&hl=en&rclk=1,"Clanic, Islamabad"
105,thediabetescentrecre_33.698521_73.048562,"The Diabetes Centre , Crescent Arcade, G-8 Markaz Clinic, Islamabad","The Diabetes Centre , Crescent Arcade, G-8 Markaz Clinic, Islamabad
3.7(18)
Hospital ·  · Crescent Arcade
Open ⋅ Closes 9 PM · +92 51 2266130",Hospital,Open,33.6985212,73.048562,"https://www.google.com/maps/place/The+Diabetes+Centre+,+Crescent+Arcade,+G-8+Markaz+Clinic,+Islamabad/data=!4m7!3m6!1s0x38dfbfa507e14ce1:0x85e66437780f31b4!8m2!3d33.6985212!4d73.048562!16s%2Fg%2F11lry96clf!19sChIJ4UzhB6W_3zgRtDEPeDdk5oU?authuser=0&hl=en&rclk=1","Clanic, Islamabad"
106,careplusclinic_33.648562_73.040562,Care Plus Clinic,"Care Plus Clinic
3.0(2)
Doctor · 
Closed ⋅ Opens 4:30 PM",Doctor,Closed,33.6485625,73.0405625,https://www.google.com/maps/place/Care+Plus+Clinic/data=!4m7!3m6!1s0x38df9509df92e341:0x9f0c3e6c07aed48e!8m2!3d33.6485625!4d73.0405625!16s%2Fg%2F11fy50f3lc!19sChIJQeOS3wmV3zgRjtSuB2w-DJ8?authuser=0&hl=en&rclk=1,"Clanic, Islamabad"
107,cosmeticlaserskincli_33.710883_73.050973,Cosmetic Laser & Skin Clinic Best Skin Clinic in Islamabad|Best Dermatologist in Islamabad|Best Laser Treatment in Islamabad,"Cosmetic Laser & Skin Clinic Best Skin Clinic in Islamabad|Best Dermatologist in Islamabad|Best Laser Treatment in Islamabad
4.7(296)
Skin care clinic ·  · House # 1 Street 62
Open ⋅ Closes 8 PM · +92 51 2280747",Skin care clinic,Open,33.7108826,73.0509735,https://www.google.com/maps/place/Cosmetic+Laser+%26+Skin+Clinic+Best+Skin+Clinic+in+Islamabad%7CBest+Dermatologist+in+Islamabad%7CBest+Laser+Treatment+in+Islamabad/data=!4m7!3m6!1s0x38dfbfb01ec332c7:0x2094610b52e8e5ea!8m2!3d33.7108826!4d73.0509735!16s%2Fg%2F1v3kfwhn!19sChIJxzLDHrC_3zgR6uXoUgthlCA?authuser=0&hl=en&rclk=1,"Clanic, Islamabad"
108,polyclinicdispensary_33.661349_73.068097,Poly clinic dispensary I-8/1,"Poly clinic dispensary I-8/1
No reviews
Hospital · Block no.15, Flat no.1, Category-IV",Hospital,,33.6613489,73.0680969,https://www.google.com/maps/place/Poly+clinic+dispensary+I-8%2F1/data=!4m7!3m6!1s0x38df9520eefc81ef:0xa40107ff518ae7e6!8m2!3d33.6613489!4d73.0680969!16s%2Fg%2F11t8b23n4c!19sChIJ74H87iCV3zgR5ueKUf8HAaQ?authuser=0&hl=en&rclk=1,"Clanic, Islamabad"
109,aestheticskinclinic_33.730916_73.081133,Aesthetic Skin Clinic,"Aesthetic Skin Clinic
3.8(16)
Skin care clinic ·  · House 11A Agha Khan Rd
Open ⋅ Closes 6 PM",Skin care clinic,Open,33.7309159,73.0811328,https://www.google.com/maps/place/Aesthetic+Skin+Clinic/data=!4m7!3m6!1s0x38dfbff7da9fbd49:0xb3f1631f0c4dcea1!8m2!3d33.7309159!4d73.0811328!16s%2Fg%2F11ghfrljpv!19sChIJSb2f2ve_3zgRoc5NDB9j8bM?authuser=0&hl=en&rclk=1,"Clanic, Islamabad"
110,islamabadrheumatolog_33.696833_73.051169,Islamabad Rheumatology Clinic (IRC),"Islamabad Rheumatology Clinic (IRC)
4.6(37)
Medical clinic ·  · M3W2+PCX, Hanna Rd, near Islamabad Diagnostic Center IDC
+92 51 2340287",Medical clinic,,33.6968334,73.0511688,https://www.google.com/maps/place/Islamabad+Rheumatology+Clinic+%28IRC%29/data=!4m7!3m6!1s0x38dfbf00756ead79:0x3ad567f6385bf8b0!8m2!3d33.6968334!4d73.0511688!16s%2Fg%2F11lcym9q_h!19sChIJea1udQC_3zgRsPhbOPZn1To?authuser=0&hl=en&rclk=1,"Clanic, Islamabad"
111,zenaestheticsclinici_33.731654_73.079274,ZEN Aesthetics Clinic Islamabad,"ZEN Aesthetics Clinic Islamabad
5.0(4)
Skin care clinic · Office 3, 2nd Floor, Mount View Plaza
Open ⋅ Closes 7 PM · +92 51 2726737",Skin care clinic,Open,33.7316542,73.079274,https://www.google.com/maps/place/ZEN+Aesthetics+Clinic+Islamabad/data=!4m7!3m6!1s0x38dfbfaf9b25f6df:0xc6cced5ed3d5ae07!8m2!3d33.7316542!4d73.079274!16s%2Fg%2F11l679kt4v!19sChIJ3_Ylm6-_3zgRB67V017tzMY?authuser=0&hl=en&rclk=1,"Clanic, Islamabad"
112,gyneoclinic_33.568387_73.139528,Gyneo Clinic,"Gyneo Clinic
4.8(33)
Fertility clinic · 1st Floor, Humayun Arcade, Main PWD Rd
Open ⋅ Closes 9 PM · +92 317 5457107",Fertility clinic,Open,33.5683869,73.1395277,https://www.google.com/maps/place/Gyneo+Clinic/data=!4m7!3m6!1s0x38dfedaace356dab:0x17ca431fbbd045f0!8m2!3d33.5683869!4d73.1395277!16s%2Fg%2F11txy3dlsb!19sChIJq201zqrt3zgR8EXQux9Dyhc?authuser=0&hl=en&rclk=1,"Clanic, Islamabad"
113,skinnsmilesclinic_33.683247_72.987906,Skin n Smiles Clinic,"Skin n Smiles Clinic
5.0(3)
Hair transplantation clinic · Bizzon Plaza, Suit No 2-b, Ist floor, plot no 19
Open ⋅ Closes 7:30 PM · +92 331 5929922",Hair transplantation clinic,Open,33.6832466,72.9879063,https://www.google.com/maps/place/Skin+n+Smiles+Clinic/data=!4m7!3m6!1s0x38dfbd0e7171cf5f:0x2307f90b89549fcf!8m2!3d33.6832466!4d72.9879063!16s%2Fg%2F11gpjkyg_k!19sChIJX89xcQ693zgRz59UiQv5ByM?authuser=0&hl=en&rclk=1,"Clanic, Islamabad"
114,drrizwantajpsychiatr_33.696966_73.051200,Dr. Rizwan Taj Psychiatry Clinic,"Dr. Rizwan Taj Psychiatry Clinic
3.4(130)
Psychiatrist · Markaz Rd
Closed ⋅ Opens 5 PM · +92 331 5644446",Psychiatrist,Closed,33.6969661,73.0511997,https://www.google.com/maps/place/Dr.+Rizwan+Taj+Psychiatry+Clinic/data=!4m7!3m6!1s0x38dfbfc88d951d4b:0x7b20c8de0b2cca91!8m2!3d33.6969661!4d73.0511997!16s%2Fg%2F11c32p5g3g!19sChIJSx2Vjci_3zgRkcosC97IIHs?authuser=0&hl=en&rclk=1,"Clanic, Islamabad"
115,drtaqdeesclinic_33.666569_73.076042,Dr Taqdees Clinic,"Dr Taqdees Clinic
3.7(16)
Hospital · M38G+JCF, Street 45
+92 51 8315666",Hospital,,33.6665693,73.076042,https://www.google.com/maps/place/Dr+Taqdees+Clinic/data=!4m7!3m6!1s0x38df954328d22967:0xec0d8c83d95fdd0f!8m2!3d33.6665693!4d73.076042!16s%2Fg%2F11f30p5gzq!19sChIJZynSKEOV3zgRD91f2YOMDew?authuser=0&hl=en&rclk=1,"Clanic, Islamabad"
116,dentocorrectclinicis_33.711577_73.039790,DentoCorrect Clinic - Islamabad,"DentoCorrect Clinic - Islamabad
5.0(5)
Dental clinic · 1st Floor, Kashif Plaza
Open ⋅ Closes 8 PM · +92 347 4623620",Dental clinic,Open,33.7115769,73.0397898,https://www.google.com/maps/place/DentoCorrect+Clinic+-+Islamabad/data=!4m7!3m6!1s0x38dfbf5ead9d5003:0x2313f213761e2a4b!8m2!3d33.7115769!4d73.0397898!16s%2Fg%2F11w_rlt5lv!19sChIJA1CdrV6_3zgRSyoedhPyEyM?authuser=0&hl=en&rclk=1,"Clanic, Islamabad"
117,skincareclinic_33.524127_73.147132,Skin Care Clinic,"Skin Care Clinic
2.8(10)
Medical clinic · Giga, UG116, DHA Residency, Downtown Rd
Closed ⋅ Opens 5:30 PM · +92 332 1331777",Medical clinic,Closed,33.524127,73.1471319,https://www.google.com/maps/place/Skin+Care+Clinic/data=!4m7!3m6!1s0x38dfed050afefd59:0x11e2a8a5eefa532!8m2!3d33.524127!4d73.1471319!16s%2Fg%2F11q2sxy5t_!19sChIJWf3-CgXt3zgRMqXvXooqHgE?authuser=0&hl=en&rclk=1,"Clanic, Islamabad"
118,anjummujeebclinic_33.690328_73.032487,Anjum Mujeeb Clinic,"Anjum Mujeeb Clinic
5.0(6)
Hospital · Zakaria Plaza, Flat 21, 1st Floor, Mangla Rd, G-9 Markaz, G-9
+92 300 9509402",Hospital,,33.6903285,73.0324866,https://www.google.com/maps/place/Anjum+Mujeeb+Clinic/data=!4m7!3m6!1s0x38dfbe311070e2e3:0x99a2c637d743f2d2!8m2!3d33.6903285!4d73.0324866!16s%2Fg%2F12mkz5n9t!19sChIJ4-JwEDG-3zgR0vJD1zfGopk?authuser=0&hl=en&rclk=1,"Clanic, Islamabad"
119,homeopathyclinicisla_33.667697_73.075207,Homeopathy Clinic Islamabad,"Homeopathy Clinic Islamabad
No reviews
Medical Center · M39G+33G
+92 317 5055585",Medical Center,,33.6676974,73.0752068,https://www.google.com/maps/place/Homeopathy+Clinic+Islamabad/data=!4m7!3m6!1s0x38df952065cd8881:0xb616711bb7aac98a!8m2!3d33.6676974!4d73.0752068!16s%2Fg%2F11h5rwz0mb!19sChIJgYjNZSCV3zgRismqtxtxFrY?authuser=0&hl=en&rclk=1,"Clanic, Islamabad"
120,familyhealthclinic_33.669307_73.073886,Family health clinic,"Family health clinic
2.3(3)
Hospital · M39F+PHC, Unnamed Road
Open ⋅ Closes 11 PM",Hospital,Open,33.6693069,73.0738856,https://www.google.com/maps/place/Family+health+clinic/data=!4m7!3m6!1s0x38df95bb21db7463:0xd27027fba819c46a!8m2!3d33.6693069!4d73.0738856!16s%2Fg%2F11fq2xw48s!19sChIJY3TbIbuV3zgRasQZqPsncNI?authuser=0&hl=en&rclk=1,"Clanic, Islamabad"
121,britishclinicandbrit_33.725209_73.086428,British Clinic and British Pharmacy,"British Clinic and British Pharmacy
5.0(5)
Medical Center · 32 Jinnah Ave
Open ⋅ Closes 8 PM · +92 328 1485297",Medical Center,Open,33.7252085,73.0864283,https://www.google.com/maps/place/British+Clinic+and+British+Pharmacy/data=!4m7!3m6!1s0x38dfbf00727b2ea3:0x783a2636028e1386!8m2!3d33.7252085!4d73.0864283!16s%2Fg%2F11ln9d4pth!19sChIJoy57cgC_3zgRhhOOAjYmOng?authuser=0&hl=en&rclk=1,"Clanic, Islamabad"
122,islamabadpainspinest_33.696798_73.051433,"Islamabad Pain, Spine & Stroke Center","Islamabad Pain, Spine & Stroke Center
4.4(55)
Hospital ·  · Pain Spine and stroke center, Pakland Plaza, near IDC
Closed ⋅ Opens 3:30 PM · +92 332 9077315",Hospital,Closed,33.6967976,73.0514329,"https://www.google.com/maps/place/Islamabad+Pain,+Spine+%26+Stroke+Center/data=!4m7!3m6!1s0x38dfbfc88d9e87d3:0x23eccb64859b44bd!8m2!3d33.6967976!4d73.0514329!16s%2Fg%2F11hcw7wjlx!19sChIJ04eejci_3zgRvUSbhWTL7CM?authuser=0&hl=en&rclk=1","Clanic, Islamabad"
123,aestheticsinnhairski_33.521677_73.098890,Aesthetics Inn HAIR & SKIN Clinic Islamabad,"Aesthetics Inn HAIR & SKIN Clinic Islamabad
4.9(15)
Hair transplantation clinic · 1st Floor, Plaza 49, Mini Extension
Closed ⋅ Opens 4 PM · +92 300 1052020",Hair transplantation clinic,Closed,33.5216771,73.0988899,https://www.google.com/maps/place/Aesthetics+Inn+HAIR+%26+SKIN+Clinic+Islamabad/data=!4m7!3m6!1s0x38dfedd16bac7bfb:0x7f5ef3b9bda8768a!8m2!3d33.5216771!4d73.0988899!16s%2Fg%2F11v_28rt53!19sChIJ-3usa9Ht3zgRinaovbnzXn8?authuser=0&hl=en&rclk=1,"Clanic, Islamabad"
124,laserskinaestheticcl_33.605483_73.163671,"Laser Skin & Aesthetic Clinic Islamabad, Aesthedoc","Laser Skin & Aesthetic Clinic Islamabad, Aesthedoc
4.4(14)
Medical clinic · Gulberg Expy
Open 24 hours · +92 333 7277272",Medical clinic,Open 24 hours,33.6054833,73.1636707,"https://www.google.com/maps/place/Laser+Skin+%26+Aesthetic+Clinic+Islamabad,+Aesthedoc/data=!4m7!3m6!1s0x38dfbfc997d60345:0xc75289d6a9f22adc!8m2!3d33.6054833!4d73.1636707!16s%2Fg%2F11stxpvcpg!19sChIJRQPWl8m_3zgR3CryqdaJUsc?authuser=0&hl=en&rclk=1","Clanic, Islamabad"
125,fatimatuzzahramedica_33.673004_72.948109,Fatima-tuz-zahra Medical clinic,"Fatima-tuz-zahra Medical clinic
4.6(9)
Medical Center · MWFX+56X, Golra Rd
Closed ⋅ Opens 3 PM · +92 325 5090888",Medical Center,Closed,33.6730045,72.9481089,https://www.google.com/maps/place/Fatima-tuz-zahra+Medical+clinic/data=!4m7!3m6!1s0x38dfbd302cbde2c1:0x160cd4c5371d7983!8m2!3d33.6730045!4d72.9481089!16s%2Fg%2F11sw38h3sr!19sChIJweK9LDC93zgRg3kdN8XUDBY?authuser=0&hl=en&rclk=1,"Clanic, Islamabad"
126,hrchayatrehabclinici_33.718884_73.172027,HRC Hayat Rehab Clinic Islamabad,"HRC Hayat Rehab Clinic Islamabad
4.9(176)
Addiction treatment center ·  · Bilal St
Open 24 hours · +92 331 5500090",Addiction treatment center,Open 24 hours,33.7188839,73.1720265,https://www.google.com/maps/place/HRC+Hayat+Rehab+Clinic+Islamabad/data=!4m7!3m6!1s0x38dfc19bfff5aa3b:0x57e07ebc5111cc21!8m2!3d33.7188839!4d73.1720265!16s%2Fg%2F11q1t258zl!19sChIJO6r1_5vB3zgRIcwRUbx-4Fc?authuser=0&hl=en&rclk=1,"Clanic, Islamabad"
127,drzarinakhandrnaeemk_33.713060_73.063080,Dr Zarina Khan & Dr Naeem Khan Clinic,"Dr Zarina Khan & Dr Naeem Khan Clinic
2.6(20)
Medical Center ·  · P377+66G, AA Plaza, Jinnah Ave, Block H, Blue Area, Islamabad, ICT
Closed ⋅ Opens 10 AM Fri · +92 51 8357428",Medical Center,Closed,33.71306,73.06308,https://www.google.com/maps/place/Dr+Zarina+Khan+%26+Dr+Naeem+Khan+Clinic/data=!4m7!3m6!1s0x38dfbfa2b39279c1:0xd020da688c9740f2!8m2!3d33.71306!4d73.06308!16s%2Fg%2F11xfmkzs5!19sChIJwXmSs6K_3zgR8kCXjGjaINA?authuser=0&hl=en&rclk=1,"Clanic, Islamabad"
128,alihospital_33.680692_73.035455,Ali Hospital,"Ali Hospital
3.8(90)
Hospital ·  · M2JP+75G, Street 17
Open 24 hours · +92 51 2255073",Hospital,Open 24 hours,33.6806918,73.0354553,https://www.google.com/maps/place/Ali+Hospital/data=!4m7!3m6!1s0x38df9513543203fb:0x1dd64dab1015462f!8m2!3d33.6806918!4d73.0354553!16s%2Fg%2F11h9sz11f_!19sChIJ-wMyVBOV3zgRL0YVEKtN1h0?authuser=0&hl=en&rclk=1,"Clanic, Islamabad"
129,islamabadhepatitisce_33.720986_73.079717,Islamabad Hepatitis Centre & Gutcare Clinic,"Islamabad Hepatitis Centre & Gutcare Clinic
No reviews
Medical clinic · United Plaza AK, AKM Fazl-ul-Haq Rd
Open ⋅ Closes 9 PM · +92 51 2804025",Medical clinic,Open,33.7209861,73.0797173,https://www.google.com/maps/place/Islamabad+Hepatitis+Centre+%26+Gutcare+Clinic/data=!4m7!3m6!1s0x38dfbfbbaf4e4381:0x575921858ce530e4!8m2!3d33.7209861!4d73.0797173!16s%2Fg%2F12mkwb7dk!19sChIJgUNOr7u_3zgR5DDljIUhWVc?authuser=0&hl=en&rclk=1,"Clanic, Islamabad"
130,familyplanningclinic_33.614562_73.126937,Family Planning Clinic,"Family Planning Clinic
3.0(2)
Family planning center · J47G+RQF",Family planning center,,33.6145625,73.1269375,https://www.google.com/maps/place/Family+Planning+Clinic/data=!4m7!3m6!1s0x38dfeb7092d92535:0x777ecbed406dff49!8m2!3d33.6145625!4d73.1269375!16s%2Fg%2F11dxr1w9hc!19sChIJNSXZknDr3zgRSf9tQO3Lfnc?authuser=0&hl=en&rclk=1,"Clanic, Islamabad"
131,zainabmedicaldentalc_33.568610_73.139784,Zainab Medical & Dental Clinic,"Zainab Medical & Dental Clinic
4.8(284)
Dental clinic ·  · Main PWD Rd, opposite bank alfalah
Open ⋅ Closes 11:30 PM · +92 343 5485407",Dental clinic,Open,33.5686098,73.1397836,https://www.google.com/maps/place/Zainab+Medical+%26+Dental+Clinic/data=!4m7!3m6!1s0x38dfed4d9de0aa91:0xb2214d39576b9a57!8m2!3d33.5686098!4d73.1397836!16s%2Fg%2F11p_7cbcct!19sChIJkargnU3t3zgRV5prVzlNIbI?authuser=0&hl=en&rclk=1,"Clanic, Islamabad"
132,aestheticsloungeskin_33.682226_72.980188,Aesthetics Lounge | Skin and Hair Clinic Islamabad | Dr. Aftab Afzal | Best Dermatologist,"Aesthetics Lounge | Skin and Hair Clinic Islamabad | Dr. Aftab Afzal | Best Dermatologist
4.8(359)
Dermatologist · House No 126, F11/2 Street 19
Closed ⋅ Opens 3 PM · +92 332 7979791",Dermatologist,Closed,33.6822263,72.9801879,https://www.google.com/maps/place/Aesthetics+Lounge+%7C+Skin+and+Hair+Clinic+Islamabad+%7C+Dr.+Aftab+Afzal+%7C+Best+Dermatologist/data=!4m7!3m6!1s0x38dfbf1ed7460507:0xe768149fea9f4c18!8m2!3d33.6822263!4d72.9801879!16s%2Fg%2F11h8171y96!19sChIJBwVG1x6_3zgRGEyf6p8UaOc?authuser=0&hl=en&rclk=1,"Clanic, Islamabad"
133,profdrikramullahkhan_33.693523_72.993837,Prof. Dr. Ikram Ullah Khan | Best Dermatologist in Islamabad | Best Skin Specialist,"Prof. Dr. Ikram Ullah Khan | Best Dermatologist in Islamabad | Best Skin Specialist
4.4(2,830)
Skin care clinic · House No. 518, Margalla Road, Service Rd N
Open ⋅ Closes 8 PM · +92 51 2211779",Skin care clinic,Open,33.6935235,72.9938372,https://www.google.com/maps/place/Prof.+Dr.+Ikram+Ullah+Khan+%7C+Best+Dermatologist+in+Islamabad+%7C+Best+Skin+Specialist/data=!4m7!3m6!1s0x38dfbe755dd2568f:0x559dc4d83060e80f!8m2!3d33.6935235!4d72.9938372!16s%2Fg%2F11c7s_10d4!19sChIJj1bSXXW-3zgRD-hgMNjEnVU?authuser=0&hl=en&rclk=1,"Clanic, Islamabad"
134,carewellhospitalandm_33.641739_72.972626,CareWell Hospital and maternity clinic,"CareWell Hospital and maternity clinic
4.6(7)
Hospital ·  · 3 Khayaban-e-Faiz Rd
Open 24 hours · +92 51 2717999",Hospital,Open 24 hours,33.641739,72.9726264,https://www.google.com/maps/place/CareWell+Hospital+and+maternity+clinic/data=!4m7!3m6!1s0x38df979a5bf4ab85:0xd0cf388fff30f031!8m2!3d33.641739!4d72.9726264!16s%2Fg%2F11shdg44ch!19sChIJhav0W5qX3zgRMfAw_484z9A?authuser=0&hl=en&rclk=1,"Clanic, Islamabad"
135,ipalclinic_33.717266_73.045957,IPAL Clinic,"IPAL Clinic
4.0(115)
Skin care clinic ·  · House 28 Street 10
Open ⋅ Closes 4:30 PM · +92 51 8896773",Skin care clinic,Open,33.7172658,73.0459569,https://www.google.com/maps/place/IPAL+Clinic/data=!4m7!3m6!1s0x38dfbf776ae3ffff:0xb66b26eb153545d9!8m2!3d33.7172658!4d73.0459569!16s%2Fg%2F11d_xlb7vm!19sChIJ___jane_3zgR2UU1Fesma7Y?authuser=0&hl=en&rclk=1,"Clanic, Islamabad"
136,amanateyehospitalraw_33.587252_73.066364,Amanat Eye Hospital Rawalpindi,"Amanat Eye Hospital Rawalpindi
4.7(2,021)
Eye care center ·  · 10-D Mayo Road
Open ⋅ Closes 8 PM · +92 51 8439993",Eye care center,Open,33.5872518,73.0663637,https://www.google.com/maps/place/Amanat+Eye+Hospital+Rawalpindi/data=!4m7!3m6!1s0x38df935dc4333d53:0xa7d989ebc4727fe!8m2!3d33.5872518!4d73.0663637!16s%2Fg%2F1tf060yh!19sChIJUz0zxF2T3zgR_idHvJ6YfQo?authuser=0&hl=en&rclk=1,"Clanic, Islamabad"
138,hopepetsclinicislama_33.643704_73.162750,Hope Pets Clinic Islamabad,"Hope Pets Clinic Islamabad
4.8(127)
Hospital · Islamabad diagnostic basement, Lehtrar Rd، near anum medical store
Open ⋅ Closes 10:30 PM · +92 300 5155589",Hospital,Open,33.6437039,73.1627497,https://www.google.com/maps/place/Hope+Pets+Clinic+Islamabad/data=!4m7!3m6!1s0x38dfebcc031ceeb9:0x9c906645aa2883b3!8m2!3d33.6437039!4d73.1627497!16s%2Fg%2F11f9xgj331!19sChIJue4cA8zr3zgRs4MoqkVmkJw?authuser=0&hl=en&rclk=1,"Clanic, Islamabad"
139,drasmatkakaraestheti_33.666657_73.076139,Dr. Asmat Kakar | Aesthetician & Dermatologist in Islamabad | Specialist in Laser Skin & HIFU Tteatment,"Dr. Asmat Kakar | Aesthetician & Dermatologist in Islamabad | Specialist in Laser Skin & HIFU Tteatment
4.9(12)
Skin care clinic · Office#6, Pakland Business Center, THIRD floor
Open ⋅ Closes 9 PM · +92 318 4903042",Skin care clinic,Open,33.6666574,73.0761395,https://www.google.com/maps/place/Dr.+Asmat+Kakar+%7C+Aesthetician+%26+Dermatologist+in+Islamabad+%7C+Specialist+in+Laser+Skin+%26+HIFU+Tteatment/data=!4m7!3m6!1s0x38df95da381a034b:0xcf8e8d1a8ad8f042!8m2!3d33.6666574!4d73.0761395!16s%2Fg%2F11trdp1nkq!19sChIJSwMaONqV3zgRQvDYihqNjs8?authuser=0&hl=en&rclk=1,"Clanic, Islamabad"
140,aestheticareskinlase_33.725194_73.077623,Aestheticare Skin & Laser Clinic Islamabad,"Aestheticare Skin & Laser Clinic Islamabad
5.0(1)
Skin care clinic · 32, House, 58 Street
Closed ⋅ Opens 3 PM Fri · +92 300 8488314",Skin care clinic,Closed,33.7251939,73.0776229,https://www.google.com/maps/place/Aestheticare+Skin+%26+Laser+Clinic+Islamabad/data=!4m7!3m6!1s0x38dfbf4b2f7a3fe1:0xbf078dc88c278954!8m2!3d33.7251939!4d73.0776229!16s%2Fg%2F11nfv8b5rt!19sChIJ4T96L0u_3zgRVIknjMiNB78?authuser=0&hl=en&rclk=1,"Clanic, Islamabad"
141,aliclinic_33.712110_73.083022,Ali Clinic,"Ali Clinic
No reviews
Walk-in clinic · P36M+R6R, Street 40",Walk-in clinic,,33.7121097,73.0830224,https://www.google.com/maps/place/Ali+Clinic/data=!4m7!3m6!1s0x38dfbf893c90e3e7:0x5bf0bda9e765eac6!8m2!3d33.7121097!4d73.0830224!16s%2Fg%2F1pp2vjq9t!19sChIJ5-OQPIm_3zgRxupl56m98Fs?authuser=0&hl=en&rclk=1,"Clanic, Islamabad"
142,skinlaserclinic_33.722187_73.081563,Skin & Laser Clinic,"Skin & Laser Clinic
3.5(2)
Skin care clinic · Huma Plaza P3CJ+VJH Fazal-e-Haq Rd
Closed ⋅ Opens 6:30 PM · +92 51 2872511",Skin care clinic,Closed,33.7221875,73.0815625,https://www.google.com/maps/place/Skin+%26+Laser+Clinic/data=!4m7!3m6!1s0x38dfbf83e0b1d075:0x62a603eefeb88d8b!8m2!3d33.7221875!4d73.0815625!16s%2Fg%2F12mkw8lcl!19sChIJddCx4IO_3zgRi424_u4DpmI?authuser=0&hl=en&rclk=1,"Clanic, Islamabad"
143,glutathionetreatment_33.667697_73.075207,Glutathione Treatment Clinic Islamabad Pakistan - Whitening Injections,"Glutathione Treatment Clinic Islamabad Pakistan - Whitening Injections
5.0(5)
Skin care clinic · 1st Floor, Office No, City Centre, 31
Open 24 hours · +92 327 5479779",Skin care clinic,Open 24 hours,33.6676974,73.0752068,https://www.google.com/maps/place/Glutathione+Treatment+Clinic+Islamabad+Pakistan+-+Whitening+Injections/data=!4m7!3m6!1s0x38df9537c807ed93:0x1001e26a9224a551!8m2!3d33.6676974!4d73.0752068!16s%2Fg%2F11sf926wb0!19sChIJk-0HyDeV3zgRUaUkkmriARA?authuser=0&hl=en&rclk=1,"Clanic, Islamabad"
144,skinlyaestheticsclin_33.702477_72.948235,Skinly Aesthetics Clinic,"Skinly Aesthetics Clinic
4.9(9)
Hospital · PW3X+25
Closed ⋅ Opens 3 PM · +92 331 3633426",Hospital,Closed,33.7024765,72.9482355,https://www.google.com/maps/place/Skinly+Aesthetics+Clinic/data=!4m7!3m6!1s0x38dfbd240707de7b:0x660ac56e28141f69!8m2!3d33.7024765!4d72.9482355!16s%2Fg%2F11p_2cfqw3!19sChIJe94HByS93zgRaR8UKG7FCmY?authuser=0&hl=en&rclk=1,"Clanic, Islamabad"
146,ujaladentalandaesthe_33.568010_73.138704,Ujala Dental and Aesthetic Clinic,"Ujala Dental and Aesthetic Clinic
5.0(22)
Hospital · H49Q+6F4, pwd islamabad
Open ⋅ Closes 9 PM · +92 335 9700352",Hospital,Open,33.5680101,73.1387038,https://www.google.com/maps/place/Ujala+Dental+and+Aesthetic+Clinic/data=!4m7!3m6!1s0x38dfed003e880297:0x22fa44e5d0fab819!8m2!3d33.5680101!4d73.1387038!16s%2Fg%2F11y42r6c47!19sChIJlwKIPgDt3zgRGbj60OVE-iI?authuser=0&hl=en&rclk=1,"Clanic, Islamabad"
147,jjaestheticshairtran_33.640322_73.061068,"JJ Aesthetics - Hair Transplant , Skin & Plastic Surgery Clinic in Islamabad and Rawalpindi","JJ Aesthetics - Hair Transplant , Skin & Plastic Surgery Clinic in Islamabad and Rawalpindi
4.9(1,578)
Plastic surgeon ·  · JJ Aesthetics Rajpoot Street Block E, Satellite Town Opposite Gate, 2 Holy Family Rd
Open ⋅ Closes 8:30 PM · +92 303 8211019",Plastic surgeon,Open,33.6403221,73.0610678,"https://www.google.com/maps/place/JJ+Aesthetics+-+Hair+Transplant+,+Skin+%26+Plastic+Surgery+Clinic+in+Islamabad+and+Rawalpindi/data=!4m7!3m6!1s0x38df951ba23c6ed3:0x98305854fb07a4de!8m2!3d33.6403221!4d73.0610678!16s%2Fg%2F11h0b6hg9n!19sChIJ0248ohuV3zgR3qQH-1RYMJg?authuser=0&hl=en&rclk=1","Clanic, Islamabad"
148,glamoroushydrafacial_33.738298_73.081317,Glamorous HydraFacial Clinic in Islamabad,"Glamorous HydraFacial Clinic in Islamabad
4.4(42)
Skin care clinic · 1st Floor, No 32, Pakland City Centre, Office
Open 24 hours · +92 333 5705871",Skin care clinic,Open 24 hours,33.7382981,73.0813166,https://www.google.com/maps/place/Glamorous+HydraFacial+Clinic+in+Islamabad/data=!4m7!3m6!1s0x38dfbf5aa559bcd5:0xb7187e30238e0ddf!8m2!3d33.7382981!4d73.0813166!16s%2Fg%2F11tf9nbwwy!19sChIJ1bxZpVq_3zgR3w2OIzB-GLc?authuser=0&hl=en&rclk=1,"Clanic, Islamabad"
149,entallergyclinic_33.696717_73.050043,ENT & Allergy Clinic,"ENT & Allergy Clinic
1.5(2)
Otolaryngology clinic · 2nd Floor, G8 Markaz، G8 Square, Doctors Plaza
+92 301 1255360",Otolaryngology clinic,,33.6967175,73.0500428,https://www.google.com/maps/place/ENT+%26+Allergy+Clinic/data=!4m7!3m6!1s0x38dfbfcaf33e03d3:0xb61e3d56305b0da8!8m2!3d33.6967175!4d73.0500428!16s%2Fg%2F11j7j4l_79!19sChIJ0wM-88q_3zgRqA1bMFY9HrY?authuser=0&hl=en&rclk=1,"Clanic, Islamabad"
150,doctorsclinic_33.555487_73.137171,Doctors Clinic,"Doctors Clinic
5.0(4)
Medical clinic · Hill road Bahria town
Open 24 hours · +92 325 5862686",Medical clinic,Open 24 hours,33.5554866,73.1371707,https://www.google.com/maps/place/Doctors+Clinic/data=!4m7!3m6!1s0x38dfede403828ffd:0x6f1e2597d30996bb!8m2!3d33.5554866!4d73.1371707!16s%2Fg%2F11v67jrc3k!19sChIJ_Y-CA-Tt3zgRu5YJ05clHm8?authuser=0&hl=en&rclk=1,"Clanic, Islamabad"
151,physiofittphysiother_33.715089_73.066862,Physiofitt - Physiotherapist Clinic Islamabad,"Physiofitt - Physiotherapist Clinic Islamabad
4.8(97)
Physical therapist ·  · Roshan centre, Lower ground
Open ⋅ Closes 11 PM · +92 345 5661110",Physical therapist,Open,33.7150895,73.0668624,https://www.google.com/maps/place/Physiofitt+-+Physiotherapist+Clinic+Islamabad/data=!4m7!3m6!1s0x38dfbf3d10c70a53:0x96c9a639f29cd898!8m2!3d33.7150895!4d73.0668624!16s%2Fg%2F11lfbgkv_d!19sChIJUwrHED2_3zgRmNic8jmmyZY?authuser=0&hl=en&rclk=1,"Clanic, Islamabad"
152,capitaldiagnosticcen_33.695118_73.051230,Capital Diagnostic Centre,"Capital Diagnostic Centre
3.4(115)
Diagnostic center ·  · Media Foundation Plaza
Open ⋅ Closes 12 AM · +92 51 8354601",Diagnostic center,Open,33.6951178,73.0512304,https://www.google.com/maps/place/Capital+Diagnostic+Centre/data=!4m7!3m6!1s0x38dfbfc8b68dcc6d:0x968ab590990cf04d!8m2!3d33.6951178!4d73.0512304!16s%2Fg%2F1q6jzg4kr!19sChIJbcyNtsi_3zgRTfAMmZC1ipY?authuser=0&hl=en&rclk=1,"Clanic, Islamabad"
153,ultrasoundclinic_33.713100_73.063150,Ultrasound Clinic,"Ultrasound Clinic
4.0(5)
Medical diagnostic imaging center ·  · P377+67J, AA Plaza, Jinnah Ave, Block H, Blue Area, Islamabad, ICT
Open ⋅ Closes 4 PM · +92 51 2348292",Medical diagnostic imaging center,Open,33.7131,73.06315,https://www.google.com/maps/place/Ultrasound+Clinic/data=!4m7!3m6!1s0x38dfbfa2b3c6b6cd:0xca2aa0f09d9ce6ec!8m2!3d33.7131!4d73.06315!16s%2Fg%2F11xnb6kp5!19sChIJzbbGs6K_3zgR7OacnfCgKso?authuser=0&hl=en&rclk=1,"Clanic, Islamabad"
154,estheticare_33.721407_73.051146,Estheticare,"Estheticare
4.9(921)
Dermatologist · Plaza 4 , Rana Market
Open ⋅ Closes 11 PM · +92 301 1111110",Dermatologist,Open,33.7214073,73.0511459,https://www.google.com/maps/place/Estheticare/data=!4m7!3m6!1s0x38dfbf7abc3c908b:0x52a601ce1c8f4f22!8m2!3d33.7214073!4d73.0511459!16s%2Fg%2F11ptywff05!19sChIJi5A8vHq_3zgRIk-PHM4BplI?authuser=0&hl=en&rclk=1,"Clanic, Islamabad"
155,dynamichydrafacialcl_33.722892_73.059394,Dynamic Hydrafacial Clinic in Islamabad,"Dynamic Hydrafacial Clinic in Islamabad
4.3(6)
Skin care clinic · Markaz, next to Khyber Bank
Open ⋅ Closes 8 AM Fri · +92 332 5500906",Skin care clinic,Open,33.7228923,73.059394,https://www.google.com/maps/place/Dynamic+Hydrafacial+Clinic+in+Islamabad/data=!4m7!3m6!1s0x38dfbfa8c8df349f:0xb73c42df833e54d1!8m2!3d33.7228923!4d73.059394!16s%2Fg%2F11vt6ljv_k!19sChIJnzTfyKi_3zgR0VQ-g99CPLc?authuser=0&hl=en&rclk=1,"Clanic, Islamabad"
156,elixirhairtransplant_33.678278_72.988198,Elixir Hair Transplant Center,"Elixir Hair Transplant Center
4.2(47)
Hair transplantation clinic ·  · House No, 5-A Double Road
Open ⋅ Closes 6:30 PM · +92 332 5778880",Hair transplantation clinic,Open,33.6782779,72.9881982,https://www.google.com/maps/place/Elixir+Hair+Transplant+Center/data=!4m7!3m6!1s0x38dfbe0c3d6407ab:0x1b10a574ef8f32de!8m2!3d33.6782779!4d72.9881982!16s%2Fg%2F11r9w3rpt!19sChIJqwdkPQy-3zgR3jKP73SlEBs?authuser=0&hl=en&rclk=1,"Clanic, Islamabad"
157,lifehomeoclinic_33.570903_73.137426,Life Homeo Clinic,"Life Homeo Clinic
2.7(6)
Fertility clinic
Closed ⋅ Opens 6 PM · +92 333 5104017",Fertility clinic,Closed,33.5709031,73.1374261,https://www.google.com/maps/place/Life+Homeo+Clinic/data=!4m7!3m6!1s0x38df9545c9bd83fb:0x321d9e22db2e6bcb!8m2!3d33.5709031!4d73.1374261!16s%2Fg%2F12mkzkgdr!19sChIJ-4O9yUWV3zgRy2su2yKeHTI?authuser=0&hl=en&rclk=1,"Clanic, Islamabad"
