Index,Place Id,Name,Address,Category,Status,Latitude,Longitude,Link,SearchKeyword
1,na_noloc,,,,,,,,"Dr., Islamabad"
5,drajmalosmanfatimacl_33.688607_73.013056,Dr. Ajmal Osman | Fatima Clinic F-10 | Top/Best (No.1) Specialist of Islamabad & Rawalpindi,,Hospital,Open,33.6886072,73.013056,https://www.google.com/maps/place/Dr.+Ajmal+Osman+%7C+Fatima+Clinic+F-10+%7C+Top%2FBest+%28No.1%29+Specialist+of+Islamabad+%26+Rawalpindi/data=!4m7!3m6!1s0x38dfbe1693dca1a1:0x4d05249fbcd133d5!8m2!3d33.6886072!4d73.013056!16s%2Fg%2F11fxx64hvf!19sChIJoaHckxa-3zgR1TPRvJ8kBU0?authuser=0&hl=en&rclk=1,"Dr., Islamabad"
37,islamabadspecialistc_33.696991_73.051271,Islamabad Specialist Clinic G-8 Markaz Islamabad,"Islamabad Specialist Clinic G-8 Markaz Islamabad
4.9(109)
Doctor ·  · G, 8 Markaz Rd
Open ⋅ Closes 9 PM · +92 343 0000433",Doctor,Open,33.6969906,73.0512707,https://www.google.com/maps/place/Islamabad+Specialist+Clinic+G-8+Markaz+Islamabad/data=!4m7!3m6!1s0x38dfbf6482f6aa81:0xae209a86fda47a8b!8m2!3d33.6969906!4d73.0512707!16s%2Fg%2F11hf72mc2q!19sChIJgar2gmS_3zgRi3qk_YaaIK4?authuser=0&hl=en&rclk=1,"Dr., Islamabad"
38,islamabadspecialists_33.711194_73.041715,Islamabad Specialists Clinic F8,"Islamabad Specialists Clinic F8
3.7(70)
Doctor ·  · Kiran Plaza، 13-B Kohistan Rd
Open ⋅ Closes 10 PM · +92 343 0000433",Doctor,Open,33.7111944,73.0417154,https://www.google.com/maps/place/Islamabad+Specialists+Clinic+F8/data=!4m7!3m6!1s0x38dfbfad4708d48d:0x941929274b3a9944!8m2!3d33.7111944!4d73.0417154!16s%2Fg%2F11xmdm97h!19sChIJjdQIR62_3zgRRJk6SycpGZQ?authuser=0&hl=en&rclk=1,"Dr., Islamabad"
39,drmuneebullahgeneral_33.697480_73.011910,Dr. Muneeb Ullah (General & Laparoscopic Surgeon),"Dr. Muneeb Ullah (General & Laparoscopic Surgeon)
5.0(283)
Surgeon ·  · MAROOF International Hospital
Open ⋅ Closes 6 PM · +92 334 5215334",Surgeon,Open,33.6974802,73.0119105,https://www.google.com/maps/place/Dr.+Muneeb+Ullah+%28General+%26+Laparoscopic+Surgeon%29/data=!4m7!3m6!1s0x38dfbfaa337786c1:0x19a9a794755a8550!8m2!3d33.6974802!4d73.0119105!16s%2Fg%2F11rxldc4bn!19sChIJwYZ3M6q_3zgRUIVadZSnqRk?authuser=0&hl=en&rclk=1,"Dr., Islamabad"
40,professordoctorraufn_33.694265_73.012907,Professor Doctor Rauf Niazi Clinic,"Professor Doctor Rauf Niazi Clinic
4.4(172)
Doctor ·  · Office 9, 10, Unit 1Q, Al mustafa mansion, Qadeer City Centre, near tanti optics
Opens soon ⋅ 2:30 PM · +92 51 2299466",Doctor,Opens soon,33.6942649,73.0129074,https://www.google.com/maps/place/Professor+Doctor+Rauf+Niazi+Clinic/data=!4m7!3m6!1s0x38dfbe14cf687c3b:0xa24761ba024b343d!8m2!3d33.6942649!4d73.0129074!16s%2Fg%2F12mkw8lby!19sChIJO3xozxS-3zgRPTRLArphR6I?authuser=0&hl=en&rclk=1,"Dr., Islamabad"
41,drfaisalmurad_33.692392_72.995464,Dr. Faisal Murad,"Dr. Faisal Murad
5.0(163)
Surgeon ·  · F, 10 Street 10
Open ⋅ Closes 7 PM · +92 333 5103148",Surgeon,Open,33.6923922,72.9954642,https://www.google.com/maps/place/Dr.+Faisal+Murad/data=!4m7!3m6!1s0x38dfbf428ac25e57:0xde74481f24712666!8m2!3d33.6923922!4d72.9954642!16s%2Fg%2F11ttb471my!19sChIJV17CikK_3zgRZiZxJB9IdN4?authuser=0&hl=en&rclk=1,"Dr., Islamabad"
42,dryassermasoodchildn_33.674264_73.065600,"Dr Yasser Masood , Child & Newborn Specialist Islamabad","Dr Yasser Masood , Child & Newborn Specialist Islamabad
4.8(139)
Pediatrician ·  · Shifa International Hospital, Pitras Bukhari Rd
Open ⋅ Closes 5 PM · +92 51 8463256",Pediatrician,Open,33.674264,73.0655997,"https://www.google.com/maps/place/Dr+Yasser+Masood+,+Child+%26+Newborn+Specialist+Islamabad/data=!4m7!3m6!1s0x38dfbf7bf1303ecf:0x8746b8e24d7e48c8!8m2!3d33.674264!4d73.0655997!16s%2Fg%2F11lgg4kqhh!19sChIJzz4w8Xu_3zgRyEh-TeK4Roc?authuser=0&hl=en&rclk=1","Dr., Islamabad"
43,drjunaidshahzadentsp_33.698028_73.048982,Dr Junaid Shahzad | ENT specialist in Islamabad | Rhinoplasty | Sinus Surgery | Ear cleaning,"Dr Junaid Shahzad | ENT specialist in Islamabad | Rhinoplasty | Sinus Surgery | Ear cleaning
4.8(484)
Otolaryngologist ·  · Ground floor, M3W2+M2M JSK ENT clinic, Executive complex
Open ⋅ Closes 5 PM · +92 314 5325939",Otolaryngologist,Open,33.6980278,73.0489821,https://www.google.com/maps/place/Dr+Junaid+Shahzad+%7C+ENT+specialist+in+Islamabad+%7C+Rhinoplasty+%7C+Sinus+Surgery+%7C+Ear+cleaning/data=!4m7!3m6!1s0x38dfbf4880f6d677:0x8163e5273208931b!8m2!3d33.6980278!4d73.0489821!16s%2Fg%2F11fmz8vlr6!19sChIJd9b2gEi_3zgRG5MIMiflY4E?authuser=0&hl=en&rclk=1,"Dr., Islamabad"
44,sexologistinislamaba_33.669058_73.000499,"Sexologist in Islamabad, Dr. Zain Ali","Sexologist in Islamabad, Dr. Zain Ali
4.6(90)
Sexologist · Noor General Hospital. Ground floor, Al-Rehman Plaza, near Shaheen Grocers & Chemist
Closed ⋅ Opens 7 PM · +92 335 7555700",Sexologist,Closed,33.669058,73.0004992,"https://www.google.com/maps/place/Sexologist+in+Islamabad,+Dr.+Zain+Ali/data=!4m7!3m6!1s0x38df95bb48924767:0xc0eab6657ce081d0!8m2!3d33.669058!4d73.0004992!16s%2Fg%2F11r6ckckp5!19sChIJZ0eSSLuV3zgR0IHgfGW26sA?authuser=0&hl=en&rclk=1","Dr., Islamabad"
45,drsyedwazahattaqvisp_33.714165_73.040212,Dr. Syed Wazahat Taqvi ( Spinal and Orthopedic surgeon),"Dr. Syed Wazahat Taqvi ( Spinal and Orthopedic surgeon)
5.0(96)
Orthopedic clinic ·  · Ali Medical center, Islamabad specialist clinic
Open ⋅ Closes 7 PM · +92 331 8825552",Orthopedic clinic,Open,33.7141645,73.040212,https://www.google.com/maps/place/Dr.+Syed+Wazahat+Taqvi+%28+Spinal+and+Orthopedic+surgeon%29/data=!4m7!3m6!1s0x38dfbfb5671069d9:0x6e1f60899a3f4849!8m2!3d33.7141645!4d73.040212!16s%2Fg%2F11rd_8m28y!19sChIJ2WkQZ7W_3zgRSUg_molgH24?authuser=0&hl=en&rclk=1,"Dr., Islamabad"
46,drfaryalmehmoodendoc_33.711155_73.041480,"Dr Faryal Mehmood – Endocrinologist, Diabetes Specialist in Islamabad (F8 Clinic)","Dr Faryal Mehmood – Endocrinologist, Diabetes Specialist in Islamabad (F8 Clinic)
3.8(56)
Doctor ·  · Kiran Plaza
Open ⋅ Closes 10 PM · +92 333 0926083",Doctor,Open,33.711155,73.0414798,"https://www.google.com/maps/place/Dr+Faryal+Mehmood+%E2%80%93+Endocrinologist,+Diabetes+Specialist+in+Islamabad+%28F8+Clinic%29/data=!4m7!3m6!1s0x38dfbf96e93f80af:0xd4c78634630208cf!8m2!3d33.711155!4d73.0414798!16s%2Fg%2F11h37rgrvk!19sChIJr4A_6Za_3zgRzwgCYzSGx9Q?authuser=0&hl=en&rclk=1","Dr., Islamabad"
47,drahmedshahabgpclini_33.725127_73.044353,Dr. Ahmed Shahab (GP Clinic),"Dr. Ahmed Shahab (GP Clinic)
5.0(28)
Doctor ·  · house 250 Street 23
Open ⋅ Closes 6 PM · +92 300 8541212",Doctor,Open,33.7251266,73.0443527,https://www.google.com/maps/place/Dr.+Ahmed+Shahab+%28GP+Clinic%29/data=!4m7!3m6!1s0x38dfbf01418163d5:0x5c7b230c44970cd!8m2!3d33.7251266!4d73.0443527!16s%2Fg%2F11dxl9g2z9!19sChIJ1WOBQQG_3zgRzXBJxDCyxwU?authuser=0&hl=en&rclk=1,"Dr., Islamabad"
48,drsajjadnaseerbestpu_33.711212_73.041583,Dr Sajjad Naseer Best Pulmonologist/Chest Specialist Associate Professor,"Dr Sajjad Naseer Best Pulmonologist/Chest Specialist Associate Professor
4.9(149)
Pulmonologist ·  · Islamabad Specialist Clinic
Open ⋅ Closes 5 PM · +92 349 5007011",Pulmonologist,Open,33.7112124,73.0415825,https://www.google.com/maps/place/Dr+Sajjad+Naseer+Best+Pulmonologist%2FChest+Specialist+Associate+Professor/data=!4m7!3m6!1s0x38dfbf1357aed4c9:0xd3e8af76202c5bdc!8m2!3d33.7112124!4d73.0415825!16s%2Fg%2F11lkj1nrzd!19sChIJydSuVxO_3zgR3FssIHav6NM?authuser=0&hl=en&rclk=1,"Dr., Islamabad"
49,drmahvishzahrabestde_33.550675_73.112737,"Dr Mahvish Zahra (Best Dermatologist,Skin Specialist In Islamabad/Rawalpindi),Best Botox/lip fillers/Double chin liposuction","Dr Mahvish Zahra (Best Dermatologist,Skin Specialist In Islamabad/Rawalpindi),Best Botox/lip fillers/Double chin liposuction
4.9(297)
Dermatologist ·  · Grande Street 61
Open ⋅ Closes 10 PM · +92 314 8125393",Dermatologist,Open,33.550675,73.1127374,"https://www.google.com/maps/place/Dr+Mahvish+Zahra+%28Best+Dermatologist,Skin+Specialist+In+Islamabad%2FRawalpindi%29,Best+Botox%2Flip+fillers%2FDouble+chin+liposuction/data=!4m7!3m6!1s0x38dfebead7b144cd:0xd54682bd212e7638!8m2!3d33.550675!4d73.1127374!16s%2Fg%2F11sp66qfbg!19sChIJzUSx1-rr3zgROHYuIb2CRtU?authuser=0&hl=en&rclk=1","Dr., Islamabad"
50,drfarrukhzamanbestdi_33.711010_73.040815,Dr Farrukh Zaman - Best Diabetologist in Islamabad,"Dr Farrukh Zaman - Best Diabetologist in Islamabad
4.9(75)
Diabetologist ·  · Medcity International Hospital, Kohistan Rd, near IDC
Closed ⋅ Opens 4 PM · +92 312 5533999",Diabetologist,Closed,33.7110104,73.0408152,https://www.google.com/maps/place/Dr+Farrukh+Zaman+-+Best+Diabetologist+in+Islamabad/data=!4m7!3m6!1s0x38dfbfcb308c3e35:0xe98e52082babc30!8m2!3d33.7110104!4d73.0408152!16s%2Fg%2F11p0vj24bh!19sChIJNT6MMMu_3zgRMLy6giDlmA4?authuser=0&hl=en&rclk=1,"Dr., Islamabad"
51,drsajidnaseemrheumat_33.710702_73.041511,Dr Sajid Naseem Rheumatologist,"Dr Sajid Naseem Rheumatologist
5.0(25)
Rheumatologist ·  · Ali Medical Centre
Opens soon ⋅ 2:30 PM · +92 51 8090200",Rheumatologist,Opens soon,33.7107025,73.0415114,https://www.google.com/maps/place/Dr+Sajid+Naseem+Rheumatologist/data=!4m7!3m6!1s0x38dfbfa738f64065:0x795bf4867e395a65!8m2!3d33.7107025!4d73.0415114!16s%2Fg%2F11h6s1sxqc!19sChIJZUD2OKe_3zgRZVo5fob0W3k?authuser=0&hl=en&rclk=1,"Dr., Islamabad"
52,drtaliyasclinic_33.689457_73.039991,Dr. Taliya's Clinic,"Dr. Taliya's Clinic
3.9(117)
Medical Center ·  · Street #66, Noor Plaza, Taqwa Market
Open 24 hours · +92 51 2260010",Medical Center,Open 24 hours,33.6894567,73.0399914,https://www.google.com/maps/place/Dr.+Taliya%27s+Clinic/data=!4m7!3m6!1s0x38dfbe32c93d4c9b:0x57e939cbc65699b5!8m2!3d33.6894567!4d73.0399914!16s%2Fg%2F11b5s2gj9_!19sChIJm0w9yTK-3zgRtZlWxss56Vc?authuser=0&hl=en&rclk=1,"Dr., Islamabad"
53,drsadiaclinic_33.678657_73.008555,Dr.Sadia Clinic,"Dr.Sadia Clinic
4.7(162)
Obstetrician-gynecologist ·  · 189 Street 20
Open ⋅ Closes 4 PM · +92 321 5125726",Obstetrician-gynecologist,Open,33.6786566,73.0085551,https://www.google.com/maps/place/Dr.Sadia+Clinic/data=!4m7!3m6!1s0x38dfbf293d1b95ef:0x1ce7af56b044498c!8m2!3d33.6786566!4d73.0085551!16s%2Fg%2F11gjhfljhy!19sChIJ75UbPSm_3zgRjElEsFav5xw?authuser=0&hl=en&rclk=1,"Dr., Islamabad"
54,drammarageneralphysi_33.648485_73.040456,Dr Ammara general physician(Adult and child physician)(specialized doctors clinic),"Dr Ammara general physician(Adult and child physician)(specialized doctors clinic)
5.0(21)
Medical Center · Specialized doctors clinic, shoukat plaza, korang road near ABL parking, Markaz
Open 24 hours · +92 336 1110225",Medical Center,Open 24 hours,33.6484854,73.0404562,https://www.google.com/maps/place/Dr+Ammara+general+physician%28Adult+and+child+physician%29%28specialized+doctors+clinic%29/data=!4m7!3m6!1s0x38df958e1ba019af:0xcbfffc7dfe0d76ee!8m2!3d33.6484854!4d73.0404562!16s%2Fg%2F11wfrb_666!19sChIJrxmgG46V3zgR7nYN_n38_8s?authuser=0&hl=en&rclk=1,"Dr., Islamabad"
55,drsanajunaidabbasi_33.667313_73.104453,Dr Sana Junaid Abbasi,"Dr Sana Junaid Abbasi
4.9(287)
Obstetrician-gynecologist ·  · Plot 20 Street 38
Open ⋅ Closes 7 PM · +92 321 5152725",Obstetrician-gynecologist,Open,33.6673125,73.1044532,https://www.google.com/maps/place/Dr+Sana+Junaid+Abbasi/data=!4m7!3m6!1s0x38df959f6b53280b:0xd60f641b71e877eb!8m2!3d33.6673125!4d73.1044532!16s%2Fg%2F11mr237xsy!19sChIJCyhTa5-V3zgR63focRtkD9Y?authuser=0&hl=en&rclk=1,"Dr., Islamabad"
56,drazmatalibestdiabet_33.696908_73.051083,Dr Azmat Ali | Best Diabetologist in Islamabad | best doctor for Diabetes,"Dr Azmat Ali | Best Diabetologist in Islamabad | best doctor for Diabetes
4.2(5)
Doctor · Islamabad Specialist Clinic , Room no 2
Closed ⋅ Opens 3:30 PM · +92 51 2340257",Doctor,Closed,33.6969084,73.0510832,https://www.google.com/maps/place/Dr+Azmat+Ali+%7C+Best+Diabetologist+in+Islamabad+%7C+best+doctor+for+Diabetes/data=!4m7!3m6!1s0x38dfbfd5d7d639cb:0xd2b38893eaf2f37!8m2!3d33.6969084!4d73.0510832!16s%2Fg%2F11j_65cklf!19sChIJyznW19W_3zgRNy-vPok4Kw0?authuser=0&hl=en&rclk=1,"Dr., Islamabad"
57,assistantprofessordr_33.645093_72.963537,Assistant Professor Dr Saad Hameed Medical Specialist / Diabetologist Islamabad,"Assistant Professor Dr Saad Hameed Medical Specialist / Diabetologist Islamabad
4.9(57)
Doctor · Alaya Medical Center, Main Double Road
Closed ⋅ Opens 7:30 PM · +92 300 5257511",Doctor,Closed,33.6450927,72.9635366,https://www.google.com/maps/place/Assistant+Professor+Dr+Saad+Hameed+Medical+Specialist+%2F+Diabetologist+Islamabad/data=!4m7!3m6!1s0x38df97a33e811e95:0xd4cd7e292258ec05!8m2!3d33.6450927!4d72.9635366!16s%2Fg%2F11kc0z1r51!19sChIJlR6BPqOX3zgRBexYIil-zdQ?authuser=0&hl=en&rclk=1,"Dr., Islamabad"
58,islamabadentcenterpv_33.697989_73.048847,"Islamabad ENT Center-Pvt.Ltd"" (Rhinoplasty) Ear, Nose, Throat Specialist's, Surgeon's","Islamabad ENT Center-Pvt.Ltd"" (Rhinoplasty) Ear, Nose, Throat Specialist's, Surgeon's
4.8(186)
Otolaryngology clinic ·  · officia 20 Ground Floor, executive Complex, Back Side PSO Pump, Markaz, near TCS Office
Open ⋅ Closes 9 PM · +92 342 4512784",Otolaryngology clinic,Open,33.6979885,73.0488475,"https://www.google.com/maps/place/Islamabad+ENT+Center-Pvt.Ltd%22+%28Rhinoplasty%29+Ear,+Nose,+Throat+Specialist%27s,+Surgeon%27s/data=!4m7!3m6!1s0x38dfbfbf21ad4751:0xd3a073468163936!8m2!3d33.6979885!4d73.0488475!16s%2Fg%2F11mwys_dgl!19sChIJUUetIb-_3zgRNjkWaDQHOg0?authuser=0&hl=en&rclk=1","Dr., Islamabad"
59,drfaridullahkhanzimr_33.711115_73.041550,Dr Faridullah Khan Zimri (Islamabad Orthopedic and Spine Clinic),"Dr Faridullah Khan Zimri (Islamabad Orthopedic and Spine Clinic)
4.8(705)
Orthopedic clinic ·  · Rawal Arcade, Ground Floor Plot 13-C
Open ⋅ Closes 7 PM · +92 51 2266066",Orthopedic clinic,Open,33.7111145,73.0415504,https://www.google.com/maps/place/Dr+Faridullah+Khan+Zimri+%28Islamabad+Orthopedic+and+Spine+Clinic%29/data=!4m7!3m6!1s0x38dfbfc9a8629e41:0xee0449aed8852dc7!8m2!3d33.7111145!4d73.0415504!16s%2Fg%2F11r9911vm1!19sChIJQZ5iqMm_3zgRxy2F2K5JBO4?authuser=0&hl=en&rclk=1,"Dr., Islamabad"
60,dranwaarkianimaroofi_33.695385_73.012947,Dr Anwaar Kiani Maroof international hospital islamabad,"Dr Anwaar Kiani Maroof international hospital islamabad
5.0(1)
Doctor
Open ⋅ Closes 4:30 AM Fri · +92 300 0475577",Doctor,Open,33.6953852,73.0129467,https://www.google.com/maps/place/Dr+Anwaar+Kiani+Maroof+international+hospital+islamabad/data=!4m7!3m6!1s0x27191e6474cb9083:0xdda6655e30cc8f5e!8m2!3d33.6953852!4d73.0129467!16s%2Fg%2F11lnmsxnh7!19sChIJg5DLdGQeGScRXo_MMF5lpt0?authuser=0&hl=en&rclk=1,"Dr., Islamabad"
61,profdrinayatadilclin_33.709191_73.056302,Prof. Dr Inayat Adil Clinic,"Prof. Dr Inayat Adil Clinic
3.6(29)
Gastroenterologist · GutCare/City Clinic, Basement Gondal Plaza AKM Fazl-ul-Haq Rd, adjacent to Khyber Plaza, behind Nadra
Closed ⋅ Opens 5:30 PM · +92 300 5197153",Gastroenterologist,Closed,33.7091912,73.0563022,https://www.google.com/maps/place/Prof.+Dr+Inayat+Adil+Clinic/data=!4m7!3m6!1s0x38dfbfbcd76acdfb:0xc9e34d7c030e4af7!8m2!3d33.7091912!4d73.0563022!16s%2Fg%2F11xhh_ks7!19sChIJ-81q17y_3zgR90oOA3xN48k?authuser=0&hl=en&rclk=1,"Dr., Islamabad"
62,drsarimhashmatlodhi_33.696593_73.050488,Dr. Sarim Hashmat Lodhi,"Dr. Sarim Hashmat Lodhi
4.4(37)
Doctor ·  · Advance international hospital
Open ⋅ Closes 4 PM · +92 311 5033554",Doctor,Open,33.6965926,73.0504879,https://www.google.com/maps/place/Dr.+Sarim+Hashmat+Lodhi/data=!4m7!3m6!1s0x38df97ba7088ed21:0xd2d3c4fd8732938c!8m2!3d33.6965926!4d73.0504879!16s%2Fg%2F11j4w6btrj!19sChIJIe2IcLqX3zgRjJMyh_3E09I?authuser=0&hl=en&rclk=1,"Dr., Islamabad"
63,ladydrkhadijakhan_33.665926_73.068573,Lady Dr. Khadija Khan,"Lady Dr. Khadija Khan
4.3(60)
Doctor ·  · 382 Street 25
Closed ⋅ Opens 3 PM · +92 333 5190629",Doctor,Closed,33.6659264,73.068573,https://www.google.com/maps/place/Lady+Dr.+Khadija+Khan/data=!4m7!3m6!1s0x38df954115f4c12b:0x274f6fed1151b899!8m2!3d33.6659264!4d73.068573!16s%2Fg%2F11fxqm3b_j!19sChIJK8H0FUGV3zgRmbhREe1vTyc?authuser=0&hl=en&rclk=1,"Dr., Islamabad"
64,drsaleemqureshiclini_33.733390_73.071273,Dr Saleem Qureshi Clinic,"Dr Saleem Qureshi Clinic
4.6(30)
Doctor ·  · House #11 Hill Rd
+92 51 2825659",Doctor,,33.7333898,73.0712725,https://www.google.com/maps/place/Dr+Saleem+Qureshi+Clinic/data=!4m7!3m6!1s0x38dfbf5a23be1205:0x8b32a885364615de!8m2!3d33.7333898!4d73.0712725!16s%2Fg%2F11h2hjlfl2!19sChIJBRK-I1q_3zgR3hVGNoWoMos?authuser=0&hl=en&rclk=1,"Dr., Islamabad"
65,drsyedtanseerasghar_33.718041_73.072767,Dr. Syed Tanseer Asghar,"Dr. Syed Tanseer Asghar
4.9(28)
Bariatric surgeon ·  · Kalsoom Plaza, Kalsoom International Hospital, Blue Area
Open ⋅ Closes 5 PM · +92 321 5110089",Bariatric surgeon,Open,33.718041,73.0727675,https://www.google.com/maps/place/Dr.+Syed+Tanseer+Asghar/data=!4m7!3m6!1s0x38df97e7545e7a81:0x1d3b906dd4d322f4!8m2!3d33.718041!4d73.0727675!16s%2Fg%2F11fky_t9xh!19sChIJgXpeVOeX3zgR9CLT1G2QOx0?authuser=0&hl=en&rclk=1,"Dr., Islamabad"
66,drfarahwaqasmbbsfcps_33.615573_73.133361,"Dr Farah Waqas MBBS,FCPS, RMP. Specialist Gynaecologist & Obstetrician","Dr Farah Waqas MBBS,FCPS, RMP. Specialist Gynaecologist & Obstetrician
4.9(143)
Obstetrician-gynecologist ·  · Mothers Care Clinic Street 2 Ghori Town
Closed ⋅ Opens 5:30 PM · +92 324 5800706",Obstetrician-gynecologist,Closed,33.6155728,73.1333607,"https://www.google.com/maps/place/Dr+Farah+Waqas+MBBS,FCPS,+RMP.+Specialist+Gynaecologist+%26+Obstetrician/data=!4m7!3m6!1s0x38dfeb20bab54b0b:0x928e0a5ae1084b4a!8m2!3d33.6155728!4d73.1333607!16s%2Fg%2F11m0ps6057!19sChIJC0u1uiDr3zgRSksI4VoKjpI?authuser=0&hl=en&rclk=1","Dr., Islamabad"
67,driftikharahmedmalik_33.722613_73.082213,Dr Iftikhar Ahmed Malik Clinic,"Dr Iftikhar Ahmed Malik Clinic
5.0(23)
Occupational medical physician · Huma plaza blue area opsite poly clinic
+92 334 5011890",Occupational medical physician,,33.7226134,73.0822134,https://www.google.com/maps/place/Dr+Iftikhar+Ahmed+Malik+Clinic/data=!4m7!3m6!1s0x38dfbf8160df611f:0xc865963bf4ca6c9!8m2!3d33.7226134!4d73.0822134!16s%2Fg%2F11xnkjynx!19sChIJH2HfYIG_3zgRyaZMv2NZhgw?authuser=0&hl=en&rclk=1,"Dr., Islamabad"
68,dromerhassaanaftabah_33.698290_73.049154,Dr. Omer Hassaan Aftab Ahmad Gastroenterologist and Hepatologist,"Dr. Omer Hassaan Aftab Ahmad Gastroenterologist and Hepatologist
4.9(325)
Gastroenterologist ·  · 12-A, LG Floor, Omer Diagnostic & Specialist Clinics, CBC Plaza
Open ⋅ Closes 6 PM · +92 336 5993116",Gastroenterologist,Open,33.6982897,73.0491536,https://www.google.com/maps/place/Dr.+Omer+Hassaan+Aftab+Ahmad+Gastroenterologist+and+Hepatologist/data=!4m7!3m6!1s0x38dfbf4a8f420f77:0x2192acf1c88ef058!8m2!3d33.6982897!4d73.0491536!16s%2Fg%2F11q250kz3k!19sChIJdw9Cj0q_3zgRWPCOyPGskiE?authuser=0&hl=en&rclk=1,"Dr., Islamabad"
69,drhafizmohammadzubai_33.677937_73.030062,Dr Hafiz Mohammad Zubair Gastroenterologist / Diabetes specialist / Medical specialist in islamabad,"Dr Hafiz Mohammad Zubair Gastroenterologist / Diabetes specialist / Medical specialist in islamabad
4.9(158)
Diabetologist ·  · G, 9/1 Street 30
Open ⋅ Closes 11 PM · +92 334 7576553",Diabetologist,Open,33.6779375,73.0300625,https://www.google.com/maps/place/Dr+Hafiz+Mohammad+Zubair+Gastroenterologist+%2F+Diabetes+specialist+%2F+Medical+specialist+in+islamabad/data=!4m7!3m6!1s0x38dfbf0008371c81:0x2124920bd91a6c36!8m2!3d33.6779375!4d73.0300625!16s%2Fg%2F11vpcxq_f6!19sChIJgRw3CAC_3zgRNmwa2QuSJCE?authuser=0&hl=en&rclk=1,"Dr., Islamabad"
70,drmohibullahmushwani_33.677652_73.029794,Dr. Mohibullah Mushwani,"Dr. Mohibullah Mushwani
4.9(114)
Otolaryngologist ·  · Zobia Hospital, I & T Center, 150 Street 30
Closed ⋅ Opens 3 PM · +92 333 7660661",Otolaryngologist,Closed,33.6776517,73.0297944,https://www.google.com/maps/place/Dr.+Mohibullah+Mushwani/data=!4m7!3m6!1s0x38df97214d715cf1:0x8982d1b5943d2cd9!8m2!3d33.6776517!4d73.0297944!16s%2Fg%2F11lfh3zd57!19sChIJ8VxxTSGX3zgR2Sw9lLXRgok?authuser=0&hl=en&rclk=1,"Dr., Islamabad"
71,alimedicalcentre_33.710413_73.042016,Ali Medical Centre,"Ali Medical Centre
3.4(730)
Private hospital ·  · P26Q+JWM, Kohistan Rd
Open 24 hours · +92 51 8090200",Private hospital,Open 24 hours,33.7104129,73.0420161,https://www.google.com/maps/place/Ali+Medical+Centre/data=!4m7!3m6!1s0x38dfbfad680bca0d:0x8035f4aacf56cf3d!8m2!3d33.7104129!4d73.0420161!16s%2Fg%2F1tgw88nw!19sChIJDcoLaK2_3zgRPc9Wz6r0NYA?authuser=0&hl=en&rclk=1,"Dr., Islamabad"
72,sexologistinislamaba_33.711921_73.060855,Sexologist in Islamabad Dr Farooq Nasim Bhatti,"Sexologist in Islamabad Dr Farooq Nasim Bhatti
4.7(21)
Sexologist · Margala Clinic 64-East Masco Plaza Jinnah Ave, Block H، Blue
Open ⋅ Closes 5 PM · +92 300 4577606",Sexologist,Open,33.711921,73.0608554,https://www.google.com/maps/place/Sexologist+in+Islamabad+Dr+Farooq+Nasim+Bhatti/data=!4m7!3m6!1s0x38dfbfbcd7c863a7:0xec810e7bfe4c5364!8m2!3d33.711921!4d73.0608554!16s%2Fg%2F12mkw8d46!19sChIJp2PI17y_3zgRZFNM_nsOgew?authuser=0&hl=en&rclk=1,"Dr., Islamabad"
73,draliyakhalidpsychia_33.710520_73.041911,Dr Aliya Khalid Psychiatrist,"Dr Aliya Khalid Psychiatrist
4.3(37)
Psychiatrist ·  · Ali Medical Center, Basement Room 5
Closed ⋅ Opens 11 AM Fri · +92 332 2221555",Psychiatrist,Closed,33.71052,73.041911,https://www.google.com/maps/place/Dr+Aliya+Khalid+Psychiatrist/data=!4m7!3m6!1s0x38dfbfd9e2f52c25:0xb5d39b5afef95921!8m2!3d33.71052!4d73.041911!16s%2Fg%2F11qnvpmnxb!19sChIJJSz14tm_3zgRIVn5_lqb07U?authuser=0&hl=en&rclk=1,"Dr., Islamabad"
74,drrizwansultan_33.680702_73.035475,Dr Rizwan Sultan,"Dr Rizwan Sultan
4.6(40)
Surgeon ·  · Street 31
Closed ⋅ Opens 7 PM · +92 51 2255073",Surgeon,Closed,33.6807022,73.0354745,https://www.google.com/maps/place/Dr+Rizwan+Sultan/data=!4m7!3m6!1s0x38dfbfccb85c6c6d:0x5d6e6ee0160f3b4e!8m2!3d33.6807022!4d73.0354745!16s%2Fg%2F11q367j24_!19sChIJbWxcuMy_3zgRTjsPFuBubl0?authuser=0&hl=en&rclk=1,"Dr., Islamabad"
75,profdrakbaralikhanbe_33.697672_73.011900,Prof. Dr. Akbar Ali Khan (Best Minimally Invasive Brain and Spinal Neurosurgeon) Islamabad Pakistan,"Prof. Dr. Akbar Ali Khan (Best Minimally Invasive Brain and Spinal Neurosurgeon) Islamabad Pakistan
4.7(539)
Neurosurgeon ·  · Maroof International, 10th Avenue
Closes soon ⋅ 3 PM ⋅ Opens 11 AM Fri · +92 303 5645833",Neurosurgeon,Closes soon,33.6976723,73.0119001,https://www.google.com/maps/place/Prof.+Dr.+Akbar+Ali+Khan+%28Best+Minimally+Invasive+Brain+and+Spinal+Neurosurgeon%29+Islamabad+Pakistan/data=!4m7!3m6!1s0x38df95de0014fce5:0x1601774d019af414!8m2!3d33.6976723!4d73.0119001!16s%2Fg%2F11flbsh25c!19sChIJ5fwUAN6V3zgRFPSaAU13ARY?authuser=0&hl=en&rclk=1,"Dr., Islamabad"
76,drshazlimanzoorsclin_33.717055_73.064892,Dr Shazli Manzoor's Clinic,"Dr Shazli Manzoor's Clinic
3.2(144)
Pulmonologist ·  · house 52, Sector f7, 4 Street 54
Closed ⋅ Opens 4:30 PM · +92 331 5378141",Pulmonologist,Closed,33.7170551,73.0648923,https://www.google.com/maps/place/Dr+Shazli+Manzoor%27s+Clinic/data=!4m7!3m6!1s0x38dfbf27e33ab1f5:0x8dfbf0d426a24983!8m2!3d33.7170551!4d73.0648923!16s%2Fg%2F11nmr3fylb!19sChIJ9bE64ye_3zgRg0miJtTw-40?authuser=0&hl=en&rclk=1,"Dr., Islamabad"
77,draasmatayyabkhanisl_33.715395_73.054802,DR AASMA TAYYAB KHAN - Islamabad laser and skin clinic | Best dermatologist in Islamabad | Best laser clinic,"DR AASMA TAYYAB KHAN - Islamabad laser and skin clinic | Best dermatologist in Islamabad | Best laser clinic
4.9(927)
Dermatologist · Faisal Market، plot 6, first floor, Islamabad Laser and Skin Clinic Al-Sheikh Plaza
Open ⋅ Closes 5 PM · +92 331 5005904",Dermatologist,Open,33.7153949,73.0548025,https://www.google.com/maps/place/DR+AASMA+TAYYAB+KHAN+-+Islamabad+laser+and+skin+clinic+%7C+Best+dermatologist+in+Islamabad+%7C+Best+laser+clinic/data=!4m7!3m6!1s0x38dfbf719ba93491:0xae95545bd08cc6f5!8m2!3d33.7153949!4d73.0548025!16s%2Fg%2F11s_s620p9!19sChIJkTSpm3G_3zgR9caM0FtUla4?authuser=0&hl=en&rclk=1,"Dr., Islamabad"
78,pafhospitalislamabad_33.708229_73.015313,PAF Hospital Islamabad,"PAF Hospital Islamabad
3.7(690)
Doctor ·  · Main Margalla Rd
Open 24 hours · +92 51 9564000",Doctor,Open 24 hours,33.708229,73.015313,https://www.google.com/maps/place/PAF+Hospital+Islamabad/data=!4m7!3m6!1s0x38dfbf22bfada2c1:0xa4d9acbf9789555b!8m2!3d33.708229!4d73.015313!16s%2Fg%2F11gmgd5zhy!19sChIJwaKtvyK_3zgRW1WJl7-s2aQ?authuser=0&hl=en&rclk=1,"Dr., Islamabad"
79,drarshadhealthassoci_33.740496_73.082065,"Dr Arshad Health Associates - F-6/3, Clinic","Dr Arshad Health Associates - F-6/3, Clinic
4.7(463)
Medical clinic ·  · No. 20 Street 1
Open ⋅ Closes 7 PM · +92 51 111 155 666",Medical clinic,Open,33.7404955,73.0820651,"https://www.google.com/maps/place/Dr+Arshad+Health+Associates+-+F-6%2F3,+Clinic/data=!4m7!3m6!1s0x38dfbf638139d93f:0xf48e5cdd8aeb0570!8m2!3d33.7404955!4d73.0820651!16s%2Fg%2F11g72hk9r2!19sChIJP9k5gWO_3zgRcAXrit1cjvQ?authuser=0&hl=en&rclk=1","Dr., Islamabad"
80,jskclinicsentspecial_33.698008_73.049001,JSK clinics | ENT specialist | Skin specialist |Endocrinologist,"JSK clinics | ENT specialist | Skin specialist |Endocrinologist
4.8(37)
Otolaryngology clinic · Ground Floor, JSK ENT clinic, Executive complex, Markaz Rd
Open ⋅ Closes 5 PM · +92 331 5050705",Otolaryngology clinic,Open,33.6980081,73.0490007,https://www.google.com/maps/place/JSK+clinics+%7C+ENT+specialist+%7C+Skin+specialist+%7CEndocrinologist/data=!4m7!3m6!1s0x38dfbffc57a2fd89:0xaa527c7132b2e92d!8m2!3d33.6980081!4d73.0490007!16s%2Fg%2F11fmtg6sdy!19sChIJif2iV_y_3zgRLemyMnF8Uqo?authuser=0&hl=en&rclk=1,"Dr., Islamabad"
81,drshumailakhan_33.689510_73.003700,Dr. Shumaila Khan,"Dr. Shumaila Khan
4.2(521)
Dermatologist ·  · A-103، Main Sumbal Rd
Open ⋅ Closes 6 PM · +92 303 5558444",Dermatologist,Open,33.6895101,73.0037,https://www.google.com/maps/place/Dr.+Shumaila+Khan/data=!4m7!3m6!1s0x38dfbe0d94e377ef:0x75441eadaf1a588a!8m2!3d33.6895101!4d73.0037!16s%2Fg%2F1pp2vdpyg!19sChIJ73fjlA2-3zgRilgar60eRHU?authuser=0&hl=en&rclk=1,"Dr., Islamabad"
82,drsaniyahwajahatbest_33.722563_73.060438,DR SANIYAH WAJAHAT | Best Dermatologist in Islamabad | Best Laser in Islamabad | Derma Bliss,"DR SANIYAH WAJAHAT | Best Dermatologist in Islamabad | Best Laser in Islamabad | Derma Bliss
4.8(162)
Dermatologist · Shop 8-13, Lower Ground Floor, Pakland Trade Center, Jinnah Super Market, next to Bareeze
Open ⋅ Closes 7 PM · +92 331 5005863",Dermatologist,Open,33.7225625,73.0604375,https://www.google.com/maps/place/DR+SANIYAH+WAJAHAT+%7C+Best+Dermatologist+in+Islamabad+%7C+Best+Laser+in+Islamabad+%7C+Derma+Bliss/data=!4m7!3m6!1s0x38dfbf7ecfcbe3c9:0x9759946998c8ed5a!8m2!3d33.7225625!4d73.0604375!16s%2Fg%2F11h8fpk3rx!19sChIJyePLz36_3zgRWu3ImGmUWZc?authuser=0&hl=en&rclk=1,"Dr., Islamabad"
83,doctorayazsaeedclini_33.690269_73.030859,Doctor Ayaz Saeed Clinic,"Doctor Ayaz Saeed Clinic
4.6(25)
Medical clinic · M2RJ+485
Open ⋅ Closes 8 PM · +92 51 2256966",Medical clinic,Open,33.6902686,73.030859,https://www.google.com/maps/place/Doctor+Ayaz+Saeed+Clinic/data=!4m7!3m6!1s0x38dfbe30ef4e3973:0xac4d213f32baa8e8!8m2!3d33.6902686!4d73.030859!16s%2Fg%2F11g7csg6xt!19sChIJczlO7zC-3zgR6Ki6Mj8hTaw?authuser=0&hl=en&rclk=1,"Dr., Islamabad"
84,drmmutassimismailchi_33.696718_73.050043,"Dr. M. Mutassim Ismail | Child Specialist,Pediatrician, Neonatologist | in Islamabad","Dr. M. Mutassim Ismail | Child Specialist,Pediatrician, Neonatologist | in Islamabad
4.9(54)
Pediatrician · G-8 Markaz G 8 Markaz g8, Markaz
Closed ⋅ Opens 6 PM · +92 348 5625046",Pediatrician,Closed,33.6967178,73.0500426,"https://www.google.com/maps/place/Dr.+M.+Mutassim+Ismail+%7C+Child+Specialist,Pediatrician,+Neonatologist+%7C+in+Islamabad/data=!4m7!3m6!1s0x218704d95a85448f:0x357c7eca1c0287b5!8m2!3d33.6967178!4d73.0500426!16s%2Fg%2F11kqw7xr49!19sChIJj0SFWtkEhyERtYcCHMp-fDU?authuser=0&hl=en&rclk=1","Dr., Islamabad"
85,drrayifkanth_33.697506_73.011902,Dr. Rayif Kanth,"Dr. Rayif Kanth
4.9(76)
Neurosurgeon ·  · Maroof Health Care Private limited F-10 F10
Closes soon ⋅ 3 PM ⋅ Opens 1 PM Fri · +92 333 5919032",Neurosurgeon,Closes soon,33.697506,73.0119023,https://www.google.com/maps/place/Dr.+Rayif+Kanth/data=!4m7!3m6!1s0x38dfbf243d04e05d:0x102d476ab2a90dfa!8m2!3d33.697506!4d73.0119023!16s%2Fg%2F11tjldvk6y!19sChIJXeAEPSS_3zgR-g2psmpHLRA?authuser=0&hl=en&rclk=1,"Dr., Islamabad"
86,drumarorakzaientsurg_33.649666_72.976593,Dr Umar Orakzai (ENT Surgeon),"Dr Umar Orakzai (ENT Surgeon)
4.9(76)
Otolaryngologist ·  · PAEC General Hospital, Capital International Hospital Street 3, Srinagar, Highway, adjacent G-13/4 Park H11/4
Open ⋅ Closes 7 PM · +92 315 3515555",Otolaryngologist,Open,33.6496657,72.9765928,https://www.google.com/maps/place/Dr+Umar+Orakzai+%28ENT+Surgeon%29/data=!4m7!3m6!1s0x38df9763a931f4f3:0xbfabf55b8486c3c7!8m2!3d33.6496657!4d72.9765928!16s%2Fg%2F11v0tpzgrz!19sChIJ8_QxqWOX3zgRx8OGhFv1q78?authuser=0&hl=en&rclk=1,"Dr., Islamabad"
87,drfazalabbasbesturol_33.649725_72.976502,Dr Fazal Abbas - Best Urologist Islamabad,"Dr Fazal Abbas - Best Urologist Islamabad
4.8(105)
Urologist · Capital International Hospital, St 3, near Metro Station
Open ⋅ Closes 10 PM · +92 315 3515555",Urologist,Open,33.6497252,72.9765016,https://www.google.com/maps/place/Dr+Fazal+Abbas+-+Best+Urologist+Islamabad/data=!4m7!3m6!1s0x38df974098bb81ad:0x35690bf445984591!8m2!3d33.6497252!4d72.9765016!16s%2Fg%2F11vzlvty_l!19sChIJrYG7mECX3zgRkUWYRfQLaTU?authuser=0&hl=en&rclk=1,"Dr., Islamabad"
88,drzulfiqaralikango_33.696826_73.050889,Dr Zulfiqar Ali Kango,"Dr Zulfiqar Ali Kango
4.8(79)
Cardiologist ·  · LG TIMES SQUARE UNDER ISLAMABAD SPECIALISTS CLINICS, 5 Markaz Rd
Closed ⋅ Opens 5 PM · +92 341 9399938",Cardiologist,Closed,33.696826,73.0508892,https://www.google.com/maps/place/Dr+Zulfiqar+Ali+Kango/data=!4m7!3m6!1s0x38dfbf8a1b24cd03:0xee9fd304e43d94a1!8m2!3d33.696826!4d73.0508892!16s%2Fg%2F11gz9t9d3v!19sChIJA80kG4q_3zgRoZQ95ATTn-4?authuser=0&hl=en&rclk=1,"Dr., Islamabad"
89,driubaigclinicipl_33.722504_73.082185,"Dr I U BAIG Clinic, IPL","Dr I U BAIG Clinic, IPL
4.3(12)
Medical clinic · 21 East AKM Fazl-ul-Haq Rd
Closed ⋅ Opens 4:30 PM · +92 300 5518890",Medical clinic,Closed,33.7225042,73.0821849,"https://www.google.com/maps/place/Dr+I+U+BAIG+Clinic,+IPL/data=!4m7!3m6!1s0x38dfbff09f8cec3b:0x9c59fef81c180c4!8m2!3d33.7225042!4d73.0821849!16s%2Fg%2F11j8zt6f04!19sChIJO-yMn_C_3zgRxIDBge-fxQk?authuser=0&hl=en&rclk=1","Dr., Islamabad"
90,advancedinternationa_33.696577_73.050456,Advanced International Hospital Islamabad,"Advanced International Hospital Islamabad
4.5(591)
Hospital ·  · 12-2G Markaz Rd
Open 24 hours · +92 51 111 786 005",Hospital,Open 24 hours,33.6965775,73.0504561,https://www.google.com/maps/place/Advanced+International+Hospital+Islamabad/data=!4m7!3m6!1s0x38dfbf8a6764276f:0xdbb21f59afe3a45b!8m2!3d33.6965775!4d73.0504561!16s%2Fg%2F11hnbz_9lk!19sChIJbydkZ4q_3zgRW6Tjr1kfsts?authuser=0&hl=en&rclk=1,"Dr., Islamabad"
91,drshahanajandurranib_33.722343_73.057425,Dr Shahana Jan Durrani | Best Aesthetic Physician in Islamabad | Best Skin Specialist in Islamabad| Best Dermatologist,"Dr Shahana Jan Durrani | Best Aesthetic Physician in Islamabad | Best Skin Specialist in Islamabad| Best Dermatologist
4.8(383)
Dermatologist ·  · House No, 17A College Rd
Open ⋅ Closes 7 PM · +92 300 1273968",Dermatologist,Open,33.7223425,73.0574248,https://www.google.com/maps/place/Dr+Shahana+Jan+Durrani+%7C+Best+Aesthetic+Physician+in+Islamabad+%7C+Best+Skin+Specialist+in+Islamabad%7C+Best+Dermatologist/data=!4m7!3m6!1s0x38df97393cb0016d:0x76c3669851928d4f!8m2!3d33.7223425!4d73.0574248!16s%2Fg%2F11h18gy2tk!19sChIJbQGwPDmX3zgRT42SUZhmw3Y?authuser=0&hl=en&rclk=1,"Dr., Islamabad"
92,aobonejointcentredra_33.529887_73.133635,AO- Bone & Joint Centre . Dr Anwaar Kiani FRCSEng,"AO- Bone & Joint Centre . Dr Anwaar Kiani FRCSEng
4.7(62)
Orthopedic surgeon ·  · after, Gate # 1, Anwaar Orthopaedics ,1st Floor, GM Plaza, G T Road
Closed ⋅ Opens 5 PM · +92 321 5898549",Orthopedic surgeon,Closed,33.5298871,73.1336354,https://www.google.com/maps/place/AO-+Bone+%26+Joint+Centre+.+Dr+Anwaar+Kiani+FRCSEng/data=!4m7!3m6!1s0x38dfef5080dc78b1:0x93f3006a08ef5586!8m2!3d33.5298871!4d73.1336354!16s%2Fg%2F11js4fzshs!19sChIJsXjcgFDv3zgRhlXvCGoA85M?authuser=0&hl=en&rclk=1,"Dr., Islamabad"
93,drfazeelaabbasibestd_33.708527_73.039424,Dr. Fazeela Abbasi - Best Dermatologist in Islamabad,"Dr. Fazeela Abbasi - Best Dermatologist in Islamabad
4.5(955)
Dermatologist · House no.2, Street 44
Open ⋅ Closes 4 PM · +92 51 87335523",Dermatologist,Open,33.7085269,73.0394237,https://www.google.com/maps/place/Dr.+Fazeela+Abbasi+-+Best+Dermatologist+in+Islamabad/data=!4m7!3m6!1s0x38dfbe4d6633419d:0x63aa577ff2882a8a!8m2!3d33.7085269!4d73.0394237!16s%2Fg%2F11t9qw3ztd!19sChIJnUEzZk2-3zgRiiqI8n9XqmM?authuser=0&hl=en&rclk=1,"Dr., Islamabad"
94,drnaumanniazmahmooda_33.711216_73.041581,dr. nauman niaz (mahmooda niaz clinic),"dr. nauman niaz (mahmooda niaz clinic)
2.4(34)
Doctor ·  · P26R+FJP
Closed ⋅ Opens 12 PM Fri · +92 51 8433681",Doctor,Closed,33.7112164,73.041581,https://www.google.com/maps/place/dr.+nauman+niaz+%28mahmooda+niaz+clinic%29/data=!4m7!3m6!1s0x38dfbfad38bc5263:0x7f5ae799ea346273!8m2!3d33.7112164!4d73.041581!16s%2Fg%2F11c30qfkh5!19sChIJY1K8OK2_3zgRc2I06pnnWn8?authuser=0&hl=en&rclk=1,"Dr., Islamabad"
95,driramshakirkiani_33.711052_73.041755,Dr. Iram Shakir Kiani,"Dr. Iram Shakir Kiani
4.8(13)
Doctor · Islamabad Specialist Clinic, Kiran Plaza, Ground Floor Plot 13 A
Closed ⋅ Opens 12 PM Sat · +92 334 3922918",Doctor,Closed,33.7110521,73.0417555,https://www.google.com/maps/place/Dr.+Iram+Shakir+Kiani/data=!4m7!3m6!1s0x38dfbfe011edaf0b:0x8c7794f7c50be738!8m2!3d33.7110521!4d73.0417555!16s%2Fg%2F11llrpz5s1!19sChIJC6_tEeC_3zgROOcLxfeUd4w?authuser=0&hl=en&rclk=1,"Dr., Islamabad"
96,drfarwahameedgynecol_33.649705_72.976592,Dr Farwa Hameed (Gynecologist),"Dr Farwa Hameed (Gynecologist)
4.7(201)
Obstetrician-gynecologist ·  · Capital International Hospital, Street 3 Service Rd
Open 24 hours · +92 310 7883999",Obstetrician-gynecologist,Open 24 hours,33.6497053,72.9765917,https://www.google.com/maps/place/Dr+Farwa+Hameed+%28Gynecologist%29/data=!4m7!3m6!1s0x38df97f483b39821:0x5f69d75a3c35c8f2!8m2!3d33.6497053!4d72.9765917!16s%2Fg%2F11twhsbg_5!19sChIJIZizg_SX3zgR8sg1PFrXaV8?authuser=0&hl=en&rclk=1,"Dr., Islamabad"
97,drhijrataestheticcli_33.696894_73.050999,Dr. Hijrat Aesthetic Clinic,"Dr. Hijrat Aesthetic Clinic
4.9(220)
Plastic surgery clinic ·  · ADC, Dr. Hijrat Aesthetic Plastic Surgery, Hair transplant & Laser Clinic IDC
Open ⋅ Closes 6 PM · +92 51 2266400",Plastic surgery clinic,Open,33.6968941,73.0509985,https://www.google.com/maps/place/Dr.+Hijrat+Aesthetic+Clinic/data=!4m7!3m6!1s0x38dfbf4f040ca6eb:0xf7c0681570fab156!8m2!3d33.6968941!4d73.0509985!16s%2Fg%2F11fpr3mk9g!19sChIJ66YMBE-_3zgRVrH6cBVowPc?authuser=0&hl=en&rclk=1,"Dr., Islamabad"
98,imranzcliniccertifie_33.669177_73.075760,Imranz Clinic - Certified Sexologist in Islamabad & Rawalpindi,"Imranz Clinic - Certified Sexologist in Islamabad & Rawalpindi
4.6(50)
Sexologist · Suite No 9, 1st Floor, Twin City Center, Markaz
Open ⋅ Closes 6 PM · +92 311 1120007",Sexologist,Open,33.669177,73.0757595,https://www.google.com/maps/place/Imranz+Clinic+-+Certified+Sexologist+in+Islamabad+%26+Rawalpindi/data=!4m7!3m6!1s0x38df950c11db12d9:0x1787f93aaf3c430a!8m2!3d33.669177!4d73.0757595!16s%2Fg%2F11v42p5h26!19sChIJ2RLbEQyV3zgRCkM8rzr5hxc?authuser=0&hl=en&rclk=1,"Dr., Islamabad"
99,gynaecologistinislam_33.735283_73.190969,Gynaecologist in Islamabad- Dr Maryam (Maryam's Clinic),"Gynaecologist in Islamabad- Dr Maryam (Maryam's Clinic)
4.8(57)
Obstetrician-gynecologist ·  · Prince Rd, opposite Bilal Masjid
Closed ⋅ Opens 11 AM Fri · +92 334 5558654",Obstetrician-gynecologist,Closed,33.7352832,73.1909686,https://www.google.com/maps/place/Gynaecologist+in+Islamabad-+Dr+Maryam+%28Maryam%27s+Clinic%29/data=!4m7!3m6!1s0x38dfc3af7b32ddbf:0x1519d8802b1aa9b9!8m2!3d33.7352832!4d73.1909686!16s%2Fg%2F11s5dr8gmx!19sChIJv90ye6_D3zgRuakaK4DYGRU?authuser=0&hl=en&rclk=1,"Dr., Islamabad"
100,dranwaarkianiorthopa_33.698054_73.011896,Dr Anwaar Kiani ( Orthopaedic & Sports Surgeon),"Dr Anwaar Kiani ( Orthopaedic & Sports Surgeon)
4.8(61)
Orthopedic surgeon · Markaz
Open ⋅ Closes 4 PM · +92 321 5898549",Orthopedic surgeon,Open,33.6980544,73.0118957,https://www.google.com/maps/place/Dr+Anwaar+Kiani+%28+Orthopaedic+%26+Sports+Surgeon%29/data=!4m7!3m6!1s0x38dfbfc8d9e0b621:0xc3698473f9235726!8m2!3d33.6980544!4d73.0118957!16s%2Fg%2F11lnqr4g76!19sChIJIbbg2ci_3zgRJlcj-XOEacM?authuser=0&hl=en&rclk=1,"Dr., Islamabad"
101,drsariasheikh6dskina_33.722610_73.060325,Dr. Saria Sheikh | 6D Skin Aesthetic Clinic Islamabad,"Dr. Saria Sheikh | 6D Skin Aesthetic Clinic Islamabad
4.7(58)
Skin care clinic · Pakland Plaza
Open ⋅ Closes 8 PM · +92 324 5495755",Skin care clinic,Open,33.7226104,73.0603248,https://www.google.com/maps/place/Dr.+Saria+Sheikh+%7C+6D+Skin+Aesthetic+Clinic+Islamabad/data=!4m7!3m6!1s0x38dfbfa6e688218f:0x8fb2e2d82bdce54f!8m2!3d33.7226104!4d73.0603248!16s%2Fg%2F11sybq8v09!19sChIJjyGI5qa_3zgRT-XcK9jiso8?authuser=0&hl=en&rclk=1,"Dr., Islamabad"
102,drbushraadeelpediatr_30.362957_68.996698,Dr. Bushra Adeel | Pediatrician | Neonatologist | Child Specialist in Islamabad,"Dr. Bushra Adeel | Pediatrician | Neonatologist | Child Specialist in Islamabad
5.0(53)
Pediatrician
Closed ⋅ Opens 10 AM Fri · +92 310 3152888",Pediatrician,Closed,30.3629572,68.9966984,https://www.google.com/maps/place/Dr.+Bushra+Adeel+%7C+Pediatrician+%7C+Neonatologist+%7C+Child+Specialist+in+Islamabad/data=!4m7!3m6!1s0xa745b66964603eab:0x62e7eca5a4a6c4c2!8m2!3d30.3629572!4d68.9966984!16s%2Fg%2F11krtzdm6x!19sChIJqz5gZGm2RacRwsSmpKXs52I?authuser=0&hl=en&rclk=1,"Dr., Islamabad"
103,drmubashirdahabestde_33.721886_73.058689,Dr. Mubashir Daha | Best Dermatologist Islamabad| Best Skin Specialist Islamabad | Best Aesthetic Physician Islamabad,"Dr. Mubashir Daha | Best Dermatologist Islamabad| Best Skin Specialist Islamabad | Best Aesthetic Physician Islamabad
4.9(263)
Dermatologist ·  · Skin Laser and Dental Clinic
Open ⋅ Closes 8 PM · +92 333 5560507",Dermatologist,Open,33.7218858,73.058689,https://www.google.com/maps/place/Dr.+Mubashir+Daha+%7C+Best+Dermatologist+Islamabad%7C+Best+Skin+Specialist+Islamabad+%7C+Best+Aesthetic+Physician+Islamabad/data=!4m7!3m6!1s0x38dfbf5883dffd35:0x15d45f98e039b977!8m2!3d33.7218858!4d73.058689!16s%2Fg%2F11sjjwqpgb!19sChIJNf3fg1i_3zgRd7k54Jhf1BU?authuser=0&hl=en&rclk=1,"Dr., Islamabad"
104,drumarziakhanorthopa_33.718149_73.072947,Dr Umar Zia Khan Orthopaedic Surgeon,"Dr Umar Zia Khan Orthopaedic Surgeon
4.8(21)
Orthopedic surgeon ·  · 2020 Jinnah Ave
Open ⋅ Closes 5 PM · +92 333 5056370",Orthopedic surgeon,Open,33.7181489,73.0729473,https://www.google.com/maps/place/Dr+Umar+Zia+Khan+Orthopaedic+Surgeon/data=!4m7!3m6!1s0x38dfbf3992a73f67:0x947017d9b2602db!8m2!3d33.7181489!4d73.0729473!16s%2Fg%2F11rr78sc9h!19sChIJZz-nkjm_3zgR2wImm30BRwk?authuser=0&hl=en&rclk=1,"Dr., Islamabad"
105,drisrarahmedgenerall_33.712572_73.040980,"Dr. Israr Ahmed General, Laparoscopic and Laser Surgeon","Dr. Israr Ahmed General, Laparoscopic and Laser Surgeon
4.7(61)
Surgeon · P27R+29H, Kohistan Rd
Open 24 hours · +92 333 5553771",Surgeon,Open 24 hours,33.7125716,73.0409801,"https://www.google.com/maps/place/Dr.+Israr+Ahmed+General,+Laparoscopic+and+Laser+Surgeon/data=!4m7!3m6!1s0x38dfbf002838bcfb:0x4baf567189012e5e!8m2!3d33.7125716!4d73.0409801!16s%2Fg%2F11vwyjnjf8!19sChIJ-7w4KAC_3zgRXi4BiXFWr0s?authuser=0&hl=en&rclk=1","Dr., Islamabad"
106,drasmaasrarbestfemal_33.696834_73.051146,"Dr Asma Asrar | Best female surgeon Islamabad | Breast diseasees, Breast Cancer, gall stones, hernia, haemorrhoid,fissure.","Dr Asma Asrar | Best female surgeon Islamabad | Breast diseasees, Breast Cancer, gall stones, hernia, haemorrhoid,fissure.
5.0(40)
Surgeon ·  · ISLAMABAD DIAGNOSTIC CENTER (IDC) SPECIALIST CLINICS
Closes soon ⋅ 3 PM ⋅ Opens 1 PM Fri · +92 330 4384953",Surgeon,Closes soon,33.6968343,73.0511458,"https://www.google.com/maps/place/Dr+Asma+Asrar+%7C+Best+female+surgeon+Islamabad+%7C+Breast+diseasees,+Breast+Cancer,+gall+stones,+hernia,+haemorrhoid,fissure./data=!4m7!3m6!1s0x38dfbf5ab07b1b7f:0x18fcef1fc755440f!8m2!3d33.6968343!4d73.0511458!16s%2Fg%2F11vdhpd99b!19sChIJfxt7sFq_3zgRD0RVxx_v_Bg?authuser=0&hl=en&rclk=1","Dr., Islamabad"
107,islamabadinternation_33.702019_72.967700,Islamabad International Hospital & Research Center (IIHRC),"Islamabad International Hospital & Research Center (IIHRC)
4.2(301)
Doctor ·  · 2 Main Double Rd
Open 24 hours · +92 51 2304941",Doctor,Open 24 hours,33.7020189,72.9676998,https://www.google.com/maps/place/Islamabad+International+Hospital+%26+Research+Center+%28IIHRC%29/data=!4m7!3m6!1s0x38dfbdb7b33ca017:0xc4f40d2ce1e0e985!8m2!3d33.7020189!4d72.9676998!16s%2Fg%2F11gf8hs6jv!19sChIJF6A8s7e93zgRheng4SwN9MQ?authuser=0&hl=en&rclk=1,"Dr., Islamabad"
108,drsamikneepainmuscle_33.666965_72.997620,"Dr.Sami |Knee Pain ,Muscle pain,shoulder pain , sciatica and Back Pain|best Physiotherapist in Islamabad","Dr.Sami |Knee Pain ,Muscle pain,shoulder pain , sciatica and Back Pain|best Physiotherapist in Islamabad
5.0(86)
Physical therapist ·  · shop no 3 and 9,Ground floor, capital plaza, markaz
Open ⋅ Closes 9 PM · +92 318 4273884",Physical therapist,Open,33.6669647,72.9976201,"https://www.google.com/maps/place/Dr.Sami+%7CKnee+Pain+,Muscle+pain,shoulder+pain+,+sciatica+and+Back+Pain%7Cbest+Physiotherapist+in+Islamabad/data=!4m7!3m6!1s0x38df9542b1be95f7:0x4baf812f23b0ceab!8m2!3d33.6669647!4d72.9976201!16s%2Fg%2F11ssf0xsrq!19sChIJ95W-sUKV3zgRq86wIy-Br0s?authuser=0&hl=en&rclk=1","Dr., Islamabad"
109,dramnasclinic_33.697980_73.011291,Dr. Amna's Clinic,"Dr. Amna's Clinic
4.2(47)
Dermatologist · Next to Silk Bank, Opposite Khaadi, Street 65 F10/3
Open ⋅ Closes 7 PM · +92 323 5544395",Dermatologist,Open,33.6979801,73.0112913,https://www.google.com/maps/place/Dr.+Amna%27s+Clinic/data=!4m7!3m6!1s0x38dfbf8cc389cd85:0xb0cb7c4d9f53d7b8!8m2!3d33.6979801!4d73.0112913!16s%2Fg%2F11trsd6p4y!19sChIJhc2Jw4y_3zgRuNdTn018y7A?authuser=0&hl=en&rclk=1,"Dr., Islamabad"
110,drvardatuzzahraconsu_33.565089_73.126413,Dr Varda tuz Zahra - Consultant Child Specialist & Neonatologist,"Dr Varda tuz Zahra - Consultant Child Specialist & Neonatologist
5.0(128)
Pediatrician · Central Rd
Closed ⋅ Opens 6:30 PM · +92 331 9876005",Pediatrician,Closed,33.5650894,73.1264131,https://www.google.com/maps/place/Dr+Varda+tuz+Zahra+-+Consultant+Child+Specialist+%26+Neonatologist/data=!4m7!3m6!1s0x38dfed6380898333:0x1cdd5d0373025823!8m2!3d33.5650894!4d73.1264131!16s%2Fg%2F11s94m46ny!19sChIJM4OJgGPt3zgRI1gCcwNd3Rw?authuser=0&hl=en&rclk=1,"Dr., Islamabad"
111,dromaridrismufti_33.677701_73.066238,Dr. Omar Idris Mufti,"Dr. Omar Idris Mufti
4.9(38)
Cardiologist ·  · Shifa International Hospital, 4 Pitras Bukhari Rd
Open ⋅ Closes 5 PM · +92 51 8464646",Cardiologist,Open,33.6777007,73.0662378,https://www.google.com/maps/place/Dr.+Omar+Idris+Mufti/data=!4m7!3m6!1s0x38dfbfb00f93ce39:0xafe68652cbd7ef0e!8m2!3d33.6777007!4d73.0662378!16s%2Fg%2F11r9h4jxpt!19sChIJOc6TD7C_3zgRDu_Xy1KG5q8?authuser=0&hl=en&rclk=1,"Dr., Islamabad"
112,islamabadspecialistc_33.722479_73.082189,Islamabad Specialist Clinic,"Islamabad Specialist Clinic
5.0(1)
Diabetologist ·  · P3CJ+XVW, Huma Plaza
Open ⋅ Closes 5 PM · +92 51 2277244",Diabetologist,Open,33.7224792,73.0821894,https://www.google.com/maps/place/Islamabad+Specialist+Clinic/data=!4m7!3m6!1s0x38dfbff9131b50fd:0x832cc49996d63a63!8m2!3d33.7224792!4d73.0821894!16s%2Fg%2F11ffvw2l79!19sChIJ_VAbE_m_3zgRYzrWlpnELIM?authuser=0&hl=en&rclk=1,"Dr., Islamabad"
113,dralitherapypvtltdbe_33.710667_73.040730,Dr Ali Therapy Pvt Ltd-best chiropractor Physiotherapist in Islamabad,"Dr Ali Therapy Pvt Ltd-best chiropractor Physiotherapist in Islamabad
4.8(1,603)
Physical therapist ·  · Pakland & Kiran Plaza, Kohistan Rd, near IDC
Open ⋅ Closes 1:30 AM · +92 51 6125380",Physical therapist,Open,33.7106669,73.04073,https://www.google.com/maps/place/Dr+Ali+Therapy+Pvt+Ltd-best+chiropractor+Physiotherapist+in+Islamabad/data=!4m7!3m6!1s0x38dfbf7f9667f1d5:0x287e188a6765e906!8m2!3d33.7106669!4d73.04073!16s%2Fg%2F11rss4ydvy!19sChIJ1fFnln-_3zgRBullZ4oYfig?authuser=0&hl=en&rclk=1,"Dr., Islamabad"
114,sarfhospital_33.697407_73.010815,Sarf Hospital,"Sarf Hospital
4.4(79)
Hospital ·  · SARF Plaza, Plot 6E, F-10 Markaz, F-10
Open ⋅ Closes 9 PM · +92 313 5339589",Hospital,Open,33.6974072,73.0108147,https://www.google.com/maps/place/Sarf+Hospital/data=!4m7!3m6!1s0x38dfbe6b8080e00f:0xb02b9c9ff9cd8222!8m2!3d33.6974072!4d73.0108147!16s%2Fg%2F12mkz7lt5!19sChIJD-CAgGu-3zgRIoLN-Z-cK7A?authuser=0&hl=en&rclk=1,"Dr., Islamabad"
115,drbilalkhalidchildsp_33.568367_73.139454,Dr Bilal khalid child specialist,"Dr Bilal khalid child specialist
5.0(205)
Pediatrician · Basement of, Broadway Pizza, Zainab medical and dental OPD clinic, Main PWD Rd
Open ⋅ Closes 9 PM · +92 333 6159293",Pediatrician,Open,33.5683666,73.1394535,https://www.google.com/maps/place/Dr+Bilal+khalid+child+specialist/data=!4m7!3m6!1s0x38dfed5480d32951:0xfa3734797d5b4839!8m2!3d33.5683666!4d73.1394535!16s%2Fg%2F11py72xb8k!19sChIJUSnTgFTt3zgROUhbfXk0N_o?authuser=0&hl=en&rclk=1,"Dr., Islamabad"
116,maxhealthhospital_33.697569_73.049161,Max Health Hospital,"Max Health Hospital
3.8(355)
Doctor ·  · 12-K Markaz Rd
Open 24 hours · +92 51 8094762",Doctor,Open 24 hours,33.6975693,73.0491612,https://www.google.com/maps/place/Max+Health+Hospital/data=!4m7!3m6!1s0x38dfbfc9ab6d46d5:0xf0f515eb876e3c03!8m2!3d33.6975693!4d73.0491612!16s%2Fg%2F11cjkd0f8b!19sChIJ1UZtq8m_3zgRAzxuh-sV9fA?authuser=0&hl=en&rclk=1,"Dr., Islamabad"
117,drirfanmasudorthopae_33.697623_73.012104,Dr. Irfan Masud Orthopaedics,"Dr. Irfan Masud Orthopaedics
4.9(50)
Orthopedic surgeon ·  · Maroof International Hospital, Main Margalla Rd
Closed ⋅ Opens 3 PM · +92 336 5430102",Orthopedic surgeon,Closed,33.6976226,73.0121037,https://www.google.com/maps/place/Dr.+Irfan+Masud+Orthopaedics/data=!4m7!3m6!1s0x38dfbf4a68c1f343:0x8ef60a53403a3513!8m2!3d33.6976226!4d73.0121037!16s%2Fg%2F11l3gs70s0!19sChIJQ_PBaEq_3zgREzU6QFMK9o4?authuser=0&hl=en&rclk=1,"Dr., Islamabad"
118,islamabadmedicalcent_33.687118_73.032261,Islamabad Medical Centre,"Islamabad Medical Centre
4.6(9)
Doctor · ICT, Rohtas Rd, G9 markaz
Open ⋅ Closes 9 PM · +92 51 2256966",Doctor,Open,33.6871184,73.0322605,https://www.google.com/maps/place/Islamabad+Medical+Centre/data=!4m7!3m6!1s0x38dfbe311dc56119:0x5d4fe7011e598db1!8m2!3d33.6871184!4d73.0322605!16s%2Fg%2F11xc8c18r!19sChIJGWHFHTG-3zgRsY1ZHgHnT10?authuser=0&hl=en&rclk=1,"Dr., Islamabad"
119,drmusharrafalikhanur_33.697569_73.049161,Dr Musharraf Ali khan (Urologist),"Dr Musharraf Ali khan (Urologist)
4.7(12)
Urologist · Max Hospital, 12-K Markaz Rd
Open ⋅ Closes 2:30 AM · +92 334 5505092",Urologist,Open,33.6975693,73.0491612,https://www.google.com/maps/place/Dr+Musharraf+Ali+khan+%28Urologist%29/data=!4m7!3m6!1s0x38dfbfc9d38e4533:0xe6179764c5b949b!8m2!3d33.6975693!4d73.0491612!16s%2Fg%2F11mnc0pm3l!19sChIJM0WO08m_3zgRm5RbTHZ5YQ4?authuser=0&hl=en&rclk=1,"Dr., Islamabad"
120,drnimrahsiddiquegyne_33.721385_73.059266,Dr Nimrah Siddique Gynecologist Islamabad & Rawalpindi,"Dr Nimrah Siddique Gynecologist Islamabad & Rawalpindi
4.8(26)
Obstetrician-gynecologist · Plot No, 134, Jinnah Super Market, Medicsi OPD 2, Markaz basement Jinnah Super, near PSO Pump
Open ⋅ Closes 4 PM · +92 331 9955626",Obstetrician-gynecologist,Open,33.7213848,73.0592657,https://www.google.com/maps/place/Dr+Nimrah+Siddique+Gynecologist+Islamabad+%26+Rawalpindi/data=!4m7!3m6!1s0x6b045c675dfbcb37:0x4c5c9d0fe01c8f85!8m2!3d33.7213848!4d73.0592657!16s%2Fg%2F11sv4_r3f6!19sChIJN8v7XWdcBGsRhY8c4A-dXEw?authuser=0&hl=en&rclk=1,"Dr., Islamabad"
121,dromernabiorthopedic_33.653792_73.039052,Dr Omer nabi Orthopedic surgeon,"Dr Omer nabi Orthopedic surgeon
4.9(12)
Orthopedic surgeon ·  · Capital Diagnostic centre
Open ⋅ Closes 5 PM · +92 318 5431630",Orthopedic surgeon,Open,33.653792,73.039052,https://www.google.com/maps/place/Dr+Omer+nabi+Orthopedic+surgeon/data=!4m7!3m6!1s0x38dfbf4a8770151f:0x941544d42f512b9c!8m2!3d33.653792!4d73.039052!16s%2Fg%2F11wjngdzg3!19sChIJHxVwh0q_3zgRnCtRL9REFZQ?authuser=0&hl=en&rclk=1,"Dr., Islamabad"
122,maroofinternationalh_33.697460_73.011651,Maroof International Hospital,"Maroof International Hospital
3.2(807)
General hospital ·  · Service Rd E, F-10 Markaz F 10/3 F-10, 04412
Open 24 hours · +92 51 111 644 911",General hospital,Open 24 hours,33.6974597,73.0116512,https://www.google.com/maps/place/Maroof+International+Hospital/data=!4m7!3m6!1s0x38dfbe6b77fc7279:0x855a61d1ef5e9def!8m2!3d33.6974597!4d73.0116512!16s%2Fg%2F1hdzv62pm!19sChIJeXL8d2u-3zgR751e79FhWoU?authuser=0&hl=en&rclk=1,"Dr., Islamabad"
123,drirshadclinic_33.690376_73.048187,Dr Irshad clinic,"Dr Irshad clinic
4.6(9)
Neurologist ·  · Street 15
Open ⋅ Closes 9 PM · +92 333 5237291",Neurologist,Open,33.6903765,73.0481873,https://www.google.com/maps/place/Dr+Irshad+clinic/data=!4m7!3m6!1s0x38dfbf25aa325f55:0x3a914adf6e841d48!8m2!3d33.6903765!4d73.0481873!16s%2Fg%2F11gyybh_ym!19sChIJVV8yqiW_3zgRSB2Ebt9KkTo?authuser=0&hl=en&rclk=1,"Dr., Islamabad"
124,laparoscopiccancersu_33.697595_73.012010,Laparoscopic & Cancer Surgeon Dr. Kashif,"Laparoscopic & Cancer Surgeon Dr. Kashif
4.9(158)
Surgeon · 
Open ⋅ Closes 5 PM · +92 333 5293552",Surgeon,Open,33.6975946,73.0120101,https://www.google.com/maps/place/Laparoscopic+%26+Cancer+Surgeon+Dr.+Kashif/data=!4m7!3m6!1s0x38dfbfd9e157a901:0xacab77ae450c46d7!8m2!3d33.6975946!4d73.0120101!16s%2Fg%2F11ny1b7g37!19sChIJAalX4dm_3zgR10YMRa53q6w?authuser=0&hl=en&rclk=1,"Dr., Islamabad"
125,drmimranbhattiminima_33.675980_73.067176,"Dr. M Imran Bhatti Minimally Invasive Paediatric Neurosurgeon and Complex Spine Surgeon in Islamabad, Pakistan","Dr. M Imran Bhatti Minimally Invasive Paediatric Neurosurgeon and Complex Spine Surgeon in Islamabad, Pakistan
4.0(12)
Neurosurgeon ·  · Shifa International Hospitals Limited, H8
Open ⋅ Closes 9 PM · +92 300 5188817",Neurosurgeon,Open,33.6759802,73.0671763,"https://www.google.com/maps/place/Dr.+M+Imran+Bhatti+Minimally+Invasive+Paediatric+Neurosurgeon+and+Complex+Spine+Surgeon+in+Islamabad,+Pakistan/data=!4m7!3m6!1s0x38dfedb31e15c3e5:0xde6978a6587e9ef!8m2!3d33.6759802!4d73.0671763!16s%2Fg%2F11sd_xs94w!19sChIJ5cMVHrPt3zgR7-mHZYqX5g0?authuser=0&hl=en&rclk=1","Dr., Islamabad"
126,drhaidershirazi_33.711258_73.041561,Dr. Haider Shirazi,"Dr. Haider Shirazi
4.3(24)
Pediatrician · Suite no. 105, 1st Floor, Khayal Plaza, Plot 13-A, Kohistan Rd
Closed ⋅ Opens 4 PM · +92 300 5591738",Pediatrician,Closed,33.7112577,73.0415606,https://www.google.com/maps/place/Dr.+Haider+Shirazi/data=!4m7!3m6!1s0x38dfbf128ef4d177:0xde88862c79624071!8m2!3d33.7112577!4d73.0415606!16s%2Fg%2F11txjpq4ft!19sChIJd9H0jhK_3zgRcUBieSyGiN4?authuser=0&hl=en&rclk=1,"Dr., Islamabad"
127,doctorfaisaliftikhar_33.643392_73.031390,Doctor Faisal Iftikhar Clinic,"Doctor Faisal Iftikhar Clinic
3.9(8)
Doctor · Humair Plaza, Korang Rd, I-10 Markaz, I-10
Open ⋅ Closes 9 PM · +92 301 5417411",Doctor,Open,33.6433919,73.0313903,https://www.google.com/maps/place/Doctor+Faisal+Iftikhar+Clinic/data=!4m7!3m6!1s0x38df95a57ec09b65:0xdc049071879999fe!8m2!3d33.6433919!4d73.0313903!16s%2Fg%2F12mkz5wfq!19sChIJZZvAfqWV3zgR_pmZh3GQBNw?authuser=0&hl=en&rclk=1,"Dr., Islamabad"
128,lifecareinternationa_33.676624_73.015368,Life Care International Hospital,"Life Care International Hospital
2.8(317)
Hospital ·  · M2G8+Q6G
Open 24 hours · +92 51 2355501",Hospital,Open 24 hours,33.6766236,73.0153676,https://www.google.com/maps/place/Life+Care+International+Hospital/data=!4m7!3m6!1s0x38dfbe1f0d2d6b37:0x8389e594522baac6!8m2!3d33.6766236!4d73.0153676!16s%2Fg%2F119v44ckb!19sChIJN2stDR--3zgRxqorUpTliYM?authuser=0&hl=en&rclk=1,"Dr., Islamabad"
129,profdraatifinamshami_33.710394_73.042014,Prof Dr Aatif Inam Shami Islamabad Bariatrics,"Prof Dr Aatif Inam Shami Islamabad Bariatrics
4.9(18)
Weight loss service · Ali Medical Centre, Kohistan Rd
Closed ⋅ Opens 5:30 PM · +92 332 5330395",Weight loss service,Closed,33.7103938,73.0420138,https://www.google.com/maps/place/Prof+Dr+Aatif+Inam+Shami+Islamabad+Bariatrics/data=!4m7!3m6!1s0x38dfbf907e034c59:0x5f9a8c6b4a32b0aa!8m2!3d33.7103938!4d73.0420138!16s%2Fg%2F11trc_tcn1!19sChIJWUwDfpC_3zgRqrAySmuMml8?authuser=0&hl=en&rclk=1,"Dr., Islamabad"
130,drumerabidgeneraland_33.652408_73.015962,"Dr Umer Abid (General and Laparoscopic Surgeon, Islamabad)","Dr Umer Abid (General and Laparoscopic Surgeon, Islamabad)
5.0(4)
Surgeon · PAEC GENERAL HOSPITAL
Open ⋅ Closes 5 PM · +92 312 8086882",Surgeon,Open,33.6524078,73.0159617,"https://www.google.com/maps/place/Dr+Umer+Abid+%28General+and+Laparoscopic+Surgeon,+Islamabad%29/data=!4m7!3m6!1s0x38df957296d73b3f:0x6b29b721e46e6494!8m2!3d33.6524078!4d73.0159617!16s%2Fg%2F11wjc9qk4v!19sChIJPzvXlnKV3zgRlGRu5CG3KWs?authuser=0&hl=en&rclk=1","Dr., Islamabad"
131,drmohammadaliarifdia_33.714375_73.039585,Dr Mohammad Ali Arif - Diabetologist,"Dr Mohammad Ali Arif - Diabetologist
4.8(69)
Doctor · Ali Medical Center, F8 Kohistan Rd
Closed ⋅ Opens 4:30 PM · +92 51 8090200",Doctor,Closed,33.714375,73.039585,https://www.google.com/maps/place/Dr+Mohammad+Ali+Arif+-+Diabetologist/data=!4m7!3m6!1s0x38dfbfc021287179:0xf0bd4155ab422763!8m2!3d33.714375!4d73.039585!16s%2Fg%2F11svdf3lrh!19sChIJeXEoIcC_3zgRYydCq1VBvfA?authuser=0&hl=en&rclk=1,"Dr., Islamabad"
132,drsayyadabatoolclini_33.716144_73.039105,Dr Sayyada Batool Clinic,"Dr Sayyada Batool Clinic
3.6(44)
Obstetrician-gynecologist · P28Q+FJ5
Closed ⋅ Opens 4:30 PM · +92 51 2261418",Obstetrician-gynecologist,Closed,33.7161445,73.039105,https://www.google.com/maps/place/Dr+Sayyada+Batool+Clinic/data=!4m7!3m6!1s0x38dfbe54bfdd41e9:0xb57fe1a6daa86310!8m2!3d33.7161445!4d73.039105!16s%2Fg%2F11bwqgb_ls!19sChIJ6UHdv1S-3zgREGOo2qbhf7U?authuser=0&hl=en&rclk=1,"Dr., Islamabad"
133,consultantsplaceblue_33.710437_73.058876,Consultants Place - Blue Area - Islamabad,"Consultants Place - Blue Area - Islamabad
4.6(17)
Medical clinic · First Floor, Reshi Building, 110 AKM Fazl-ul-Haq Rd
Open ⋅ Closes 9 PM · +92 51 8311020",Medical clinic,Open,33.7104368,73.058876,https://www.google.com/maps/place/Consultants+Place+-+Blue+Area+-+Islamabad/data=!4m7!3m6!1s0x38dfbfbc9977f34d:0x29e6e684f1ded1de!8m2!3d33.7104368!4d73.058876!16s%2Fg%2F12mkw8ztb!19sChIJTfN3mby_3zgR3tHe8YTm5ik?authuser=0&hl=en&rclk=1,"Dr., Islamabad"
134,drarshadkhan_33.657847_73.157752,Dr Arshad Khan,"Dr Arshad Khan
4.0(28)
Dermatologist ·  · M555+44J
Closed ⋅ Opens 5 PM · +92 333 9247856",Dermatologist,Closed,33.6578474,73.1577521,https://www.google.com/maps/place/Dr+Arshad+Khan/data=!4m7!3m6!1s0x38dfebfbb874ec2f:0x5593eca79f6d4a4b!8m2!3d33.6578474!4d73.1577521!16s%2Fg%2F11n6rtn8hd!19sChIJL-x0uPvr3zgRS0ptn6fsk1U?authuser=0&hl=en&rclk=1,"Dr., Islamabad"
135,avicennaclinic_33.710497_73.038990,Avicenna Clinic,"Avicenna Clinic
5.0(4)
Doctor ·  · Khasif Plaza, Parking, offJohar Road
Open ⋅ Closes 11 PM · +92 51 8448474",Doctor,Open,33.7104968,73.03899,https://www.google.com/maps/place/Avicenna+Clinic/data=!4m7!3m6!1s0x38dfbfae8c8e2981:0xabae6ce0c269947!8m2!3d33.7104968!4d73.03899!16s%2Fg%2F11fn242f7y!19sChIJgSmOjK6_3zgRR5kmDM7mugo?authuser=0&hl=en&rclk=1,"Dr., Islamabad"
136,amanateyehospitalraw_33.587252_73.066364,Amanat Eye Hospital Rawalpindi,"Amanat Eye Hospital Rawalpindi
4.7(2,021)
Eye care center ·  · 10-D Mayo Road
Open ⋅ Closes 8 PM · +92 51 8439993",Eye care center,Open,33.5872518,73.0663637,https://www.google.com/maps/place/Amanat+Eye+Hospital+Rawalpindi/data=!4m7!3m6!1s0x38df935dc4333d53:0xa7d989ebc4727fe!8m2!3d33.5872518!4d73.0663637!16s%2Fg%2F1tf060yh!19sChIJUz0zxF2T3zgR_idHvJ6YfQo?authuser=0&hl=en&rclk=1,"Dr., Islamabad"
138,drmuhammadmushtaq_33.696718_73.050043,Dr Muhammad Mushtaq,"Dr Muhammad Mushtaq
4.9(100)
Radiologist ·  · G, Saeed International Hospital, 8
+92 313 4949333",Radiologist,,33.6967178,73.0500426,https://www.google.com/maps/place/Dr+Muhammad+Mushtaq/data=!4m7!3m6!1s0x38dfbf34725cde1b:0xf872037e1620a21b!8m2!3d33.6967178!4d73.0500426!16s%2Fg%2F11krpw90gk!19sChIJG95ccjS_3zgRG6IgFn4Dcvg?authuser=0&hl=en&rclk=1,"Dr., Islamabad"
139,dramerhydri_33.707735_73.014456,Dr Amer Hydri,"Dr Amer Hydri
5.0(1)
Doctor · PAF Hospital Islamabad
Closed ⋅ Opens 9 AM Fri · +92 318 0502585",Doctor,Closed,33.7077352,73.0144564,https://www.google.com/maps/place/Dr+Amer+Hydri/data=!4m7!3m6!1s0x38dfbfd093c6255f:0x1f0b065c47e1f0a4!8m2!3d33.7077352!4d73.0144564!16s%2Fg%2F11hnb_fs4k!19sChIJXyXGk9C_3zgRpPDhR1wGCx8?authuser=0&hl=en&rclk=1,"Dr., Islamabad"
140,gynecologyclinic_33.696783_73.051451,Gynecology Clinic,"Gynecology Clinic
4.5(21)
Plastic surgery clinic · 2nd Floor, Pakland Square
Open ⋅ Closes 5 PM · +92 320 8580226",Plastic surgery clinic,Open,33.6967834,73.0514507,https://www.google.com/maps/place/Gynecology+Clinic/data=!4m7!3m6!1s0x38dfbf79e07a231b:0x6313b0a69ad388e!8m2!3d33.6967834!4d73.0514507!16s%2Fg%2F11h890ld73!19sChIJGyN64Hm_3zgRjjitaQo7MQY?authuser=0&hl=en&rclk=1,"Dr., Islamabad"
141,islamabadmedicalands_33.716275_73.084751,Islamabad Medical and Surgical Hospital,"Islamabad Medical and Surgical Hospital
3.7(57)
Hospital ·  · Melody Market
Open 24 hours · +92 51 2603566",Hospital,Open 24 hours,33.7162751,73.0847509,https://www.google.com/maps/place/Islamabad+Medical+and+Surgical+Hospital/data=!4m7!3m6!1s0x38dfbf862d3909cb:0x867c7db711a27e7c!8m2!3d33.7162751!4d73.0847509!16s%2Fg%2F11dyqrrqkw!19sChIJywk5LYa_3zgRfH6iEbd9fIY?authuser=0&hl=en&rclk=1,"Dr., Islamabad"
142,drnasiratasneemclini_33.699041_73.048662,Dr Nasira Tasneem clinic,"Dr Nasira Tasneem clinic
3.2(78)
Doctor ·  · M2XX+JF7
Closed ⋅ Opens 6:30 PM · +92 51 2855097",Doctor,Closed,33.6990415,73.048662,https://www.google.com/maps/place/Dr+Nasira+Tasneem+clinic/data=!4m7!3m6!1s0x38dfbfc9cf63209b:0x158284a808c1a44e!8m2!3d33.6990415!4d73.048662!16s%2Fg%2F11clvlqmz4!19sChIJmyBjz8m_3zgRTqTBCKiEghU?authuser=0&hl=en&rclk=1,"Dr., Islamabad"
143,drisrarhussainsclini_33.644751_73.049026,Dr Israr Hussain's Clinic,"Dr Israr Hussain's Clinic
4.2(18)
Allergist ·  · Main pir wadhai road, Service Road I-12 (South)
Closed ⋅ Opens 5 PM · +92 51 4445213",Allergist,Closed,33.6447509,73.0490265,https://www.google.com/maps/place/Dr+Israr+Hussain%27s+Clinic/data=!4m7!3m6!1s0x38df95059b8f1977:0x63a89f256a459956!8m2!3d33.6447509!4d73.0490265!16s%2Fg%2F11c44phr74!19sChIJdxmPmwWV3zgRVplFaiWfqGM?authuser=0&hl=en&rclk=1,"Dr., Islamabad"
144,drfareedullahkhanzim_33.710972_73.041428,Dr. Fareedullah Khan zimri clinic,"Dr. Fareedullah Khan zimri clinic
4.3(93)
Medical clinic · 
Open ⋅ Closes 6 PM · +92 51 8435932",Medical clinic,Open,33.7109717,73.0414281,https://www.google.com/maps/place/Dr.+Fareedullah+Khan+zimri+clinic/data=!4m7!3m6!1s0x38dfbf947dd9cbed:0x46239237eb9f7b9b!8m2!3d33.7109717!4d73.0414281!16s%2Fg%2F11fv4t2y4c!19sChIJ7cvZfZS_3zgRm3uf6zeSI0Y?authuser=0&hl=en&rclk=1,"Dr., Islamabad"
145,dramirhaleemorthoped_33.708226_73.015314,Dr Amir Haleem Orthopedic Surgeon,"Dr Amir Haleem Orthopedic Surgeon
4.7(14)
Orthopedic surgeon ·  · PAF hospital unit 2
Open ⋅ Closes 4:30 PM · +92 317 2876268",Orthopedic surgeon,Open,33.7082264,73.0153138,https://www.google.com/maps/place/Dr+Amir+Haleem+Orthopedic+Surgeon/data=!4m7!3m6!1s0x38dfbf30dffd28a3:0xbaea9b2935e1c3d2!8m2!3d33.7082264!4d73.0153138!16s%2Fg%2F11tj50fynb!19sChIJoyj93zC_3zgR0sPhNSmb6ro?authuser=0&hl=en&rclk=1,"Dr., Islamabad"
146,drmazharbadshah_33.708775_73.055901,Dr Mazhar Badshah,"Dr Mazhar Badshah
3.8(45)
Neurologist ·  · Khyber plaza
Closed ⋅ Opens 5 PM · +92 51 8445113",Neurologist,Closed,33.7087751,73.0559013,https://www.google.com/maps/place/Dr+Mazhar+Badshah/data=!4m7!3m6!1s0x38dfbf5817d2cf39:0x6ef022712723f08e!8m2!3d33.7087751!4d73.0559013!16s%2Fg%2F11h3gv0xsv!19sChIJOc_SF1i_3zgRjvAjJ3Ei8G4?authuser=0&hl=en&rclk=1,"Dr., Islamabad"
147,drnamrahahmed_33.715074_73.066864,DR. NAMRAH AHMED,"DR. NAMRAH AHMED
3.7(3)
Doctor · Physiofitt, Lower Ground, Rohsan Center, Blue Area
Open 24 hours · +92 345 5661110",Doctor,Open 24 hours,33.7150741,73.0668641,https://www.google.com/maps/place/DR.+NAMRAH+AHMED/data=!4m7!3m6!1s0x38dfbf0dcad27f27:0x3c98bc6e75dc4381!8m2!3d33.7150741!4d73.0668641!16s%2Fg%2F11n0g3th_0!19sChIJJ3_Syg2_3zgRgUPcdW68mDw?authuser=0&hl=en&rclk=1,"Dr., Islamabad"
148,drbilalahmedplastica_33.529907_73.133518,Dr Bilal Ahmed Plastic and Reconstructive Surgeon in Islamabad,"Dr Bilal Ahmed Plastic and Reconstructive Surgeon in Islamabad
4.8(81)
Plastic surgeon ·  · Crystal Heights Plaza # 14 Bank Al Habib Building, G T Road
Open ⋅ Closes 7 PM · +92 334 7133307",Plastic surgeon,Open,33.5299067,73.1335178,https://www.google.com/maps/place/Dr+Bilal+Ahmed+Plastic+and+Reconstructive+Surgeon+in+Islamabad/data=!4m7!3m6!1s0x38df9482c4c72447:0xf6204e4c09e3dceb!8m2!3d33.5299067!4d73.1335178!16s%2Fg%2F11c1pcwlw2!19sChIJRyTHxIKU3zgR69zjCUxOIPY?authuser=0&hl=en&rclk=1,"Dr., Islamabad"
149,dradilshafigeneralla_33.692234_73.057550,"Dr. Adil Shafi (General & Laparoscopic Surgeon) ""Adil Laparoscopy World""","Dr. Adil Shafi (General & Laparoscopic Surgeon) ""Adil Laparoscopy World""
5.0(350)
Surgeon ·  · Shahida Khaliq Hospital
Open 24 hours · +92 311 0655510",Surgeon,Open 24 hours,33.6922335,73.0575497,https://www.google.com/maps/place/Dr.+Adil+Shafi+%28General+%26+Laparoscopic+Surgeon%29+%22Adil+Laparoscopy+World%22/data=!4m7!3m6!1s0x845782e9eadcc959:0xc1c55cf678bb7fae!8m2!3d33.6922335!4d73.0575497!16s%2Fg%2F11krbv46vr!19sChIJWcnc6umCV4QRrn-7ePZcxcE?authuser=0&hl=en&rclk=1,"Dr., Islamabad"
150,drnausheenqamar_33.717081_73.084284,Dr Nausheen Qamar,"Dr Nausheen Qamar
4.4(14)
Gynecologist · P38M+RPM, Melody Market Civic Centre, Municipal Rd
Closed ⋅ Opens 5 PM · +92 311 5523864",Gynecologist,Closed,33.7170812,73.0842843,https://www.google.com/maps/place/Dr+Nausheen+Qamar/data=!4m7!3m6!1s0x38dfbf0d0fa03c49:0xfa720845a74bf0d1!8m2!3d33.7170812!4d73.0842843!16s%2Fg%2F11n0bljx0v!19sChIJSTygDw2_3zgR0fBLp0UIcvo?authuser=0&hl=en&rclk=1,"Dr., Islamabad"
151,drsobiambbsfcpsgynae_33.569829_73.143486,Dr Sobia MBBS /FCPS(Gynaecologist),"Dr Sobia MBBS /FCPS(Gynaecologist)
4.7(54)
Obstetrician-gynecologist ·  · House no .35, Street 17, Block c, near london bakers pwd
Closed ⋅ Opens 5:30 PM · +92 300 5559377",Obstetrician-gynecologist,Closed,33.5698286,73.1434858,https://www.google.com/maps/place/Dr+Sobia+MBBS+%2FFCPS%28Gynaecologist%29/data=!4m7!3m6!1s0x38dfed776c1ee793:0x486c4563c1c05d76!8m2!3d33.5698286!4d73.1434858!16s%2Fg%2F11hfb0krx5!19sChIJk-cebHft3zgRdl3AwWNFbEg?authuser=0&hl=en&rclk=1,"Dr., Islamabad"
152,drakbarniaziteaching_33.755986_73.209779,Dr Akbar Niazi Teaching Hospital (ANTH),"Dr Akbar Niazi Teaching Hospital (ANTH)
3.7(215)
Doctor ·  · Butt Karachi tikka, Main Murree Road
Open 24 hours · +92 51 8153000",Doctor,Open 24 hours,33.7559864,73.2097793,https://www.google.com/maps/place/Dr+Akbar+Niazi+Teaching+Hospital+%28ANTH%29/data=!4m7!3m6!1s0x38dfc3b9c54007d7:0x689b20342bf13c0f!8m2!3d33.7559864!4d73.2097793!16s%2Fg%2F11ddwv_9t4!19sChIJ1wdAxbnD3zgRDzzxKzQgm2g?authuser=0&hl=en&rclk=1,"Dr., Islamabad"
153,drfarheenniazineurol_33.711061_73.040792,Dr Farheen Niazi - Neurologist (NeuroCare),"Dr Farheen Niazi - Neurologist (NeuroCare)
4.4(60)
Neurologist · 
Closed ⋅ Opens 10 AM Fri · +92 333 2908909",Neurologist,Closed,33.7110609,73.0407921,https://www.google.com/maps/place/Dr+Farheen+Niazi+-+Neurologist+%28NeuroCare%29/data=!4m7!3m6!1s0x38dfbf92579b215f:0xd31666a708bb8d78!8m2!3d33.7110609!4d73.0407921!16s%2Fg%2F11g10kt12d!19sChIJXyGbV5K_3zgReI27CKdmFtM?authuser=0&hl=en&rclk=1,"Dr., Islamabad"
154,drafsheenbilal_33.698468_73.048521,Dr. Afsheen Bilal,"Dr. Afsheen Bilal
4.4(220)
Dermatologist · Suite 11, 2nd Floor, Crescent Arcade, Markaz
Open ⋅ Closes 5:30 PM · +92 315 1620207",Dermatologist,Open,33.6984682,73.0485207,https://www.google.com/maps/place/Dr.+Afsheen+Bilal/data=!4m7!3m6!1s0x38dfbfaea48a8d15:0xc0b1ad8fd7549516!8m2!3d33.6984682!4d73.0485207!16s%2Fg%2F11fkhr9yqw!19sChIJFY2KpK6_3zgRFpVU14-tscA?authuser=0&hl=en&rclk=1,"Dr., Islamabad"
155,drsyednajmulhassan_33.698641_73.048430,Dr Syed Najmul Hassan,"Dr Syed Najmul Hassan
4.9(71)
Orthopedic surgeon · Care plus hospital, markaz
Closed ⋅ Opens 5 PM · +92 333 7869201",Orthopedic surgeon,Closed,33.6986411,73.0484302,https://www.google.com/maps/place/Dr+Syed+Najmul+Hassan/data=!4m7!3m6!1s0x38dfbf329041eb47:0xbab0eb7723266a1a!8m2!3d33.6986411!4d73.0484302!16s%2Fg%2F11vd0z3k58!19sChIJR-tBkDK_3zgRGmomI3frsLo?authuser=0&hl=en&rclk=1,"Dr., Islamabad"
156,draltafhussainshahcl_33.722457_73.081502,Dr Altaf Hussain Shah Clinic,"Dr Altaf Hussain Shah Clinic
4.5(38)
Orthopedic surgeon ·  · SALEEM PLAZA, behind Executive Passport Office, opposite Polyclinic. Near Masjid Al Rahman
Closed ⋅ Opens 4:30 PM · +92 310 0665444",Orthopedic surgeon,Closed,33.722457,73.0815024,https://www.google.com/maps/place/Dr+Altaf+Hussain+Shah+Clinic/data=!4m7!3m6!1s0x38dfbf8166f1bffb:0xb738c6fcc46efbd!8m2!3d33.722457!4d73.0815024!16s%2Fg%2F11y07pxfx!19sChIJ-7_xZoG_3zgRve9GzG-Mcws?authuser=0&hl=en&rclk=1,"Dr., Islamabad"
157,dramnas_33.566154_73.131982,Dr. Amna's,"Dr. Amna's
4.2(99)
Dermatologist · On, Main PWD Rd, opposite Khaadi
Open ⋅ Closes 8 PM · +92 321 5544394",Dermatologist,Open,33.5661544,73.131982,https://www.google.com/maps/place/Dr.+Amna%27s/data=!4m7!3m6!1s0x38dfedd76327b4c1:0xbae898ba08f92bc4!8m2!3d33.5661544!4d73.131982!16s%2Fg%2F11rbdtxkmg!19sChIJwbQnY9ft3zgRxCv5CLqY6Lo?authuser=0&hl=en&rclk=1,"Dr., Islamabad"
