Index,Place Id,Name,Address,Category,Status,Latitude,Longitude,Link,SearchKeyword
1,na_noloc,,,,,,,,"Health, Islamabad"
5,nationalinstituteofh_33.688783_73.137304,National Institute of Health (NIH),"National Institute of Health (NIH)
4.2(333)
Public health department ·  · M4QP+GW7, Park Rd
Open ⋅ Closes 3:44 PM · +92 300 8856321",Public health department,Open,33.6887833,73.1373039,https://www.google.com/maps/place/National+Institute+of+Health+%28NIH%29/data=!4m7!3m6!1s0x38dfea7ed0fc711b:0xf4cc34198ba3d005!8m2!3d33.6887833!4d73.1373039!16s%2Fg%2F1td5dhbz!19sChIJG3H80H7q3zgRBdCjixk0zPQ?authuser=0&hl=en&rclk=1,"Health, Islamabad"
37,islamabadhealthcarer_33.682721_73.050244,Islamabad Healthcare Regulatory Authority (IHRA),"Islamabad Healthcare Regulatory Authority (IHRA)
4.3(18)
Government office ·  · Pakistan Red Crescent Society, Disaster Management & Logistic Center, Second, Ashfaq Ahmed Rd
Open ⋅ Closes 5 PM · +92 51 9250383",Government office,Open,33.6827212,73.0502438,https://www.google.com/maps/place/Islamabad+Healthcare+Regulatory+Authority+%28IHRA%29/data=!4m7!3m6!1s0x38dfc1061f1e7579:0x1fb227146d0c49f1!8m2!3d33.6827212!4d73.0502438!16s%2Fg%2F11j791wj02!19sChIJeXUeHwbB3zgR8UkMbRQnsh8?authuser=0&hl=en&rclk=1,"Health, Islamabad"
38,islamabadhealthservi_33.568875_73.200526,Islamabad Health Services Hospital,"Islamabad Health Services Hospital
4.6(99)
Hospital ·  · D-23, Commercial Street 02, Block D Naval Anchorage, Islamabad Expressway Islamabad
Open 24 hours · +92 333 5767177",Hospital,Open 24 hours,33.5688753,73.200526,https://www.google.com/maps/place/Islamabad+Health+Services+Hospital/data=!4m7!3m6!1s0x38dfef77a8d3ea13:0xc7a33b4eb65b3bcf!8m2!3d33.5688753!4d73.200526!16s%2Fg%2F11h0b8y3g2!19sChIJE-rTqHfv3zgRzztbtk47o8c?authuser=0&hl=en&rclk=1,"Health, Islamabad"
39,ministryofnationalhe_33.741301_73.092244,"Ministry Of National Health Services, Regulations and Coordination","Ministry Of National Health Services, Regulations and Coordination
4.3(69)
State government office ·  · Kohsar Block, 3rd Floor, Constitution Ave
Open ⋅ Closes 4:30 PM · +92 51 9245810",State government office,Open,33.7413005,73.0922439,"https://www.google.com/maps/place/Ministry+Of+National+Health+Services,+Regulations+and+Coordination/data=!4m7!3m6!1s0x38dfc07c78fbaf21:0xb7661c85d115fac0!8m2!3d33.7413005!4d73.0922439!16s%2Fg%2F11bxc78cbl!19sChIJIa_7eHzA3zgRwPoV0YUcZrc?authuser=0&hl=en&rclk=1","Health, Islamabad"
40,directorateofcentral_33.688268_73.136353,Directorate of central health establishments (CHE),"Directorate of central health establishments (CHE)
4.5(8)
Public health department · M4QP+8G5, District
Open ⋅ Closes 5 PM",Public health department,Open,33.6882677,73.1363535,https://www.google.com/maps/place/Directorate+of+central+health+establishments+%28CHE%29/data=!4m7!3m6!1s0x38dfea7fc9c7b673:0xa8b4ff1db7652525!8m2!3d33.6882677!4d73.1363535!16s%2Fg%2F11gbxbt1kv!19sChIJc7bHyX_q3zgRJSVltx3_tKg?authuser=0&hl=en&rclk=1,"Health, Islamabad"
41,healthservicesacadem_33.688674_73.141539,"Health Services Academy, Islamabad","Health Services Academy, Islamabad
4.5(125)
University ·  · Opp. NIH, Park Rd
Open ⋅ Closes 5 PM · +92 51 9255590",University,Open,33.6886745,73.1415392,"https://www.google.com/maps/place/Health+Services+Academy,+Islamabad/data=!4m7!3m6!1s0x38dfeb4b1d37a3b1:0x747eedc0d4116eea!8m2!3d33.6886745!4d73.1415392!16s%2Fg%2F11yq4dd0k!19sChIJsaM3HUvr3zgR6m4R1MDtfnQ?authuser=0&hl=en&rclk=1","Health, Islamabad"
42,familyhealthhospital_33.649380_73.046830,Family Health Hospital,"Family Health Hospital
3.5(157)
Hospital ·  · J2XW+QP4, St 30
Open 24 hours · +92 51 4446840",Hospital,Open 24 hours,33.64938,73.04683,https://www.google.com/maps/place/Family+Health+Hospital/data=!4m7!3m6!1s0x38df950ec9f30bd3:0xef6ddd02594d1da6!8m2!3d33.64938!4d73.04683!16s%2Fg%2F11x9bnkhh!19sChIJ0wvzyQ6V3zgRph1NWQLdbe8?authuser=0&hl=en&rclk=1,"Health, Islamabad"
43,directorateofcentral_33.696079_73.042042,Directorate of Central Health Establishments Camp Office,"Directorate of Central Health Establishments Camp Office
5.0(2)
Government office ·  · 2
Open ⋅ Closes 5 PM · +92 51 9262214",Government office,Open,33.6960789,73.042042,https://www.google.com/maps/place/Directorate+of+Central+Health+Establishments+Camp+Office/data=!4m7!3m6!1s0x38dfbfcd9435c8d9:0x6c06b1b50b26837!8m2!3d33.6960789!4d73.042042!16s%2Fg%2F11fj5lcc0t!19sChIJ2cg1lM2_3zgRN2iyUBtrwAY?authuser=0&hl=en&rclk=1,"Health, Islamabad"
44,districthealthoffice_33.687861_73.034025,District Health Office DHO,"District Health Office DHO
4.4(13)
Federal government office ·  · M2QM+4JR
Open ⋅ Closes 4:30 PM · +92 51 9261210",Federal government office,Open,33.6878607,73.0340255,https://www.google.com/maps/place/District+Health+Office+DHO/data=!4m7!3m6!1s0x38dfbfa8fa2f4457:0xeb96f6cc6fcad0d3!8m2!3d33.6878607!4d73.0340255!16s%2Fg%2F11m1h7lmmc!19sChIJV0Qv-qi_3zgR09DKb8z2lus?authuser=0&hl=en&rclk=1,"Health, Islamabad"
45,premiumdiagnosticand_33.703519_73.051454,Premium Diagnostic and Clinics,"Premium Diagnostic and Clinics
4.2(2,549)
Medical school ·  · Ibn-e-Sina Rd
Open 24 hours · +92 51 9261170",Medical school,Open 24 hours,33.7035185,73.0514542,https://www.google.com/maps/place/Premium+Diagnostic+and+Clinics/data=!4m7!3m6!1s0x38dfbfb826dae131:0xba5e1cbcad4376fe!8m2!3d33.7035185!4d73.0514542!16zL20vMGQyeGNw!19sChIJMeHaJri_3zgR_nZDrbwcXro?authuser=0&hl=en&rclk=1,"Health, Islamabad"
46,integratedhealthserv_33.696450_73.050915,Integrated Health Services (IHS),"Integrated Health Services (IHS)
4.6(66)
Hospital
Open 24 hours · +92 51 111 362 867",Hospital,Open 24 hours,33.6964496,73.0509147,https://www.google.com/maps/place/Integrated+Health+Services+%28IHS%29/data=!4m7!3m6!1s0x38dfbfc894e8029b:0xfa1b648aa4daf439!8m2!3d33.6964496!4d73.0509147!16s%2Fg%2F11dxq_v0jq!19sChIJmwLolMi_3zgROfTapIpkG_o?authuser=0&hl=en&rclk=1,"Health, Islamabad"
47,onehealthmedicalserv_33.714684_73.056577,One Health Medical Services,"One Health Medical Services
4.7(12)
Family practice physician · House 8 Street Number 35
Open ⋅ Closes 5 PM · +92 300 0790738",Family practice physician,Open,33.714684,73.0565772,https://www.google.com/maps/place/One+Health+Medical+Services/data=!4m7!3m6!1s0x38dfbf35d4552521:0xd1a6170f65008131!8m2!3d33.714684!4d73.0565772!16s%2Fg%2F11jw55v5ym!19sChIJISVV1DW_3zgRMYEAZQ8XptE?authuser=0&hl=en&rclk=1,"Health, Islamabad"
48,pakistaninstituteofh_33.661463_73.139193,Pakistan institute of health,"Pakistan institute of health
3.0(2)
Hospital · M46Q+HMP
+92 342 0386611",Hospital,,33.6614627,73.139193,https://www.google.com/maps/place/Pakistan+institute+of+health/data=!4m7!3m6!1s0x38dfeb2746e53cc1:0x9d7879a98d2ed174!8m2!3d33.6614627!4d73.139193!16s%2Fg%2F11j3558p05!19sChIJwTzlRifr3zgRdNEujal5eJ0?authuser=0&hl=en&rclk=1,"Health, Islamabad"
49,smartmedicaldiagnost_33.698436_73.048823,Smart Medical & Diagnostics Centre ( SMDC),"Smart Medical & Diagnostics Centre ( SMDC)
5.0(415)
Medical Center ·  · Crescent Arcade, opp. Motorway Expess
Open ⋅ Closes 10 PM · +92 51 2340383",Medical Center,Open,33.6984362,73.0488229,https://www.google.com/maps/place/Smart+Medical+%26+Diagnostics+Centre+%28+SMDC%29/data=!4m7!3m6!1s0x38dfbf2235ed90a7:0x1fa908fbadbd9842!8m2!3d33.6984362!4d73.0488229!16s%2Fg%2F11jpd2vqlr!19sChIJp5DtNSK_3zgRQpi9rfsIqR8?authuser=0&hl=en&rclk=1,"Health, Islamabad"
50,drasadtamizuddinniza_33.710747_73.040610,Dr Asad Tamizuddin Nizami - Nizami Health Care Islamabad,"Dr Asad Tamizuddin Nizami - Nizami Health Care Islamabad
4.6(9)
Mental health service · P26R+76X
Closed ⋅ Opens 4 PM Fri · +92 332 6060000",Mental health service,Closed,33.710747,73.0406098,https://www.google.com/maps/place/Dr+Asad+Tamizuddin+Nizami+-+Nizami+Health+Care+Islamabad/data=!4m7!3m6!1s0x38dfbfe1e9daee19:0x655285179b1968f6!8m2!3d33.710747!4d73.0406098!16s%2Fg%2F11jcn0y1dl!19sChIJGe7a6eG_3zgR9mgZmxeFUmU?authuser=0&hl=en&rclk=1,"Health, Islamabad"
51,publichealthlaborato_33.688938_73.136687,Public Health Laboratory Division NIH,"Public Health Laboratory Division NIH
4.2(33)
Laboratory ·  · M4QP+GW7, NIH, Park Rd
Open ⋅ Closes 4 PM · +92 51 9255110",Laboratory,Open,33.6889375,73.1366875,https://www.google.com/maps/place/Public+Health+Laboratory+Division+NIH/data=!4m7!3m6!1s0x38dfebdd55b4a98f:0xbde71df752aa62f4!8m2!3d33.6889375!4d73.1366875!16s%2Fg%2F11spgxtc_c!19sChIJj6m0Vd3r3zgR9GKqUvcd570?authuser=0&hl=en&rclk=1,"Health, Islamabad"
52,psychologicalhealthc_33.697728_73.046929,Psychological health care center Islamabad,"Psychological health care center Islamabad
4.8(33)
Psychologist · House no, 279 Street 3, opposite tandoori restaurant
+92 300 8505221",Psychologist,,33.6977283,73.0469289,https://www.google.com/maps/place/Psychological+health+care+center+Islamabad/data=!4m7!3m6!1s0x38dfbf72b1434937:0xe555922930620b05!8m2!3d33.6977283!4d73.0469289!16s%2Fg%2F11r7s3l2sh!19sChIJN0lDsXK_3zgRBQtiMCmSVeU?authuser=0&hl=en&rclk=1,"Health, Islamabad"
53,nihallergycenter_33.687253_73.139170,NIH Allergy Center,"NIH Allergy Center
4.2(466)
Hospital ·  · OPD, NIH Rd
Closes soon ⋅ 2:30 PM ⋅ Opens 7:30 AM Fri · +92 51 9255881",Hospital,Closes soon,33.6872534,73.1391704,https://www.google.com/maps/place/NIH+Allergy+Center/data=!4m7!3m6!1s0x38dfeb32942dbdd3:0xd97401ba33c6d8bc!8m2!3d33.6872534!4d73.1391704!16s%2Fg%2F11gmdf9jdj!19sChIJ070tlDLr3zgRvNjGM7oBdNk?authuser=0&hl=en&rclk=1,"Health, Islamabad"
54,hmdiagnosticsandclin_33.698479_73.048750,HM Diagnostics and Clinics,"HM Diagnostics and Clinics
4.8(213)
Medical clinic · Basement shop no. 11 & 12 Crescent Arcade, Road
Open ⋅ Closes 10 PM · +92 321 5199295",Medical clinic,Open,33.6984794,73.0487497,https://www.google.com/maps/place/HM+Diagnostics+and+Clinics/data=!4m7!3m6!1s0x38dfbfd2f102e0f9:0x3e7c6653ba9236fd!8m2!3d33.6984794!4d73.0487497!16s%2Fg%2F11jx6jbvnp!19sChIJ-eAC8dK_3zgR_TaSulNmfD4?authuser=0&hl=en&rclk=1,"Health, Islamabad"
55,aayanhealthclinic_33.705295_73.068247,Aayan Health Clinic,"Aayan Health Clinic
4.6(19)
Medical clinic ·  · Sitara، Shop # 1-2, Kohsar Cinema Building. Sitara Market, Islamabad G-7 Markaz، Market
Open ⋅ Closes 11 PM · +92 51 2606816",Medical clinic,Open,33.7052947,73.0682471,https://www.google.com/maps/place/Aayan+Health+Clinic/data=!4m7!3m6!1s0x38dfbf94f6965785:0x4ac781ac8c060939!8m2!3d33.7052947!4d73.0682471!16s%2Fg%2F11c1ngy_97!19sChIJhVeW9pS_3zgROQkGjKyBx0o?authuser=0&hl=en&rclk=1,"Health, Islamabad"
56,nationalinstituteofr_33.695805_73.041512,National Institute of Rehabilitation Medicine (NIRM),"National Institute of Rehabilitation Medicine (NIRM)
4.2(244)
Government hospital ·  · 2 Street 9
Closed ⋅ Opens 8 AM Fri · +92 51 9262213",Government hospital,Closed,33.6958055,73.0415123,https://www.google.com/maps/place/National+Institute+of+Rehabilitation+Medicine+%28NIRM%29/data=!4m7!3m6!1s0x38dfbfcb2174c5f3:0x36de02b41a2e62d2!8m2!3d33.6958055!4d73.0415123!16s%2Fg%2F12mkz5mms!19sChIJ88V0Icu_3zgR0mIuGrQC3jY?authuser=0&hl=en&rclk=1,"Health, Islamabad"
57,nationalinfluenzacen_33.688783_73.137304,National Influenza Center Islamabad,"National Influenza Center Islamabad
5.0(3)
Public health department · M4QP+GW7 Department of Virology, Public health division, NIH
Open ⋅ Closes 4:30 PM · +92 51 9255099",Public health department,Open,33.6887833,73.1373039,https://www.google.com/maps/place/National+Influenza+Center+Islamabad/data=!4m7!3m6!1s0x38dfc134de2c91c5:0x7d46b5a14cd5ca78!8m2!3d33.6887833!4d73.1373039!16s%2Fg%2F11flbvvj9z!19sChIJxZEs3jTB3zgReMrVTKG1Rn0?authuser=0&hl=en&rclk=1,"Health, Islamabad"
58,healthnutritionloung_33.712002_73.061065,Health & Nutrition Lounge,"Health & Nutrition Lounge
5.0(140)
Medical clinic · First Floor, Health & Nutrition Lounge, Masco Plaza, Jinnah Ave
Open 24 hours · +92 334 5765821",Medical clinic,Open 24 hours,33.7120024,73.0610646,https://www.google.com/maps/place/Health+%26+Nutrition+Lounge/data=!4m7!3m6!1s0x38dfbf3df05b8607:0x7a46cbf4347be17c!8m2!3d33.7120024!4d73.0610646!16s%2Fg%2F11qnts__9n!19sChIJB4Zb8D2_3zgRfOF7NPTLRno?authuser=0&hl=en&rclk=1,"Health, Islamabad"
59,laboratoryinislamaba_33.709835_73.057930,Laboratory in Islamabad | Pure Health Lab,"Laboratory in Islamabad | Pure Health Lab
5.0(4)
Laboratory · Royal Centre, Basement #4 B, AKM Fazl-ul-Haq Rd
Open ⋅ Closes 8:30 PM · +92 51 2806441",Laboratory,Open,33.7098354,73.0579299,https://www.google.com/maps/place/Laboratory+in+Islamabad+%7C+Pure+Health+Lab/data=!4m7!3m6!1s0x38dfbf7679707f47:0xb26a6efe3ca01c14!8m2!3d33.7098354!4d73.0579299!16s%2Fg%2F11n14df91b!19sChIJR39weXa_3zgRFBygPP5uarI?authuser=0&hl=en&rclk=1,"Health, Islamabad"
60,tummyfitinpakistan_33.713454_73.061021,Tummy Fit in Pakistan,"Tummy Fit in Pakistan
5.0(1)
Public health department · Street 30
Open ⋅ Closes 10 PM · +92 300 3393671",Public health department,Open,33.713454,73.061021,https://www.google.com/maps/place/Tummy+Fit+in+Pakistan/data=!4m7!3m6!1s0x392242a259a99daf:0xf13c3341a5d32926!8m2!3d33.713454!4d73.061021!16s%2Fg%2F1pzy73p87!19sChIJr52pWaJCIjkRJinTpUEzPPE?authuser=0&hl=en&rclk=1,"Health, Islamabad"
61,drmuhammadisrarnutri_33.710029_73.058316,"Dr. Muhammad Israr, Nutritionist and Dietitian","Dr. Muhammad Israr, Nutritionist and Dietitian
3.8(10)
Medical clinic · Ground Floor, BCL Consultant Clinics, Asif Plaza, Fazl-e-haq Road, near Beewell hospital
Open 24 hours · +92 333 5993630",Medical clinic,Open 24 hours,33.7100295,73.0583162,"https://www.google.com/maps/place/Dr.+Muhammad+Israr,+Nutritionist+and+Dietitian/data=!4m7!3m6!1s0x38df966c1d41506d:0xd240178511eafafb!8m2!3d33.7100295!4d73.0583162!16s%2Fg%2F11g8lqxgdt!19sChIJbVBBHWyW3zgR-_rqEYUXQNI?authuser=0&hl=en&rclk=1","Health, Islamabad"
62,islamabadclinic_33.722189_73.081613,Islamabad Clinic,"Islamabad Clinic
3.0(1)
Medical clinic · P3CJ+VJH, Huma Plaza, Fazal-e-Haq Rd, Block C, Blue Area
+92 346 5410860",Medical clinic,,33.7221895,73.0816131,https://www.google.com/maps/place/Islamabad+Clinic/data=!4m7!3m6!1s0x38dfbf83e0a54337:0x71ae13e20c84e362!8m2!3d33.7221895!4d73.0816131!16s%2Fg%2F12mkz7n5_!19sChIJN0Ol4IO_3zgRYuOEDOITrnE?authuser=0&hl=en&rclk=1,"Health, Islamabad"
63,rapidhealingmedicals_33.616116_73.086108,Rapid Healing Medical Services-Islamabad Clinic,"Rapid Healing Medical Services-Islamabad Clinic
4.4(14)
Psychologist
Open ⋅ Closes 7 PM · +92 336 1820007",Psychologist,Open,33.6161162,73.086108,https://www.google.com/maps/place/Rapid+Healing+Medical+Services-Islamabad+Clinic/data=!4m7!3m6!1s0x38dfbfe77b6af223:0xabddc83fde9e436f!8m2!3d33.6161162!4d73.086108!16s%2Fg%2F11jr6hpnh6!19sChIJI_Jqe-e_3zgRb0Oe3j_I3as?authuser=0&hl=en&rclk=1,"Health, Islamabad"
64,arshadhealthclinic_33.739461_73.082037,Arshad Health Clinic,"Arshad Health Clinic
4.9(11)
Medical clinic ·  · F-6-3, F-6, Islamabad, ICT
Closed ⋅ Opens 8 AM Fri · +92 51 2876866",Medical clinic,Closed,33.7394609,73.0820375,https://www.google.com/maps/place/Arshad+Health+Clinic/data=!4m7!3m6!1s0x38dfbf637c4b7d33:0xc6949c7b074bfe68!8m2!3d33.7394609!4d73.0820375!16s%2Fg%2F11xp58bq9!19sChIJM31LfGO_3zgRaP5LB3uclMY?authuser=0&hl=en&rclk=1,"Health, Islamabad"
65,shabbirhealthservice_33.718158_73.071358,Shabbir Health Services,"Shabbir Health Services
5.0(3)
Medical group · Azeem Mansion
Open ⋅ Closes 6:30 PM · +92 315 5623712",Medical group,Open,33.7181584,73.071358,https://www.google.com/maps/place/Shabbir+Health+Services/data=!4m7!3m6!1s0x38dfbf9d9fd988a1:0xf22d3ba20144565!8m2!3d33.7181584!4d73.071358!16s%2Fg%2F11sfkpgr11!19sChIJoYjZn52_3zgRZUUUILrTIg8?authuser=0&hl=en&rclk=1,"Health, Islamabad"
66,zobiahospitalg9islam_33.677978_73.030205,Zobia Hospital G-9 Islamabad,"Zobia Hospital G-9 Islamabad
3.5(103)
Hospital ·  · Street 30
Open 24 hours · +92 51 2261130",Hospital,Open 24 hours,33.6779776,73.0302046,https://www.google.com/maps/place/Zobia+Hospital+G-9+Islamabad/data=!4m7!3m6!1s0x38dfbf80a2b451a5:0x316fd483f145e55d!8m2!3d33.6779776!4d73.0302046!16s%2Fg%2F11h336n5v0!19sChIJpVG0ooC_3zgRXeVF8YPUbzE?authuser=0&hl=en&rclk=1,"Health, Islamabad"
67,rewiredhijamaandruqy_33.711485_73.041331,Rewired Hijama and Ruqyah Centre Islamabad,"Rewired Hijama and Ruqyah Centre Islamabad
5.0(274)
Medical clinic · Shop# 1B, Basement, Umar Plaza, ICT, 13-F Kohistan Rd
Open ⋅ Closes 9 PM · +92 333 1117834",Medical clinic,Open,33.7114849,73.0413315,https://www.google.com/maps/place/Rewired+Hijama+and+Ruqyah+Centre+Islamabad/data=!4m7!3m6!1s0x38dfbfea5d0fd797:0x2827b650b2b9e7a9!8m2!3d33.7114849!4d73.0413315!16s%2Fg%2F11s8dc35sz!19sChIJl9cPXeq_3zgRqee5slC2Jyg?authuser=0&hl=en&rclk=1,"Health, Islamabad"
68,familyhealthclinic_33.721045_73.088302,Family Health Clinic,"Family Health Clinic
5.0(1)
Medical clinic · 24 Street 89",Medical clinic,,33.7210448,73.0883024,https://www.google.com/maps/place/Family+Health+Clinic/data=!4m7!3m6!1s0x38dfc078c9062ad5:0x8583ed8cc47397fe!8m2!3d33.7210448!4d73.0883024!16s%2Fg%2F1tgdrhx6!19sChIJ1SoGyXjA3zgR_pdzxIztg4U?authuser=0&hl=en&rclk=1,"Health, Islamabad"
69,ihschildrenfamilyhos_33.686170_73.005672,IHS Children & Family Hospital,"IHS Children & Family Hospital
3.7(114)
Hospital ·  · Plot No. 2, Khursheed Market, Street 30
Open 24 hours · +92 51 2298217",Hospital,Open 24 hours,33.6861698,73.0056721,https://www.google.com/maps/place/IHS+Children+%26+Family+Hospital/data=!4m7!3m6!1s0x38dfbe11d091703f:0x2824dc7523490bbc!8m2!3d33.6861698!4d73.0056721!16s%2Fg%2F1tf9lmvg!19sChIJP3CR0BG-3zgRvAtJI3XcJCg?authuser=0&hl=en&rclk=1,"Health, Islamabad"
70,islamabadhepatitisce_33.720986_73.079717,Islamabad Hepatitis Centre & Gutcare Clinic,"Islamabad Hepatitis Centre & Gutcare Clinic
No reviews
Medical clinic · United Plaza AK, AKM Fazl-ul-Haq Rd
Open ⋅ Closes 9 PM · +92 51 2804025",Medical clinic,Open,33.7209861,73.0797173,https://www.google.com/maps/place/Islamabad+Hepatitis+Centre+%26+Gutcare+Clinic/data=!4m7!3m6!1s0x38dfbfbbaf4e4381:0x575921858ce530e4!8m2!3d33.7209861!4d73.0797173!16s%2Fg%2F12mkwb7dk!19sChIJgUNOr7u_3zgR5DDljIUhWVc?authuser=0&hl=en&rclk=1,"Health, Islamabad"
71,islamabadspecialistc_33.696991_73.051271,Islamabad Specialist Clinic G-8 Markaz Islamabad,"Islamabad Specialist Clinic G-8 Markaz Islamabad
4.9(109)
Medical clinic ·  · G, 8 Markaz Rd
Open ⋅ Closes 9 PM · +92 343 0000433",Medical clinic,Open,33.6969906,73.0512707,https://www.google.com/maps/place/Islamabad+Specialist+Clinic+G-8+Markaz+Islamabad/data=!4m7!3m6!1s0x38dfbf6482f6aa81:0xae209a86fda47a8b!8m2!3d33.6969906!4d73.0512707!16s%2Fg%2F11hf72mc2q!19sChIJgar2gmS_3zgRi3qk_YaaIK4?authuser=0&hl=en&rclk=1,"Health, Islamabad"
72,wellnessloungeislama_33.697891_73.048961,Wellness Lounge Islamabad Pk,"Wellness Lounge Islamabad Pk
4.1(23)
Skin care clinic ·  · Office # 22, 1st Floor, Executive Complex
Open ⋅ Closes 8 PM · +92 335 5858268",Skin care clinic,Open,33.6978906,73.0489613,https://www.google.com/maps/place/Wellness+Lounge+Islamabad+Pk/data=!4m7!3m6!1s0x38dfbe6c673ce26f:0x70df554099614110!8m2!3d33.6978906!4d73.0489613!16s%2Fg%2F11hbnq0jfm!19sChIJb-I8Z2y-3zgREEFhmUBV33A?authuser=0&hl=en&rclk=1,"Health, Islamabad"
73,capitaldiagnosticcen_33.722189_73.081613,Capital Diagnostic Centre Blue Area,"Capital Diagnostic Centre Blue Area
4.4(49)
Medical diagnostic imaging center ·  · Pak Plaza, 22 Service Road, Fazl e Haq Road
Open 24 hours · +92 51 2604415",Medical diagnostic imaging center,Open 24 hours,33.7221895,73.0816131,https://www.google.com/maps/place/Capital+Diagnostic+Centre+Blue+Area/data=!4m7!3m6!1s0x38dfbf568f1888e7:0x2ad4994badbbe2bc!8m2!3d33.7221895!4d73.0816131!16s%2Fg%2F11p3hy5ndk!19sChIJ54gYj1a_3zgRvOK7rUuZ1Co?authuser=0&hl=en&rclk=1,"Health, Islamabad"
74,ntpislamabad_33.688712_73.140661,NTP Islamabad,"NTP Islamabad
4.0(2)
Federal government office · NIH
Open ⋅ Closes 5 PM · +92 800 888 00",Federal government office,Open,33.6887122,73.1406615,https://www.google.com/maps/place/NTP+Islamabad/data=!4m7!3m6!1s0x38dfeb354ee9b097:0xffa363448ae23fc0!8m2!3d33.6887122!4d73.1406615!16s%2Fg%2F11h7h94p_0!19sChIJl7DpTjXr3zgRwD_iikRjo_8?authuser=0&hl=en&rclk=1,"Health, Islamabad"
75,islamabadmedicalrheu_33.711801_73.041135,Islamabad Medical & Rheumotology Clinic,"Islamabad Medical & Rheumotology Clinic
4.3(6)
Medical clinic · Royal Inn Plaza, Plot 16 Kohistan Rd
+92 51 2254868",Medical clinic,,33.7118005,73.0411348,https://www.google.com/maps/place/Islamabad+Medical+%26+Rheumotology+Clinic/data=!4m7!3m6!1s0x38dfbfad2ffa05c7:0xe6cee6aada1bc56a!8m2!3d33.7118005!4d73.0411348!16s%2Fg%2F11x9hkf27!19sChIJxwX6L62_3zgRasUb2qrmzuY?authuser=0&hl=en&rclk=1,"Health, Islamabad"
76,gsrdiagnosticsclinic_33.720940_73.079361,GSR Diagnostics & Clinics,"GSR Diagnostics & Clinics
4.3(41)
Medical clinic ·  · Office 8, Plot 16-D, AKM, Safdar Mansion, AKM Fazl-ul-Haq Rd
Open 24 hours · +92 51 2278073",Medical clinic,Open 24 hours,33.7209401,73.0793612,https://www.google.com/maps/place/GSR+Diagnostics+%26+Clinics/data=!4m7!3m6!1s0x38dfbf83819377fb:0xfa087d05fff7ea95!8m2!3d33.7209401!4d73.0793612!16s%2Fg%2F12mkw8tvk!19sChIJ-3eTgYO_3zgRler3_wV9CPo?authuser=0&hl=en&rclk=1,"Health, Islamabad"
77,driubaigclinicipl_33.722504_73.082185,"Dr I U BAIG Clinic, IPL","Dr I U BAIG Clinic, IPL
4.3(12)
Medical clinic · 21 East AKM Fazl-ul-Haq Rd
Closed ⋅ Opens 4:30 PM · +92 300 5518890",Medical clinic,Closed,33.7225042,73.0821849,"https://www.google.com/maps/place/Dr+I+U+BAIG+Clinic,+IPL/data=!4m7!3m6!1s0x38dfbff09f8cec3b:0x9c59fef81c180c4!8m2!3d33.7225042!4d73.0821849!16s%2Fg%2F11j8zt6f04!19sChIJO-yMn_C_3zgRxIDBge-fxQk?authuser=0&hl=en&rclk=1","Health, Islamabad"
78,thefamilyclinic_33.722563_73.060438,The Family Clinic,"The Family Clinic
4.0(59)
Medical clinic · Jinnah super Market, Pak Land trade center, 3rd floor Office no 8 F7/2
Open ⋅ Closes 5 PM · +92 51 2651666",Medical clinic,Open,33.7225625,73.0604375,https://www.google.com/maps/place/The+Family+Clinic/data=!4m7!3m6!1s0x38dfbfd01869359d:0xa42e70676acb0d42!8m2!3d33.7225625!4d73.0604375!16s%2Fg%2F11v9byxh_3!19sChIJnTVpGNC_3zgRQg3LamdwLqQ?authuser=0&hl=en&rclk=1,"Health, Islamabad"
79,departmentofpsychiat_33.711750_73.070618,Department of Psychiatry Federal Government Polyclinic,"Department of Psychiatry Federal Government Polyclinic
5.0(1)
Mental health service · P36C+M5V
Closed ⋅ Opens 9 AM Fri · +92 51 9252470",Mental health service,Closed,33.7117501,73.0706179,https://www.google.com/maps/place/Department+of+Psychiatry+Federal+Government+Polyclinic/data=!4m7!3m6!1s0x38dfbf06701ffdad:0x52c571d8a5b406c9!8m2!3d33.7117501!4d73.0706179!16s%2Fg%2F11s3d5dbs0!19sChIJrf0fcAa_3zgRyQa0pdhxxVI?authuser=0&hl=en&rclk=1,"Health, Islamabad"
80,islamabadpsychologic_33.691360_72.999301,Islamabad Psychological Support By Maliha Ahmed,"Islamabad Psychological Support By Maliha Ahmed
5.0(33)
Mental health service · MXRX+GPV, Street 14
Open 24 hours · +92 316 5823033",Mental health service,Open 24 hours,33.6913602,72.9993008,https://www.google.com/maps/place/Islamabad+Psychological+Support+By+Maliha+Ahmed/data=!4m7!3m6!1s0x38dfbf0ac6cfc751:0x81abda60bfe86fad!8m2!3d33.6913602!4d72.9993008!16s%2Fg%2F11q1qqj_w5!19sChIJUcfPxgq_3zgRrW_ov2Daq4E?authuser=0&hl=en&rclk=1,"Health, Islamabad"
81,bestrehabcenterinisl_33.693005_73.037870,Best Rehab Center in islamabad Healing Hub Rehab Pakistan,"Best Rehab Center in islamabad Healing Hub Rehab Pakistan
5.0(33)
Rehabilitation center ·  · House 193 Street 74
Open 24 hours · +92 340 4638238",Rehabilitation center,Open 24 hours,33.6930047,73.0378704,https://www.google.com/maps/place/Best+Rehab+Center+in+islamabad+Healing+Hub+Rehab+Pakistan/data=!4m7!3m6!1s0x38dfeb2d72cc2603:0xbbd87223bcf91739!8m2!3d33.6930047!4d73.0378704!16s%2Fg%2F11sdq3zt9c!19sChIJAybMci3r3zgRORf5vCNy2Ls?authuser=0&hl=en&rclk=1,"Health, Islamabad"
82,homemedicalfirstaids_33.710120_73.080982,Home Medical & First Aid Services,"Home Medical & First Aid Services
5.0(10)
Medical group · G, Street 58, 6 1-2
+92 343 0000500",Medical group,,33.7101204,73.0809821,https://www.google.com/maps/place/Home+Medical+%26+First+Aid+Services/data=!4m7!3m6!1s0x38dfbfa03be1fc57:0x9caddabf0e85dd2a!8m2!3d33.7101204!4d73.0809821!16s%2Fg%2F11v5wxtvfr!19sChIJV_zhO6C_3zgRKt2FDr_arZw?authuser=0&hl=en&rclk=1,"Health, Islamabad"
83,drshehnazwajidclinic_33.722570_73.082380,Dr Shehnaz Wajid Clinic,"Dr Shehnaz Wajid Clinic
4.4(9)
Medical clinic · P3FJ+2XC, Huma Plaza, AK Fazal-ul-Haq Rd, Block C, Blue Area, Islamabad, ICT
+92 51 2274023",Medical clinic,,33.72257,73.08238,https://www.google.com/maps/place/Dr+Shehnaz+Wajid+Clinic/data=!4m7!3m6!1s0x38dfbf81668b5283:0x351a0d372ea44f6!8m2!3d33.72257!4d73.08238!16s%2Fg%2F11_8_zlxz!19sChIJg1KLZoG_3zgR9kTqctOgUQM?authuser=0&hl=en&rclk=1,"Health, Islamabad"
84,sochclinicsislamabad_33.696830_73.051393,SOCH Clinics Islamabad Branch,"SOCH Clinics Islamabad Branch
4.8(283)
Psychologist ·  · Clinic #2 Pakland Square
Open ⋅ Closes 9 PM · +92 343 1433331",Psychologist,Open,33.69683,73.0513934,https://www.google.com/maps/place/SOCH+Clinics+Islamabad+Branch/data=!4m7!3m6!1s0x38dfecffddb2c569:0x1aeb15c96e355700!8m2!3d33.69683!4d73.0513934!16s%2Fg%2F11f_0wnkrh!19sChIJacWy3f_s3zgRAFc1bskV6xo?authuser=0&hl=en&rclk=1,"Health, Islamabad"
85,dribadulhaqpsychiatr_33.666818_73.076175,Dr. Ibad-ul-Haq Psychiatry and Therapy Associates Islamabad,"Dr. Ibad-ul-Haq Psychiatry and Therapy Associates Islamabad
5.0(12)
Mental health service ·  · Pakland Business Center
Open ⋅ Closes 4 PM · +92 312 5313641",Mental health service,Open,33.6668179,73.0761751,https://www.google.com/maps/place/Dr.+Ibad-ul-Haq+Psychiatry+and+Therapy+Associates+Islamabad/data=!4m7!3m6!1s0x38df950ef9f894b5:0xd3f5dd6472c1a962!8m2!3d33.6668179!4d73.0761751!16s%2Fg%2F11qycq9lg4!19sChIJtZT4-Q6V3zgRYqnBcmTd9dM?authuser=0&hl=en&rclk=1,"Health, Islamabad"
86,familyplanningprimar_33.720426_73.078226,Family Planning & Primary Health Care,"Family Planning & Primary Health Care
No reviews
Family planning center · P3CH+57H, Feroz Plaza, AK Fazal-ul-Haq Rd, Block D, Blue Area, Islamabad, ICT",Family planning center,,33.7204256,73.0782258,https://www.google.com/maps/place/Family+Planning+%26+Primary+Health+Care/data=!4m7!3m6!1s0x38dfbf837d434fe1:0x8e17f893bb691865!8m2!3d33.7204256!4d73.0782258!16s%2Fg%2F11_k2h9cn!19sChIJ4U9DfYO_3zgRZRhpu5P4F44?authuser=0&hl=en&rclk=1,"Health, Islamabad"
87,islamabaddentalclini_33.716891_73.084733,Islamabad Dental Clinic,"Islamabad Dental Clinic
3.8(4)
Medical clinic · 6 Municipal Rd
Closed ⋅ Opens 5 PM · +92 332 9367402",Medical clinic,Closed,33.7168909,73.0847334,https://www.google.com/maps/place/Islamabad+Dental+Clinic/data=!4m7!3m6!1s0x38dfbf2ce901db15:0xb3294cc6bd3a5cca!8m2!3d33.7168909!4d73.0847334!16s%2Fg%2F11h5n5gny8!19sChIJFdsB6Sy_3zgRylw6vcZMKbM?authuser=0&hl=en&rclk=1,"Health, Islamabad"
88,excellabsblueareaisl_33.710499_73.058856,Excel Labs - Blue Area - Islamabad,"Excel Labs - Blue Area - Islamabad
3.7(147)
Medical laboratory ·  · Ground Floor, Excel Labs Diagnostic Center, Reshi Plaza, 110 AKM Fazl-ul-Haq Rd
Open 24 hours · +92 51 8844000",Medical laboratory,Open 24 hours,33.7104987,73.0588559,https://www.google.com/maps/place/Excel+Labs+-+Blue+Area+-+Islamabad/data=!4m7!3m6!1s0x38dfbfbc99df9833:0x69cb5ada360f53db!8m2!3d33.7104987!4d73.0588559!16s%2Fg%2F1tgcwfh5!19sChIJM5jfmby_3zgR21MPNtpay2k?authuser=0&hl=en&rclk=1,"Health, Islamabad"
