Index,Place Id,Name,Address,Category,Status,Latitude,Longitude,Link,SearchKeyword
1,na_noloc,,,,,,,,"Medical Supplies Store, Islamabad"
5,appexglobaltradingin_33.658764_73.048439,Appex Global Trading Inc(Importers of medical equipment ),,Medical equipment supplier,Open,33.6587636,73.048439,https://www.google.com/maps/place/Appex+Global+Trading+Inc%28Importers+of+medical+equipment+%29/data=!4m7!3m6!1s0x38df9796302de9c9:0x3f3a6ac3410d25bc!8m2!3d33.6587636!4d73.048439!16s%2Fg%2F11f7dtb6gm!19sChIJyektMJaX3zgRvCUNQcNqOj8?authuser=0&hl=en&rclk=1,"Medical Supplies Store, Islamabad"
37,medicalstore_33.686748_73.139501,Medical Store,"Medical Store
1.8(5)
Medical supply store · M4PQ+MRR
Open 24 hours · +92 300 6169220",Medical supply store,Open 24 hours,33.6867484,73.139501,https://www.google.com/maps/place/Medical+Store/data=!4m7!3m6!1s0x38dfea7ebfb6cd3d:0xf4077dcae21e3ab7!8m2!3d33.6867484!4d73.139501!16s%2Fg%2F11c58rt9sw!19sChIJPc22v37q3zgRtzoe4sp9B_Q?authuser=0&hl=en&rclk=1,"Medical Supplies Store, Islamabad"
38,scimedinternationali_33.649637_73.047189,SciMed International / Iqbal Medical Services,"SciMed International / Iqbal Medical Services
5.0(16)
Medical equipment supplier · House # 1283 Basement, Street 31
Open ⋅ Closes 5 PM · +92 312 5065505",Medical equipment supplier,Open,33.6496375,73.0471892,https://www.google.com/maps/place/SciMed+International+%2F+Iqbal+Medical+Services/data=!4m7!3m6!1s0x38df95d0352876e9:0x61eb96d375d85a08!8m2!3d33.6496375!4d73.0471892!16s%2Fg%2F11l1d8r_xd!19sChIJ6XYoNdCV3zgRCFrYddOW62E?authuser=0&hl=en&rclk=1,"Medical Supplies Store, Islamabad"
39,galyatmedicalstore_33.744545_73.189514,Galyat Medical Store,"Galyat Medical Store
5.0(2)
Medical supply store · Water Works Road Bhera Seydan
Open ⋅ Closes 12 AM · +92 345 9603110",Medical supply store,Open,33.7445452,73.1895135,https://www.google.com/maps/place/Galyat+Medical+Store/data=!4m7!3m6!1s0x38dfc3adf97cc15f:0x96f65b2a72cc8992!8m2!3d33.7445452!4d73.1895135!16s%2Fg%2F11sh7338nj!19sChIJX8F8-a3D3zgRkonMcipb9pY?authuser=0&hl=en&rclk=1,"Medical Supplies Store, Islamabad"
40,ahsanmedicalstore_33.743710_73.109386,Ahsan Medical store,"Ahsan Medical store
5.0(1)
Medical supply store · P4V5+FQJ, Nurpur Rd
Open ⋅ Closes 11 PM · +92 311 5418896",Medical supply store,Open,33.7437099,73.1093861,https://www.google.com/maps/place/Ahsan+Medical+store/data=!4m7!3m6!1s0x38dfc1b284ce93af:0x40017a97ead6005b!8m2!3d33.7437099!4d73.1093861!16s%2Fg%2F11j1_gb564!19sChIJr5POhLLB3zgRWwDW6pd6AUA?authuser=0&hl=en&rclk=1,"Medical Supplies Store, Islamabad"
41,azaanmedicalstore_33.588091_73.161639,Azaan Medical Store,"Azaan Medical Store
5.0(3)
Medical supply store · Lohi bhair chowk Mian bimbar trar road
Open ⋅ Closes 9 PM · +92 319 8114336",Medical supply store,Open,33.5880912,73.1616392,https://www.google.com/maps/place/Azaan+Medical+Store/data=!4m7!3m6!1s0x38dfed2d92d5e65f:0xaff72997319114b8!8m2!3d33.5880912!4d73.1616392!16s%2Fg%2F11tx9hzw9n!19sChIJX-bVki3t3zgRuBSRMZcp968?authuser=0&hl=en&rclk=1,"Medical Supplies Store, Islamabad"
42,mediplexinternationa_33.711652_73.040757,MEDIPLEX INTERNATIONAL (PVT) LTD.,"MEDIPLEX INTERNATIONAL (PVT) LTD.
5.0(2)
Medical equipment supplier · Office No,03 , 1st Floor , Block 16C, Malik Plaza
Open ⋅ Closes 6 PM · +92 331 2211333",Medical equipment supplier,Open,33.7116516,73.0407571,https://www.google.com/maps/place/MEDIPLEX+INTERNATIONAL+%28PVT%29+LTD./data=!4m7!3m6!1s0x38dfbf0de7a08947:0x913582e06df2abff!8m2!3d33.7116516!4d73.0407571!16s%2Fg%2F11lgn2kmn5!19sChIJR4mg5w2_3zgR_6vybeCCNZE?authuser=0&hl=en&rclk=1,"Medical Supplies Store, Islamabad"
43,sultanmedicalstore_33.629549_73.115992,Sultan Medical Store,"Sultan Medical Store
5.0(6)
Medical supply store · Lehtrar Road Khanna, Bridge
Open ⋅ Closes 10:30 PM · +92 303 2070072",Medical supply store,Open,33.6295493,73.1159916,https://www.google.com/maps/place/Sultan+Medical+Store/data=!4m7!3m6!1s0x38dfebc5f7b1c0d9:0xe8a93e2fac483415!8m2!3d33.6295493!4d73.1159916!16s%2Fg%2F11ny2c5rpq!19sChIJ2cCx98Xr3zgRFTRIrC8-qeg?authuser=0&hl=en&rclk=1,"Medical Supplies Store, Islamabad"
44,salajeetproviders_33.694881_73.057789,Salajeet providers,"Salajeet providers
5.0(1)
Medical supply store · M3V5+X43, Street 17
Open 24 hours",Medical supply store,Open 24 hours,33.694881,73.057789,https://www.google.com/maps/place/Salajeet+providers/data=!4m7!3m6!1s0x38dfbf0eba223e2f:0xad34143f2d1c1a68!8m2!3d33.694881!4d73.057789!16s%2Fg%2F11gn1v0489!19sChIJLz4iug6_3zgRaBocLT8UNK0?authuser=0&hl=en&rclk=1,"Medical Supplies Store, Islamabad"
45,medicalhealthservice_33.642034_73.214776,Medical Health services,"Medical Health services
5.0(1)
Medical supply store · بسم اللہ میڈیکل سٹور ارسلان ٹاون ٹھنڈا پانی
Open ⋅ Closes 11 PM · +92 313 5692930",Medical supply store,Open,33.6420336,73.2147758,https://www.google.com/maps/place/Medical+Health+services/data=!4m7!3m6!1s0x38dfe9c5175f4bc5:0xd14e7c9299034ca7!8m2!3d33.6420336!4d73.2147758!16s%2Fg%2F11twt7c5w7!19sChIJxUtfF8Xp3zgRp0wDmZJ8TtE?authuser=0&hl=en&rclk=1,"Medical Supplies Store, Islamabad"
46,medilinkpharmacy_33.638402_73.211802,Medilink pharmacy,"Medilink pharmacy
5.0(1)
Medical supply store · Sadaat, Old kirpa road sadaat town
Open ⋅ Closes 10 PM · +92 342 1993943",Medical supply store,Open,33.6384024,73.2118017,https://www.google.com/maps/place/Medilink+pharmacy/data=!4m7!3m6!1s0x38dfe92d4be96ad9:0xeb891c10fb78711a!8m2!3d33.6384024!4d73.2118017!16s%2Fg%2F11vlg0gy34!19sChIJ2WrpSy3p3zgRGnF4-xAcies?authuser=0&hl=en&rclk=1,"Medical Supplies Store, Islamabad"
47,centralmedicalstore_33.664550_73.046570,Central Medical Store,"Central Medical Store
3.0(2)
Medical supply store
Open ⋅ Closes 5 PM · +92 51 9265150",Medical supply store,Open,33.66455,73.04657,https://www.google.com/maps/place/Central+Medical+Store/data=!4m7!3m6!1s0x38df9570d4fb33a1:0xd21395af85b05572!8m2!3d33.66455!4d73.04657!16s%2Fg%2F11x9d5d1n!19sChIJoTP71HCV3zgRclWwha-VE9I?authuser=0&hl=en&rclk=1,"Medical Supplies Store, Islamabad"
48,maenterprises_33.691211_72.829066,MA Enterprises,"MA Enterprises
5.0(1)
Medical supply store
Open 24 hours · +92 316 4641258",Medical supply store,Open 24 hours,33.6912109,72.8290659,https://www.google.com/maps/place/MA+Enterprises/data=!4m7!3m6!1s0x38dfa38b5812b863:0xfd9d2a5a27b0d57!8m2!3d33.6912109!4d72.8290659!16s%2Fg%2F11tjdw_277!19sChIJY7gSWIuj3zgRVw17oqXS2Q8?authuser=0&hl=en&rclk=1,"Medical Supplies Store, Islamabad"
49,malikmedicalstoreand_33.599748_72.846873,MALIK MEDICAL STORE AND COSMETICS,"MALIK MEDICAL STORE AND COSMETICS
5.0(2)
Medical supply store · HRXW+QQQ",Medical supply store,,33.5997483,72.846873,https://www.google.com/maps/place/MALIK+MEDICAL+STORE+AND+COSMETICS/data=!4m7!3m6!1s0x38df99004b43f751:0x53fb19ba4e6aaa3f!8m2!3d33.5997483!4d72.846873!16s%2Fg%2F11w9rw4_d7!19sChIJUfdDSwCZ3zgRP6pqTroZ-1M?authuser=0&hl=en&rclk=1,"Medical Supplies Store, Islamabad"
50,fdshealthcaresolutio_33.632512_73.137134,FDS Healthcare Solutions,"FDS Healthcare Solutions
4.8(43)
Laboratory equipment supplier ·  · Abdullah Plaza
Open ⋅ Closes 9 PM",Laboratory equipment supplier,Open,33.6325124,73.137134,https://www.google.com/maps/place/FDS+Healthcare+Solutions/data=!4m7!3m6!1s0x38df95131aa952a7:0x328274f75e6c78ce!8m2!3d33.6325124!4d73.137134!16s%2Fg%2F11h4cfn9t1!19sChIJp1KpGhOV3zgRznhsXvd0gjI?authuser=0&hl=en&rclk=1,"Medical Supplies Store, Islamabad"
51,omegahealthcaredistr_33.566167_73.131961,Omega Healthcare Distributors,"Omega Healthcare Distributors
5.0(3)
Surgical supply store · 3rd Floor, Office no, Plot no 352, 3 Main PWD Rd
Open ⋅ Closes 8 PM · +92 321 8517316",Surgical supply store,Open,33.5661675,73.1319611,https://www.google.com/maps/place/Omega+Healthcare+Distributors/data=!4m7!3m6!1s0x38dfed84c345a2d7:0xfebe6b21617b1a5e!8m2!3d33.5661675!4d73.1319611!16s%2Fg%2F11rj_m28fb!19sChIJ16JFw4Tt3zgRXhp7YSFrvv4?authuser=0&hl=en&rclk=1,"Medical Supplies Store, Islamabad"
52,familycaredistributo_33.621409_73.136515,Family Care Distributors,"Family Care Distributors
5.0(7)
Medical equipment supplier · House 428 Street Number 33
Open 24 hours · +92 342 0811319",Medical equipment supplier,Open 24 hours,33.6214092,73.1365151,https://www.google.com/maps/place/Family+Care+Distributors/data=!4m7!3m6!1s0x38dfeb917cb2a55d:0xe00179dbb2a90e24!8m2!3d33.6214092!4d73.1365151!16s%2Fg%2F11tmqchc10!19sChIJXaWyfJHr3zgRJA6pstt5AeA?authuser=0&hl=en&rclk=1,"Medical Supplies Store, Islamabad"
53,ranamajeedmedicalsto_33.660478_73.095034,Rana majeed medical store,"Rana majeed medical store
5.0(2)
Medical supply store · Main
+92 305 5958080",Medical supply store,,33.6604779,73.0950339,https://www.google.com/maps/place/Rana+majeed+medical+store/data=!4m7!3m6!1s0x38dfebfaaed5cb6f:0xbf0946c24f92a9c6!8m2!3d33.6604779!4d73.0950339!16s%2Fg%2F11tdqxvtdv!19sChIJb8vVrvrr3zgRxqmST8JGCb8?authuser=0&hl=en&rclk=1,"Medical Supplies Store, Islamabad"
54,medicalequipment_33.657073_73.042821,Medical Equipment,"Medical Equipment
5.0(1)
Medical equipment supplier · E, Plot 207 Service Rd N
Open ⋅ Closes 5 PM",Medical equipment supplier,Open,33.6570727,73.0428205,https://www.google.com/maps/place/Medical+Equipment/data=!4m7!3m6!1s0x38df95fb0a5d19b7:0xf566ab57b266d879!8m2!3d33.6570727!4d73.0428205!16s%2Fg%2F11k9hdd12v!19sChIJtxldCvuV3zgRedhmslerZvU?authuser=0&hl=en&rclk=1,"Medical Supplies Store, Islamabad"
55,babugpharmacy_33.690246_72.976077,Babu G Pharmacy,"Babu G Pharmacy
5.0(14)
Medical supply store · Main road
Open ⋅ Closes 10:30 PM · +92 316 8036809",Medical supply store,Open,33.6902459,72.9760771,https://www.google.com/maps/place/Babu+G+Pharmacy/data=!4m7!3m6!1s0x38dfbd1ad31d34bf:0x47c50b88f3a0c5ec!8m2!3d33.6902459!4d72.9760771!16s%2Fg%2F11tk6g0pqx!19sChIJvzQd0xq93zgR7MWg84gLxUc?authuser=0&hl=en&rclk=1,"Medical Supplies Store, Islamabad"
56,greenortho_33.711667_73.060494,Green Ortho,"Green Ortho
5.0(1)
Surgical supply store · Junaid plaza, Basement office no 2-B, Jinnah Ave
Open ⋅ Closes 5 PM · +92 348 7724400",Surgical supply store,Open,33.7116673,73.0604941,https://www.google.com/maps/place/Green+Ortho/data=!4m7!3m6!1s0x38dfbf533f89021b:0x53bdb25dc520c6d6!8m2!3d33.7116673!4d73.0604941!16s%2Fg%2F11sx0q2wp4!19sChIJGwKJP1O_3zgR1sYgxV2yvVM?authuser=0&hl=en&rclk=1,"Medical Supplies Store, Islamabad"
57,nimramedicalstore_33.690614_72.973156,Nimra Medical Store,"Nimra Medical Store
5.0(2)
Medical supply store · MXRF+67R
+92 301 5554535",Medical supply store,,33.6906144,72.9731555,https://www.google.com/maps/place/Nimra+Medical+Store/data=!4m7!3m6!1s0x38dfbd5f37f3184f:0x2b96e368fff9edc0!8m2!3d33.6906144!4d72.9731555!16s%2Fg%2F11j3bcrz73!19sChIJTxjzN1-93zgRwO35_2jjlis?authuser=0&hl=en&rclk=1,"Medical Supplies Store, Islamabad"
58,medihealthcosmetics_33.643850_73.031597,Medi Health Cosmetics,"Medi Health Cosmetics
3.5(2)
Medical supply store
Open ⋅ Closes 11 PM",Medical supply store,Open,33.6438503,73.0315971,https://www.google.com/maps/place/Medi+Health+Cosmetics/data=!4m7!3m6!1s0x38df95a5787ee907:0x3a2fd35264e5d640!8m2!3d33.6438503!4d73.0315971!16s%2Fg%2F11c6lw6hs2!19sChIJB-l-eKWV3zgRQNblZFLTLzo?authuser=0&hl=en&rclk=1,"Medical Supplies Store, Islamabad"
59,ghanimedicalstore_33.670777_73.105139,GHANI MEDICAL STORE,"GHANI MEDICAL STORE
5.0(1)
Medical supply store · Main Market
+92 330 5244994",Medical supply store,,33.6707773,73.1051387,https://www.google.com/maps/place/GHANI+MEDICAL+STORE/data=!4m7!3m6!1s0x38dfeb010dd4b2df:0x1ab879da00b8dc29!8m2!3d33.6707773!4d73.1051387!16s%2Fg%2F11kq4q4p45!19sChIJ37LUDQHr3zgRKdy4ANp5uBo?authuser=0&hl=en&rclk=1,"Medical Supplies Store, Islamabad"
60,gulpharmacyandcosmet_33.692962_72.975287,Gul Pharmacy And Cosmetics,"Gul Pharmacy And Cosmetics
5.0(1)
Medical supply store · MXVG+54M
Open 24 hours · +92 345 1930464",Medical supply store,Open 24 hours,33.6929615,72.9752875,https://www.google.com/maps/place/Gul+Pharmacy+And+Cosmetics/data=!4m7!3m6!1s0x38dfbd8917def959:0x977ee1d3e2a3b38b!8m2!3d33.6929615!4d72.9752875!16s%2Fg%2F11rvhfg76n!19sChIJWfneF4m93zgRi7Oj4tPhfpc?authuser=0&hl=en&rclk=1,"Medical Supplies Store, Islamabad"
61,alfatehmedicalstore_33.650245_73.032360,Al-Fateh Medical Store,"Al-Fateh Medical Store
5.0(2)
Medical supply store · M22J+3WX Rajput Market, Street 1",Medical supply store,,33.6502449,73.0323603,https://www.google.com/maps/place/Al-Fateh+Medical+Store/data=!4m7!3m6!1s0x38df95a3a2b628bd:0x6ad2204be45c28b8!8m2!3d33.6502449!4d73.0323603!16s%2Fg%2F12mkz7j12!19sChIJvSi2oqOV3zgRuChc5Esg0mo?authuser=0&hl=en&rclk=1,"Medical Supplies Store, Islamabad"
62,robansonenterprises_33.698142_73.048398,Robanson Enterprises,"Robanson Enterprises
1.0(1)
Medical supply store · Office No 02/SM Kashif Blair Plaza
Open 24 hours · +92 51 2340303",Medical supply store,Open 24 hours,33.6981424,73.0483983,https://www.google.com/maps/place/Robanson+Enterprises/data=!4m7!3m6!1s0x38dfbf8152944fb7:0x58cb1d3206243ca!8m2!3d33.6981424!4d73.0483983!16s%2Fg%2F11q2525jrg!19sChIJt0-UUoG_3zgRykNiINOxjAU?authuser=0&hl=en&rclk=1,"Medical Supplies Store, Islamabad"
63,bismillahmedicalstor_33.638959_73.110981,Bismillah medical store,"Bismillah medical store
5.0(4)
Medical supply store · J4Q6+H9Q
Open ⋅ Closes 11:59 PM · +92 333 1484306",Medical supply store,Open,33.6389589,73.1109814,https://www.google.com/maps/place/Bismillah+medical+store/data=!4m7!3m6!1s0x38dfeb228ed69ba5:0xcdd4bfafc670e568!8m2!3d33.6389589!4d73.1109814!16s%2Fg%2F11lt6l8b0n!19sChIJpZvWjiLr3zgRaOVwxq-_1M0?authuser=0&hl=en&rclk=1,"Medical Supplies Store, Islamabad"
64,zasmedics_33.660523_73.059920,ZAS Medics,"ZAS Medics
4.0(2)
Medical equipment supplier · Plot # 367 Street 5
Open ⋅ Closes 6 PM · +92 51 2722201",Medical equipment supplier,Open,33.6605229,73.05992,https://www.google.com/maps/place/ZAS+Medics/data=!4m7!3m6!1s0x38df95b6d32efde7:0x4b319319baab9e6!8m2!3d33.6605229!4d73.05992!16s%2Fg%2F11h5kmdstj!19sChIJ5_0u07aV3zgR5rmqmzEZswQ?authuser=0&hl=en&rclk=1,"Medical Supplies Store, Islamabad"
65,zhongpakmallisb_33.698922_72.966294,Zhong Pak Mall Isb,"Zhong Pak Mall Isb
No reviews
Medical supply store · Nafees Arcade, Markaz
Open ⋅ Closes 7 PM · +92 335 9292777",Medical supply store,Open,33.6989217,72.9662944,https://www.google.com/maps/place/Zhong+Pak+Mall+Isb/data=!4m7!3m6!1s0x38dfbd16473480b5:0x51ad7c6b7b9ab792!8m2!3d33.6989217!4d72.9662944!16s%2Fg%2F11txjn92tt!19sChIJtYA0Rxa93zgRkreae2t8rVE?authuser=0&hl=en&rclk=1,"Medical Supplies Store, Islamabad"
66,babarmedicalstore_33.674615_72.848225,Babar Medical Store,"Babar Medical Store
5.0(1)
Medical supply store · MRFX+R7X
+92 313 0046424",Medical supply store,,33.6746148,72.8482247,https://www.google.com/maps/place/Babar+Medical+Store/data=!4m7!3m6!1s0x38dfa3a48da6a0bf:0x45570ef1ab51b6d6!8m2!3d33.6746148!4d72.8482247!16s%2Fg%2F11hf07yz8g!19sChIJv6CmjaSj3zgR1rZRq_EOV0U?authuser=0&hl=en&rclk=1,"Medical Supplies Store, Islamabad"
67,biovitalinternationa_33.571411_73.145482,BIOVITAL INTERNATIONAL CO.,"BIOVITAL INTERNATIONAL CO.
5.0(2)
Medical equipment supplier · PWD Main Market Shopping Area
Open ⋅ Closes 10 PM · +92 344 6170007",Medical equipment supplier,Open,33.5714106,73.1454819,https://www.google.com/maps/place/BIOVITAL+INTERNATIONAL+CO./data=!4m7!3m6!1s0x38dfed68a3c35ddf:0xf98524a7271adc61!8m2!3d33.5714106!4d73.1454819!16s%2Fg%2F11pdfxmk8f!19sChIJ313Do2jt3zgRYdwaJ6ckhfk?authuser=0&hl=en&rclk=1,"Medical Supplies Store, Islamabad"
68,avishealthcare_33.664829_73.055930,Avis Health Care,"Avis Health Care
No reviews
Surgical supply store · Plot No 276, Street no 01, I-9/3 Industrial Area
Open ⋅ Closes 7 PM · +92 51 2576313",Surgical supply store,Open,33.6648289,73.05593,https://www.google.com/maps/place/Avis+Health+Care/data=!4m7!3m6!1s0x38df956ef1dd469d:0x3dea168c1adbfdbd!8m2!3d33.6648289!4d73.05593!16s%2Fg%2F1trxc1zl!19sChIJnUbd8W6V3zgRvf3bGowW6j0?authuser=0&hl=en&rclk=1,"Medical Supplies Store, Islamabad"
69,kingsmedicalequipmen_33.588287_73.030752,Kings Medical Equipments,"Kings Medical Equipments
4.8(4)
Medical supply store · Ghaffar Kiyani Rd
Open ⋅ Closes 10:30 PM · +92 325 9914569",Medical supply store,Open,33.5882867,73.0307519,https://www.google.com/maps/place/Kings+Medical+Equipments/data=!4m7!3m6!1s0x38dfbf41fdee90b5:0xf705e9fdba477829!8m2!3d33.5882867!4d73.0307519!16s%2Fg%2F11txqjvy5m!19sChIJtZDu_UG_3zgRKXhHuv3pBfc?authuser=0&hl=en&rclk=1,"Medical Supplies Store, Islamabad"
70,_33.610543_73.062726,پاک سرجیکل,"پاک سرجیکل
4.8(44)
Medical equipment supplier ·  · Gorden College Rd, opposite Savour Food
Open ⋅ Closes 8 PM · +92 334 0666155",Medical equipment supplier,Open,33.6105426,73.0627265,https://www.google.com/maps/place/%D9%BE%D8%A7%DA%A9+%D8%B3%D8%B1%D8%AC%DB%8C%DA%A9%D9%84%E2%80%AD/data=!4m7!3m6!1s0x38df9495e9e75497:0x90341808b8f5b4a5!8m2!3d33.6105426!4d73.0627265!16s%2Fg%2F12mkzcvj0!19sChIJl1Tn6ZWU3zgRpbT1uAgYNJA?authuser=0&hl=en&rclk=1,"Medical Supplies Store, Islamabad"
71,altera_33.699579_73.047869,Altera,"Altera
5.0(1)
Surgical supply store · 2ND FLOOR, OFFICE # 212, KASHIF PLAZA, G-8 Markaz Rd
Open ⋅ Closes 6 PM · +92 346 8666698",Surgical supply store,Open,33.6995791,73.0478693,https://www.google.com/maps/place/Altera/data=!4m7!3m6!1s0x38dfbfc9e0a806bf:0x3251796fa90c5273!8m2!3d33.6995791!4d73.0478693!16s%2Fg%2F11hzpn942r!19sChIJvwao4Mm_3zgRc1IMqW95UTI?authuser=0&hl=en&rclk=1,"Medical Supplies Store, Islamabad"
72,supergujarkhanmedica_33.593210_73.179140,Super Gujar Khan Medical Store,"Super Gujar Khan Medical Store
No reviews
Medical supply store · Bimar taraar
Open ⋅ Closes 10 PM · +92 311 8590594",Medical supply store,Open,33.5932095,73.17914,https://www.google.com/maps/place/Super+Gujar+Khan+Medical+Store/data=!4m7!3m6!1s0x38dfec1e81b34a9f:0x1e409555b0e2daa4!8m2!3d33.5932095!4d73.17914!16s%2Fg%2F11f57cj786!19sChIJn0qzgR7s3zgRpNrisFWVQB4?authuser=0&hl=en&rclk=1,"Medical Supplies Store, Islamabad"
73,zfcwellnessenterpris_33.601667_73.151121,ZFC @ WELLNESS Enterprises,"ZFC @ WELLNESS Enterprises
No reviews
Medical supply store · Green, 01 Gulberg
Open ⋅ Closes 5 PM · +92 336 0077080",Medical supply store,Open,33.6016673,73.1511214,https://www.google.com/maps/place/ZFC+@+WELLNESS+Enterprises/data=!4m7!3m6!1s0x38dfed1ac4c4f0c7:0x917faaa902c74779!8m2!3d33.6016673!4d73.1511214!16s%2Fg%2F11vxvn9j5s!19sChIJx_DExBrt3zgReUfHAqmqf5E?authuser=0&hl=en&rclk=1,"Medical Supplies Store, Islamabad"
74,medixplusmedicalstor_33.565203_73.152189,Medix plus medical store and cosmetics,"Medix plus medical store and cosmetics
5.0(8)
Pharmacy ·  · Main Soan Ave, near shaheen refreshment
Open ⋅ Closes 11:50 PM · +92 315 5180002",Pharmacy,Open,33.565203,73.1521894,https://www.google.com/maps/place/Medix+plus+medical+store+and+cosmetics/data=!4m7!3m6!1s0x38dfec4c7c2f53a3:0xaf982fd1afb47fe5!8m2!3d33.565203!4d73.1521894!16s%2Fg%2F11ggnh01mz!19sChIJo1MvfEzs3zgR5X-0r9EvmK8?authuser=0&hl=en&rclk=1,"Medical Supplies Store, Islamabad"
75,noormedicalstore_33.629953_73.116410,Noor Medical Store,"Noor Medical Store
No reviews
Medical supply store · J4H8+XHM, Aqeel Plaza Lehtrar Road, Khanna, Bridge
Open ⋅ Closes 11 PM · +92 333 5190355",Medical supply store,Open,33.6299533,73.1164101,https://www.google.com/maps/place/Noor+Medical+Store/data=!4m7!3m6!1s0x38dfeb25b6a4abe3:0x88cc20d362b01555!8m2!3d33.6299533!4d73.1164101!16s%2Fg%2F11rd6r8b7l!19sChIJ46uktiXr3zgRVRWwYtMgzIg?authuser=0&hl=en&rclk=1,"Medical Supplies Store, Islamabad"
76,alrehmanmedicos_33.667434_72.997496,Al-Rehman Medicos,"Al-Rehman Medicos
No reviews
Medical supply store · Capital Plaza, G-11 Markaz, G-11
Open ⋅ Closes 12 AM",Medical supply store,Open,33.6674338,72.9974956,https://www.google.com/maps/place/Al-Rehman+Medicos/data=!4m7!3m6!1s0x38df95fee8c270f5:0x51cc6dd394a9df2d!8m2!3d33.6674338!4d72.9974956!16s%2Fg%2F12mkwhmgt!19sChIJ9XDC6P6V3zgRLd-plNNtzFE?authuser=0&hl=en&rclk=1,"Medical Supplies Store, Islamabad"
77,medicalstore_33.693013_73.059032,Medical Store,"Medical Store
3.8(16)
Pharmacy · Khumrial Centre, St 22, G-8-4, G-8
+92 317 3824809",Pharmacy,,33.6930126,73.0590319,https://www.google.com/maps/place/Medical+Store/data=!4m7!3m6!1s0x38dfbfc377699507:0x342e468cb3703140!8m2!3d33.6930126!4d73.0590319!16s%2Fg%2F12mkzc9mg!19sChIJB5Vpd8O_3zgRQDFws4xGLjQ?authuser=0&hl=en&rclk=1,"Medical Supplies Store, Islamabad"
78,athomestore_33.672613_72.996700,AtHome Store,"AtHome Store
3.7(6)
Medical equipment supplier · PHA, GF3, C4
Open ⋅ Closes 6 PM · +92 51 2351488",Medical equipment supplier,Open,33.6726132,72.9966997,https://www.google.com/maps/place/AtHome+Store/data=!4m7!3m6!1s0x38dfbe1f90000001:0x19e385c425a2e056!8m2!3d33.6726132!4d72.9966997!16s%2Fg%2F11txp91zm9!19sChIJAQAAkB--3zgRVuCiJcSF4xk?authuser=0&hl=en&rclk=1,"Medical Supplies Store, Islamabad"
79,waheedchemistoptics_33.699121_73.048635,Waheed Chemist & Optics,"Waheed Chemist & Optics
4.3(113)
Pharmacy ·  · M2XX+JFR, Markaz Rd
Open ⋅ Closes 12 AM · +92 51 2260703",Pharmacy,Open,33.6991215,73.0486346,https://www.google.com/maps/place/Waheed+Chemist+%26+Optics/data=!4m7!3m6!1s0x38dfbfc9c4e9d999:0x4bc932adb5543879!8m2!3d33.6991215!4d73.0486346!16s%2Fg%2F1thf6ynt!19sChIJmdnpxMm_3zgReThUta0yyUs?authuser=0&hl=en&rclk=1,"Medical Supplies Store, Islamabad"
80,guardianpharmacy_33.682010_73.156355,Guardian Pharmacy,"Guardian Pharmacy
4.8(8)
Medical supply store · Malot, Islamabad Capital Territory, Jinnah Ave
Open ⋅ Closes 12 AM · +92 312 5005103",Medical supply store,Open,33.6820102,73.1563547,https://www.google.com/maps/place/Guardian+Pharmacy/data=!4m7!3m6!1s0x38dfea5baaaaaaad:0x2ba74899105e0f7c!8m2!3d33.6820102!4d73.1563547!16s%2Fg%2F11f33pcnk3!19sChIJraqqqlvq3zgRfA9eEJlIpys?authuser=0&hl=en&rclk=1,"Medical Supplies Store, Islamabad"
81,hafeezsurgical_33.609289_73.063650,Hafeez Surgical,"Hafeez Surgical
4.2(68)
Medical supply store ·  · J34F+CFJ، MUHAMMADIA PLAZA, Gorden College Rd، near CHINA MARKET
Open ⋅ Closes 8 PM · +92 300 0045749",Medical supply store,Open,33.6092893,73.0636503,https://www.google.com/maps/place/Hafeez+Surgical/data=!4m7!3m6!1s0x38df949604b7a4a1:0xd9aad0a6301fe491!8m2!3d33.6092893!4d73.0636503!16s%2Fg%2F12mkwh80s!19sChIJoaS3BJaU3zgRkeQfMKbQqtk?authuser=0&hl=en&rclk=1,"Medical Supplies Store, Islamabad"
82,hashimmedicalstore_33.658322_73.059332,Hashim Medical Store,"Hashim Medical Store
3.0(3)
Medical supply store · Najeeb plaza
Open ⋅ Closes 10 PM · +92 333 0943835",Medical supply store,Open,33.6583224,73.0593325,https://www.google.com/maps/place/Hashim+Medical+Store/data=!4m7!3m6!1s0x38df956b4d3bdc55:0xe6835d4d49314dfc!8m2!3d33.6583224!4d73.0593325!16s%2Fg%2F11gf5rq314!19sChIJVdw7TWuV3zgR_E0xSU1dg-Y?authuser=0&hl=en&rclk=1,"Medical Supplies Store, Islamabad"
83,pamsuppliespvtltd_33.562420_73.147998,PAM Supplies Pvt Ltd,"PAM Supplies Pvt Ltd
No reviews
Importer · Hamza Tower
Open ⋅ Closes 5 PM · +92 331 7639266",Importer,Open,33.5624203,73.1479981,https://www.google.com/maps/place/PAM+Supplies+Pvt+Ltd/data=!4m7!3m6!1s0x38dfebee8e19bb13:0x28345e9aa8a9f690!8m2!3d33.5624203!4d73.1479981!16s%2Fg%2F11nmszcm3y!19sChIJE7sZju7r3zgRkPapqJpeNCg?authuser=0&hl=en&rclk=1,"Medical Supplies Store, Islamabad"
84,syedveterinarymedica_33.683162_72.924545,Syed Veterinary Medical Store,"Syed Veterinary Medical Store
No reviews
Medical supply store · Main Sarai kharboza Road
Open ⋅ Closes 5 PM · +92 347 5735588",Medical supply store,Open,33.6831617,72.924545,https://www.google.com/maps/place/Syed+Veterinary+Medical+Store/data=!4m7!3m6!1s0x38dfe952c8f5a8b1:0x8e8b765b1caeaabb!8m2!3d33.6831617!4d72.924545!16s%2Fg%2F11wv8wymky!19sChIJsaj1yFLp3zgRu6quHFt2i44?authuser=0&hl=en&rclk=1,"Medical Supplies Store, Islamabad"
85,awanmedicalstoreandc_33.688957_73.019721,Awan medical store and cosmetics,"Awan medical store and cosmetics
No reviews
Medical supply store · G, Main, 12 jaffar chowk, near Ibn-e-Sina Road
+92 314 0058652",Medical supply store,,33.6889572,73.0197211,https://www.google.com/maps/place/Awan+medical+store+and+cosmetics/data=!4m7!3m6!1s0x38dfbfaeec4e47b7:0xcfb7497f4e44084!8m2!3d33.6889572!4d73.0197211!16s%2Fg%2F11wqg6wjhs!19sChIJt0dO7K6_3zgRhEDk9Jd0-ww?authuser=0&hl=en&rclk=1,"Medical Supplies Store, Islamabad"
86,laraibmedicalstore_33.635993_73.114739,Laraib medical store,"Laraib medical store
No reviews
Medical supply store · J4P7+9VX
Closed ⋅ Opens 5 PM · +92 348 5206307",Medical supply store,Closed,33.6359929,73.1147386,https://www.google.com/maps/place/Laraib+medical+store/data=!4m7!3m6!1s0x38dfeb3747f69c51:0x9e44e4f19f107f66!8m2!3d33.6359929!4d73.1147386!16s%2Fg%2F11jq0dzt0r!19sChIJUZz2Rzfr3zgRZn8Qn_HkRJ4?authuser=0&hl=en&rclk=1,"Medical Supplies Store, Islamabad"
87,cyntaxhealthprojects_33.566245_73.138604,Cyntax Health Projects Distributors PVT LTD,"Cyntax Health Projects Distributors PVT LTD
No reviews
Medical supply store · Office No. 09, Floor 1, Zamzama Centre
Open ⋅ Closes 5 PM · +92 300 5802408",Medical supply store,Open,33.5662451,73.1386037,https://www.google.com/maps/place/Cyntax+Health+Projects+Distributors+PVT+LTD/data=!4m7!3m6!1s0x38dfed60453ffd57:0xa9c7e1cbb73f60fb!8m2!3d33.5662451!4d73.1386037!16s%2Fg%2F11trrlr_74!19sChIJV_0_RWDt3zgR-2A_t8vhx6k?authuser=0&hl=en&rclk=1,"Medical Supplies Store, Islamabad"
88,alazizmedicalstore_33.500719_73.196323,Al aziz medical store,"Al aziz medical store
No reviews
Medical supply store · G52W+7GP, Industrial Estate Road
Open ⋅ Closes 11 PM · +92 315 6918253",Medical supply store,Open,33.5007186,73.1963231,https://www.google.com/maps/place/Al+aziz+medical+store/data=!4m7!3m6!1s0x38dff17dec073a51:0x1270c5e7d255e257!8m2!3d33.5007186!4d73.1963231!16s%2Fg%2F11p5lpmbrq!19sChIJUToH7H3x3zgRV-JV0ufFcBI?authuser=0&hl=en&rclk=1,"Medical Supplies Store, Islamabad"
89,rightcaremedicalsurg_33.563790_73.016119,Rightcare medical surgical,"Rightcare medical surgical
4.8(19)
Surgical supply store · Comitee Chowk
Open 24 hours · +92 311 5987962",Surgical supply store,Open 24 hours,33.5637899,73.0161194,https://www.google.com/maps/place/Rightcare+medical+surgical/data=!4m7!3m6!1s0x38df95ce7addf027:0xaef215b266dd3f1!8m2!3d33.5637899!4d73.0161194!16s%2Fg%2F11t5q62mbj!19sChIJJ_Ddes6V3zgR8dNtJlsh7wo?authuser=0&hl=en&rclk=1,"Medical Supplies Store, Islamabad"
90,marcopolomedicalgase_33.660628_73.047252,Marcopolo Medical Gases,"Marcopolo Medical Gases
No reviews
Medical supply store · plot no 42A, 11, 1-9/2 Street 11
Open now · +92 313 1571550",Medical supply store,Open now,33.6606279,73.0472525,https://www.google.com/maps/place/Marcopolo+Medical+Gases/data=!4m7!3m6!1s0x38df95448875cfd7:0x5d20a47e66d2921c!8m2!3d33.6606279!4d73.0472525!16s%2Fg%2F11lcpnlh61!19sChIJ1891iESV3zgRHJLSZn6kIF0?authuser=0&hl=en&rclk=1,"Medical Supplies Store, Islamabad"
91,zohanmedical_33.670467_72.983598,Zohan medical,"Zohan medical
No reviews
Medical supply store · MXCM+5CQ Zohan medical store",Medical supply store,,33.6704667,72.9835985,https://www.google.com/maps/place/Zohan+medical/data=!4m7!3m6!1s0x38dfbd0031ea1c45:0xf96ebd0d5a6748a9!8m2!3d33.6704667!4d72.9835985!16s%2Fg%2F11wvr3w0wq!19sChIJRRzqMQC93zgRqUhnWg29bvk?authuser=0&hl=en&rclk=1,"Medical Supplies Store, Islamabad"
92,globalclinicalcurapr_33.521912_73.092942,Global Clinical Cura Private Limited,"Global Clinical Cura Private Limited
5.0(3)
Medical supply store · 44-I, Business Bay
Open ⋅ Closes 6 PM · +92 345 8499994",Medical supply store,Open,33.5219117,73.0929423,https://www.google.com/maps/place/Global+Clinical+Cura+Private+Limited/data=!4m7!3m6!1s0x38df946b4c878327:0x166e34aa81828eba!8m2!3d33.5219117!4d73.0929423!16s%2Fg%2F11h6fkz6mv!19sChIJJ4OHTGuU3zgRuo6Cgao0bhY?authuser=0&hl=en&rclk=1,"Medical Supplies Store, Islamabad"
93,caremedicpharmacy_33.619378_72.995316,Care Medic pharmacy,"Care Medic pharmacy
4.2(9)
Medical supply store · Main Road
Open ⋅ Closes 11 PM · +92 51 5473333",Medical supply store,Open,33.6193782,72.995316,https://www.google.com/maps/place/Care+Medic+pharmacy/data=!4m7!3m6!1s0x38df9429a4797a6d:0x823c56b4a406d781!8m2!3d33.6193782!4d72.995316!16s%2Fg%2F1jkvrx2xy!19sChIJbXp5pCmU3zgRgdcGpLRWPII?authuser=0&hl=en&rclk=1,"Medical Supplies Store, Islamabad"
94,alrehmantraders_33.701766_72.974504,Al-Rehman Traders,"Al-Rehman Traders
No reviews
Medical supply store · House No 769-B, Street No, Street 45 A",Medical supply store,,33.7017659,72.9745038,https://www.google.com/maps/place/Al-Rehman+Traders/data=!4m7!3m6!1s0x38dfbdde0f49553f:0xdcbac34672e10497!8m2!3d33.7017659!4d72.9745038!16s%2Fg%2F11lc35n_bp!19sChIJP1VJD9693zgRlwThckbDutw?authuser=0&hl=en&rclk=1,"Medical Supplies Store, Islamabad"
95,khursheedmedicalstor_33.654001_73.110740,Khursheed Medical Store,"Khursheed Medical Store
No reviews
Medical supply store · M436+J75
Open now",Medical supply store,Open now,33.6540014,73.1107404,https://www.google.com/maps/place/Khursheed+Medical+Store/data=!4m7!3m6!1s0x38dfeb8c275448fb:0x1e76ed0986d4fa30!8m2!3d33.6540014!4d73.1107404!16s%2Fg%2F11q8j155x1!19sChIJ-0hUJ4zr3zgRMPrUhgntdh4?authuser=0&hl=en&rclk=1,"Medical Supplies Store, Islamabad"
96,shafiquemedicalstore_33.574109_73.282943,Shafique Medical Store,"Shafique Medical Store
No reviews
Medical supply store · H7FM+J5W
Open ⋅ Closes 9 PM",Medical supply store,Open,33.5741091,73.2829429,https://www.google.com/maps/place/Shafique+Medical+Store/data=!4m7!3m6!1s0x38dfe57bf172b019:0xc85a5e7b9b535b54!8m2!3d33.5741091!4d73.2829429!16s%2Fg%2F11dxkh1grq!19sChIJGbBy8Xvl3zgRVFtTm3teWsg?authuser=0&hl=en&rclk=1,"Medical Supplies Store, Islamabad"
97,brightwaytechnologie_33.643969_73.041906,Bright Way Technologies,"Bright Way Technologies
3.7(3)
Dental supply store ·  · 1620 Double Rd
Open ⋅ Closes 5 PM · +92 311 1999015",Dental supply store,Open,33.6439695,73.0419056,https://www.google.com/maps/place/Bright+Way+Technologies/data=!4m7!3m6!1s0x38df959b31a2572f:0x200290b755e50d7e!8m2!3d33.6439695!4d73.0419056!16s%2Fg%2F11qp4vpp71!19sChIJL1eiMZuV3zgRfg3lVbeQAiA?authuser=0&hl=en&rclk=1,"Medical Supplies Store, Islamabad"
98,khanmedicalstore_33.637192_73.043021,Khan Medical Store,"Khan Medical Store
4.0(7)
Medical supply store · Awan Market
Open ⋅ Closes 11 PM · +92 323 6868929",Medical supply store,Open,33.6371925,73.0430209,https://www.google.com/maps/place/Khan+Medical+Store/data=!4m7!3m6!1s0x38df95460820b871:0xaadc625c646219f1!8m2!3d33.6371925!4d73.0430209!16s%2Fg%2F11jjp305d1!19sChIJcbggCEaV3zgR8RliZFxi3Ko?authuser=0&hl=en&rclk=1,"Medical Supplies Store, Islamabad"
99,qureshipharmacy_33.738735_73.185929,Qureshi Pharmacy,"Qureshi Pharmacy
No reviews
Medical supply store · P5QP+F9V, Simly Dam Road
Open ⋅ Closes 9 PM · +92 310 2544439",Medical supply store,Open,33.7387353,73.1859292,https://www.google.com/maps/place/Qureshi+Pharmacy/data=!4m7!3m6!1s0x38dfc39576f35667:0x46f28de9fbd55a9f!8m2!3d33.7387353!4d73.1859292!16s%2Fg%2F11r3ldf2bq!19sChIJZ1bzdpXD3zgRn1rV--mN8kY?authuser=0&hl=en&rclk=1,"Medical Supplies Store, Islamabad"
100,lifecarehealthservic_33.683352_72.987391,Lifecare Health Services,"Lifecare Health Services
5.0(46)
Home health care service ·  · Office#03, Hamza plaza
Open 24 hours · +92 305 5590599",Home health care service,Open 24 hours,33.6833519,72.9873914,https://www.google.com/maps/place/Lifecare+Health+Services/data=!4m7!3m6!1s0x38dfbda1efb757a7:0xd3047e70d0e67d98!8m2!3d33.6833519!4d72.9873914!16s%2Fg%2F11frf_k79y!19sChIJp1e376G93zgRmH3m0HB-BNM?authuser=0&hl=en&rclk=1,"Medical Supplies Store, Islamabad"
101,abdullahsurgical_33.610234_73.062840,Abdullah Surgical,"Abdullah Surgical
5.0(26)
Surgical supply store ·  · Gorden College Rd, opp. Post Office
Open ⋅ Closes 9 PM · +92 332 9453734",Surgical supply store,Open,33.6102342,73.0628398,https://www.google.com/maps/place/Abdullah+Surgical/data=!4m7!3m6!1s0x38df9495e8194565:0x13bd516e40b14792!8m2!3d33.6102342!4d73.0628398!16s%2Fg%2F11xg72c4_!19sChIJZUUZ6JWU3zgRkkexQG5RvRM?authuser=0&hl=en&rclk=1,"Medical Supplies Store, Islamabad"
102,medfit_33.668794_73.075557,Medfit,"Medfit
4.7(44)
Medical equipment supplier · Shop 4, basement, city arcade plaza
Open ⋅ Closes 9 PM · +92 51 8484348",Medical equipment supplier,Open,33.6687938,73.0755574,https://www.google.com/maps/place/Medfit/data=!4m7!3m6!1s0x38df95b70db596ab:0x9308a1bbede627fc!8m2!3d33.6687938!4d73.0755574!16s%2Fg%2F11sbbhyc26!19sChIJq5a1DbeV3zgR_Cfm7buhCJM?authuser=0&hl=en&rclk=1,"Medical Supplies Store, Islamabad"
103,lifesavingfacemask_33.620587_73.141765,Life Saving Face Mask,"Life Saving Face Mask
No reviews
Medical supply store · Street 10
Open 24 hours · +92 300 8550680",Medical supply store,Open 24 hours,33.6205875,73.1417651,https://www.google.com/maps/place/Life+Saving+Face+Mask/data=!4m7!3m6!1s0x38dfeb77486e4e1d:0xf1ae65580437bb3b!8m2!3d33.6205875!4d73.1417651!16s%2Fg%2F11n18s2nx5!19sChIJHU5uSHfr3zgRO7s3BFhlrvE?authuser=0&hl=en&rclk=1,"Medical Supplies Store, Islamabad"
104,adulttoysstore_33.717593_73.070953,adult Toys Store,"adult Toys Store
No reviews
Medical supply store · Blue
Open 24 hours · +92 334 7786786",Medical supply store,Open 24 hours,33.7175928,73.0709533,https://www.google.com/maps/place/adult+Toys+Store/data=!4m7!3m6!1s0x38dfbf787ddee837:0xc2f9f913f11d8bba!8m2!3d33.7175928!4d73.0709533!16s%2Fg%2F11vq2hbbwl!19sChIJN-jefXi_3zgRuosd8RP5-cI?authuser=0&hl=en&rclk=1,"Medical Supplies Store, Islamabad"
105,topsurgical_33.610061_73.063076,TOP SURGICAL,"TOP SURGICAL
5.0(8)
Medical equipment supplier · 02 & 03 Ground Floor, Sino Pak Plaza, Gorden College Rd
Open ⋅ Closes 8 PM · +92 51 5550551",Medical equipment supplier,Open,33.6100614,73.0630759,https://www.google.com/maps/place/TOP+SURGICAL/data=!4m7!3m6!1s0x38df9577e694e4cf:0x3f85c383e9735ecb!8m2!3d33.6100614!4d73.0630759!16s%2Fg%2F11kzfd652c!19sChIJz-SU5neV3zgRy15z6YPDhT8?authuser=0&hl=en&rclk=1,"Medical Supplies Store, Islamabad"
106,fwdistributors_33.595521_73.054488,FW Distributors,"FW Distributors
4.7(7)
Surgical supply store · FW Building, Opposite Poonch House, Adam Jee Rd
Open ⋅ Closes 5 PM · +92 51 5516729",Surgical supply store,Open,33.5955207,73.0544878,https://www.google.com/maps/place/FW+Distributors/data=!4m7!3m6!1s0x38df949ceff84d8b:0x239ce3f7f6b942cc!8m2!3d33.5955207!4d73.0544878!16s%2Fg%2F11xpdnw2q!19sChIJi03475yU3zgRzEK59vfjnCM?authuser=0&hl=en&rclk=1,"Medical Supplies Store, Islamabad"
107,islamabadmedicalstor_33.613521_73.059472,Islamabad Medical Store,"Islamabad Medical Store
3.0(1)
Medical supply store · J375+CQ5, Iqbal Rd
Open now",Medical supply store,Open now,33.6135206,73.0594725,https://www.google.com/maps/place/Islamabad+Medical+Store/data=!4m7!3m6!1s0x38df9494beb30001:0x5dd6732163844b73!8m2!3d33.6135206!4d73.0594725!16s%2Fg%2F11d_2423gw!19sChIJAQCzvpSU3zgRc0uEYyFz1l0?authuser=0&hl=en&rclk=1,"Medical Supplies Store, Islamabad"
108,astramedicsolutionsb_33.642887_73.073429,AstraMedic Solutions Best Home Physiotherapy Services and Equipment,"AstraMedic Solutions Best Home Physiotherapy Services and Equipment
4.9(100)
Home health care service · Office#13-F, First Floor, Noor Mobile Mall, 6th Road
Open ⋅ Closes 10 PM · +92 344 1347681",Home health care service,Open,33.6428867,73.0734287,https://www.google.com/maps/place/AstraMedic+Solutions+Best+Home+Physiotherapy+Services+and+Equipment/data=!4m7!3m6!1s0x38df9564cc37c37b:0x10d739227c218486!8m2!3d33.6428867!4d73.0734287!16s%2Fg%2F11tk8hqxb5!19sChIJe8M3zGSV3zgRhoQhfCI51xA?authuser=0&hl=en&rclk=1,"Medical Supplies Store, Islamabad"
109,princebooks_33.668793_73.075565,Prince Books,"Prince Books
4.3(720)
Medical book store · Basement, Shop No 4, City Arcade Plaza, Mir Chakar Khan Rd
Open ⋅ Closes 9 PM · +92 51 4862620",Medical book store,Open,33.6687935,73.0755655,https://www.google.com/maps/place/Prince+Books/data=!4m7!3m6!1s0x38df95457b54834d:0xa0b3eee5235f4d07!8m2!3d33.6687935!4d73.0755655!16s%2Fg%2F11f2wbq28m!19sChIJTYNUe0WV3zgRB01fI-Xus6A?authuser=0&hl=en&rclk=1,"Medical Supplies Store, Islamabad"
110,giftpharmacy_33.541186_73.113398,GIFT Pharmacy,"GIFT Pharmacy
2.5(4)
Medical supply store · 6, N-5
Open ⋅ Closes 12 AM",Medical supply store,Open,33.5411861,73.1133983,https://www.google.com/maps/place/GIFT+Pharmacy/data=!4m7!3m6!1s0x38dfed480e2568db:0x7700c773ec058283!8m2!3d33.5411861!4d73.1133983!16s%2Fg%2F11p47_b6cj!19sChIJ22glDkjt3zgRg4IF7HPHAHc?authuser=0&hl=en&rclk=1,"Medical Supplies Store, Islamabad"
111,newcapitaldrugagenci_33.612736_73.061078,New Capital Drug Agencies,"New Capital Drug Agencies
5.0(10)
Medical supply store · Lunda Bazar Rd
Open ⋅ Closes 9 PM · +92 51 5552911",Medical supply store,Open,33.612736,73.0610777,https://www.google.com/maps/place/New+Capital+Drug+Agencies/data=!4m7!3m6!1s0x38df95338d37a695:0xf5fe59731fc25790!8m2!3d33.612736!4d73.0610777!16s%2Fg%2F11qsc8ygb2!19sChIJlaY3jTOV3zgRkFfCH3NZ_vU?authuser=0&hl=en&rclk=1,"Medical Supplies Store, Islamabad"
112,sharifsurgical_33.598309_73.051836,Sharif Surgical,"Sharif Surgical
5.0(6)
Medical supply store ·  · 3299-D Harding Rd
Open ⋅ Closes 8:30 PM · +92 300 4529352",Medical supply store,Open,33.598309,73.0518363,https://www.google.com/maps/place/Sharif+Surgical/data=!4m7!3m6!1s0x38df9484beb18801:0xa8915077b9effb49!8m2!3d33.598309!4d73.0518363!16s%2Fg%2F11b6hq9vcp!19sChIJAYixvoSU3zgRSfvvuXdQkag?authuser=0&hl=en&rclk=1,"Medical Supplies Store, Islamabad"
113,adnanbrothersmedical_33.539413_73.115763,ADNAN BROTHERS MEDICAL STORE SWAN CAMP NEAR SUPERIOR COLLEGE G.T ROAD RAWALPINDI,"ADNAN BROTHERS MEDICAL STORE SWAN CAMP NEAR SUPERIOR COLLEGE G.T ROAD RAWALPINDI
No reviews
Medical supply store · G4Q8+Q86 swan campRd, N-5
Open now",Medical supply store,Open now,33.5394131,73.1157625,https://www.google.com/maps/place/ADNAN+BROTHERS+MEDICAL+STORE+SWAN+CAMP+NEAR+SUPERIOR+COLLEGE+G.T+ROAD+RAWALPINDI/data=!4m7!3m6!1s0x38dfeded7e355387:0x148d856b01fe5171!8m2!3d33.5394131!4d73.1157625!16s%2Fg%2F11j5gvf62g!19sChIJh1M1fu3t3zgRcVH-AWuFjRQ?authuser=0&hl=en&rclk=1,"Medical Supplies Store, Islamabad"
114,waltonpharmacyi10_33.648287_73.040510,Walton Pharmacy I-10,"Walton Pharmacy I-10
4.6(71)
Pharmacy · 
Open ⋅ Closes 12:30 AM · +92 300 6862448",Pharmacy,Open,33.6482869,73.0405098,https://www.google.com/maps/place/Walton+Pharmacy+I-10/data=!4m7!3m6!1s0x38df95a7621d61c5:0x5cdb1feeec3135ff!8m2!3d33.6482869!4d73.0405098!16s%2Fg%2F12mkzhz1l!19sChIJxWEdYqeV3zgR_zUx7O4f21w?authuser=0&hl=en&rclk=1,"Medical Supplies Store, Islamabad"
115,aairmedicals_33.607781_73.064752,Aair Medicals,"Aair Medicals
5.0(8)
Medical supply store · Office no. 201, Second Floor, Khattak Plaza, Gorden College Rd
Open ⋅ Closes 5:30 PM · +92 51 5557773",Medical supply store,Open,33.6077811,73.0647524,https://www.google.com/maps/place/Aair+Medicals/data=!4m7!3m6!1s0x38df95d81ead4481:0x4c4628931a8c18e0!8m2!3d33.6077811!4d73.0647524!16s%2Fg%2F11fvjnqgvg!19sChIJgUStHtiV3zgR4BiMGpMoRkw?authuser=0&hl=en&rclk=1,"Medical Supplies Store, Islamabad"
116,medicalmart_33.572915_73.109092,Medical Mart,"Medical Mart
1.0(1)
Medical equipment supplier · China Market, College Rd
Open ⋅ Closes 5 PM",Medical equipment supplier,Open,33.5729148,73.1090917,https://www.google.com/maps/place/Medical+Mart/data=!4m7!3m6!1s0x38df951a0658e069:0x3c84b168bcda1e57!8m2!3d33.5729148!4d73.1090917!16s%2Fg%2F11grpwn7zb!19sChIJaeBYBhqV3zgRVx7avGixhDw?authuser=0&hl=en&rclk=1,"Medical Supplies Store, Islamabad"
117,barqpharmacy_33.653379_73.016353,BARQ PHARMACY,"BARQ PHARMACY
3.7(15)
Pharmacy · opposite PAEC General Hospital
Open ⋅ Closes 9 PM · +92 51 8912082",Pharmacy,Open,33.6533789,73.0163528,https://www.google.com/maps/place/BARQ+PHARMACY/data=!4m7!3m6!1s0x38df95d1b1880543:0x15a8311fae1353fe!8m2!3d33.6533789!4d73.0163528!16s%2Fg%2F11nwx7_yfv!19sChIJQwWIsdGV3zgR_lMTrh8xqBU?authuser=0&hl=en&rclk=1,"Medical Supplies Store, Islamabad"
118,alsalehachemist_33.717340_73.083884,Al-Saleha Chemist,"Al-Saleha Chemist
4.4(48)
Pharmacy · Mir Trade Centre Municipal Rd Melody Market
Open ⋅ Closes 2 AM · +92 51 2206929",Pharmacy,Open,33.7173398,73.0838836,https://www.google.com/maps/place/Al-Saleha+Chemist/data=!4m7!3m6!1s0x38dfbf86478e504b:0x2ac5d879f889e640!8m2!3d33.7173398!4d73.0838836!16s%2Fg%2F12mk_3ds2!19sChIJS1COR4a_3zgRQOaJ-HnYxSo?authuser=0&hl=en&rclk=1,"Medical Supplies Store, Islamabad"
119,excellentmedicinecom_33.612873_73.060653,Excellent Medicine Company,"Excellent Medicine Company
5.0(3)
Medical supply store · College Road, Rawalpindi., College Road, Rawalpindi. Gorden College Rd
Open ⋅ Closes 6 PM · +92 51 5553013",Medical supply store,Open,33.6128725,73.0606525,https://www.google.com/maps/place/Excellent+Medicine+Company/data=!4m7!3m6!1s0x38df9494e4455557:0x63a96b085dbde47e!8m2!3d33.6128725!4d73.0606525!16s%2Fg%2F11c5_dpkdf!19sChIJV1VF5JSU3zgRfuS9XQhrqWM?authuser=0&hl=en&rclk=1,"Medical Supplies Store, Islamabad"
120,pillzpharmacy_33.601410_73.157091,Pillz Pharmacy,"Pillz Pharmacy
4.8(35)
Pharmacy · Samama Gulberg
Open ⋅ Closes 3 AM · +92 315 7290000",Pharmacy,Open,33.6014102,73.157091,https://www.google.com/maps/place/Pillz+Pharmacy/data=!4m7!3m6!1s0x38dfed146492fc11:0xe475381c143568c0!8m2!3d33.6014102!4d73.157091!16s%2Fg%2F11qq4dcy3w!19sChIJEfySZBTt3zgRwGg1FBw4deQ?authuser=0&hl=en&rclk=1,"Medical Supplies Store, Islamabad"
121,medizone_33.634778_73.072270,MEDIZONE,"MEDIZONE
5.0(20)
Hospital equipment and supplies ·  · 240, B-Block, Commercial Market
Open ⋅ Closes 6 PM · +92 321 4242594",Hospital equipment and supplies,Open,33.634778,73.0722695,https://www.google.com/maps/place/MEDIZONE/data=!4m7!3m6!1s0x38df9527d8d6d433:0x1fff089c441b6031!8m2!3d33.634778!4d73.0722695!16s%2Fg%2F11c430twn2!19sChIJM9TW2CeV3zgRMWAbRJwI_x8?authuser=0&hl=en&rclk=1,"Medical Supplies Store, Islamabad"
122,khanmedicalstore_33.650224_73.109285,Khan Medical Store,"Khan Medical Store
No reviews
Medical supply store · M425+3PM, Unnamed Road
+92 336 5467025",Medical supply store,,33.6502244,73.1092846,https://www.google.com/maps/place/Khan+Medical+Store/data=!4m7!3m6!1s0x38dfebbcb4152d1d:0x8ab4d288f59d5ffc!8m2!3d33.6502244!4d73.1092846!16s%2Fg%2F11fks3wxph!19sChIJHS0VtLzr3zgR_F-d9YjStIo?authuser=0&hl=en&rclk=1,"Medical Supplies Store, Islamabad"
123,medicalonline_33.608063_73.064188,Medical Online,"Medical Online
4.0(5)
Medical equipment supplier · china town plaza، gordon Gorden College Rd
Open ⋅ Closes 5 PM · +92 335 5554828",Medical equipment supplier,Open,33.6080625,73.0641875,https://www.google.com/maps/place/Medical+Online/data=!4m7!3m6!1s0x38df94bd89e0be33:0x78379d0a65fcdc51!8m2!3d33.6080625!4d73.0641875!16s%2Fg%2F11b7q55rjv!19sChIJM77gib2U3zgRUdz8ZQqdN3g?authuser=0&hl=en&rclk=1,"Medical Supplies Store, Islamabad"
124,alipurpharmacy_33.645135_73.180803,Alipur Pharmacy,"Alipur Pharmacy
4.0(42)
Pharmacy · J5WJ+383, Lehtrar Rd
Open ⋅ Closes 10 PM",Pharmacy,Open,33.6451354,73.1808033,https://www.google.com/maps/place/Alipur+Pharmacy/data=!4m7!3m6!1s0x38dfebd63533f92b:0x14fc212b2e7c9321!8m2!3d33.6451354!4d73.1808033!16s%2Fg%2F1hc0t_64j!19sChIJK_kzNdbr3zgRIZN8Lish_BQ?authuser=0&hl=en&rclk=1,"Medical Supplies Store, Islamabad"
125,tahirpharmacy_33.517177_73.084955,Tahir Pharmacy,"Tahir Pharmacy
4.3(43)
Pharmacy · AAA Riveria, Plot no 100 A, Springs Commercial, Quid Chowk Phase, 7
Open ⋅ Closes 3 AM · +92 51 8489915",Pharmacy,Open,33.5171766,73.0849554,https://www.google.com/maps/place/Tahir+Pharmacy/data=!4m7!3m6!1s0x38df932d2abbe5cd:0xd97b7356c94a6aa!8m2!3d33.5171766!4d73.0849554!16s%2Fg%2F11y35hyb9_!19sChIJzeW7Ki2T3zgRqqaUbDW3lw0?authuser=0&hl=en&rclk=1,"Medical Supplies Store, Islamabad"
126,uniquemedicalservice_33.608621_73.106051,Unique Medical Services,"Unique Medical Services
4.9(19)
Medical equipment supplier ·  · Shaheen Cargo, opposite old airport
Open ⋅ Closes 9 PM",Medical equipment supplier,Open,33.6086205,73.1060513,https://www.google.com/maps/place/Unique+Medical+Services/data=!4m7!3m6!1s0x38dfeb4ec944f41b:0xeaa2c33013354f55!8m2!3d33.6086205!4d73.1060513!16s%2Fg%2F11qn1cystr!19sChIJG_REyU7r3zgRVU81EzDDouo?authuser=0&hl=en&rclk=1,"Medical Supplies Store, Islamabad"
127,qualitymedicalservic_33.608163_73.064447,Quality Medical Services,"Quality Medical Services
3.8(18)
Medical equipment supplier · Gorden College Rd
Open ⋅ Closes 6 PM · +92 51 5554818",Medical equipment supplier,Open,33.6081629,73.0644473,https://www.google.com/maps/place/Quality+Medical+Services/data=!4m7!3m6!1s0x38df94bd896420b9:0x9541dd00d7ce25b2!8m2!3d33.6081629!4d73.0644473!16s%2Fg%2F12mkw8np4!19sChIJuSBkib2U3zgRsiXO1wDdQZU?authuser=0&hl=en&rclk=1,"Medical Supplies Store, Islamabad"
128,bspharmacyg15_33.633556_72.923162,B&S Pharmacy G-15,"B&S Pharmacy G-15
4.6(13)
Medical supply store ·  · Lower Ground, Khyber, St 4
Open ⋅ Closes 11:45 PM · +92 51 2304627",Medical supply store,Open,33.6335556,72.9231621,https://www.google.com/maps/place/B%26S+Pharmacy+G-15/data=!4m7!3m6!1s0x38df97bdfe3f7655:0xf28a30662b22ed44!8m2!3d33.6335556!4d72.9231621!16s%2Fg%2F11df3p69q5!19sChIJVXY__r2X3zgRRO0iK2YwivI?authuser=0&hl=en&rclk=1,"Medical Supplies Store, Islamabad"
129,dwatsonchemistf10mar_33.696252_73.012942,D. Watson Chemist F-10 Markaz,"D. Watson Chemist F-10 Markaz
4.1(415)
Pharmacy ·  · Street 7D
Open ⋅ Closes 12 AM · +92 51 2215784",Pharmacy,Open,33.6962516,73.0129417,https://www.google.com/maps/place/D.+Watson+Chemist+F-10+Markaz/data=!4m7!3m6!1s0x38dfbe6b158ee389:0x252aaeebe811707c!8m2!3d33.6962516!4d73.0129417!16s%2Fg%2F11dymm56c8!19sChIJieOOFWu-3zgRfHAR6OuuKiU?authuser=0&hl=en&rclk=1,"Medical Supplies Store, Islamabad"
130,azacmedicalsurgicala_33.553086_73.136612,AZAC Medical - Surgical and Medical Equipment Supplier,"AZAC Medical - Surgical and Medical Equipment Supplier
No reviews
Medical equipment supplier · Plot 222, Industrial Triangle Kahuta
Open ⋅ Closes 10 PM · +92 321 7808062",Medical equipment supplier,Open,33.553086,73.1366118,https://www.google.com/maps/place/AZAC+Medical+-+Surgical+and+Medical+Equipment+Supplier/data=!4m7!3m6!1s0x38dfeda4e48b0509:0x4928ca7a08920197!8m2!3d33.553086!4d73.1366118!16s%2Fg%2F11px9v56n7!19sChIJCQWL5KTt3zgRlwGSCHrKKEk?authuser=0&hl=en&rclk=1,"Medical Supplies Store, Islamabad"
131,jangirmilkshap_33.682184_72.916725,Jangir Milk shap,"Jangir Milk shap
No reviews
Medical supply store · MWJ8+VMH, Sarai Kharbuza Road
Closed ⋅ Opens 7 PM · +92 316 5058943",Medical supply store,Closed,33.6821835,72.9167248,https://www.google.com/maps/place/Jangir+Milk+shap/data=!4m7!3m6!1s0x38dfbd006bd43edf:0x9fe3e11a8b76aff1!8m2!3d33.6821835!4d72.9167248!16s%2Fg%2F11vwdn6s66!19sChIJ3z7UawC93zgR8a92ixrh458?authuser=0&hl=en&rclk=1,"Medical Supplies Store, Islamabad"
132,nattbrothresdistribu_33.696717_73.050043,Natt Brothres Distribution,"Natt Brothres Distribution
No reviews
Distribution service
Open ⋅ Closes 6 PM · +92 51 2340179",Distribution service,Open,33.6967175,73.0500428,https://www.google.com/maps/place/Natt+Brothres+Distribution/data=!4m7!3m6!1s0x38dfbf17a56e90a1:0x9df5d7e863e8b61f!8m2!3d33.6967175!4d73.0500428!16s%2Fg%2F11kdm93th3!19sChIJoZBupRe_3zgRH7boY-jX9Z0?authuser=0&hl=en&rclk=1,"Medical Supplies Store, Islamabad"
133,dwatsonchemisti8mark_33.668171_73.074693,D.WATSON CHEMIST I-8 MARKAZ,"D.WATSON CHEMIST I-8 MARKAZ
3.7(131)
Drug store · Unnamed Road
Open ⋅ Closes 1 AM · +92 51 8487354",Drug store,Open,33.6681706,73.0746933,https://www.google.com/maps/place/D.WATSON+CHEMIST+I-8+MARKAZ/data=!4m7!3m6!1s0x38df9579dd566593:0x92538ca163347db6!8m2!3d33.6681706!4d73.0746933!16s%2Fg%2F11ftx5hjyn!19sChIJk2VW3XmV3zgRtn00Y6GMU5I?authuser=0&hl=en&rclk=1,"Medical Supplies Store, Islamabad"
134,newalimedicalstoreco_33.642904_73.208490,New Ali medical store & Cosmetics,"New Ali medical store & Cosmetics
No reviews
Medical supply store · J6V5+599, Lehtrar Rd
Open now",Medical supply store,Open now,33.6429035,73.2084905,https://www.google.com/maps/place/New+Ali+medical+store+%26+Cosmetics/data=!4m7!3m6!1s0x38dfe99ad69fe21d:0x2515d9e35d065abe!8m2!3d33.6429035!4d73.2084905!16s%2Fg%2F11kyl_9x0_!19sChIJHeKf1prp3zgRvloGXePZFSU?authuser=0&hl=en&rclk=1,"Medical Supplies Store, Islamabad"
135,imranmedicalstore_33.551092_73.204705,Imran Medical Store,"Imran Medical Store
No reviews
Medical equipment supplier · H623+CVP
Open now",Medical equipment supplier,Open now,33.5510924,73.2047052,https://www.google.com/maps/place/Imran+Medical+Store/data=!4m7!3m6!1s0x38dfef6a81f58b83:0xcf9a2f3172bb884b!8m2!3d33.5510924!4d73.2047052!16s%2Fg%2F11fr7rrqpl!19sChIJg4v1gWrv3zgRS4i7cjEvms8?authuser=0&hl=en&rclk=1,"Medical Supplies Store, Islamabad"
136,dwatsonchemistbluear_33.708921_73.055395,D.WATSON CHEMIST BLUE AREA,"D.WATSON CHEMIST BLUE AREA
4.2(479)
Pharmacy ·  · KHYBER PLAZA, Street 30
Open ⋅ Closes 1 AM · +92 51 8444479",Pharmacy,Open,33.7089212,73.0553945,https://www.google.com/maps/place/D.WATSON+CHEMIST+BLUE+AREA/data=!4m7!3m6!1s0x38dfbfdef1cd8a4f:0xde203c5003893d3d!8m2!3d33.7089212!4d73.0553945!16s%2Fg%2F11sps_6svj!19sChIJT4rN8d6_3zgRPT2JA1A8IN4?authuser=0&hl=en&rclk=1,"Medical Supplies Store, Islamabad"
137,galaxypharmacy_33.572077_73.038598,Galaxy pharmacy,"Galaxy pharmacy
No reviews
Medical supply store · kalma chowk, SHOP # CB-2, Dhamial Rd
Open 24 hours · +92 333 5557600",Medical supply store,Open 24 hours,33.5720765,73.0385977,https://www.google.com/maps/place/Galaxy+pharmacy/data=!4m7!3m6!1s0x38df932636beca8d:0x558243ba9348834b!8m2!3d33.5720765!4d73.0385977!16s%2Fg%2F11t0t7zv7g!19sChIJjcq-NiaT3zgRS4NIk7pDglU?authuser=0&hl=en&rclk=1,"Medical Supplies Store, Islamabad"
138,superhomoeostoreclin_33.614585_73.059278,Super Homoeo Store & Clinic,"Super Homoeo Store & Clinic
4.8(28)
Medical supply store · Hakim Ajmal Khan Road, Hakim Muhammad Amjal Khan Rd
Open ⋅ Closes 8 PM · +92 51 5552509",Medical supply store,Open,33.6145852,73.0592777,https://www.google.com/maps/place/Super+Homoeo+Store+%26+Clinic/data=!4m7!3m6!1s0x38df94eb4cfd2823:0x7ad361c4a4de5c67!8m2!3d33.6145852!4d73.0592777!16s%2Fg%2F11clyt41_p!19sChIJIyj9TOuU3zgRZ1zepMRh03o?authuser=0&hl=en&rclk=1,"Medical Supplies Store, Islamabad"
139,alimedicalbookservic_33.602793_73.066362,Ali Medical Book Services & Stationers,"Ali Medical Book Services & Stationers
4.1(120)
Medical book store · Murree Rd, Moti Mahal Chowk, Marir Hassan
Open ⋅ Closes 11 PM · +92 321 5302209",Medical book store,Open,33.6027931,73.0663624,https://www.google.com/maps/place/Ali+Medical+Book+Services+%26+Stationers/data=!4m7!3m6!1s0x38df94a2ef9473eb:0x4a3f720bdbcf6368!8m2!3d33.6027931!4d73.0663624!16s%2Fg%2F12mkw9pkx!19sChIJ63OU76KU3zgRaGPP2wtyP0o?authuser=0&hl=en&rclk=1,"Medical Supplies Store, Islamabad"
140,jansonspharmacy_33.699195_73.048790,Jan Sons Pharmacy,"Jan Sons Pharmacy
4.8(13)
Pharmacy ·  · Shop#5, Block#19 Allahdad Plaza
Open ⋅ Closes 11:30 PM · +92 51 8460951",Pharmacy,Open,33.6991951,73.0487896,https://www.google.com/maps/place/Jan+Sons+Pharmacy/data=!4m7!3m6!1s0x38dfbf1142179987:0x745bd2aa7a269aa9!8m2!3d33.6991951!4d73.0487896!16s%2Fg%2F11mwvv02_v!19sChIJh5kXQhG_3zgRqZomeqrSW3Q?authuser=0&hl=en&rclk=1,"Medical Supplies Store, Islamabad"
141,dwatsonchemistf11mar_33.683312_72.989063,D.WATSON CHEMIST F-11 MARKAZ,"D.WATSON CHEMIST F-11 MARKAZ
4.3(1,759)
Cosmetics store · MXMQ+8JF Hilal Road, Markaz
Open ⋅ Closes 12 AM · +92 51 8441791",Cosmetics store,Open,33.6833125,72.9890625,https://www.google.com/maps/place/D.WATSON+CHEMIST+F-11+MARKAZ/data=!4m7!3m6!1s0x38dfbde30aaec387:0x63e245b47f3a883d!8m2!3d33.6833125!4d72.9890625!16s%2Fg%2F1tdj2l7b!19sChIJh8OuCuO93zgRPYg6f7RF4mM?authuser=0&hl=en&rclk=1,"Medical Supplies Store, Islamabad"
142,pacificinternational_33.705340_73.068666,Pacific international,"Pacific international
5.0(1)
Dental supply store · Office no. 1 First floor, Sadiq chamber
Open 24 hours · +92 312 0543844",Dental supply store,Open 24 hours,33.7053396,73.0686661,https://www.google.com/maps/place/Pacific+international/data=!4m7!3m6!1s0x38dfbf00262bc467:0xd03644c3b100f770!8m2!3d33.7053396!4d73.0686661!16s%2Fg%2F11wq4sl8f8!19sChIJZ8QrJgC_3zgRcPcAscNENtA?authuser=0&hl=en&rclk=1,"Medical Supplies Store, Islamabad"
