Index,Place Id,Name,Address,Category,Status,Latitude,Longitude,Link,SearchKeyword
1,na_noloc,,,,,,,,"Pathologist, Islamabad"
5,dramnaiqbalspeechand_33.697930_73.048678,Dr Amna Iqbal Speech and Language Pathologist,"Dr Amna Iqbal Speech and Language Pathologist
4.9(26)
Medical Center · lower ground floor, Akbar Niazi teaching hospital executive clinics, executive complex
Open ⋅ Closes 5 PM · +92 51 8442806",Medical Center,Open,33.6979304,73.0486781,https://www.google.com/maps/place/Dr+Amna+Iqbal+Speech+and+Language+Pathologist/data=!4m7!3m6!1s0x38dfbf4e3c76618b:0x5d0d79a51731e980!8m2!3d33.6979304!4d73.0486781!16s%2Fg%2F11y4bf73w5!19sChIJi2F2PE6_3zgRgOkxF6V5DV0?authuser=0&hl=en&rclk=1,"Pathologist, Islamabad"
37,rapidfixspeechpathol_33.698813_72.967896,Rapid Fix Speech Pathologist/ Child Psychologist Physicaltherapy Clinic & Home Services,"Rapid Fix Speech Pathologist/ Child Psychologist Physicaltherapy Clinic & Home Services
5.0(16)
Speech pathologist ·  · 3 Hill Rd
Open 24 hours · +92 311 0979070",Speech pathologist,Open 24 hours,33.6988135,72.967896,https://www.google.com/maps/place/Rapid+Fix+Speech+Pathologist%2F+Child+Psychologist+Physicaltherapy+Clinic+%26+Home+Services/data=!4m7!3m6!1s0x38dfbd7848d6177d:0xa4b176043a471d6d!8m2!3d33.6988135!4d72.967896!16s%2Fg%2F11fnnr16l9!19sChIJfRfWSHi93zgRbR1HOgR2saQ?authuser=0&hl=en&rclk=1,"Pathologist, Islamabad"
38,faizainamstcicldspee_33.575963_73.133938,"Faiza Inam (STCICLD) Speech Therapy, Speech Therapist, Speech & Language Therapy In Bahria Town, Islamabad & Rawalpindi","Faiza Inam (STCICLD) Speech Therapy, Speech Therapist, Speech & Language Therapy In Bahria Town, Islamabad & Rawalpindi
4.9(69)
Speech pathologist ·  · House number 3, street 58 korang town, Korang
Open ⋅ Closes 9 PM · +92 332 5371112",Speech pathologist,Open,33.5759634,73.1339381,"https://www.google.com/maps/place/Faiza+Inam+%28STCICLD%29+Speech+Therapy,+Speech+Therapist,+Speech+%26+Language+Therapy+In+Bahria+Town,+Islamabad+%26+Rawalpindi/data=!4m7!3m6!1s0x38df951511a7f00d:0x9c3d3f59b9e1c673!8m2!3d33.5759634!4d73.1339381!16s%2Fg%2F11fl9gtlbz!19sChIJDfCnERWV3zgRc8bhuVk_PZw?authuser=0&hl=en&rclk=1","Pathologist, Islamabad"
39,mhsphysiotherapyspee_33.722512_73.082228,MHS Physiotherapy Speech Therapy & Psychology Clinic,"MHS Physiotherapy Speech Therapy & Psychology Clinic
4.7(174)
Physical therapy clinic · Office No 12 Huma Plaza
Open ⋅ Closes 9 PM · +92 311 0979070",Physical therapy clinic,Open,33.7225119,73.0822276,https://www.google.com/maps/place/MHS+Physiotherapy+Speech+Therapy+%26+Psychology+Clinic/data=!4m7!3m6!1s0x38df95156aaaaab1:0x3ec18d3a9a0eb9f5!8m2!3d33.7225119!4d73.0822276!16s%2Fg%2F11hb28zf7j!19sChIJsaqqahWV3zgR9bkOmjqNwT4?authuser=0&hl=en&rclk=1,"Pathologist, Islamabad"
40,laboratoryinislamaba_33.709835_73.057930,Laboratory in Islamabad | Pure Health Lab,"Laboratory in Islamabad | Pure Health Lab
5.0(4)
Laboratory · Royal Centre, Basement #4 B, AKM Fazl-ul-Haq Rd
Open ⋅ Closes 8:30 PM · +92 51 2806441",Laboratory,Open,33.7098354,73.0579299,https://www.google.com/maps/place/Laboratory+in+Islamabad+%7C+Pure+Health+Lab/data=!4m7!3m6!1s0x38dfbf7679707f47:0xb26a6efe3ca01c14!8m2!3d33.7098354!4d73.0579299!16s%2Fg%2F11n14df91b!19sChIJR39weXa_3zgRFBygPP5uarI?authuser=0&hl=en&rclk=1,"Pathologist, Islamabad"
41,shafiphysiotherapyan_33.616116_73.086108,Shafi Physiotherapy and Speech Therapy Home Services,"Shafi Physiotherapy and Speech Therapy Home Services
5.0(197)
Speech pathologist
+92 333 0303457",Speech pathologist,,33.6161162,73.086108,https://www.google.com/maps/place/Shafi+Physiotherapy+and+Speech+Therapy+Home+Services/data=!4m7!3m6!1s0x38dfbf71f34c1fd9:0x5d8b5cd35800eaea!8m2!3d33.6161162!4d73.086108!16s%2Fg%2F11p4q8dy6w!19sChIJ2R9M83G_3zgR6uoAWNNci10?authuser=0&hl=en&rclk=1,"Pathologist, Islamabad"
42,pediacaretherapyclin_33.696752_73.051170,PediaCare Therapy Clinic,"PediaCare Therapy Clinic
5.0(99)
Speech pathologist · Module 1 & 2, Grand Time Square Plaza
Open ⋅ Closes 7 PM · +92 318 5695243",Speech pathologist,Open,33.6967519,73.0511696,https://www.google.com/maps/place/PediaCare+Therapy+Clinic/data=!4m7!3m6!1s0x38dfbff82f273af3:0xe693a2b44dceda5a!8m2!3d33.6967519!4d73.0511696!16s%2Fg%2F11lnhl99lv!19sChIJ8zonL_i_3zgRWtrOTbSik-Y?authuser=0&hl=en&rclk=1,"Pathologist, Islamabad"
43,mhsspeechtherapyphys_33.567130_73.147563,MHS Speech Therapy & Physiotherapy Behavior Therapy OT Center & Home Services,"MHS Speech Therapy & Physiotherapy Behavior Therapy OT Center & Home Services
4.9(15)
Speech pathologist ·  · Muzaffar Plaza,Mehran Market
Open ⋅ Closes 9 PM · +92 311 0979070",Speech pathologist,Open,33.5671296,73.1475631,https://www.google.com/maps/place/MHS+Speech+Therapy+%26+Physiotherapy+Behavior+Therapy+OT+Center+%26+Home+Services/data=!4m7!3m6!1s0x38dfedafc8720b95:0x7489425c73079b29!8m2!3d33.5671296!4d73.1475631!16s%2Fg%2F11sffnj10_!19sChIJlQtyyK_t3zgRKZsHc1xCiXQ?authuser=0&hl=en&rclk=1,"Pathologist, Islamabad"
44,asialabandclinic_33.642564_72.952103,ASIA Lab and clinic,"ASIA Lab and clinic
5.0(2)
Laboratory · Shop No 107, Humayun Arcade, Street 14
Open ⋅ Closes 9 PM · +92 335 5021118",Laboratory,Open,33.6425636,72.9521033,https://www.google.com/maps/place/ASIA+Lab+and+clinic/data=!4m7!3m6!1s0x38df9723f179c255:0x4c45ff64eca88d69!8m2!3d33.6425636!4d72.9521033!16s%2Fg%2F11tfn_wn48!19sChIJVcJ58SOX3zgRaY2o7GT_RUw?authuser=0&hl=en&rclk=1,"Pathologist, Islamabad"
45,stcicldcerebralpalsy_33.567753_73.131461,"STCICLD (Cerebral Palsy, ADHD, Autism, Cochlear Implant, Auditory Therapy, Speech Therapy, Therapist In Islamabad, Rawalpindi, ) )","STCICLD (Cerebral Palsy, ADHD, Autism, Cochlear Implant, Auditory Therapy, Speech Therapy, Therapist In Islamabad, Rawalpindi, ) )
4.4(10)
Speech pathologist ·  · 729 B 4/1 Rd
Open 24 hours · +92 300 5358493",Speech pathologist,Open 24 hours,33.5677527,73.1314606,"https://www.google.com/maps/place/STCICLD+%28Cerebral+Palsy,+ADHD,+Autism,+Cochlear+Implant,+Auditory+Therapy,+Speech+Therapy,+Therapist+In+Islamabad,+Rawalpindi,+%29+%29/data=!4m7!3m6!1s0x38dfed9d8f73f151:0x5470d8ad04018a02!8m2!3d33.5677527!4d73.1314606!16s%2Fg%2F11h8y8_b87!19sChIJUfFzj53t3zgRAooBBK3YcFQ?authuser=0&hl=en&rclk=1","Pathologist, Islamabad"
46,islamabadcochlearimp_33.711228_73.041177,"Islamabad Cochlear Implant Centre (ICIC) Cochlear Implant, Hearing Aids and Speech Therapy Services","Islamabad Cochlear Implant Centre (ICIC) Cochlear Implant, Hearing Aids and Speech Therapy Services
5.0(57)
Speech pathologist ·  · Office #2, HBL Bank Basement, Shalimar plaza, Markaz, near IDC
Open ⋅ Closes 8:30 PM · +92 343 5261874",Speech pathologist,Open,33.7112283,73.0411772,"https://www.google.com/maps/place/Islamabad+Cochlear+Implant+Centre+%28ICIC%29+Cochlear+Implant,+Hearing+Aids+and+Speech+Therapy+Services/data=!4m7!3m6!1s0x38dfbf16d0d59b6b:0x6afdd06aeed21017!8m2!3d33.7112283!4d73.0411772!16s%2Fg%2F11t5l4mbf0!19sChIJa5vV0Ba_3zgRFxDS7mrQ_Wo?authuser=0&hl=en&rclk=1","Pathologist, Islamabad"
47,stcicldspeechtherapi_33.550705_73.077560,"STCICLD ( Speech Therapist, Speech Therapy In Islamabad, Rawalpindi, )","STCICLD ( Speech Therapist, Speech Therapy In Islamabad, Rawalpindi, )
4.8(172)
Speech pathologist ·  · STCICLD, Morgah Rd
Open 24 hours · +92 300 5358493",Speech pathologist,Open 24 hours,33.5507052,73.0775595,"https://www.google.com/maps/place/STCICLD+%28+Speech+Therapist,+Speech+Therapy+In+Islamabad,+Rawalpindi,+%29/data=!4m7!3m6!1s0x38df95ab2746bebf:0x92b4edb7b76e05f8!8m2!3d33.5507052!4d73.0775595!16s%2Fg%2F11fjz4jsrx!19sChIJv75GJ6uV3zgR-AVut7fttJI?authuser=0&hl=en&rclk=1","Pathologist, Islamabad"
48,drajmalosmanfatimacl_33.688607_73.013056,Dr. Ajmal Osman | Fatima Clinic F-10 | Top/Best (No.1) Specialist of Islamabad & Rawalpindi,"Dr. Ajmal Osman | Fatima Clinic F-10 | Top/Best (No.1) Specialist of Islamabad & Rawalpindi
4.8(184)
Hospital ·  · House 93 Street 44
Open ⋅ Closes 12 AM · +92 323 6833333",Hospital,Open,33.6886072,73.013056,https://www.google.com/maps/place/Dr.+Ajmal+Osman+%7C+Fatima+Clinic+F-10+%7C+Top%2FBest+%28No.1%29+Specialist+of+Islamabad+%26+Rawalpindi/data=!4m7!3m6!1s0x38dfbe1693dca1a1:0x4d05249fbcd133d5!8m2!3d33.6886072!4d73.013056!16s%2Fg%2F11fxx64hvf!19sChIJoaHckxa-3zgR1TPRvJ8kBU0?authuser=0&hl=en&rclk=1,"Pathologist, Islamabad"
49,drziaautismcenterspe_33.564665_73.126415,"Dr. Zia Autism Center , Speech , ABA Behavior Occupational .Physio Therapies","Dr. Zia Autism Center , Speech , ABA Behavior Occupational .Physio Therapies
4.9(21)
Speech pathologist ·  · Spire Medical & Rehabilitation center
Open ⋅ Closes 9 PM · +92 330 4343123",Speech pathologist,Open,33.5646647,73.1264148,"https://www.google.com/maps/place/Dr.+Zia+Autism+Center+,+Speech+,+ABA+Behavior+Occupational+.Physio+Therapies/data=!4m7!3m6!1s0x38dfedd0afb05e13:0xc903838ca3d7cb2c!8m2!3d33.5646647!4d73.1264148!16s%2Fg%2F11h3g3qxfs!19sChIJE16wr9Dt3zgRLMvXo4yDA8k?authuser=0&hl=en&rclk=1","Pathologist, Islamabad"
50,departmentofpatholog_33.703049_73.050065,Department of Pathology,"Department of Pathology
5.0(1)
Hospital · 3",Hospital,,33.7030487,73.0500648,https://www.google.com/maps/place/Department+of+Pathology/data=!4m7!3m6!1s0x38dfbf28e69614c1:0x5e7d820d6446eeed!8m2!3d33.7030487!4d73.0500648!16s%2Fg%2F11fpjfvx9k!19sChIJwRSW5ii_3zgR7e5GZA2CfV4?authuser=0&hl=en&rclk=1,"Pathologist, Islamabad"
51,pathologycdahospital_33.716680_73.080218,Pathology CDA Hospital,"Pathology CDA Hospital
No reviews
Pathologist ·  · P38J+M3G
Open now",Pathologist,Open now,33.7166803,73.0802182,https://www.google.com/maps/place/Pathology+CDA+Hospital/data=!4m7!3m6!1s0x38dfbf0546d480e7:0xea56f0fa3b882972!8m2!3d33.7166803!4d73.0802182!16s%2Fg%2F11txld1x42!19sChIJ54DURgW_3zgRcimIO_rwVuo?authuser=0&hl=en&rclk=1,"Pathologist, Islamabad"
52,spiremedicalrehabili_33.564428_73.126578,Spire Medical & Rehabilitation Center,"Spire Medical & Rehabilitation Center
5.0(10)
Medical Center ·  · 5
Open ⋅ Closes 9 PM · +92 330 2592597",Medical Center,Open,33.5644277,73.1265778,https://www.google.com/maps/place/Spire+Medical+%26+Rehabilitation+Center/data=!4m7!3m6!1s0x38dfed58f6848b0b:0x656c0a50acdd2174!8m2!3d33.5644277!4d73.1265778!16s%2Fg%2F11hdsmjwwp!19sChIJC4uE9ljt3zgRdCHdrFAKbGU?authuser=0&hl=en&rclk=1,"Pathologist, Islamabad"
53,ycdcphysiotherapybeh_33.523267_73.144541,"YCDC (Physio Therapy , Behaviour Therapy, Occupational Therapy , Speech Therapy in Islamabad , Rawalpindi)","YCDC (Physio Therapy , Behaviour Therapy, Occupational Therapy , Speech Therapy in Islamabad , Rawalpindi)
4.9(33)
Speech pathologist ·  · first floor, Javed plaza, Gt road opposite dha2 gate 2, near ZIC petrol pump
Open 24 hours · +92 332 5149643",Speech pathologist,Open 24 hours,33.5232669,73.1445413,"https://www.google.com/maps/place/YCDC+%28Physio+Therapy+,+Behaviour+Therapy,+Occupational+Therapy+,+Speech+Therapy+in+Islamabad+,+Rawalpindi%29/data=!4m7!3m6!1s0x38df95c0bb372363:0x80eb22129f5fe2a2!8m2!3d33.5232669!4d73.1445413!16s%2Fg%2F11fd_psv22!19sChIJYyM3u8CV3zgRouJfnxIi64A?authuser=0&hl=en&rclk=1","Pathologist, Islamabad"
54,biosoftdiagnostic_33.627113_73.117475,Biosoft Diagnostic,"Biosoft Diagnostic
5.0(1)
Speech pathologist · J4G8+RX",Speech pathologist,,33.6271129,73.1174753,https://www.google.com/maps/place/Biosoft+Diagnostic/data=!4m7!3m6!1s0x38dfeba69670a763:0x34c85ccf37f2fbcf!8m2!3d33.6271129!4d73.1174753!16s%2Fg%2F11qbcrq4wg!19sChIJY6dwlqbr3zgRz_vyN89cyDQ?authuser=0&hl=en&rclk=1,"Pathologist, Islamabad"
55,nayablabsanddiagnost_33.571802_73.146449,"Nayab Labs and Diagnostic Center - PWD, Islamabad Branch","Nayab Labs and Diagnostic Center - PWD, Islamabad Branch
4.9(209)
Medical laboratory ·  · Shop No 8, Plot No 2C, Makkah Plaza
Open ⋅ Closes 10 PM · +92 51 5155665",Medical laboratory,Open,33.5718024,73.1464489,"https://www.google.com/maps/place/Nayab+Labs+and+Diagnostic+Center+-+PWD,+Islamabad+Branch/data=!4m7!3m6!1s0x38dfedfe123e309f:0x6000c6559a1e2da5!8m2!3d33.5718024!4d73.1464489!16s%2Fg%2F11r3ykyg1w!19sChIJnzA-Ev7t3zgRpS0emlXGAGA?authuser=0&hl=en&rclk=1","Pathologist, Islamabad"
56,wonderspeechtherapyc_33.656203_72.854913,"Wonder Speech therapy Clinic, D17, Islamabad","Wonder Speech therapy Clinic, D17, Islamabad
4.6(14)
Speech pathologist · House 37 street 32, D 17/2
Closed ⋅ Opens 10 AM Fri · +92 331 5466081",Speech pathologist,Closed,33.6562027,72.8549134,"https://www.google.com/maps/place/Wonder+Speech+therapy+Clinic,+D17,+Islamabad/data=!4m7!3m6!1s0x38dfa3fff2690ee1:0xf23fbdd8ebf1849b!8m2!3d33.6562027!4d72.8549134!16s%2Fg%2F11vy68dd0y!19sChIJ4Q5p8v-j3zgRm4Tx69i9P_I?authuser=0&hl=en&rclk=1","Pathologist, Islamabad"
57,shahidamalikclinic_33.679668_73.245231,Shahida Malik Clinic,"Shahida Malik Clinic
5.0(1)
Speech pathologist · M6HW+R4V, 3rd Ave
Open ⋅ Closes 7 AM Fri · +92 300 4239822",Speech pathologist,Open,33.6796675,73.2452309,https://www.google.com/maps/place/Shahida+Malik+Clinic/data=!4m7!3m6!1s0x38dfe981bd296e55:0xc854edbd2639b8d7!8m2!3d33.6796675!4d73.2452309!16s%2Fg%2F11vdw5mt43!19sChIJVW4pvYHp3zgR17g5Jr3tVMg?authuser=0&hl=en&rclk=1,"Pathologist, Islamabad"
58,drziaspeechababehavi_33.688773_72.992173,Dr Zia Speech ABA Behavior Autism Therapies,"Dr Zia Speech ABA Behavior Autism Therapies
5.0(3)
Speech pathologist ·  · Dr Z Pain & Brain Raja Market, Street 48
Open ⋅ Closes 9 PM",Speech pathologist,Open,33.6887729,72.9921726,https://www.google.com/maps/place/Dr+Zia+Speech+ABA+Behavior+Autism+Therapies/data=!4m7!3m6!1s0x38dfbf41168d0521:0xe5a2c48cf88160fa!8m2!3d33.6887729!4d72.9921726!16s%2Fg%2F11fdwnh96m!19sChIJIQWNFkG_3zgR-mCB-IzEouU?authuser=0&hl=en&rclk=1,"Pathologist, Islamabad"
59,speechtherapybynexge_33.567526_73.135298,Speech therapy by NEXGEN hearing center,"Speech therapy by NEXGEN hearing center
4.8(45)
Speech pathologist · Police, Street 4
Open ⋅ Closes 10 PM · +92 333 0542843",Speech pathologist,Open,33.5675256,73.1352982,https://www.google.com/maps/place/Speech+therapy+by+NEXGEN+hearing+center/data=!4m7!3m6!1s0x38dfede6feb4b45f:0x7463b9f27b0cbe28!8m2!3d33.5675256!4d73.1352982!16s%2Fg%2F11ks6p_b4w!19sChIJX7S0_ubt3zgRKL4Me_K5Y3Q?authuser=0&hl=en&rclk=1,"Pathologist, Islamabad"
60,totalkarediagnosticm_33.684449_72.986097,"TotalKare Diagnostic, Medical, Aesthetic Center and Laboratories","TotalKare Diagnostic, Medical, Aesthetic Center and Laboratories
4.7(35)
Medical diagnostic imaging center · First floor, Alkaram Plaza, above HBL
Open ⋅ Closes 9 PM · +92 331 0009008",Medical diagnostic imaging center,Open,33.6844491,72.986097,"https://www.google.com/maps/place/TotalKare+Diagnostic,+Medical,+Aesthetic+Center+and+Laboratories/data=!4m7!3m6!1s0x38dfbd7e3815fc43:0x229d4d4f9f956143!8m2!3d33.6844491!4d72.986097!16s%2Fg%2F11s7p_dsy5!19sChIJQ_wVOH693zgRQ2GVn09NnSI?authuser=0&hl=en&rclk=1","Pathologist, Islamabad"
61,imrinstituteofmedica_33.697015_73.051193,IMR: Institute of Medical Rehabilitation,"IMR: Institute of Medical Rehabilitation
4.9(95)
Hospital ·  · 12M
Open ⋅ Closes 9 PM · +92 332 2266136",Hospital,Open,33.6970145,73.0511933,https://www.google.com/maps/place/IMR:+Institute+of+Medical+Rehabilitation/data=!4m7!3m6!1s0x38dfbfc88e7a6653:0x8821d14b8fe96eaf!8m2!3d33.6970145!4d73.0511933!16s%2Fg%2F11ckqr975r!19sChIJU2Z6jsi_3zgRr27pj0vRIYg?authuser=0&hl=en&rclk=1,"Pathologist, Islamabad"
62,islamabadhealthcarel_33.666817_73.074377,islamabad Health care Lab & Vaccination Center,"islamabad Health care Lab & Vaccination Center
4.7(3)
Medical laboratory ·  · VIP Plaza
Open 24 hours · +92 300 9449677",Medical laboratory,Open 24 hours,33.6668172,73.0743768,https://www.google.com/maps/place/islamabad+Health+care+Lab+%26+Vaccination+Center/data=!4m7!3m6!1s0x38dfbf0d96b2110f:0x4b9c4a272cf94f71!8m2!3d33.6668172!4d73.0743768!16s%2Fg%2F11mb1mf1wt!19sChIJDxGylg2_3zgRcU_5LCdKnEs?authuser=0&hl=en&rclk=1,"Pathologist, Islamabad"
63,pimshospitalislamaba_33.703334_73.052352,PIMS Hospital Islamabad,"PIMS Hospital Islamabad
3.9(818)
Government hospital ·  · Ibn-e-Sina Rd
Open 24 hours · +92 51 9261170",Government hospital,Open 24 hours,33.7033339,73.0523516,https://www.google.com/maps/place/PIMS+Hospital+Islamabad/data=!4m7!3m6!1s0x38df950787a46b87:0x38d56dc761e05e4f!8m2!3d33.7033339!4d73.0523516!16s%2Fg%2F11r6fwws34!19sChIJh2ukhweV3zgRT17gYcdt1Tg?authuser=0&hl=en&rclk=1,"Pathologist, Islamabad"
64,saminaamanatlaborato_33.696729_73.050697,Samina Amanat Laboratory & Medical Clinic,"Samina Amanat Laboratory & Medical Clinic
4.0(20)
Hematologist · Shop 01, Lower Ground, Time Square Plaza, next to IDC Clinics
Open ⋅ Closes 9 PM · +92 51 6154301",Hematologist,Open,33.6967294,73.0506974,https://www.google.com/maps/place/Samina+Amanat+Laboratory+%26+Medical+Clinic/data=!4m7!3m6!1s0x38df951f6513f3ad:0x1011812cb5fa91d1!8m2!3d33.6967294!4d73.0506974!16s%2Fg%2F12mkw8fzd!19sChIJrfMTZR-V3zgR0ZH6tSyBERA?authuser=0&hl=en&rclk=1,"Pathologist, Islamabad"
65,lifesciencediagnosti_33.697943_73.049093,Life Science Diagnostics & clinic/Dr Muhammad Zubair Clinic - Islamabad,"Life Science Diagnostics & clinic/Dr Muhammad Zubair Clinic - Islamabad
3.3(3)
Laboratory · Shop No, G-12, Ground Floor, Executive Complex
Open ⋅ Closes 9 PM · +92 334 7576553",Laboratory,Open,33.6979432,73.0490934,https://www.google.com/maps/place/Life+Science+Diagnostics+%26+clinic%2FDr+Muhammad+Zubair+Clinic+-+Islamabad/data=!4m7!3m6!1s0x38dfbfda0beeb3e5:0x178aa20851c41b9a!8m2!3d33.6979432!4d73.0490934!16s%2Fg%2F11s2l71j28!19sChIJ5bPuC9q_3zgRmhvEUQiiihc?authuser=0&hl=en&rclk=1,"Pathologist, Islamabad"
66,metropolelaboratorie_33.698144_73.048704,Metropole Laboratories Private Limited,"Metropole Laboratories Private Limited
4.7(294)
Medical laboratory ·  · Cresent Arcade, 20-C
Open ⋅ Closes 12 AM · +92 51 111 988 988",Medical laboratory,Open,33.6981435,73.0487041,https://www.google.com/maps/place/Metropole+Laboratories+Private+Limited/data=!4m7!3m6!1s0x38dfbf0bfab85243:0xd442f36821dbf48a!8m2!3d33.6981435!4d73.0487041!16s%2Fg%2F11fnrz67_5!19sChIJQ1K4-gu_3zgRivTbIWjzQtQ?authuser=0&hl=en&rclk=1,"Pathologist, Islamabad"
67,bolchaalspeechtherap_33.695409_73.050614,Bol Chaal Speech Therapy Behavior Therapy Occupational Therapy Clinical & Home Services,"Bol Chaal Speech Therapy Behavior Therapy Occupational Therapy Clinical & Home Services
5.0(1)
Speech pathologist · Office 12 2nd Floor, Pakland Square
Open 24 hours · +92 370 4189070",Speech pathologist,Open 24 hours,33.6954088,73.0506139,https://www.google.com/maps/place/Bol+Chaal+Speech+Therapy+Behavior+Therapy+Occupational+Therapy+Clinical+%26+Home+Services/data=!4m7!3m6!1s0x38dfbf961ac6c65d:0x53e24e231af35b35!8m2!3d33.6954088!4d73.0506139!16s%2Fg%2F11wc5rtyg9!19sChIJXcbGGpa_3zgRNVvzGiNO4lM?authuser=0&hl=en&rclk=1,"Pathologist, Islamabad"
68,wecarelabsdiagnostic_33.561982_73.134684,We Care Labs & Diagnostic Centre (Pvt) Ltd.,"We Care Labs & Diagnostic Centre (Pvt) Ltd.
5.0(45)
Laboratory ·  · O9 PWD, Shop # 03 Groud Floor Chughtai Arcade, 02
Open ⋅ Closes 10 PM · +92 51 6157437",Laboratory,Open,33.561982,73.1346843,https://www.google.com/maps/place/We+Care+Labs+%26+Diagnostic+Centre+%28Pvt%29+Ltd./data=!4m7!3m6!1s0x38dfedae2bcb8599:0x96ce616f04c2175e!8m2!3d33.561982!4d73.1346843!16s%2Fg%2F11t603_s6j!19sChIJmYXLK67t3zgRXhfCBG9hzpY?authuser=0&hl=en&rclk=1,"Pathologist, Islamabad"
69,bolchaalspeechtherap_33.672123_73.074526,Bol chaal Speech Therapy Behavior Therapy Occupational Therapy Physical Therapy Clinical & home Based Services,"Bol chaal Speech Therapy Behavior Therapy Occupational Therapy Physical Therapy Clinical & home Based Services
5.0(1)
Speech pathologist · Market, Flat No. 2 Plot #2-J Sangam
Open 24 hours",Speech pathologist,Open 24 hours,33.6721231,73.0745259,https://www.google.com/maps/place/Bol+chaal+Speech+Therapy+Behavior+Therapy+Occupational+Therapy+Physical+Therapy+Clinical+%26+home+Based+Services/data=!4m7!3m6!1s0x38df951aa55b4461:0xc5179d6512acfbc6!8m2!3d33.6721231!4d73.0745259!16s%2Fg%2F11w8vbynmt!19sChIJYURbpRqV3zgRxvusEmWdF8U?authuser=0&hl=en&rclk=1,"Pathologist, Islamabad"
70,pimslaboratory_33.703124_73.050112,PIMS Laboratory,"PIMS Laboratory
3.6(66)
Laboratory ·  · P332+62X
+92 319 5183384",Laboratory,,33.7031237,73.0501124,https://www.google.com/maps/place/PIMS+Laboratory/data=!4m7!3m6!1s0x38dfbfb7061e6833:0xe1ab90f6b95fc2c8!8m2!3d33.7031237!4d73.0501124!16s%2Fg%2F11c60bnmv9!19sChIJM2geBre_3zgRyMJfufaQq-E?authuser=0&hl=en&rclk=1,"Pathologist, Islamabad"
71,sochpsychologicalcli_33.560173_73.133577,SOCH Psychological Clinics Bahria Branch,"SOCH Psychological Clinics Bahria Branch
4.9(163)
Mental health clinic ·  · 415D Street 26, near Bahria 1
Open ⋅ Closes 7 PM · +92 343 1433331",Mental health clinic,Open,33.5601729,73.1335767,https://www.google.com/maps/place/SOCH+Psychological+Clinics+Bahria+Branch/data=!4m7!3m6!1s0x38dfedee6ff0f6f9:0x596fc28ace050820!8m2!3d33.5601729!4d73.1335767!16s%2Fg%2F11h6m4n74z!19sChIJ-fbwb-7t3zgRIAgFzorCb1k?authuser=0&hl=en&rclk=1,"Pathologist, Islamabad"
72,rapidhealingmedicals_33.616116_73.086108,Rapid Healing Medical Services-Islamabad Clinic,"Rapid Healing Medical Services-Islamabad Clinic
4.4(14)
Psychologist
Open ⋅ Closes 7 PM · +92 336 1820007",Psychologist,Open,33.6161162,73.086108,https://www.google.com/maps/place/Rapid+Healing+Medical+Services-Islamabad+Clinic/data=!4m7!3m6!1s0x38dfbfe77b6af223:0xabddc83fde9e436f!8m2!3d33.6161162!4d73.086108!16s%2Fg%2F11jr6hpnh6!19sChIJI_Jqe-e_3zgRb0Oe3j_I3as?authuser=0&hl=en&rclk=1,"Pathologist, Islamabad"
73,homenursingpatientsc_33.716945_73.064870,Home Nursing Patients Care Services Islamabad & Rawalpindi,"Home Nursing Patients Care Services Islamabad & Rawalpindi
5.0(11)
Nursing home · H8/1
Open 24 hours · +92 305 7882422",Nursing home,Open 24 hours,33.716945,73.0648701,https://www.google.com/maps/place/Home+Nursing+Patients+Care+Services+Islamabad+%26+Rawalpindi/data=!4m7!3m6!1s0x861d40cda8af5049:0x6e54048f7f6208d6!8m2!3d33.716945!4d73.0648701!16s%2Fg%2F11w3rbgg31!19sChIJSVCvqM1AHYYR1ghif48EVG4?authuser=0&hl=en&rclk=1,"Pathologist, Islamabad"
74,sparktherapyservices_33.697618_72.969010,SPARK therapy Services,"SPARK therapy Services
5.0(11)
Speech pathologist · 226 Street 91
+92 327 5544111",Speech pathologist,,33.6976176,72.9690096,https://www.google.com/maps/place/SPARK+therapy+Services/data=!4m7!3m6!1s0x38dfbd0069172b0f:0x5123ff963fc45164!8m2!3d33.6976176!4d72.9690096!16s%2Fg%2F11lyxhnd9t!19sChIJDysXaQC93zgRZFHEP5b_I1E?authuser=0&hl=en&rclk=1,"Pathologist, Islamabad"
75,idclabdiagnosticcent_33.644012_73.031559,IDC Lab & Diagnostic Center I-10,"IDC Lab & Diagnostic Center I-10
4.8(174)
Laboratory ·  · Ground Floor, Sahi Plaza
Open ⋅ Closes 10 PM",Laboratory,Open,33.6440122,73.0315589,https://www.google.com/maps/place/IDC+Lab+%26+Diagnostic+Center+I-10/data=!4m7!3m6!1s0x38df95b1a03e97d7:0x3f92b6f74c1591cf!8m2!3d33.6440122!4d73.0315589!16s%2Fg%2F11pkbmbr09!19sChIJ15c-oLGV3zgRz5EVTPe2kj8?authuser=0&hl=en&rclk=1,"Pathologist, Islamabad"
76,afsamedical_33.665154_73.154607,Afsa medical,"Afsa medical
5.0(1)
Medical laboratory · M583+3R9, Inside Afsa medical center, Main
Open ⋅ Closes 10 PM · +92 331 9880502",Medical laboratory,Open,33.6651543,73.1546069,https://www.google.com/maps/place/Afsa+medical/data=!4m7!3m6!1s0x38dfeb0d5583e081:0x2f1a0d8666ef139a!8m2!3d33.6651543!4d73.1546069!16s%2Fg%2F11p76tf7fv!19sChIJgeCDVQ3r3zgRmhPvZoYNGi8?authuser=0&hl=en&rclk=1,"Pathologist, Islamabad"
77,faizaqazispeechbehav_33.528967_73.135848,Faiza Qazi (Speech & Behavior Therapist),"Faiza Qazi (Speech & Behavior Therapist)
5.0(10)
Speech pathologist · Dento villa Esthetic and Medical Center, Main G.T Road, Beside Gate 1 Sector, 2 A
Closed ⋅ Opens 3:30 PM · +92 336 9625556",Speech pathologist,Closed,33.528967,73.135848,https://www.google.com/maps/place/Faiza+Qazi+%28Speech+%26+Behavior+Therapist%29/data=!4m7!3m6!1s0x40df589ad86e2339:0x70b537eaeb403410!8m2!3d33.528967!4d73.135848!16s%2Fg%2F11tmjg6vgs!19sChIJOSNu2JpY30AREDRA6-o3tXA?authuser=0&hl=en&rclk=1,"Pathologist, Islamabad"
78,idclabdiagnosticcent_33.565463_73.176647,IDC Lab & Diagnostic Center Jinnah Garden,"IDC Lab & Diagnostic Center Jinnah Garden
4.9(308)
Medical laboratory ·  · Lower Ground, Plot No 15 Meezan Bank, Main Gate, Near Main Naval Anchorage Rd
Open ⋅ Closes 10 PM · +92 311 1000432",Medical laboratory,Open,33.5654629,73.1766467,https://www.google.com/maps/place/IDC+Lab+%26+Diagnostic+Center+Jinnah+Garden/data=!4m7!3m6!1s0x38dfed9410b2f8d9:0xb03c206a28b2efdb!8m2!3d33.5654629!4d73.1766467!16s%2Fg%2F11khzvw47n!19sChIJ2fiyEJTt3zgR2--yKGogPLA?authuser=0&hl=en&rclk=1,"Pathologist, Islamabad"
79,idclabdiagnosticcent_33.697644_73.049306,IDC Lab & Diagnostic Center MaxHealth,"IDC Lab & Diagnostic Center MaxHealth
4.8(133)
Medical laboratory ·  · 12-K Markaz Rd
Open 24 hours · +92 311 1000432",Medical laboratory,Open 24 hours,33.6976438,73.0493056,https://www.google.com/maps/place/IDC+Lab+%26+Diagnostic+Center+MaxHealth/data=!4m7!3m6!1s0x38dfbf79cc51111b:0xacf152f6e76c6cd8!8m2!3d33.6976438!4d73.0493056!16s%2Fg%2F11svfd_vzb!19sChIJGxFRzHm_3zgR2Gxs5_ZS8aw?authuser=0&hl=en&rclk=1,"Pathologist, Islamabad"
80,idclabdiagnosticcent_33.711293_73.041761,IDC Lab & Diagnostic Center F-8,"IDC Lab & Diagnostic Center F-8
4.9(2,506)
Medical laboratory ·  · 13a Kohistan Rd
Open 24 hours · +92 311 1000432",Medical laboratory,Open 24 hours,33.7112927,73.0417614,https://www.google.com/maps/place/IDC+Lab+%26+Diagnostic+Center+F-8/data=!4m7!3m6!1s0x38dfbf4ca205db57:0xfe2bb7c648b8bd95!8m2!3d33.7112927!4d73.0417614!16s%2Fg%2F11rmxk4zyr!19sChIJV9sFoky_3zgRlb24SMa3K_4?authuser=0&hl=en&rclk=1,"Pathologist, Islamabad"
81,wellbeingcenterbydrn_33.691289_73.040552,Well Being Center by Dr Naila Rizwan | Speech Therapist | Inclusive Education,"Well Being Center by Dr Naila Rizwan | Speech Therapist | Inclusive Education
5.0(8)
Speech pathologist · House no, 28 Neelam Rd
Open ⋅ Closes 4:30 PM · +92 304 0199777",Speech pathologist,Open,33.6912889,73.0405518,https://www.google.com/maps/place/Well+Being+Center+by+Dr+Naila+Rizwan+%7C+Speech+Therapist+%7C+Inclusive+Education/data=!4m7!3m6!1s0x38dfbfe628f94de3:0x906d899e1f526d05!8m2!3d33.6912889!4d73.0405518!16s%2Fg%2F11w8s9r7s6!19sChIJ4035KOa_3zgRBW1SH56JbZA?authuser=0&hl=en&rclk=1,"Pathologist, Islamabad"
82,mhsspeechtherapybeha_33.672891_72.996735,MHS Speech Therapy Behavior Therapy Occupational Therapy Center & Home Services,"MHS Speech Therapy Behavior Therapy Occupational Therapy Center & Home Services
5.0(4)
Speech pathologist · Flat-1 block 13 PHA C TYPE
Open ⋅ Closes 9 PM",Speech pathologist,Open,33.6728913,72.9967351,https://www.google.com/maps/place/MHS+Speech+Therapy+Behavior+Therapy+Occupational+Therapy+Center+%26+Home+Services/data=!4m7!3m6!1s0x38dfbf8a593c2e83:0x8987f673d9620745!8m2!3d33.6728913!4d72.9967351!16s%2Fg%2F11w8tmfkmw!19sChIJgy48WYq_3zgRRQdi2XP2h4k?authuser=0&hl=en&rclk=1,"Pathologist, Islamabad"
83,idclabdiagnosticcent_33.565833_73.130548,IDC lab & Diagnostic Center PWD,"IDC lab & Diagnostic Center PWD
4.9(1,520)
Medical laboratory ·  · Plot no, 343 Main PWD Rd, opposite doctor's colony gate
Open 24 hours · +92 311 1000432",Medical laboratory,Open 24 hours,33.5658334,73.1305478,https://www.google.com/maps/place/IDC+lab+%26+Diagnostic+Center+PWD/data=!4m7!3m6!1s0x38dfed0408243e37:0x5557acdea2ca9a18!8m2!3d33.5658334!4d73.1305478!16s%2Fg%2F11sjcc_fqw!19sChIJNz4kCATt3zgRGJrKot6sV1U?authuser=0&hl=en&rclk=1,"Pathologist, Islamabad"
84,idclabdiagnosticcent_33.688948_73.211157,IDC lab & Diagnostic Center Bahria Enclave,"IDC lab & Diagnostic Center Bahria Enclave
4.9(369)
Medical laboratory · Ground Floor, Commercial Ave
Open ⋅ Closes 10 PM · +92 311 1000432",Medical laboratory,Open,33.6889482,73.2111575,https://www.google.com/maps/place/IDC+lab+%26+Diagnostic+Center+Bahria+Enclave/data=!4m7!3m6!1s0x38dfe9207c9dc515:0x6b04aa2def012531!8m2!3d33.6889482!4d73.2111575!16s%2Fg%2F11qsz_kfkp!19sChIJFcWdfCDp3zgRMSUB7y2qBGs?authuser=0&hl=en&rclk=1,"Pathologist, Islamabad"
85,sochclinicsislamabad_33.696830_73.051393,SOCH Clinics Islamabad Branch,"SOCH Clinics Islamabad Branch
4.8(283)
Psychologist ·  · Clinic #2 Pakland Square
Open ⋅ Closes 9 PM · +92 343 1433331",Psychologist,Open,33.69683,73.0513934,https://www.google.com/maps/place/SOCH+Clinics+Islamabad+Branch/data=!4m7!3m6!1s0x38dfecffddb2c569:0x1aeb15c96e355700!8m2!3d33.69683!4d73.0513934!16s%2Fg%2F11f_0wnkrh!19sChIJacWy3f_s3zgRAFc1bskV6xo?authuser=0&hl=en&rclk=1,"Pathologist, Islamabad"
86,paniorpathologylab_33.645310_73.174348,Panior Pathology Lab,"Panior Pathology Lab
No reviews
Doctor · J5WF+4PH, Haji Iqbal Market, Lehtrar Rd, Madina Town, Alipur
+92 51 2243611",Doctor,,33.6453096,73.1743483,https://www.google.com/maps/place/Panior+Pathology+Lab/data=!4m7!3m6!1s0x38dfebd113f11421:0x9d8d0cc398f86138!8m2!3d33.6453096!4d73.1743483!16s%2Fg%2F12mkz5r9x!19sChIJIRTxE9Hr3zgROGH4mMMMjZ0?authuser=0&hl=en&rclk=1,"Pathologist, Islamabad"
87,agakhanuniversityhos_33.711976_73.062104,Aga Khan University Hospital Laboratory Specimen Collection Unit,"Aga Khan University Hospital Laboratory Specimen Collection Unit
4.0(16)
Diagnostic center · SHOP NO. 7, Rata Mansion, AKM Fazl-ul-Haq Rd
Open ⋅ Closes 9:30 PM · +92 51 2348481",Diagnostic center,Open,33.711976,73.0621038,https://www.google.com/maps/place/Aga+Khan+University+Hospital+Laboratory+Specimen+Collection+Unit/data=!4m7!3m6!1s0x38dfbfbd3aa2c561:0xdbf8294b084027a8!8m2!3d33.711976!4d73.0621038!16s%2Fg%2F11xk1wmzp!19sChIJYcWiOr2_3zgRqCdACEsp-Ns?authuser=0&hl=en&rclk=1,"Pathologist, Islamabad"
88,idclabdiagnosticcent_33.668781_72.996570,IDC Lab & Diagnostic Center G-11,"IDC Lab & Diagnostic Center G-11
4.9(396)
Medical laboratory · Shop no B-1, Basement, Soneri Bank, Markaz
Open ⋅ Closes 10 PM · +92 311 1000432",Medical laboratory,Open,33.6687807,72.9965699,https://www.google.com/maps/place/IDC+Lab+%26+Diagnostic+Center+G-11/data=!4m7!3m6!1s0x38df9546f7fb65cd:0xf48c36d535bc08!8m2!3d33.6687807!4d72.9965699!16s%2Fg%2F11txnyp6v6!19sChIJzWX790aV3zgRCLw11TaM9AA?authuser=0&hl=en&rclk=1,"Pathologist, Islamabad"
89,idclabdiagnosticcent_33.696806_73.051375,IDC lab & Diagnostic Center G8 Markaz,"IDC lab & Diagnostic Center G8 Markaz
4.9(1,597)
Medical laboratory ·  · First Floor, Pakland Sq, Office #8
Open 24 hours · +92 311 1000432",Medical laboratory,Open 24 hours,33.696806,73.0513753,https://www.google.com/maps/place/IDC+lab+%26+Diagnostic+Center+G8+Markaz/data=!4m7!3m6!1s0x38dfbf9d273f1419:0x8eb922191fc89f3f!8m2!3d33.696806!4d73.0513753!16s%2Fg%2F11st77fvcq!19sChIJGRQ_J52_3zgRP5_IHxkiuY4?authuser=0&hl=en&rclk=1,"Pathologist, Islamabad"
90,citilabresearchcentr_33.720296_73.077954,Citilab & Research Centre (CRC) Islamabad,"Citilab & Research Centre (CRC) Islamabad
5.0(14)
Medical laboratory ·  · Shop #5, SNC Centre, AKM Fazl-ul-Haq Rd
Open ⋅ Closes 10 PM · +92 51 2120922",Medical laboratory,Open,33.7202956,73.077954,https://www.google.com/maps/place/Citilab+%26+Research+Centre+%28CRC%29+Islamabad/data=!4m7!3m6!1s0x38dfbff4061c5d55:0xe5cde00be5375b50!8m2!3d33.7202956!4d73.077954!16s%2Fg%2F11mx5w19kv!19sChIJVV0cBvS_3zgRUFs35QvgzeU?authuser=0&hl=en&rclk=1,"Pathologist, Islamabad"
91,islamabaddiagnosticc_33.579255_73.148595,Islamabad Diagnostic Centre Pakistan town branch,"Islamabad Diagnostic Centre Pakistan town branch
4.9(277)
Medical laboratory ·  · Ground Floor, Al Qadir Heights, Plots F1 & F2, Main
Open ⋅ Closes 10 PM · +92 311 1000432",Medical laboratory,Open,33.5792554,73.1485947,https://www.google.com/maps/place/Islamabad+Diagnostic+Centre+Pakistan+town+branch/data=!4m7!3m6!1s0x38dfed50f649dcf1:0xd1b5b880cb9ca5c5!8m2!3d33.5792554!4d73.1485947!16s%2Fg%2F11kb9byqy7!19sChIJ8dxJ9lDt3zgRxaWcy4C4tdE?authuser=0&hl=en&rclk=1,"Pathologist, Islamabad"
92,nayablabsdiagnosticc_33.667301_72.997497,Nayab Labs & Diagnostic Centre - G-11 Markaz Branch,"Nayab Labs & Diagnostic Centre - G-11 Markaz Branch
4.9(405)
Medical laboratory · 28-Capital Shopping Centre, Opposite Bank of Punjab
Open 24 hours · +92 51 2361137",Medical laboratory,Open 24 hours,33.6673011,72.9974975,https://www.google.com/maps/place/Nayab+Labs+%26+Diagnostic+Centre+-+G-11+Markaz+Branch/data=!4m7!3m6!1s0x38df959cda42cd87:0x10e0869a11e20884!8m2!3d33.6673011!4d72.9974975!16s%2Fg%2F11h3c750_q!19sChIJh81C2pyV3zgRhAjiEZqG4BA?authuser=0&hl=en&rclk=1,"Pathologist, Islamabad"
93,mhsphysicaltherapysp_33.529994_73.138449,MHS Physicaltherapy Speech Therapy Behavior Therapy Occupational Therapy Clinic,"MHS Physicaltherapy Speech Therapy Behavior Therapy Occupational Therapy Clinic
5.0(1)
Speech pathologist · Plot 5, Sector A DHA Phase II, Islamabad
Open ⋅ Closes 8 PM · +92 311 0979070",Speech pathologist,Open,33.5299938,73.1384489,https://www.google.com/maps/place/MHS+Physicaltherapy+Speech+Therapy+Behavior+Therapy+Occupational+Therapy+Clinic/data=!4m7!3m6!1s0x38dfbf4637b88a03:0xf928530939400171!8m2!3d33.5299938!4d73.1384489!16s%2Fg%2F11jnsv_1dl!19sChIJA4q4N0a_3zgRcQFAOQlTKPk?authuser=0&hl=en&rclk=1,"Pathologist, Islamabad"
94,idclabdiagnosticcent_33.567687_73.154687,IDC Lab & Diagnostic Center Soan Garden Branch,"IDC Lab & Diagnostic Center Soan Garden Branch
4.9(528)
Medical laboratory · Paris Business centre
Open ⋅ Closes 10 PM · +92 311 1000432",Medical laboratory,Open,33.5676875,73.1546875,https://www.google.com/maps/place/IDC+Lab+%26+Diagnostic+Center+Soan+Garden+Branch/data=!4m7!3m6!1s0x38dfed777cf9513b:0x744d019b1864ff!8m2!3d33.5676875!4d73.1546875!16s%2Fg%2F11lry9k222!19sChIJO1H5fHft3zgR_2QYmwFNdAA?authuser=0&hl=en&rclk=1,"Pathologist, Islamabad"
95,drziapainbrainphysio_33.564566_73.126466,Dr.Zia Pain & Brain Physiotherapy Center,"Dr.Zia Pain & Brain Physiotherapy Center
4.5(8)
Speech pathologist ·  · Dr Z Pain & Brain Physiotherapy, Main PWD Rd, near Media town
Open ⋅ Closes 10 PM · +92 330 4343123",Speech pathologist,Open,33.5645657,73.1264659,https://www.google.com/maps/place/Dr.Zia+Pain+%26+Brain+Physiotherapy+Center/data=!4m7!3m6!1s0x38dfed80229cee45:0xd0b42f07940b5756!8m2!3d33.5645657!4d73.1264659!16s%2Fg%2F11rrqg4wvb!19sChIJRe6cIoDt3zgRVlcLlAcvtNA?authuser=0&hl=en&rclk=1,"Pathologist, Islamabad"
96,naqaishmedicare_33.666657_73.076139,Naqaish Medicare,"Naqaish Medicare
4.6(170)
Hospital ·  · Pakland Business Center
Open 24 hours · +92 304 2252555",Hospital,Open 24 hours,33.6666574,73.0761395,https://www.google.com/maps/place/Naqaish+Medicare/data=!4m7!3m6!1s0x38df9566e99b3abd:0xb0ad90d97b709256!8m2!3d33.6666574!4d73.0761395!16s%2Fg%2F11fq88qchw!19sChIJvTqb6WaV3zgRVpJwe9mQrbA?authuser=0&hl=en&rclk=1,"Pathologist, Islamabad"
97,drziapainbrainphysio_33.688781_72.992211,Dr.Zia Pain & Brain Physiotherapy Center,"Dr.Zia Pain & Brain Physiotherapy Center
4.8(64)
Physical therapist ·  · Raja Market, Street 48
Open ⋅ Closes 9 PM · +92 330 4343123",Physical therapist,Open,33.6887813,72.9922114,https://www.google.com/maps/place/Dr.Zia+Pain+%26+Brain+Physiotherapy+Center/data=!4m7!3m6!1s0x38dfbf2e7b67bf43:0xc95eeb43e39af46f!8m2!3d33.6887813!4d72.9922114!16s%2Fg%2F11gk6b0t5f!19sChIJQ79ney6_3zgRb_Sa40PrXsk?authuser=0&hl=en&rclk=1,"Pathologist, Islamabad"
98,rhsrehabilitationcen_33.666623_73.076278,RHS Rehabilitation Center,"RHS Rehabilitation Center
5.0(23)
Physical therapy clinic · Shop no 18, Lower Ground, Pakland, Business Center, Markaz
Open ⋅ Closes 9 PM · +92 51 4800568",Physical therapy clinic,Open,33.6666225,73.0762777,https://www.google.com/maps/place/RHS+Rehabilitation+Center/data=!4m7!3m6!1s0x38df95a3622c5709:0xe3179a5dfe626fbc!8m2!3d33.6666225!4d73.0762777!16s%2Fg%2F11tfypvdl5!19sChIJCVcsYqOV3zgRvG9i_l2aF-M?authuser=0&hl=en&rclk=1,"Pathologist, Islamabad"
99,islamabaddiagnosticc_33.711251_73.041795,Islamabad Diagnostic Center F8 Head Office (IDC),"Islamabad Diagnostic Center F8 Head Office (IDC)
4.7(434)
Medical laboratory ·  · P26R+9GV, 13a Kohistan Rd
Open 24 hours · +92 311 1000432",Medical laboratory,Open 24 hours,33.7112508,73.0417954,https://www.google.com/maps/place/Islamabad+Diagnostic+Center+F8+Head+Office+%28IDC%29/data=!4m7!3m6!1s0x38dfbf15b51b9f9d:0x7c75fe9748b21907!8m2!3d33.7112508!4d73.0417954!16s%2Fg%2F11tr_1lx_8!19sChIJnZ8btRW_3zgRBxmySJf-dXw?authuser=0&hl=en&rclk=1,"Pathologist, Islamabad"
100,idclabdiagnosticcent_33.708643_73.055672,IDC lab & Diagnostic Center blue area - Khyber plaza,"IDC lab & Diagnostic Center blue area - Khyber plaza
5.0(308)
Medical laboratory · shop no 4, Khyber plaza
Open ⋅ Closes 10 PM · +92 311 1000432",Medical laboratory,Open,33.7086427,73.0556717,https://www.google.com/maps/place/IDC+lab+%26+Diagnostic+Center+blue+area+-+Khyber+plaza/data=!4m7!3m6!1s0x38dfe97d8f49fedd:0xc1dc7594415c04d5!8m2!3d33.7086427!4d73.0556717!16s%2Fg%2F11kb0wm99c!19sChIJ3f5Jj33p3zgR1QRcQZR13ME?authuser=0&hl=en&rclk=1,"Pathologist, Islamabad"
101,excellabsblueareaisl_33.710499_73.058856,Excel Labs - Blue Area - Islamabad,"Excel Labs - Blue Area - Islamabad
3.7(147)
Medical laboratory ·  · Ground Floor, Excel Labs Diagnostic Center, Reshi Plaza, 110 AKM Fazl-ul-Haq Rd
Open 24 hours · +92 51 8844000",Medical laboratory,Open 24 hours,33.7104987,73.0588559,https://www.google.com/maps/place/Excel+Labs+-+Blue+Area+-+Islamabad/data=!4m7!3m6!1s0x38dfbfbc99df9833:0x69cb5ada360f53db!8m2!3d33.7104987!4d73.0588559!16s%2Fg%2F1tgcwfh5!19sChIJM5jfmby_3zgR21MPNtpay2k?authuser=0&hl=en&rclk=1,"Pathologist, Islamabad"
102,sachetdiagnosticcent_33.555935_73.173406,SACHET Diagnostic Center,"SACHET Diagnostic Center
5.0(5)
Medical laboratory · Japan Road, Gagri
Open ⋅ Closes 8 PM · +92 334 6121110",Medical laboratory,Open,33.5559347,73.1734055,https://www.google.com/maps/place/SACHET+Diagnostic+Center/data=!4m7!3m6!1s0x38dfedbdcf42bc2b:0x84631d7d775e5fb!8m2!3d33.5559347!4d73.1734055!16s%2Fg%2F11t4b4_b6s!19sChIJK7xCz73t3zgR--V119cxRgg?authuser=0&hl=en&rclk=1,"Pathologist, Islamabad"
103,pafhospitalislamabad_33.708229_73.015313,PAF Hospital Islamabad,"PAF Hospital Islamabad
3.7(690)
Doctor ·  · Main Margalla Rd
Open 24 hours · +92 51 9564000",Doctor,Open 24 hours,33.708229,73.015313,https://www.google.com/maps/place/PAF+Hospital+Islamabad/data=!4m7!3m6!1s0x38dfbf22bfada2c1:0xa4d9acbf9789555b!8m2!3d33.708229!4d73.015313!16s%2Fg%2F11gmgd5zhy!19sChIJwaKtvyK_3zgRW1WJl7-s2aQ?authuser=0&hl=en&rclk=1,"Pathologist, Islamabad"
104,speechtherapyclinicb_33.617679_73.121360,"Speech Therapy Clinic by Naila Rizwan ( speech therapist, Speech therapy &Behavior therapist in rawalpindi )","Speech Therapy Clinic by Naila Rizwan ( speech therapist, Speech therapy &Behavior therapist in rawalpindi )
4.4(27)
Speech pathologist · Mid City Apartments, Ferozuddin Khokhar Rd, near Quaid E Azam Monument
Open ⋅ Closes 6 PM · +92 321 9545195",Speech pathologist,Open,33.6176788,73.1213605,"https://www.google.com/maps/place/Speech+Therapy+Clinic+by+Naila+Rizwan+%28+speech+therapist,+Speech+therapy+%26Behavior+therapist+in+rawalpindi+%29/data=!4m7!3m6!1s0x38dfebc2c9850fbf:0xd8f0ae858b4f10c6!8m2!3d33.6176788!4d73.1213605!16s%2Fg%2F11gxgd10fn!19sChIJvw-FycLr3zgRxhBPi4Wu8Ng?authuser=0&hl=en&rclk=1","Pathologist, Islamabad"
105,chughtailabf11markaz_33.683054_72.988672,"Chughtai Lab, F-11 Markaz, Islamabad","Chughtai Lab, F-11 Markaz, Islamabad
5.0(53)
Medical laboratory · SHOP 6 GROUND FLOOR, LORD TRADE CENTER, MARKAZ
Open ⋅ Closes 10 PM · +92 346 7172824",Medical laboratory,Open,33.6830542,72.9886717,"https://www.google.com/maps/place/Chughtai+Lab,+F-11+Markaz,+Islamabad/data=!4m7!3m6!1s0x38dfbd70a53a0a85:0xe16fad8ce8edb696!8m2!3d33.6830542!4d72.9886717!16s%2Fg%2F11rfp3f1l3!19sChIJhQo6pXC93zgRlrbt6Iytb-E?authuser=0&hl=en&rclk=1","Pathologist, Islamabad"
106,idclabdiagnosticcent_33.716274_73.084749,IDC lab & Diagnostic Center G6,"IDC lab & Diagnostic Center G6
4.9(133)
Medical laboratory · Melody Market
Open 24 hours · +92 311 1000432",Medical laboratory,Open 24 hours,33.7162742,73.0847493,https://www.google.com/maps/place/IDC+lab+%26+Diagnostic+Center+G6/data=!4m7!3m6!1s0x38dfbfd9d4aa4197:0x20b8fa45b82b3c84!8m2!3d33.7162742!4d73.0847493!16s%2Fg%2F11tt240qq4!19sChIJl0Gq1Nm_3zgRhDwruEX6uCA?authuser=0&hl=en&rclk=1,"Pathologist, Islamabad"
107,capitaldiagnosticcen_33.695118_73.051230,Capital Diagnostic Centre,"Capital Diagnostic Centre
3.4(115)
Diagnostic center ·  · Media Foundation Plaza
Open ⋅ Closes 12 AM · +92 51 8354601",Diagnostic center,Open,33.6951178,73.0512304,https://www.google.com/maps/place/Capital+Diagnostic+Centre/data=!4m7!3m6!1s0x38dfbfc8b68dcc6d:0x968ab590990cf04d!8m2!3d33.6951178!4d73.0512304!16s%2Fg%2F1q6jzg4kr!19sChIJbcyNtsi_3zgRTfAMmZC1ipY?authuser=0&hl=en&rclk=1,"Pathologist, Islamabad"
108,advanceddiagnosticce_33.698044_73.050535,Advanced Diagnostic Centre,"Advanced Diagnostic Centre
4.3(186)
Laboratory ·  · General Apartments D-12, near PSO Pump،
Open 24 hours · +92 51 8446888",Laboratory,Open 24 hours,33.6980443,73.0505348,https://www.google.com/maps/place/Advanced+Diagnostic+Centre/data=!4m7!3m6!1s0x38dfbfc85cbd1639:0x9b7b0ded00fe1617!8m2!3d33.6980443!4d73.0505348!16s%2Fg%2F1tj8_xw3!19sChIJORa9XMi_3zgRFxb-AO0Ne5s?authuser=0&hl=en&rclk=1,"Pathologist, Islamabad"
109,idclabdiagnosticcent_33.657160_73.056726,IDC lab & Diagnostic Center I-9,"IDC lab & Diagnostic Center I-9
4.9(340)
Medical laboratory ·  · Ground Floor, near Allied Bank, opposite Suzuki Motors
Open ⋅ Closes 10 PM · +92 311 1000432",Medical laboratory,Open,33.6571597,73.0567257,https://www.google.com/maps/place/IDC+lab+%26+Diagnostic+Center+I-9/data=!4m7!3m6!1s0x38df95a92be4dd03:0x4b66d98bc625c189!8m2!3d33.6571597!4d73.0567257!16s%2Fg%2F11kb9w_st1!19sChIJA93kK6mV3zgRicElxovZZks?authuser=0&hl=en&rclk=1,"Pathologist, Islamabad"
110,idclabdiagnosticcent_33.532576_73.130263,IDC Lab & Diagnostic Centre DHA Phase 2 ISB,"IDC Lab & Diagnostic Centre DHA Phase 2 ISB
4.9(272)
Medical laboratory ·  · ground floor, Ansab tower plaza no 7, near gate no 1
Open ⋅ Closes 10 PM · +92 311 1000432",Medical laboratory,Open,33.5325759,73.130263,https://www.google.com/maps/place/IDC+Lab+%26+Diagnostic+Centre+DHA+Phase+2+ISB/data=!4m7!3m6!1s0x38dfed2d8e3ccc15:0xdcfd4ed213722fe5!8m2!3d33.5325759!4d73.130263!16s%2Fg%2F11txf5b_z3!19sChIJFcw8ji3t3zgR5S9yE9JO_dw?authuser=0&hl=en&rclk=1,"Pathologist, Islamabad"
111,idclabdiagnosticcent_33.669187_73.074313,IDC Lab & Diagnostic Center I-8,"IDC Lab & Diagnostic Center I-8
4.9(395)
Medical laboratory · 
Open ⋅ Closes 10 PM · +92 311 1000432",Medical laboratory,Open,33.6691875,73.0743125,https://www.google.com/maps/place/IDC+Lab+%26+Diagnostic+Center+I-8/data=!4m7!3m6!1s0x38df9545149d8653:0x2686018f28c44d0c!8m2!3d33.6691875!4d73.0743125!16s%2Fg%2F11bzrkg_12!19sChIJU4adFEWV3zgRDE3EKI8BhiY?authuser=0&hl=en&rclk=1,"Pathologist, Islamabad"
112,idclabdiagnosticcent_33.697872_72.970643,IDC lab & Diagnostic Center E11,"IDC lab & Diagnostic Center E11
4.9(240)
Medical laboratory ·  · Federation Plaza
Open ⋅ Closes 10 PM · +92 311 1000432",Medical laboratory,Open,33.6978721,72.970643,https://www.google.com/maps/place/IDC+lab+%26+Diagnostic+Center+E11/data=!4m7!3m6!1s0x38dfbdba35cafcb7:0x2184c5b0aab0fb65!8m2!3d33.6978721!4d72.970643!16s%2Fg%2F11sj61hyq6!19sChIJt_zKNbq93zgRZfuwqrDFhCE?authuser=0&hl=en&rclk=1,"Pathologist, Islamabad"
113,idclabdiagnosticcent_33.645734_72.964020,IDC lab & Diagnostic Center G13,"IDC lab & Diagnostic Center G13
4.9(492)
Medical laboratory ·  · Plot 3-B, Zam Zam Arcade
Open ⋅ Closes 9:30 PM · +92 311 1000432",Medical laboratory,Open,33.6457343,72.9640197,https://www.google.com/maps/place/IDC+lab+%26+Diagnostic+Center+G13/data=!4m7!3m6!1s0x38dfedc6cb1322c9:0xf482487c1c130ae9!8m2!3d33.6457343!4d72.9640197!16s%2Fg%2F11tsn2kl5t!19sChIJySITy8bt3zgR6QoTHHxIgvQ?authuser=0&hl=en&rclk=1,"Pathologist, Islamabad"
114,tuitioncenter_33.608177_72.975265,Tuition Center,"Tuition Center
5.0(2)
Speech pathologist · H 759, 4 Street 63",Speech pathologist,,33.6081773,72.9752654,https://www.google.com/maps/place/Tuition+Center/data=!4m7!3m6!1s0x38df970062b01e23:0xfdb8cf55b1feee8e!8m2!3d33.6081773!4d72.9752654!16s%2Fg%2F11l_8bqstm!19sChIJIx6wYgCX3zgRju7-sVXPuP0?authuser=0&hl=en&rclk=1,"Pathologist, Islamabad"
115,physioheedphysiother_33.559532_73.087983,Physioheed Physiotherapy Home Services in Rawalpindi/Islamabad,"Physioheed Physiotherapy Home Services in Rawalpindi/Islamabad
5.0(43)
Medical laboratory · 1, Hill Park, GT RD W, Morgan
Open 24 hours · +92 336 7656526",Medical laboratory,Open 24 hours,33.5595318,73.0879827,https://www.google.com/maps/place/Physioheed+Physiotherapy+Home+Services+in+Rawalpindi%2FIslamabad/data=!4m7!3m6!1s0x38dfedd6963996cd:0xb78c44a3ae356341!8m2!3d33.5595318!4d73.0879827!16s%2Fg%2F11hzcgz_vm!19sChIJzZY5ltbt3zgRQWM1rqNEjLc?authuser=0&hl=en&rclk=1,"Pathologist, Islamabad"
116,idclabdiagnosticcent_33.726093_73.121884,IDC lab & Diagnostic Center G-5 (Diplomatic Enclave),"IDC lab & Diagnostic Center G-5 (Diplomatic Enclave)
5.0(87)
Medical laboratory · near Sukhi Sushi Restaurant, opposite to Karakorum Apartments
Open ⋅ Closes 10 PM · +92 311 1000432",Medical laboratory,Open,33.7260933,73.1218839,https://www.google.com/maps/place/IDC+lab+%26+Diagnostic+Center+G-5+%28Diplomatic+Enclave%29/data=!4m7!3m6!1s0x38dfc171ef74d417:0xd33b54d373b13fad!8m2!3d33.7260933!4d73.1218839!16s%2Fg%2F11sjvs4h3b!19sChIJF9R073HB3zgRrT-xc9NUO9M?authuser=0&hl=en&rclk=1,"Pathologist, Islamabad"
117,agakhanuniversityhos_33.668754_73.074937,Aga Khan University Hospital Laboratory Specimen Collection Unit,"Aga Khan University Hospital Laboratory Specimen Collection Unit
4.5(4)
Diagnostic center · Huzaifa Center, Double Road, I-8 Markaz
Open ⋅ Closes 9:30 PM · +92 51 4862290",Diagnostic center,Open,33.6687542,73.0749372,https://www.google.com/maps/place/Aga+Khan+University+Hospital+Laboratory+Specimen+Collection+Unit/data=!4m7!3m6!1s0x38df954576d84df1:0x81c16daa08fb3711!8m2!3d33.6687542!4d73.0749372!16s%2Fg%2F11cn9tzk5j!19sChIJ8U3YdkWV3zgRETf7CKptwYE?authuser=0&hl=en&rclk=1,"Pathologist, Islamabad"
118,idclabdiagnosticcent_33.658692_72.856595,IDC lab & Diagnostic Center D17,"IDC lab & Diagnostic Center D17
4.9(283)
Medical laboratory ·  · Ground Floor, Classic Centre, D-17
Open ⋅ Closes 10 PM · +92 311 1000432",Medical laboratory,Open,33.6586915,72.8565946,https://www.google.com/maps/place/IDC+lab+%26+Diagnostic+Center+D17/data=!4m7!3m6!1s0x38dfbf12a16670a9:0xbca50c3474dd724f!8m2!3d33.6586915!4d72.8565946!16s%2Fg%2F11sjfw7kll!19sChIJqXBmoRK_3zgRT3LddDQMpbw?authuser=0&hl=en&rclk=1,"Pathologist, Islamabad"
119,drnasirkhansrsspeech_33.666600_73.076000,Dr Nasir Khan SRS Speech Rehabilitation Services,"Dr Nasir Khan SRS Speech Rehabilitation Services
No reviews
Speech pathologist · M38G+J9
+92 335 5920232",Speech pathologist,,33.6665996,73.0759998,https://www.google.com/maps/place/Dr+Nasir+Khan+SRS+Speech+Rehabilitation+Services/data=!4m7!3m6!1s0x38df9500772b9d09:0x6bf11670e9d6911e!8m2!3d33.6665996!4d73.0759998!16s%2Fg%2F11m5g4pv9g!19sChIJCZ0rdwCV3zgRHpHW6XAW8Ws?authuser=0&hl=en&rclk=1,"Pathologist, Islamabad"
120,idclabdiagnosticcent_33.627571_73.111677,IDC Lab & Diagnostic Centre Khanna Interchange,"IDC Lab & Diagnostic Centre Khanna Interchange
4.9(312)
Medical laboratory · interchange, Ground Floor, Margala plaza, Dr. Qadeer Road, Islamabad Expy
Open ⋅ Closes 10 PM · +92 311 1000432",Medical laboratory,Open,33.627571,73.1116768,https://www.google.com/maps/place/IDC+Lab+%26+Diagnostic+Centre+Khanna+Interchange/data=!4m7!3m6!1s0x38dfed131f274b9d:0x58399065ff6f38c9!8m2!3d33.627571!4d73.1116768!16s%2Fg%2F11kk13znkf!19sChIJnUsnHxPt3zgRyThv_2WQOVg?authuser=0&hl=en&rclk=1,"Pathologist, Islamabad"
121,idclabdiagnosticcent_33.622584_73.143455,IDC lab & Diagnostic Center Ghori Town,"IDC lab & Diagnostic Center Ghori Town
4.9(453)
Medical laboratory ·  · Ghouri Garden Main Rd
Open ⋅ Closes 10 PM · +92 311 1000432",Medical laboratory,Open,33.6225836,73.1434551,https://www.google.com/maps/place/IDC+lab+%26+Diagnostic+Center+Ghori+Town/data=!4m7!3m6!1s0x38dfeb090b235657:0xec7a21207c1e9343!8m2!3d33.6225836!4d73.1434551!16s%2Fg%2F11tt2bxjr5!19sChIJV1YjCwnr3zgRQ5MefCAheuw?authuser=0&hl=en&rclk=1,"Pathologist, Islamabad"
122,headofficewellbeingc_33.617679_73.121360,"Head Office Well Being Center by Naila Rizwan ( Speech therapist, Speech therapy & behavior therapist in Rawalpindi )","Head Office Well Being Center by Naila Rizwan ( Speech therapist, Speech therapy & behavior therapist in Rawalpindi )
4.1(35)
Wellness center ·  · Mid City Apartments، Khokhar Road, near Quaid E Azam Monument
Open ⋅ Closes 6 PM · +92 321 9545195",Wellness center,Open,33.6176788,73.1213605,"https://www.google.com/maps/place/Head+Office+Well+Being+Center+by+Naila+Rizwan+%28+Speech+therapist,+Speech+therapy+%26+behavior+therapist+in+Rawalpindi+%29/data=!4m7!3m6!1s0x38dfebe7e2b05421:0xe0dec5f5cfe67720!8m2!3d33.6176788!4d73.1213605!16s%2Fg%2F11fk8f2mgr!19sChIJIVSw4ufr3zgRIHfmz_XF3uA?authuser=0&hl=en&rclk=1","Pathologist, Islamabad"
123,1stdiagnosticsmedica_33.697950_73.048745,1st Diagnostics & Medical Center,"1st Diagnostics & Medical Center
5.0(1)
Medical Center ·  · Office 34 & 35, Ground Floor, Executive Plaza, G-8 Markaz
Open ⋅ Closes 12 AM · +92 51 8442806",Medical Center,Open,33.6979503,73.0487451,https://www.google.com/maps/place/1st+Diagnostics+%26+Medical+Center/data=!4m7!3m6!1s0xaa63a58809cca0d5:0xaa87f608219e3a85!8m2!3d33.6979503!4d73.0487451!16s%2Fg%2F11tsjtrsws!19sChIJ1aDMCYilY6oRhTqeIQj2h6o?authuser=0&hl=en&rclk=1,"Pathologist, Islamabad"
124,physiopsychrehabcent_33.669398_72.999912,Physio & Psych Rehab Center,"Physio & Psych Rehab Center
5.0(20)
Speech pathologist ·  · Office 28,3rd Floor, Al Rehmat Mall, Markaz, near Tehzeeb Bakers
Open ⋅ Closes 9 PM · +92 333 5960075",Speech pathologist,Open,33.6693979,72.9999122,https://www.google.com/maps/place/Physio+%26+Psych+Rehab+Center/data=!4m7!3m6!1s0x38df9539e7876793:0x4487fa2aae409c1b!8m2!3d33.6693979!4d72.9999122!16s%2Fg%2F11wjqt2vk7!19sChIJk2eH5zmV3zgRG5xArir6h0Q?authuser=0&hl=en&rclk=1,"Pathologist, Islamabad"
125,meditestlabsdiagnost_33.708720_73.055891,Medi Test Labs & Diagnostic Centre,"Medi Test Labs & Diagnostic Centre
4.5(47)
Medical laboratory · Ground Floor، Khyber Plaza, AKM Fazl-ul-Haq Rd
Open 24 hours · +92 51 2347359",Medical laboratory,Open 24 hours,33.7087203,73.0558914,https://www.google.com/maps/place/Medi+Test+Labs+%26+Diagnostic+Centre/data=!4m7!3m6!1s0x38dfbfbbaee0b461:0xe6f57fbbcf993b3d!8m2!3d33.7087203!4d73.0558914!16s%2Fg%2F12mkzj2r1!19sChIJYbTgrru_3zgRPTuZz7t_9eY?authuser=0&hl=en&rclk=1,"Pathologist, Islamabad"
126,progresspathrehaib_33.663950_72.995993,ProgressPathRehaib,"ProgressPathRehaib
No reviews
Speech pathologist · Ground Floor, Decent Arcade, St 8
Closed ⋅ Opens 4:30 PM · +92 345 5895913",Speech pathologist,Closed,33.6639495,72.9959934,https://www.google.com/maps/place/ProgressPathRehaib/data=!4m7!3m6!1s0x38df9588302b4451:0x4313e94fc4783626!8m2!3d33.6639495!4d72.9959934!16s%2Fg%2F11w2qxd__r!19sChIJUUQrMIiV3zgRJjZ4xE_pE0M?authuser=0&hl=en&rclk=1,"Pathologist, Islamabad"
127,islamabadpathologyla_33.639513_73.153216,Islamabad Pathology Lab,"Islamabad Pathology Lab
No reviews
Laboratory · J5Q3+R74, Lehtrar Rd, Dak Khana Stop, Tarlai Kalan
+92 302 8988946",Laboratory,,33.6395132,73.1532156,https://www.google.com/maps/place/Islamabad+Pathology+Lab/data=!4m7!3m6!1s0x38dfebb74eea3799:0x1a90cd01f8db116!8m2!3d33.6395132!4d73.1532156!16s%2Fg%2F12mkzjyzt!19sChIJmTfqTrfr3zgRFrGNH9AMqQE?authuser=0&hl=en&rclk=1,"Pathologist, Islamabad"
128,islamabaddiagnosticc_33.633477_73.073295,Islamabad Diagnostic Centre,"Islamabad Diagnostic Centre
4.9(1,463)
Medical laboratory ·  · Plot no B-133, Ghazali Plaza, Main Murree Rd, near Allied Bank
Open 24 hours · +92 311 1000432",Medical laboratory,Open 24 hours,33.6334771,73.0732945,https://www.google.com/maps/place/Islamabad+Diagnostic+Centre/data=!4m7!3m6!1s0x38df94d98337894b:0x2a8faa6e12c7e859!8m2!3d33.6334771!4d73.0732945!16s%2Fg%2F11f3s0hh57!19sChIJS4k3g9mU3zgRWejHEm6qjyo?authuser=0&hl=en&rclk=1,"Pathologist, Islamabad"
129,dryassermasoodchildn_33.674264_73.065600,"Dr Yasser Masood , Child & Newborn Specialist Islamabad","Dr Yasser Masood , Child & Newborn Specialist Islamabad
4.8(139)
Pediatrician ·  · Shifa International Hospital, Pitras Bukhari Rd
Open ⋅ Closes 5 PM · +92 51 8463256",Pediatrician,Open,33.674264,73.0655997,"https://www.google.com/maps/place/Dr+Yasser+Masood+,+Child+%26+Newborn+Specialist+Islamabad/data=!4m7!3m6!1s0x38dfbf7bf1303ecf:0x8746b8e24d7e48c8!8m2!3d33.674264!4d73.0655997!16s%2Fg%2F11lgg4kqhh!19sChIJzz4w8Xu_3zgRyEh-TeK4Roc?authuser=0&hl=en&rclk=1","Pathologist, Islamabad"
130,publichealthlaborato_33.688938_73.136687,Public Health Laboratory Division NIH,"Public Health Laboratory Division NIH
4.2(33)
Laboratory ·  · M4QP+GW7, NIH, Park Rd
Open ⋅ Closes 4 PM · +92 51 9255110",Laboratory,Open,33.6889375,73.1366875,https://www.google.com/maps/place/Public+Health+Laboratory+Division+NIH/data=!4m7!3m6!1s0x38dfebdd55b4a98f:0xbde71df752aa62f4!8m2!3d33.6889375!4d73.1366875!16s%2Fg%2F11spgxtc_c!19sChIJj6m0Vd3r3zgR9GKqUvcd570?authuser=0&hl=en&rclk=1,"Pathologist, Islamabad"
131,excellabsf10markaz_33.696587_73.011143,Excel Labs - F-10 Markaz,"Excel Labs - F-10 Markaz
4.8(13)
Medical laboratory · B-1 Capital Trade Center, near Rahat Bakers Faisal Town Fateh Jang road Islamabad
Open ⋅ Closes 10 PM · +92 51 2292228",Medical laboratory,Open,33.6965871,73.0111426,https://www.google.com/maps/place/Excel+Labs+-+F-10+Markaz/data=!4m7!3m6!1s0x38dfbe6b7cd2c22d:0xe935c38adfdbf6eb!8m2!3d33.6965871!4d73.0111426!16s%2Fg%2F12mkw8gb1!19sChIJLcLSfGu-3zgR6_bb34rDNek?authuser=0&hl=en&rclk=1,"Pathologist, Islamabad"
132,drfazalabbasbesturol_33.649725_72.976502,Dr Fazal Abbas - Best Urologist Islamabad,"Dr Fazal Abbas - Best Urologist Islamabad
4.8(105)
Urologist · Capital International Hospital, St 3, near Metro Station
Open ⋅ Closes 10 PM · +92 315 3515555",Urologist,Open,33.6497252,72.9765016,https://www.google.com/maps/place/Dr+Fazal+Abbas+-+Best+Urologist+Islamabad/data=!4m7!3m6!1s0x38df974098bb81ad:0x35690bf445984591!8m2!3d33.6497252!4d72.9765016!16s%2Fg%2F11vzlvty_l!19sChIJrYG7mECX3zgRkUWYRfQLaTU?authuser=0&hl=en&rclk=1,"Pathologist, Islamabad"
133,idclabdiagnosticcent_33.601974_73.123865,IDC lab & Diagnostic Center Faisal Colony,"IDC lab & Diagnostic Center Faisal Colony
4.9(401)
Medical laboratory ·  · Faisal, J42F+QHR, Service Rd, Colony
Open ⋅ Closes 10 PM · +92 311 1000432",Medical laboratory,Open,33.6019742,73.1238653,https://www.google.com/maps/place/IDC+lab+%26+Diagnostic+Center+Faisal+Colony/data=!4m7!3m6!1s0x38dfebac0fc91a9d:0x64112f57fec854b1!8m2!3d33.6019742!4d73.1238653!16s%2Fg%2F11q1tn3r29!19sChIJnRrJD6zr3zgRsVTI_lcvEWQ?authuser=0&hl=en&rclk=1,"Pathologist, Islamabad"
134,primehealthlab_33.709201_73.056266,Prime Health Lab,"Prime Health Lab
3.6(8)
Medical laboratory · 1-A Lower Ground Gondal Plaza Behind NADRA Office AKM Fazal e Haq Road، Syedna Farooq E Azam، near Khyber Plaza Masjid
Open 24 hours · +92 51 2347310",Medical laboratory,Open 24 hours,33.7092014,73.056266,https://www.google.com/maps/place/Prime+Health+Lab/data=!4m7!3m6!1s0x38dfbe3110a81d0b:0x75ee219081440cb8!8m2!3d33.7092014!4d73.056266!16s%2Fg%2F11b7ycg0qk!19sChIJCx2oEDG-3zgRuAxEgZAh7nU?authuser=0&hl=en&rclk=1,"Pathologist, Islamabad"
135,basesbehaviorandspec_33.702430_72.947048,BASES: Behavior and Special Education Services Islamabad HQ,"BASES: Behavior and Special Education Services Islamabad HQ
4.3(27)
Speech pathologist ·  · first-floor office no 2,3,4,5 and 6, Qamar Arcade
Open ⋅ Closes 5 PM · +92 331 7095999",Speech pathologist,Open,33.7024301,72.947048,https://www.google.com/maps/place/BASES:+Behavior+and+Special+Education+Services+Islamabad+HQ/data=!4m7!3m6!1s0x38dfbdd8cdf0f8a9:0x21fd877e91560188!8m2!3d33.7024301!4d72.947048!16s%2Fg%2F11fhzj3kgn!19sChIJqfjwzdi93zgRiAFWkX6H_SE?authuser=0&hl=en&rclk=1,"Pathologist, Islamabad"
136,bioflexcanadianlaser_33.530254_73.133312,Bioflex Canadian Laser Pain Therapy,"Bioflex Canadian Laser Pain Therapy
4.6(53)
Pain control clinic ·  · Plot 14
Open ⋅ Closes 7 PM · +92 317 5181166",Pain control clinic,Open,33.5302542,73.1333122,https://www.google.com/maps/place/Bioflex+Canadian+Laser+Pain+Therapy/data=!4m7!3m6!1s0x38dfeddaeaa3574b:0x6f2022cd2ccc66de!8m2!3d33.5302542!4d73.1333122!16s%2Fg%2F11j23q0gcf!19sChIJS1ej6trt3zgR3mbMLM0iIG8?authuser=0&hl=en&rclk=1,"Pathologist, Islamabad"
137,ghaliyasmontessoriho_33.698856_72.982973,Ghaliya's Montessori House for Autism,"Ghaliya's Montessori House for Autism
4.8(4)
Speech pathologist ·  · House 375 Street 25
Open now · +92 335 5598900",Speech pathologist,Open now,33.6988565,72.9829734,https://www.google.com/maps/place/Ghaliya%27s+Montessori+House+for+Autism/data=!4m7!3m6!1s0x38dfbddbbd082237:0x15f20e8b3e2bf5c4!8m2!3d33.6988565!4d72.9829734!16s%2Fg%2F11q1v89sc1!19sChIJNyIIvdu93zgRxPUrPosO8hU?authuser=0&hl=en&rclk=1,"Pathologist, Islamabad"
138,mhsspeechtherapyoccu_33.552610_73.136907,MHS Speech Therapy Occupational Therapy Behavior Therapy Center & Home Services,"MHS Speech Therapy Occupational Therapy Behavior Therapy Center & Home Services
No reviews
Speech pathologist · Crescent Arcade
Open 24 hours",Speech pathologist,Open 24 hours,33.5526096,73.1369074,https://www.google.com/maps/place/MHS+Speech+Therapy+Occupational+Therapy+Behavior+Therapy+Center+%26+Home+Services/data=!4m7!3m6!1s0x38dfed869533dc31:0x15fc726a5acdbab5!8m2!3d33.5526096!4d73.1369074!16s%2Fg%2F11lnrwlfcm!19sChIJMdwzlYbt3zgRtbrNWmpy_BU?authuser=0&hl=en&rclk=1,"Pathologist, Islamabad"
139,drmusharrafalikhanur_33.697569_73.049161,Dr Musharraf Ali khan (Urologist),"Dr Musharraf Ali khan (Urologist)
4.7(12)
Urologist · Max Hospital, 12-K Markaz Rd
Open ⋅ Closes 2:30 AM · +92 334 5505092",Urologist,Open,33.6975693,73.0491612,https://www.google.com/maps/place/Dr+Musharraf+Ali+khan+%28Urologist%29/data=!4m7!3m6!1s0x38dfbfc9d38e4533:0xe6179764c5b949b!8m2!3d33.6975693!4d73.0491612!16s%2Fg%2F11mnc0pm3l!19sChIJM0WO08m_3zgRm5RbTHZ5YQ4?authuser=0&hl=en&rclk=1,"Pathologist, Islamabad"
140,neurogenixmedirehabc_33.566164_73.177562,Neurogenix Medirehab Centre (NMC Pakistan),"Neurogenix Medirehab Centre (NMC Pakistan)
5.0(25)
Speech pathologist ·  · Plot No 32 , JCC2, near Main Gate
Closed ⋅ Opens 3 PM · +92 337 8630076",Speech pathologist,Closed,33.5661641,73.1775618,https://www.google.com/maps/place/Neurogenix+Medirehab+Centre+%28NMC+Pakistan%29/data=!4m7!3m6!1s0x38dfed8ca82c5a13:0x23cbd272098348a4!8m2!3d33.5661641!4d73.1775618!16s%2Fg%2F11pwb_yxp4!19sChIJE1osqIzt3zgRpEiDCXLSyyM?authuser=0&hl=en&rclk=1,"Pathologist, Islamabad"
141,zsspeechandhearingcl_33.570926_73.178514,ZS Speech and Hearing Clinic,"ZS Speech and Hearing Clinic
5.0(1)
Audiologist · Shop 8, Lower Ground, Jinnah Center, Markaz
Closed ⋅ Opens 4:30 PM · +92 310 5420953",Audiologist,Closed,33.5709265,73.178514,https://www.google.com/maps/place/ZS+Speech+and+Hearing+Clinic/data=!4m7!3m6!1s0x38dfed230c4622a9:0x38823a59c9672c8c!8m2!3d33.5709265!4d73.178514!16s%2Fg%2F11v_b1vtt5!19sChIJqSJGDCPt3zgRjCxnyVk6gjg?authuser=0&hl=en&rclk=1,"Pathologist, Islamabad"
