Index,Place Id,Name,Address,Category,Status,Latitude,Longitude,Link,SearchKeyword
1,na_noloc,,,,,,,,"Physical Therapist, Islamabad"
5,dralitherapypvtltdbe_33.710667_73.040730,Dr Ali Therapy Pvt Ltd-best chiropractor Physiotherapist in Islamabad,,Physical therapy clinic,Open,33.7106669,73.04073,https://www.google.com/maps/place/Dr+Ali+Therapy+Pvt+Ltd-best+chiropractor+Physiotherapist+in+Islamabad/data=!4m7!3m6!1s0x38dfbf7f9667f1d5:0x287e188a6765e906!8m2!3d33.7106669!4d73.04073!16s%2Fg%2F11rss4ydvy!19sChIJ1fFnln-_3zgRBullZ4oYfig?authuser=0&hl=en&rclk=1,"Physical Therapist, Islamabad"
37,athleanphysicalthera_33.699593_72.973609,"ATHLEAN PHYSICAL THERAPY, ISLAMABAD","ATHLEAN PHYSICAL THERAPY, ISLAMABAD
4.9(69)
Physical therapy clinic ·  · Karsaaz Tower 2
Open ⋅ Closes 8 PM · +92 318 5422232",Physical therapy clinic,Open,33.6995934,72.9736092,"https://www.google.com/maps/place/ATHLEAN+PHYSICAL+THERAPY,+ISLAMABAD/data=!4m7!3m6!1s0x38dfbd9a78080115:0xb47e87dd085cbcbc!8m2!3d33.6995934!4d72.9736092!16s%2Fg%2F11qsv49x2r!19sChIJFQEIeJq93zgRvLxcCN2HfrQ?authuser=0&hl=en&rclk=1","Physical Therapist, Islamabad"
38,physiofittphysiother_33.715089_73.066862,Physiofitt - Physiotherapist Clinic Islamabad,"Physiofitt - Physiotherapist Clinic Islamabad
4.8(97)
Physical therapy clinic ·  · Roshan centre, Lower ground
Open ⋅ Closes 11 PM · +92 345 5661110",Physical therapy clinic,Open,33.7150895,73.0668624,https://www.google.com/maps/place/Physiofitt+-+Physiotherapist+Clinic+Islamabad/data=!4m7!3m6!1s0x38dfbf3d10c70a53:0x96c9a639f29cd898!8m2!3d33.7150895!4d73.0668624!16s%2Fg%2F11lfbgkv_d!19sChIJUwrHED2_3zgRmNic8jmmyZY?authuser=0&hl=en&rclk=1,"Physical Therapist, Islamabad"
39,leprleadingedgephysi_33.521098_73.104437,LEPR | Leading Edge Physiotherapy & Rehabilitation | Bahria Town Phase 7 Rawalpindi,"LEPR | Leading Edge Physiotherapy & Rehabilitation | Bahria Town Phase 7 Rawalpindi
4.9(185)
Physical therapy clinic ·  · Third Floor, Center Point Plaza Number 57 Opposite DHA 1, bridge
Open ⋅ Closes 9 PM · +92 335 3559603",Physical therapy clinic,Open,33.5210978,73.1044373,https://www.google.com/maps/place/LEPR+%7C+Leading+Edge+Physiotherapy+%26+Rehabilitation+%7C+Bahria+Town+Phase+7+Rawalpindi/data=!4m7!3m6!1s0x38dfed9e2c509b53:0x10b19e1e3e8e7f36!8m2!3d33.5210978!4d73.1044373!16s%2Fg%2F11pq9472ml!19sChIJU5tQLJ7t3zgRNn-OPh6esRA?authuser=0&hl=en&rclk=1,"Physical Therapist, Islamabad"
40,mhsphysiotherapyspee_33.722512_73.082228,MHS Physiotherapy Speech Therapy & Psychology Clinic,"MHS Physiotherapy Speech Therapy & Psychology Clinic
4.7(174)
Physical therapy clinic · Office No 12 Huma Plaza
Open ⋅ Closes 9 PM · +92 311 0979070",Physical therapy clinic,Open,33.7225119,73.0822276,https://www.google.com/maps/place/MHS+Physiotherapy+Speech+Therapy+%26+Psychology+Clinic/data=!4m7!3m6!1s0x38df95156aaaaab1:0x3ec18d3a9a0eb9f5!8m2!3d33.7225119!4d73.0822276!16s%2Fg%2F11hb28zf7j!19sChIJsaqqahWV3zgR9bkOmjqNwT4?authuser=0&hl=en&rclk=1,"Physical Therapist, Islamabad"
41,drazazbestphysiother_33.668750_73.076763,Dr Azaz ( best physiotherapist Islamabad,"Dr Azaz ( best physiotherapist Islamabad
5.0(313)
Physical therapist · 5
Open ⋅ Closes 11:30 PM · +92 314 9882227",Physical therapist,Open,33.6687504,73.0767632,https://www.google.com/maps/place/Dr+Azaz+%28+best+physiotherapist+Islamabad/data=!4m7!3m6!1s0x38df95f2fef80b67:0x821f019947e53c29!8m2!3d33.6687504!4d73.0767632!16s%2Fg%2F11tf39l876!19sChIJZwv4_vKV3zgRKTzlR5kBH4I?authuser=0&hl=en&rclk=1,"Physical Therapist, Islamabad"
42,drziapainbrainphysio_33.688781_72.992211,Dr.Zia Pain & Brain Physiotherapy Center,"Dr.Zia Pain & Brain Physiotherapy Center
4.8(64)
Physical therapist ·  · Raja Market, Street 48
Open ⋅ Closes 9 PM · +92 330 4343123",Physical therapist,Open,33.6887813,72.9922114,https://www.google.com/maps/place/Dr.Zia+Pain+%26+Brain+Physiotherapy+Center/data=!4m7!3m6!1s0x38dfbf2e7b67bf43:0xc95eeb43e39af46f!8m2!3d33.6887813!4d72.9922114!16s%2Fg%2F11gk6b0t5f!19sChIJQ79ney6_3zgRb_Sa40PrXsk?authuser=0&hl=en&rclk=1,"Physical Therapist, Islamabad"
43,arclinicsphysiothera_33.546380_73.128109,AR CLINICS - Physiotherapy and Aesthetics,"AR CLINICS - Physiotherapy and Aesthetics
4.9(156)
Physical therapy clinic ·  · Plaza 56 & 58, Marina Complex, Corniche Road
Open ⋅ Closes 10 PM · +92 318 5119014",Physical therapy clinic,Open,33.5463798,73.128109,https://www.google.com/maps/place/AR+CLINICS+-+Physiotherapy+and+Aesthetics/data=!4m7!3m6!1s0x38dfed02afffb97d:0x73d954749bd1fdea!8m2!3d33.5463798!4d73.128109!16s%2Fg%2F11qbs6mncg!19sChIJfbn_rwLt3zgR6v3Rm3RU2XM?authuser=0&hl=en&rclk=1,"Physical Therapist, Islamabad"
44,drphysiorehab_33.562726_73.148219,Dr Physio Rehab,"Dr Physio Rehab
4.8(54)
Physical therapy clinic ·  · Ground floor, Ascon Heights II, Soan Ave
Open ⋅ Closes 11:45 PM · +92 333 1343878",Physical therapy clinic,Open,33.5627263,73.1482195,https://www.google.com/maps/place/Dr+Physio+Rehab/data=!4m7!3m6!1s0x38dfed18e49b00d1:0x6e43689cb48e8b22!8m2!3d33.5627263!4d73.1482195!16s%2Fg%2F11pd1sy1mt!19sChIJ0QCb5Bjt3zgRIouOtJxoQ24?authuser=0&hl=en&rclk=1,"Physical Therapist, Islamabad"
45,ptofcityphysiotherap_33.531261_73.158363,PT OF CITY Physiotherapy center,"PT OF CITY Physiotherapy center
4.9(160)
Physical therapist ·  · E, Commercial
Open ⋅ Closes 5 PM · +92 336 7222687",Physical therapist,Open,33.5312614,73.1583629,https://www.google.com/maps/place/PT+OF+CITY+Physiotherapy+center/data=!4m7!3m6!1s0x38dfed228c185b15:0xb73d26aacdeb4c7b!8m2!3d33.5312614!4d73.1583629!16s%2Fg%2F11khw25wtk!19sChIJFVsYjCLt3zgRe0zrzaomPbc?authuser=0&hl=en&rclk=1,"Physical Therapist, Islamabad"
46,drburhanrabibestphys_33.721190_73.074118,Dr Burhan Rabi | Best Physiotherapist in Islamabad,"Dr Burhan Rabi | Best Physiotherapist in Islamabad
4.9(70)
Physical therapist · 20 Nazim-ud-din Rd, near Beverly Centre
Open ⋅ Closes 8 PM · +92 335 9634634",Physical therapist,Open,33.7211901,73.074118,https://www.google.com/maps/place/Dr+Burhan+Rabi+%7C+Best+Physiotherapist+in+Islamabad/data=!4m7!3m6!1s0x38dfbfdc3f5552c9:0xc763eb94882498bb!8m2!3d33.7211901!4d73.074118!16s%2Fg%2F11t_jz0xgb!19sChIJyVJVP9y_3zgRu5gkiJTrY8c?authuser=0&hl=en&rclk=1,"Physical Therapist, Islamabad"
47,aliahmadphysiocare_33.722062_73.059938,Ali Ahmad Physio Care,"Ali Ahmad Physio Care
4.9(265)
Physical therapy clinic · Bangish Plaza
Open ⋅ Closes 11 PM · +92 333 1533933",Physical therapy clinic,Open,33.7220625,73.0599375,https://www.google.com/maps/place/Ali+Ahmad+Physio+Care/data=!4m7!3m6!1s0x38dfbf923b726945:0xc1535c62727c0866!8m2!3d33.7220625!4d73.0599375!16s%2Fg%2F11p4zy8l1z!19sChIJRWlyO5K_3zgRZgh8cmJcU8E?authuser=0&hl=en&rclk=1,"Physical Therapist, Islamabad"
48,physioloungebydrambr_33.627021_73.118453,Physio Lounge By Dr Ambreen,"Physio Lounge By Dr Ambreen
4.9(69)
Physical therapist ·  · street 2 Service Rd E, near white palace
Open ⋅ Closes 9 PM · +92 335 0448880",Physical therapist,Open,33.6270215,73.1184531,https://www.google.com/maps/place/Physio+Lounge+By+Dr+Ambreen/data=!4m7!3m6!1s0x38dfeb4e37e833d3:0x4eb28d55ded64c7e!8m2!3d33.6270215!4d73.1184531!16s%2Fg%2F11h_cc1hmc!19sChIJ0zPoN07r3zgRfkzW3lWNsk4?authuser=0&hl=en&rclk=1,"Physical Therapist, Islamabad"
49,rhsrehabilitationcen_33.666623_73.076278,RHS Rehabilitation Center,"RHS Rehabilitation Center
5.0(23)
Physical therapy clinic · Shop no 18, Lower Ground, Pakland, Business Center, Markaz
Open ⋅ Closes 9 PM · +92 51 4800568",Physical therapy clinic,Open,33.6666225,73.0762777,https://www.google.com/maps/place/RHS+Rehabilitation+Center/data=!4m7!3m6!1s0x38df95a3622c5709:0xe3179a5dfe626fbc!8m2!3d33.6666225!4d73.0762777!16s%2Fg%2F11tfypvdl5!19sChIJCVcsYqOV3zgRvG9i_l2aF-M?authuser=0&hl=en&rclk=1,"Physical Therapist, Islamabad"
50,drsabanawazphysiothe_33.645071_72.963545,Dr Saba Nawaz Physiotherapy & Rehabilitation clinic,"Dr Saba Nawaz Physiotherapy & Rehabilitation clinic
4.9(64)
Physical therapy clinic · JXW7+694, Markaz, near Bakeman Bakery, in Alaya Medical Hospital
Open ⋅ Closes 9 PM · +92 314 0890180",Physical therapy clinic,Open,33.6450708,72.9635454,https://www.google.com/maps/place/Dr+Saba+Nawaz+Physiotherapy+%26+Rehabilitation+clinic/data=!4m7!3m6!1s0x38df97004353e477:0xdc4dc13a5c07a1ac!8m2!3d33.6450708!4d72.9635454!16s%2Fg%2F11vjx7j49s!19sChIJd-RTQwCX3zgRrKEHXDrBTdw?authuser=0&hl=en&rclk=1,"Physical Therapist, Islamabad"
51,iprcislamabadphysiot_33.548874_73.125061,IPRC- Islamabad Physiotherapy and Rehabilitation Center - Bahria Town Phase 4,"IPRC- Islamabad Physiotherapy and Rehabilitation Center - Bahria Town Phase 4
4.8(290)
Physical therapy clinic ·  · Plaza #147, Block D St
Open ⋅ Closes 10 PM · +92 335 7778883",Physical therapy clinic,Open,33.5488739,73.125061,https://www.google.com/maps/place/IPRC-+Islamabad+Physiotherapy+and+Rehabilitation+Center+-+Bahria+Town+Phase+4/data=!4m7!3m6!1s0x38dfed59b23341c3:0xa5d28535ed8aba59!8m2!3d33.5488739!4d73.125061!16s%2Fg%2F11fj47qgr7!19sChIJw0Ezslnt3zgRWbqK7TWF0qU?authuser=0&hl=en&rclk=1,"Physical Therapist, Islamabad"
52,leprleadingedgephysi_33.690958_73.000945,LEPR | Leading Edge Physiotherapy & Rehabilitation | F10 Branch Islamabad,"LEPR | Leading Edge Physiotherapy & Rehabilitation | F10 Branch Islamabad
4.8(26)
Physical therapy clinic · House, no 220 b, 2 Street 8, near Shalimar police station
Open ⋅ Closes 9 PM · +92 335 3559603",Physical therapy clinic,Open,33.6909576,73.0009453,https://www.google.com/maps/place/LEPR+%7C+Leading+Edge+Physiotherapy+%26+Rehabilitation+%7C+F10+Branch+Islamabad/data=!4m7!3m6!1s0x38dfbf445e9378ad:0xf84956243e58388e!8m2!3d33.6909576!4d73.0009453!16s%2Fg%2F11y3k9bd8n!19sChIJrXiTXkS_3zgRjjhYPiRWSfg?authuser=0&hl=en&rclk=1,"Physical Therapist, Islamabad"
53,kinemephysiotherapy_33.539305_73.174113,KINEME Physiotherapy,"KINEME Physiotherapy
5.0(84)
Physical therapy clinic ·  · Plaza # 13, Tipu Boulevard
Open ⋅ Closes 7 PM · +92 336 5141147",Physical therapy clinic,Open,33.5393049,73.1741129,https://www.google.com/maps/place/KINEME+Physiotherapy/data=!4m7!3m6!1s0x38dfedd4c04449a5:0x64363a8a0455eeb1!8m2!3d33.5393049!4d73.1741129!16s%2Fg%2F11t7kywn85!19sChIJpUlEwNTt3zgRse5VBIo6NmQ?authuser=0&hl=en&rclk=1,"Physical Therapist, Islamabad"
54,drfarhanbadshahphysi_33.696717_73.050043,Dr Farhan Badshah- Physical Therapist,"Dr Farhan Badshah- Physical Therapist
5.0(94)
Physical therapist ·  · Markaz Rd, near petrol pump
Open ⋅ Closes 8 PM · +92 332 9579368",Physical therapist,Open,33.6967175,73.0500428,https://www.google.com/maps/place/Dr+Farhan+Badshah-+Physical+Therapist/data=!4m7!3m6!1s0x38dfbfba4bfd5f03:0xd1f4755a84b38f36!8m2!3d33.6967175!4d73.0500428!16s%2Fg%2F11vx5p26vd!19sChIJA1_9S7q_3zgRNo-zhFp19NE?authuser=0&hl=en&rclk=1,"Physical Therapist, Islamabad"
55,cihphysiotherapyclin_33.649723_72.976529,CIH Physiotherapy Clinic,"CIH Physiotherapy Clinic
4.9(73)
Physical therapy clinic ·  · near Capital international hospital
Open ⋅ Closes 8 PM · +92 315 3515555",Physical therapy clinic,Open,33.6497226,72.9765285,https://www.google.com/maps/place/CIH+Physiotherapy+Clinic/data=!4m7!3m6!1s0x38df97c20f11ab07:0x5e4dd1d2ead25bb9!8m2!3d33.6497226!4d72.9765285!16s%2Fg%2F11srh6c3g6!19sChIJB6sRD8KX3zgRuVvS6tLRTV4?authuser=0&hl=en&rclk=1,"Physical Therapist, Islamabad"
56,reboundphysiotherapy_33.566743_73.132633,Rebound Physiotherapy Clinic | Acupuncturist | Chiropractor | Home Services Available,"Rebound Physiotherapy Clinic | Acupuncturist | Chiropractor | Home Services Available
4.9(78)
Physical therapy clinic · 1st Floor, Plot No, Rebound Physiotherapy Clinic, 760 Main PWD Rd, opposite National Bank PWD
Open ⋅ Closes 10 PM · +92 319 9460797",Physical therapy clinic,Open,33.5667431,73.1326334,https://www.google.com/maps/place/Rebound+Physiotherapy+Clinic+%7C+Acupuncturist+%7C+Chiropractor+%7C+Home+Services+Available/data=!4m7!3m6!1s0x38dfedafb0dbb8bb:0xd209b0f4548c2727!8m2!3d33.5667431!4d73.1326334!16s%2Fg%2F11vj4zd6wd!19sChIJu7jbsK_t3zgRJyeMVPSwCdI?authuser=0&hl=en&rclk=1,"Physical Therapist, Islamabad"
57,drlailaukharibestphy_33.697800_73.050978,Dr.LaiLa Ɓukhari(Best Physiotherapist in Islamabad),"Dr.LaiLa Ɓukhari(Best Physiotherapist in Islamabad)
5.0(54)
Physical therapist · Saeed international hospital, Markaz Rd
Open ⋅ Closes 11 PM · +92 336 6245080",Physical therapist,Open,33.6977995,73.050978,https://www.google.com/maps/place/Dr.LaiLa+%C6%81ukhari%28Best+Physiotherapist+in+Islamabad%29/data=!4m7!3m6!1s0x38dfbf8eaa231fdf:0xa14bceb7a1076b03!8m2!3d33.6977995!4d73.050978!16s%2Fg%2F11styckmlv!19sChIJ3x8jqo6_3zgRA2sHobfOS6E?authuser=0&hl=en&rclk=1,"Physical Therapist, Islamabad"
58,drumairphysiotherapi_33.707774_73.014247,Dr umair Physiotherapist,"Dr umair Physiotherapist
4.9(92)
Physical therapist ·  · PAF Hospital, unit 2 Main Margalla Rd, opposite F-9 park
Open ⋅ Closes 9:30 PM · +92 331 8181920",Physical therapist,Open,33.707774,73.014247,https://www.google.com/maps/place/Dr+umair+Physiotherapist/data=!4m7!3m6!1s0x38dfbfa547f299ab:0x9aa041dc73f18a1f!8m2!3d33.707774!4d73.014247!16s%2Fg%2F11h_161wbx!19sChIJq5nyR6W_3zgRH4rxc9xBoJo?authuser=0&hl=en&rclk=1,"Physical Therapist, Islamabad"
59,drusamabestphysiothe_33.696444_73.050716,Dr Usama -Best Physiotherapist in Islamabad,"Dr Usama -Best Physiotherapist in Islamabad
5.0(35)
Physical therapy clinic ·  · Islamabad Rawalpindi Rawalpindi, and
Open ⋅ Closes 11:30 PM · +92 301 5478835",Physical therapy clinic,Open,33.6964442,73.050716,https://www.google.com/maps/place/Dr+Usama+-Best+Physiotherapist+in+Islamabad/data=!4m7!3m6!1s0x38de398cf9594945:0x5d855485346f73e!8m2!3d33.6964442!4d73.050716!16s%2Fg%2F11tcksln5g!19sChIJRUlZ-Yw53jgRPvdGU0hV2AU?authuser=0&hl=en&rclk=1,"Physical Therapist, Islamabad"
60,dskphysiorehabcenter_33.520824_73.105469,DSK Physio & Rehab Center - Physiotherapy in Islamabad - Rehab Center in Bahria Town Islamabad,"DSK Physio & Rehab Center - Physiotherapy in Islamabad - Rehab Center in Bahria Town Islamabad
5.0(21)
Physical therapy clinic ·  · Rafi arcade 2 plaza no 16 acantilado Commercial, Bahria Town Phase 7 phase 7
Open ⋅ Closes 10 PM · +92 51 6103396",Physical therapy clinic,Open,33.5208242,73.105469,https://www.google.com/maps/place/DSK+Physio+%26+Rehab+Center+-+Physiotherapy+in+Islamabad+-+Rehab+Center+in+Bahria+Town+Islamabad/data=!4m7!3m6!1s0x38dfed0055f80a47:0x80bfe6b310bd102a!8m2!3d33.5208242!4d73.105469!16s%2Fg%2F11vq8t_0y2!19sChIJRwr4VQDt3zgRKhC9ELPmv4A?authuser=0&hl=en&rclk=1,"Physical Therapist, Islamabad"
61,pakphysiotherapyclin_33.664813_73.153958,Pak physiotherapy Clinic Islamabad,"Pak physiotherapy Clinic Islamabad
4.9(26)
Physical therapy clinic · Pak Physio clinic, Park Rd
Open ⋅ Closes 10 PM · +92 347 0053181",Physical therapy clinic,Open,33.6648132,73.1539579,https://www.google.com/maps/place/Pak+physiotherapy+Clinic+Islamabad/data=!4m7!3m6!1s0x38dfe972f971976f:0xfe461cba8555e888!8m2!3d33.6648132!4d73.1539579!16s%2Fg%2F11ltgsmn3m!19sChIJb5dx-XLp3zgRiOhVhbocRv4?authuser=0&hl=en&rclk=1,"Physical Therapist, Islamabad"
62,elitephysiotherapyan_33.647569_72.962441,Elite physiotherapy and chiropractic adjustment,"Elite physiotherapy and chiropractic adjustment
5.0(51)
Physical therapist · 116
Open 24 hours · +92 346 8866647",Physical therapist,Open 24 hours,33.6475689,72.9624408,https://www.google.com/maps/place/Elite+physiotherapy+and+chiropractic+adjustment/data=!4m7!3m6!1s0x38df973b5838b10f:0x69a077a1c512e37b!8m2!3d33.6475689!4d72.9624408!16s%2Fg%2F11vlk0ms2m!19sChIJD7E4WDuX3zgRe-MSxaF3oGk?authuser=0&hl=en&rclk=1,"Physical Therapist, Islamabad"
63,fixnfit_33.697524_73.049787,Fix N Fit,"Fix N Fit
5.0(16)
Physical therapy clinic · Premium International Hospital, near markaz
Open ⋅ Closes 8 PM · +92 334 6618831",Physical therapy clinic,Open,33.6975243,73.0497873,https://www.google.com/maps/place/Fix+N+Fit/data=!4m7!3m6!1s0x38dfbfd81f16003f:0x8a0a35ab6b609225!8m2!3d33.6975243!4d73.0497873!16s%2Fg%2F11sgl7vs5z!19sChIJPwAWH9i_3zgRJZJga6s1Coo?authuser=0&hl=en&rclk=1,"Physical Therapist, Islamabad"
64,flexphysiotherapyand_33.611577_73.129738,Flex Physiotherapy and Rehab Center Islamabad,"Flex Physiotherapy and Rehab Center Islamabad
5.0(27)
Physical therapy clinic ·  · Back to Save Mart, FPRC Islamabad, Street No 1-B, Main Double Road
Open ⋅ Closes 11 PM · +92 334 8437279",Physical therapy clinic,Open,33.6115766,73.1297379,https://www.google.com/maps/place/Flex+Physiotherapy+and+Rehab+Center+Islamabad/data=!4m7!3m6!1s0x38dfbd1a27782143:0x81b946f5236dd6bc!8m2!3d33.6115766!4d73.1297379!16s%2Fg%2F11rj_kw_0g!19sChIJQyF4Jxq93zgRvNZtI_VGuYE?authuser=0&hl=en&rclk=1,"Physical Therapist, Islamabad"
65,physiogenixbydrfaiza_33.722392_73.060029,Physiogenix By Dr. Faiza - Physiotherapist,"Physiogenix By Dr. Faiza - Physiotherapist
5.0(49)
Physical therapy clinic · Office No. 13, 2nd Floor, City Center Plaza Jinnah Super Market, Markaz
Open ⋅ Closes 8 PM · +92 330 5122052",Physical therapy clinic,Open,33.7223921,73.0600293,https://www.google.com/maps/place/Physiogenix+By+Dr.+Faiza+-+Physiotherapist/data=!4m7!3m6!1s0x38dfbf0516a72f03:0xa3ecc5407ad01cc4!8m2!3d33.7223921!4d73.0600293!16s%2Fg%2F11sfb06286!19sChIJAy-nFgW_3zgRxBzQekDF7KM?authuser=0&hl=en&rclk=1,"Physical Therapist, Islamabad"
66,islamabadphysiothera_33.668328_73.150913,Islamabad Physiotherapy Clinic Islamabad,"Islamabad Physiotherapy Clinic Islamabad
5.0(78)
Physical therapy clinic · Park, Greens Avenue, Road
Closed ⋅ Opens 3 PM · +92 332 8214183",Physical therapy clinic,Closed,33.6683279,73.1509134,https://www.google.com/maps/place/Islamabad+Physiotherapy+Clinic+Islamabad/data=!4m7!3m6!1s0x38dfebe41569a977:0xe6da5699ef02744d!8m2!3d33.6683279!4d73.1509134!16s%2Fg%2F11j927349b!19sChIJd6lpFeTr3zgRTXQC75lW2uY?authuser=0&hl=en&rclk=1,"Physical Therapist, Islamabad"
67,iatphysiotherapyclin_33.711480_73.041344,IAT Physiotherapy clinic (By Dr azaz ),"IAT Physiotherapy clinic (By Dr azaz )
5.0(28)
Physical therapy clinic
Open ⋅ Closes 12:30 AM · +92 337 8880004",Physical therapy clinic,Open,33.7114803,73.0413443,https://www.google.com/maps/place/IAT+Physiotherapy+clinic+%28By+Dr+azaz+%29/data=!4m7!3m6!1s0x38dfbf003c89fa1d:0x4e35c6e58c16c130!8m2!3d33.7114803!4d73.0413443!16s%2Fg%2F11wp7drvdc!19sChIJHfqJPAC_3zgRMMEWjOXGNU4?authuser=0&hl=en&rclk=1,"Physical Therapist, Islamabad"
68,oasisphysiotherapy_33.711547_73.041925,Oasis physiotherapy,"Oasis physiotherapy
4.8(55)
Physical therapy clinic ·  · 13-B Kohistan Rd, near IDC
Open ⋅ Closes 10 PM · +92 321 5246200",Physical therapy clinic,Open,33.7115473,73.0419247,https://www.google.com/maps/place/Oasis+physiotherapy/data=!4m7!3m6!1s0x38dfbe532aa9366f:0x4f352d570b4151a8!8m2!3d33.7115473!4d73.0419247!16s%2Fg%2F11hzr4sqnz!19sChIJbzapKlO-3zgRqFFBC1ctNU8?authuser=0&hl=en&rclk=1,"Physical Therapist, Islamabad"
69,drmariaumarpt_33.698687_73.048438,Dr. Maria Umar (PT),"Dr. Maria Umar (PT)
5.0(36)
Physical therapist · 20-C, M2XX+F95 Crescent Arcade, G-8 Markaz G 8 Markaz G-8, Islamabad, Islamabad Capital Territory 44000 G8
Open ⋅ Closes 8:30 PM · +92 310 9710454",Physical therapist,Open,33.6986875,73.0484375,https://www.google.com/maps/place/Dr.+Maria+Umar+%28PT%29/data=!4m7!3m6!1s0x38dfbf6208c0fb27:0x29f85fc3a3ada04b!8m2!3d33.6986875!4d73.0484375!16s%2Fg%2F11y5jydncj!19sChIJJ_vACGK_3zgRS6Cto8Nf-Ck?authuser=0&hl=en&rclk=1,"Physical Therapist, Islamabad"
70,xfittherapy_33.696813_73.050813,XFit Therapy,"XFit Therapy
4.9(29)
Physical therapy clinic · Office LG-04, Time Square Plaza, M3W2+P8G Lower Ground Floor, Markaz
Open ⋅ Closes 9 PM · +92 301 8442222",Physical therapy clinic,Open,33.6968125,73.0508125,https://www.google.com/maps/place/XFit+Therapy/data=!4m7!3m6!1s0x38dfbfde4ef7f5c3:0x6ca8fb24f5e69878!8m2!3d33.6968125!4d73.0508125!16s%2Fg%2F11y5j0qs_g!19sChIJw_X3Tt6_3zgReJjm9ST7qGw?authuser=0&hl=en&rclk=1,"Physical Therapist, Islamabad"
71,islamabadphysiothera_33.527158_73.096394,Islamabad Physiotherapy and Rehabilitation Center (IPRC),"Islamabad Physiotherapy and Rehabilitation Center (IPRC)
4.9(33)
Physical therapist ·  · 2nd Floor, Plaza# 1N, near Green Valley
Open ⋅ Closes 10 PM · +92 331 8777844",Physical therapist,Open,33.5271575,73.0963939,https://www.google.com/maps/place/Islamabad+Physiotherapy+and+Rehabilitation+Center+%28IPRC%29/data=!4m7!3m6!1s0x38dfed0eaa74d3a3:0x3740de759482b3e2!8m2!3d33.5271575!4d73.0963939!16s%2Fg%2F11k5666kz1!19sChIJo9N0qg7t3zgR4rOClHXeQDc?authuser=0&hl=en&rclk=1,"Physical Therapist, Islamabad"
72,iprcislamabadphysiot_33.695246_73.060701,IPRC | Islamabad Physiotherapy & Rehabilitation Centre | G-8 Islamabad,"IPRC | Islamabad Physiotherapy & Rehabilitation Centre | G-8 Islamabad
4.6(17)
Physical therapy clinic ·  · PTCL Health Center, IPRC, Street 22
Open ⋅ Closes 7 PM · +92 333 2724447",Physical therapy clinic,Open,33.695246,73.0607014,https://www.google.com/maps/place/IPRC+%7C+Islamabad+Physiotherapy+%26+Rehabilitation+Centre+%7C+G-8+Islamabad/data=!4m7!3m6!1s0x38dfbf3839409f0b:0xaeeb8e0f4153d941!8m2!3d33.695246!4d73.0607014!16s%2Fg%2F11j3xm19nw!19sChIJC59AOTi_3zgRQdlTQQ-O664?authuser=0&hl=en&rclk=1,"Physical Therapist, Islamabad"
73,ipcislamabadphysioth_33.571813_73.146187,IPC - Islamabad Physiotherapy Center,"IPC - Islamabad Physiotherapy Center
5.0(14)
Physical therapy clinic · Al Moeed Plaza
Open ⋅ Closes 5 PM · +92 348 4591197",Physical therapy clinic,Open,33.5718125,73.1461875,https://www.google.com/maps/place/IPC+-+Islamabad+Physiotherapy+Center/data=!4m7!3m6!1s0x38dfed00220f3b33:0x62fe338e4f7061d2!8m2!3d33.5718125!4d73.1461875!16s%2Fg%2F11wq0lk3jh!19sChIJMzsPIgDt3zgR0mFwT44z_mI?authuser=0&hl=en&rclk=1,"Physical Therapist, Islamabad"
74,wecarephysicaltherap_33.617626_73.137172,WeCare Physical Therapy Clinic,"WeCare Physical Therapy Clinic
4.9(177)
Physical therapist · House 65 Street 13
Closed ⋅ Opens 6 PM · +92 332 0951324",Physical therapist,Closed,33.6176257,73.1371718,https://www.google.com/maps/place/WeCare+Physical+Therapy+Clinic/data=!4m7!3m6!1s0x38dfeb498f0dc93f:0x899c5ffeefe4b6a6!8m2!3d33.6176257!4d73.1371718!16s%2Fg%2F11t9d_qndq!19sChIJP8kNj0nr3zgRprbk7_5fnIk?authuser=0&hl=en&rclk=1,"Physical Therapist, Islamabad"
75,alphaphysiotherapy_33.616116_73.086108,Alpha Physiotherapy,"Alpha Physiotherapy
5.0(8)
Physical therapist
Open ⋅ Closes 8 PM · +92 318 5710434",Physical therapist,Open,33.6161162,73.086108,https://www.google.com/maps/place/Alpha+Physiotherapy/data=!4m7!3m6!1s0x44e341c65517a607:0x19f26db213c1eafa!8m2!3d33.6161162!4d73.086108!16s%2Fg%2F11yc393nbj!19sChIJB6YXVcZB40QR-urBE7Jt8hk?authuser=0&hl=en&rclk=1,"Physical Therapist, Islamabad"
76,careplusphysiotherap_33.632289_72.922802,Care plus Physiotherapy and home health services Islamabad,"Care plus Physiotherapy and home health services Islamabad
4.9(27)
Physical therapist ·  · Meezan plaza care plus medical center, markaz
Open 24 hours · +92 322 5533413",Physical therapist,Open 24 hours,33.632289,72.922802,https://www.google.com/maps/place/Care+plus+Physiotherapy+and+home+health+services+Islamabad/data=!4m7!3m6!1s0x38df97cbba8a70f3:0x83dd57a545e057a3!8m2!3d33.632289!4d72.922802!16s%2Fg%2F11vkp0gf3h!19sChIJ83CKusuX3zgRo1fgRaVX3YM?authuser=0&hl=en&rclk=1,"Physical Therapist, Islamabad"
77,drsanakanwalphysioth_33.515883_73.171634,Dr Sana Kanwal (Physiotherapist),"Dr Sana Kanwal (Physiotherapist)
5.0(32)
Physical therapist · Palaza 65 St 26A, near T- Chawk
Open ⋅ Closes 7 PM · +92 335 5507743",Physical therapist,Open,33.5158826,73.1716337,https://www.google.com/maps/place/Dr+Sana+Kanwal+%28Physiotherapist%29/data=!4m7!3m6!1s0x38dff399269ffb9f:0xbb4b058e670335e4!8m2!3d33.5158826!4d73.1716337!16s%2Fg%2F11twjv14vl!19sChIJn_ufJpnz3zgR5DUDZ44FS7s?authuser=0&hl=en&rclk=1,"Physical Therapist, Islamabad"
78,homevisitphysiothera_33.717071_73.085310,Home Visit Physiotherapy Islamabad,"Home Visit Physiotherapy Islamabad
5.0(12)
Physical therapist · 180 Street 56
Open ⋅ Closes 10:30 PM · +92 321 6744424",Physical therapist,Open,33.7170706,73.0853101,https://www.google.com/maps/place/Home+Visit+Physiotherapy+Islamabad/data=!4m7!3m6!1s0x38dfbfe7755abb43:0xef46c8feddbacb7!8m2!3d33.7170706!4d73.0853101!16s%2Fg%2F11vb4ctc0k!19sChIJQ7tadee_3zgRt6zb7Y9s9A4?authuser=0&hl=en&rclk=1,"Physical Therapist, Islamabad"
79,carephysicaltherapyc_33.653272_73.204227,CARE PHYSICAL THERAPY CLINIC,"CARE PHYSICAL THERAPY CLINIC
5.0(13)
Physical therapy clinic · Care pharmacy, near alnafees medical college and hospital
Open ⋅ Closes 7 PM · +92 349 5066696",Physical therapy clinic,Open,33.6532725,73.2042273,https://www.google.com/maps/place/CARE+PHYSICAL+THERAPY+CLINIC/data=!4m7!3m6!1s0x38dfe99d151a7ce9:0x84f3de6a1b014b25!8m2!3d33.6532725!4d73.2042273!16s%2Fg%2F11x399fb04!19sChIJ6XwaFZ3p3zgRJUsBG2re84Q?authuser=0&hl=en&rclk=1,"Physical Therapist, Islamabad"
80,drzainab_33.660271_73.073997,Dr Zainab,"Dr Zainab
5.0(29)
Physical therapy clinic · Street 99
Open ⋅ Closes 8 PM · +92 333 4397298",Physical therapy clinic,Open,33.6602706,73.0739974,https://www.google.com/maps/place/Dr+Zainab/data=!4m7!3m6!1s0x38df9547e35ec45b:0x2c56a7e0202a79de!8m2!3d33.6602706!4d73.0739974!16s%2Fg%2F11c1s1kh4h!19sChIJW8Re40eV3zgR3nkqIOCnViw?authuser=0&hl=en&rclk=1,"Physical Therapist, Islamabad"
81,drmehrunnisaphysioth_33.565060_73.126294,Dr Mehrunnisa Physiotherapist,"Dr Mehrunnisa Physiotherapist
4.8(16)
Physical therapy clinic · Plaza Number 370-R, Basement Floor
Open ⋅ Closes 11 PM · +92 334 9030639",Physical therapy clinic,Open,33.5650599,73.1262943,https://www.google.com/maps/place/Dr+Mehrunnisa+Physiotherapist/data=!4m7!3m6!1s0x38dfedf1e4a893d3:0xe08a5e0750dc666!8m2!3d33.5650599!4d73.1262943!16s%2Fg%2F11y3j1lxgw!19sChIJ05Oo5PHt3zgRZsYNdeClCA4?authuser=0&hl=en&rclk=1,"Physical Therapist, Islamabad"
82,oasisphysiotherapy_33.696789_73.012683,Oasis Physiotherapy,"Oasis Physiotherapy
5.0(12)
Physical therapy clinic · M2W7+P37
Open ⋅ Closes 10 PM · +92 314 9882227",Physical therapy clinic,Open,33.6967894,73.0126832,https://www.google.com/maps/place/Oasis+Physiotherapy/data=!4m7!3m6!1s0x38dfbf9497764651:0x88cac0543916c467!8m2!3d33.6967894!4d73.0126832!16s%2Fg%2F11rgqjnjxb!19sChIJUUZ2l5S_3zgRZ8QWOVTAyog?authuser=0&hl=en&rclk=1,"Physical Therapist, Islamabad"
83,reconnectphysiothera_33.689262_72.832251,Reconnect Physiotherapy Centre ( RPC) B-17,"Reconnect Physiotherapy Centre ( RPC) B-17
5.0(24)
Physical therapy clinic ·  · House no, 226 Street 13
Open ⋅ Closes 9 PM · +92 344 5760646",Physical therapy clinic,Open,33.6892618,72.8322515,https://www.google.com/maps/place/Reconnect+Physiotherapy+Centre+%28+RPC%29+B-17/data=!4m7!3m6!1s0x38dfa323340ecf77:0x66c4b4aa98e456ff!8m2!3d33.6892618!4d72.8322515!16s%2Fg%2F11ldd20qj2!19sChIJd88ONCOj3zgR_1bkmKq0xGY?authuser=0&hl=en&rclk=1,"Physical Therapist, Islamabad"
84,physiotherapypluscli_33.564840_73.127081,Physiotherapy Plus Clinic,"Physiotherapy Plus Clinic
4.9(47)
Doctor · SHOP-4, TARIQ ARCADE, Main PWD Rd, opp. THE CITI LAB Bahria Branch PWD
Open ⋅ Closes 10 PM · +92 311 0501677",Doctor,Open,33.56484,73.1270813,https://www.google.com/maps/place/Physiotherapy+Plus+Clinic/data=!4m7!3m6!1s0x38dfedfb872e3f11:0x8010184fa66266be!8m2!3d33.56484!4d73.1270813!16s%2Fg%2F11lrg_tnzj!19sChIJET8uh_vt3zgRvmZipk8YEIA?authuser=0&hl=en&rclk=1,"Physical Therapist, Islamabad"
85,smartphysiotherapyre_33.697300_72.983287,SMART Physiotherapy/Rehabilitation Clinic and Home Services(SRC&HS),"SMART Physiotherapy/Rehabilitation Clinic and Home Services(SRC&HS)
5.0(17)
Physical therapy clinic ·  · House-334 Street 22
Open ⋅ Closes 10 PM · +92 327 7860111",Physical therapy clinic,Open,33.6973001,72.9832873,https://www.google.com/maps/place/SMART+Physiotherapy%2FRehabilitation+Clinic+and+Home+Services%28SRC%26HS%29/data=!4m7!3m6!1s0x38dfbf40051e48c3:0xd24b81c4ae805f03!8m2!3d33.6973001!4d72.9832873!16s%2Fg%2F11ngyqr31w!19sChIJw0geBUC_3zgRA1-ArsSBS9I?authuser=0&hl=en&rclk=1,"Physical Therapist, Islamabad"
86,hassanphysicaltherap_33.698774_72.981513,Hassan physical therapist Speech Therapist Behavior Therapy OT Clinical & Home Based Services,"Hassan physical therapist Speech Therapist Behavior Therapy OT Clinical & Home Based Services
5.0(21)
Physical therapy clinic · Street 26
Open 24 hours · +92 316 2283247",Physical therapy clinic,Open 24 hours,33.6987738,72.9815131,https://www.google.com/maps/place/Hassan+physical+therapist+Speech+Therapist+Behavior+Therapy+OT+Clinical+%26+Home+Based+Services/data=!4m7!3m6!1s0x38dfbd14d33ce65d:0xcff1db31c4ea6fbb!8m2!3d33.6987738!4d72.9815131!16s%2Fg%2F11wc5t0tj7!19sChIJXeY80xS93zgRu2_qxDHb8c8?authuser=0&hl=en&rclk=1,"Physical Therapist, Islamabad"
87,drajwadphysiotherapy_33.616116_73.086108,Dr Ajwad Physiotherapy Home sessions,"Dr Ajwad Physiotherapy Home sessions
5.0(1)
Physical therapist
Open ⋅ Closes 10 PM · +92 311 9908250",Physical therapist,Open,33.6161162,73.086108,https://www.google.com/maps/place/Dr+Ajwad+Physiotherapy+Home+sessions/data=!4m7!3m6!1s0xa62d6890baf67059:0xfeb6cc8a4d3250f2!8m2!3d33.6161162!4d73.086108!16s%2Fg%2F11x2x_pq27!19sChIJWXD2upBoLaYR8lAyTYrMtv4?authuser=0&hl=en&rclk=1,"Physical Therapist, Islamabad"
88,drishfaqafridipt_33.720180_73.073823,Dr Ishfaq Afridi (PT),"Dr Ishfaq Afridi (PT)
5.0(10)
Physical therapist · Main Nazim-ud-din Rd, opposite Beverly Centre
Open ⋅ Closes 11 PM · +92 318 0963891",Physical therapist,Open,33.7201801,73.0738234,https://www.google.com/maps/place/Dr+Ishfaq+Afridi+%28PT%29/data=!4m7!3m6!1s0x38dfbff0197e4f09:0xf7a703deadc0a482!8m2!3d33.7201801!4d73.0738234!16s%2Fg%2F11kqxdhkdd!19sChIJCU9-GfC_3zgRgqTArd4Dp_c?authuser=0&hl=en&rclk=1,"Physical Therapist, Islamabad"
89,physioheedphysiother_33.559532_73.087983,Physioheed Physiotherapy Home Services in Rawalpindi/Islamabad,"Physioheed Physiotherapy Home Services in Rawalpindi/Islamabad
5.0(43)
Physical therapy clinic · 1, Hill Park, GT RD W, Morgan
Open 24 hours · +92 336 7656526",Physical therapy clinic,Open 24 hours,33.5595318,73.0879827,https://www.google.com/maps/place/Physioheed+Physiotherapy+Home+Services+in+Rawalpindi%2FIslamabad/data=!4m7!3m6!1s0x38dfedd6963996cd:0xb78c44a3ae356341!8m2!3d33.5595318!4d73.0879827!16s%2Fg%2F11hzcgz_vm!19sChIJzZY5ltbt3zgRQWM1rqNEjLc?authuser=0&hl=en&rclk=1,"Physical Therapist, Islamabad"
90,mmrcislamabad_33.717364_73.083895,MMRC ISLAMABAD,"MMRC ISLAMABAD
4.9(30)
Orthopedic clinic ·  · Street 98, First Floor Mir Square, Melody Market, Post Office Road
Open ⋅ Closes 10 PM · +92 51 2825657",Orthopedic clinic,Open,33.7173637,73.0838949,https://www.google.com/maps/place/MMRC+ISLAMABAD/data=!4m7!3m6!1s0x38dfbffaaeb0da1d:0x82a6f6814c3cdb01!8m2!3d33.7173637!4d73.0838949!16s%2Fg%2F11qmqg06_h!19sChIJHdqwrvq_3zgRAds8TIH2poI?authuser=0&hl=en&rclk=1,"Physical Therapist, Islamabad"
91,homephysiotherapyser_33.642796_72.960512,Home physiotherapy services [ National physiotherapy center ],"Home physiotherapy services [ National physiotherapy center ]
5.0(21)
Physical therapy clinic · Street 97
Open 24 hours · +92 331 3134355",Physical therapy clinic,Open 24 hours,33.642796,72.9605116,https://www.google.com/maps/place/Home+physiotherapy+services+%5B+National+physiotherapy+center+%5D/data=!4m7!3m6!1s0x38df973979bfa343:0x4e7a4fb9eb41fd42!8m2!3d33.642796!4d72.9605116!16s%2Fg%2F11vh_d3fnl!19sChIJQ6O_eTmX3zgRQv1B67lPek4?authuser=0&hl=en&rclk=1,"Physical Therapist, Islamabad"
92,nationalphysiotherap_33.602088_72.984867,National Physiotherapy Center (Home Physiotherapy services) in Islamabad & Rawalpindi,"National Physiotherapy Center (Home Physiotherapy services) in Islamabad & Rawalpindi
4.9(48)
Physical therapy clinic · lane 6 officers colony misrial, road
Open 24 hours · +92 331 3134355",Physical therapy clinic,Open 24 hours,33.6020883,72.9848672,https://www.google.com/maps/place/National+Physiotherapy+Center+%28Home+Physiotherapy+services%29+in+Islamabad+%26+Rawalpindi/data=!4m7!3m6!1s0x38df976b73a39e37:0x553854e8c370a997!8m2!3d33.6020883!4d72.9848672!16s%2Fg%2F11sjg7jqfh!19sChIJN56jc2uX3zgRl6lww-hUOFU?authuser=0&hl=en&rclk=1,"Physical Therapist, Islamabad"
93,drmustafasclinici8dm_33.666691_73.076077,Dr.Mustafa's Clinic I-8(DMC),"Dr.Mustafa's Clinic I-8(DMC)
4.9(43)
Physical therapy clinic · M38G+MCJ
Open ⋅ Closes 9 PM · +92 343 9475130",Physical therapy clinic,Open,33.666691,73.076077,https://www.google.com/maps/place/Dr.Mustafa%27s+Clinic+I-8%28DMC%29/data=!4m7!3m6!1s0x38df95007d382251:0x1a65a3dd8ae19990!8m2!3d33.666691!4d73.076077!16s%2Fg%2F11wx8jjncj!19sChIJUSI4fQCV3zgRkJnhit2jZRo?authuser=0&hl=en&rclk=1,"Physical Therapist, Islamabad"
94,royalcureclinics_33.696824_73.012722,Royal Cure Clinics,"Royal Cure Clinics
4.9(37)
Physical therapist · Office no.2, 1st Floor, M2W7+P39 Pak Plaza, Markaz, near D-Watson
Open ⋅ Closes 10 PM · +92 311 3333176",Physical therapist,Open,33.6968245,73.0127224,https://www.google.com/maps/place/Royal+Cure+Clinics/data=!4m7!3m6!1s0x38dfbf99fa8bac5d:0xb2321880fd315d74!8m2!3d33.6968245!4d73.0127224!16s%2Fg%2F11t83512c6!19sChIJXayL-pm_3zgRdF0x_YAYMrI?authuser=0&hl=en&rclk=1,"Physical Therapist, Islamabad"
95,physiotherapydryneed_33.554937_73.159468,"Physiotherapy, Dry needling and Dry Cupping therapy center","Physiotherapy, Dry needling and Dry Cupping therapy center
5.0(32)
Physical therapist · garden, Street 25
Open ⋅ Closes 10:30 PM · +92 332 5705643",Physical therapist,Open,33.5549368,73.1594684,"https://www.google.com/maps/place/Physiotherapy,+Dry+needling+and+Dry+Cupping+therapy+center/data=!4m7!3m6!1s0x38dfed2c6f305a69:0xf633c24ae07085b3!8m2!3d33.5549368!4d73.1594684!16s%2Fg%2F11jyf7d941!19sChIJaVowbyzt3zgRs4Vw4ErCM_Y?authuser=0&hl=en&rclk=1","Physical Therapist, Islamabad"
96,fitlivephysiotherapy_33.669432_73.074098,Fitlive Physiotherapy - best Physiotherapist in Islamabad,"Fitlive Physiotherapy - best Physiotherapist in Islamabad
4.8(9)
Physical therapy clinic · Ahmed Center, Markaz, below Islamabad Diagnostic Center Lab
Closed ⋅ Opens 5 PM · +92 318 5302508",Physical therapy clinic,Closed,33.6694315,73.0740984,https://www.google.com/maps/place/Fitlive+Physiotherapy+-+best+Physiotherapist+in+Islamabad/data=!4m7!3m6!1s0x38df9511234a59cf:0xca9cc13b655156!8m2!3d33.6694315!4d73.0740984!16s%2Fg%2F11smdpl0y9!19sChIJz1lKIxGV3zgRVlFlO8GcygA?authuser=0&hl=en&rclk=1,"Physical Therapist, Islamabad"
97,physioworksbystayfit_33.638001_73.067218,Physioworks By Stayfit,"Physioworks By Stayfit
5.0(32)
Physical therapy clinic · Market, 4th road, Main Commercial, above UBL bank
Open ⋅ Closes 9 PM · +92 333 1934880",Physical therapy clinic,Open,33.6380008,73.0672176,https://www.google.com/maps/place/Physioworks+By+Stayfit/data=!4m7!3m6!1s0x38df952bd4a0c493:0xa8de0ac388c72767!8m2!3d33.6380008!4d73.0672176!16s%2Fg%2F11fswdl98f!19sChIJk8Sg1CuV3zgRZyfHiMMK3qg?authuser=0&hl=en&rclk=1,"Physical Therapist, Islamabad"
98,therapycenter_33.520505_73.092063,Therapy Center,"Therapy Center
4.9(36)
Physical therapist · Bahria town Phase 7, 31 -B central avenue
Open ⋅ Closes 10 PM · +92 332 7748786",Physical therapist,Open,33.5205051,73.0920631,https://www.google.com/maps/place/Therapy+Center/data=!4m7!3m6!1s0x38dfed9014e74bbf:0xab34f24c2c5b6189!8m2!3d33.5205051!4d73.0920631!16s%2Fg%2F11np7rw3sb!19sChIJv0vnFJDt3zgRiWFbLEzyNKs?authuser=0&hl=en&rclk=1,"Physical Therapist, Islamabad"
99,javedphysiotherapyce_33.520547_73.088315,Javed physiotherapy center,"Javed physiotherapy center
4.9(29)
Medical clinic · Plaza 75, north spring, near shaheen chowk
Open ⋅ Closes 9 PM · +92 301 9047642",Medical clinic,Open,33.5205468,73.0883148,https://www.google.com/maps/place/Javed+physiotherapy+center/data=!4m7!3m6!1s0x38dfed62ac85c3d7:0x6410bafc10fd851f!8m2!3d33.5205468!4d73.0883148!16s%2Fg%2F11t506szpz!19sChIJ18OFrGLt3zgRH4X9EPy6EGQ?authuser=0&hl=en&rclk=1,"Physical Therapist, Islamabad"
100,physiotherapybynexge_33.567540_73.135427,Physio therapy by nexgen,"Physio therapy by nexgen
5.0(21)
Physical therapy clinic · Police, 4
Open ⋅ Closes 10 PM · +92 313 2164399",Physical therapy clinic,Open,33.5675396,73.1354272,https://www.google.com/maps/place/Physio+therapy+by+nexgen/data=!4m7!3m6!1s0x38dfed2fc5dba575:0xe140978b8859b23e!8m2!3d33.5675396!4d73.1354272!16s%2Fg%2F11l29fdg4x!19sChIJdaXbxS_t3zgRPrJZiIuXQOE?authuser=0&hl=en&rclk=1,"Physical Therapist, Islamabad"
101,graceinternationalho_33.663708_72.888170,"Grace International Hospital, Physiotherapy and Pain Management.","Grace International Hospital, Physiotherapy and Pain Management.
5.0(3)
Physical therapist ·  · Grace International Hospital Islamabad, main GT Rd, opposite Margalla Veiw Hall
Open 24 hours · +92 301 5710777",Physical therapist,Open 24 hours,33.6637082,72.8881701,"https://www.google.com/maps/place/Grace+International+Hospital,+Physiotherapy+and+Pain+Management./data=!4m7!3m6!1s0x38dfa3fe352e8721:0xa4f247a5453735f9!8m2!3d33.6637082!4d72.8881701!16s%2Fg%2F11q3z_3d8v!19sChIJIYcuNf6j3zgR-TU3RaVH8qQ?authuser=0&hl=en&rclk=1","Physical Therapist, Islamabad"
102,physicaltherapyservi_33.643062_73.199544,Physical therapy services,"Physical therapy services
5.0(13)
Physical therapist · Satra mill stop, Lehtrar Rd
Open ⋅ Closes 5 PM · +92 349 1549232",Physical therapist,Open,33.6430625,73.1995436,https://www.google.com/maps/place/Physical+therapy+services/data=!4m7!3m6!1s0x38dfe93015d8072d:0x5b77f9a47aaef0d8!8m2!3d33.6430625!4d73.1995436!16s%2Fg%2F11vbf00yg6!19sChIJLQfYFTDp3zgR2PCueqT5d1s?authuser=0&hl=en&rclk=1,"Physical Therapist, Islamabad"
103,mhsspeechtherapyphys_33.567130_73.147563,MHS Speech Therapy & Physiotherapy Behavior Therapy OT Center & Home Services,"MHS Speech Therapy & Physiotherapy Behavior Therapy OT Center & Home Services
4.9(15)
Physical therapist ·  · Muzaffar Plaza,Mehran Market
Open ⋅ Closes 9 PM · +92 311 0979070",Physical therapist,Open,33.5671296,73.1475631,https://www.google.com/maps/place/MHS+Speech+Therapy+%26+Physiotherapy+Behavior+Therapy+OT+Center+%26+Home+Services/data=!4m7!3m6!1s0x38dfedafc8720b95:0x7489425c73079b29!8m2!3d33.5671296!4d73.1475631!16s%2Fg%2F11sffnj10_!19sChIJlQtyyK_t3zgRKZsHc1xCiXQ?authuser=0&hl=en&rclk=1,"Physical Therapist, Islamabad"
104,gulfcarephysiotherap_33.554558_73.166644,Gulf Care Physiotherapy and hijama Clinic,"Gulf Care Physiotherapy and hijama Clinic
4.8(26)
Physical therapy clinic · Garden, service road River, society
Open 24 hours · +92 309 7708828",Physical therapy clinic,Open 24 hours,33.5545578,73.1666444,https://www.google.com/maps/place/Gulf+Care+Physiotherapy+and+hijama+Clinic/data=!4m7!3m6!1s0x38dfedf4dcaab737:0xcd41a9489c8377da!8m2!3d33.5545578!4d73.1666444!16s%2Fg%2F11y2mrlhtr!19sChIJN7eq3PTt3zgR2neDnEipQc0?authuser=0&hl=en&rclk=1,"Physical Therapist, Islamabad"
105,spiremedicalrehabili_33.564428_73.126578,Spire Medical & Rehabilitation Center,"Spire Medical & Rehabilitation Center
5.0(10)
Physical therapist ·  · 5
Open ⋅ Closes 9 PM · +92 330 2592597",Physical therapist,Open,33.5644277,73.1265778,https://www.google.com/maps/place/Spire+Medical+%26+Rehabilitation+Center/data=!4m7!3m6!1s0x38dfed58f6848b0b:0x656c0a50acdd2174!8m2!3d33.5644277!4d73.1265778!16s%2Fg%2F11hdsmjwwp!19sChIJC4uE9ljt3zgRdCHdrFAKbGU?authuser=0&hl=en&rclk=1,"Physical Therapist, Islamabad"
