Index,Place Id,Name,Address,Category,Status,Latitude,Longitude,Link,SearchKeyword
1,na_noloc,,,,,,,,"Rehabilitation Center, Islamabad"
5,islamabadspecialistc_33.696991_73.051271,Islamabad Specialist Clinic G-8 Markaz Islamabad,,Medical clinic,Open,33.6969906,73.0512707,https://www.google.com/maps/place/Islamabad+Specialist+Clinic+G-8+Markaz+Islamabad/data=!4m7!3m6!1s0x38dfbf6482f6aa81:0xae209a86fda47a8b!8m2!3d33.6969906!4d73.0512707!16s%2Fg%2F11hf72mc2q!19sChIJgar2gmS_3zgRi3qk_YaaIK4?authuser=0&hl=en&rclk=1,"Rehabilitation Center, Islamabad"
37,drajmalosmanfatimacl_33.688607_73.013056,Dr. Ajmal Osman | Fatima Clinic F-10 | Top/Best (No.1) Specialist of Islamabad & Rawalpindi,"Dr. Ajmal Osman | Fatima Clinic F-10 | Top/Best (No.1) Specialist of Islamabad & Rawalpindi
4.8(184)
Hospital ·  · House 93 Street 44
Open ⋅ Closes 12 AM · +92 323 6833333",Hospital,Open,33.6886072,73.013056,https://www.google.com/maps/place/Dr.+Ajmal+Osman+%7C+Fatima+Clinic+F-10+%7C+Top%2FBest+%28No.1%29+Specialist+of+Islamabad+%26+Rawalpindi/data=!4m7!3m6!1s0x38dfbe1693dca1a1:0x4d05249fbcd133d5!8m2!3d33.6886072!4d73.013056!16s%2Fg%2F11fxx64hvf!19sChIJoaHckxa-3zgR1TPRvJ8kBU0?authuser=0&hl=en&rclk=1,"Rehabilitation Center, Islamabad"
38,hmdiagnosticsandclin_33.698479_73.048750,HM Diagnostics and Clinics,"HM Diagnostics and Clinics
4.8(213)
Medical clinic · Basement shop no. 11 & 12 Crescent Arcade, Road
Open ⋅ Closes 10 PM · +92 321 5199295",Medical clinic,Open,33.6984794,73.0487497,https://www.google.com/maps/place/HM+Diagnostics+and+Clinics/data=!4m7!3m6!1s0x38dfbfd2f102e0f9:0x3e7c6653ba9236fd!8m2!3d33.6984794!4d73.0487497!16s%2Fg%2F11jx6jbvnp!19sChIJ-eAC8dK_3zgR_TaSulNmfD4?authuser=0&hl=en&rclk=1,"Rehabilitation Center, Islamabad"
39,lelotuscliniquetopsk_33.706189_73.037792,Le Lotus Clinique - Top Skin Care Clinic in Islamabad,"Le Lotus Clinique - Top Skin Care Clinic in Islamabad
4.8(793)
Dermatologist · Besides Studio M & Kitchen Cuisine Restaurant, Allah Wali Market, 1 Street 33
Open ⋅ Closes 7 PM · +92 318 5457381",Dermatologist,Open,33.7061886,73.0377925,https://www.google.com/maps/place/Le+Lotus+Clinique+-+Top+Skin+Care+Clinic+in+Islamabad/data=!4m7!3m6!1s0x38dfbf08effa8d9f:0xa430311967c12e8f!8m2!3d33.7061886!4d73.0377925!16s%2Fg%2F11r2rnrl71!19sChIJn4367wi_3zgRjy7BZxkxMKQ?authuser=0&hl=en&rclk=1,"Rehabilitation Center, Islamabad"
40,alfatimaclinicislama_33.716399_73.084738,"Al fatima Clinic, islamabad","Al fatima Clinic, islamabad
3.7(26)
Medical Center ·  · Ground Floor, Melody Market, Islamabad Medical and Surgical Centre
Open 24 hours · +92 336 2824124",Medical Center,Open 24 hours,33.7163989,73.0847375,"https://www.google.com/maps/place/Al+fatima+Clinic,+islamabad/data=!4m7!3m6!1s0x38dfbf7c8641b7cf:0x1713a8999cc921b!8m2!3d33.7163989!4d73.0847375!16s%2Fg%2F11sjrnmzyv!19sChIJz7dBhny_3zgRG5LMmYk6cQE?authuser=0&hl=en&rclk=1","Rehabilitation Center, Islamabad"
41,islamabadfamilyclini_33.642228_73.127788,Islamabad Family Clinic,"Islamabad Family Clinic
5.0(24)
Health consultant · Gardyzi colony, Barma
Open ⋅ Closes 10 PM · +92 323 5555082",Health consultant,Open,33.642228,73.1277884,https://www.google.com/maps/place/Islamabad+Family+Clinic/data=!4m7!3m6!1s0x38dfeb43850c74e3:0xce7e92b616b34742!8m2!3d33.642228!4d73.1277884!16s%2Fg%2F11qg6616pd!19sChIJ43QMhUPr3zgRQkezFraSfs4?authuser=0&hl=en&rclk=1,"Rehabilitation Center, Islamabad"
42,lelotuscliniqueskinc_33.530342_73.133320,Le Lotus Clinique - Skin Care Clinic in Islamabad,"Le Lotus Clinique - Skin Care Clinic in Islamabad
4.9(708)
Skin care clinic ·  · Crystal Heights Plaza # 14 Bank Al Habib Building, G.T. Rd
Open ⋅ Closes 7 PM · +92 335 5181166",Skin care clinic,Open,33.5303419,73.1333203,https://www.google.com/maps/place/Le+Lotus+Clinique+-+Skin+Care+Clinic+in+Islamabad/data=!4m7!3m6!1s0x38dfed2bebf3dc4f:0x31619be77520b7d7!8m2!3d33.5303419!4d73.1333203!16s%2Fg%2F11g0dgv39c!19sChIJT9zz6yvt3zgR17cgdeebYTE?authuser=0&hl=en&rclk=1,"Rehabilitation Center, Islamabad"
43,graceinternationalho_33.663460_72.887963,Grace International Hospital Islamabad,"Grace International Hospital Islamabad
2.8(46)
Hospital · 
Open 24 hours · +92 301 5710777",Hospital,Open 24 hours,33.6634596,72.8879628,https://www.google.com/maps/place/Grace+International+Hospital+Islamabad/data=!4m7!3m6!1s0x38dfa3e8224f80f1:0x89bea84f88237fda!8m2!3d33.6634596!4d72.8879628!16s%2Fg%2F11lg2nf5v3!19sChIJ8YBPIuij3zgR2n8jiE-ovok?authuser=0&hl=en&rclk=1,"Rehabilitation Center, Islamabad"
44,islamabadentcenterpv_33.697989_73.048847,"Islamabad ENT Center-Pvt.Ltd"" (Rhinoplasty) Ear, Nose, Throat Specialist's, Surgeon's","Islamabad ENT Center-Pvt.Ltd"" (Rhinoplasty) Ear, Nose, Throat Specialist's, Surgeon's
4.8(186)
Otolaryngology clinic ·  · officia 20 Ground Floor, executive Complex, Back Side PSO Pump, Markaz, near TCS Office
Open ⋅ Closes 9 PM · +92 342 4512784",Otolaryngology clinic,Open,33.6979885,73.0488475,"https://www.google.com/maps/place/Islamabad+ENT+Center-Pvt.Ltd%22+%28Rhinoplasty%29+Ear,+Nose,+Throat+Specialist%27s,+Surgeon%27s/data=!4m7!3m6!1s0x38dfbfbf21ad4751:0xd3a073468163936!8m2!3d33.6979885!4d73.0488475!16s%2Fg%2F11mwys_dgl!19sChIJUUetIb-_3zgRNjkWaDQHOg0?authuser=0&hl=en&rclk=1","Rehabilitation Center, Islamabad"
45,avicennaclinic_33.710497_73.038990,Avicenna Clinic,"Avicenna Clinic
5.0(4)
Medical clinic ·  · Khasif Plaza, Parking, offJohar Road
Open ⋅ Closes 11 PM · +92 51 8448474",Medical clinic,Open,33.7104968,73.03899,https://www.google.com/maps/place/Avicenna+Clinic/data=!4m7!3m6!1s0x38dfbfae8c8e2981:0xabae6ce0c269947!8m2!3d33.7104968!4d73.03899!16s%2Fg%2F11fn242f7y!19sChIJgSmOjK6_3zgRR5kmDM7mugo?authuser=0&hl=en&rclk=1,"Rehabilitation Center, Islamabad"
46,drsamanwaseembestder_33.722529_73.060211,DR SAMAN WASEEM | Best Dermatologist in Islamabad | Best Skin Specialist | Best Laser Clinic | Derma Bliss,"DR SAMAN WASEEM | Best Dermatologist in Islamabad | Best Skin Specialist | Best Laser Clinic | Derma Bliss
4.8(245)
Skin care clinic · Jinnah Super Market, Shop 8-13, Lower Ground Floor PAKLAND Trade Center, next to Bareeze
Open ⋅ Closes 7 PM · +92 302 8866556",Skin care clinic,Open,33.7225293,73.0602112,https://www.google.com/maps/place/DR+SAMAN+WASEEM+%7C+Best+Dermatologist+in+Islamabad+%7C+Best+Skin+Specialist+%7C+Best+Laser+Clinic+%7C+Derma+Bliss/data=!4m7!3m6!1s0x38dfbfa0c6ba1861:0x8fc387a7941089ad!8m2!3d33.7225293!4d73.0602112!16s%2Fg%2F11g9s_9px0!19sChIJYRi6xqC_3zgRrYkQlKeHw48?authuser=0&hl=en&rclk=1,"Rehabilitation Center, Islamabad"
47,dynamicclinicislamab_33.723608_73.057472,Dynamic Clinic islamabad,"Dynamic Clinic islamabad
4.9(13)
Skin care clinic · Ammar Center F-7 Markaz, ISB, Markaz
Open ⋅ Closes 8 PM · +92 51 2656491",Skin care clinic,Open,33.7236077,73.0574718,https://www.google.com/maps/place/Dynamic+Clinic+islamabad/data=!4m7!3m6!1s0x85421ccf8a220589:0xa82247ac8dd20281!8m2!3d33.7236077!4d73.0574718!16s%2Fg%2F11m5qjw5mr!19sChIJiQUiis8cQoURgQLSjaxHIqg?authuser=0&hl=en&rclk=1,"Rehabilitation Center, Islamabad"
48,imranzcliniccertifie_33.669177_73.075760,Imranz Clinic - Certified Sexologist in Islamabad & Rawalpindi,"Imranz Clinic - Certified Sexologist in Islamabad & Rawalpindi
4.6(50)
Sexologist · Suite No 9, 1st Floor, Twin City Center, Markaz
Open ⋅ Closes 6 PM · +92 311 1120007",Sexologist,Open,33.669177,73.0757595,https://www.google.com/maps/place/Imranz+Clinic+-+Certified+Sexologist+in+Islamabad+%26+Rawalpindi/data=!4m7!3m6!1s0x38df950c11db12d9:0x1787f93aaf3c430a!8m2!3d33.669177!4d73.0757595!16s%2Fg%2F11v42p5h26!19sChIJ2RLbEQyV3zgRCkM8rzr5hxc?authuser=0&hl=en&rclk=1,"Rehabilitation Center, Islamabad"
49,draasmatayyabkhanisl_33.715395_73.054802,DR AASMA TAYYAB KHAN - Islamabad laser and skin clinic | Best dermatologist in Islamabad | Best laser clinic,"DR AASMA TAYYAB KHAN - Islamabad laser and skin clinic | Best dermatologist in Islamabad | Best laser clinic
4.9(927)
Dermatologist · Faisal Market، plot 6, first floor, Islamabad Laser and Skin Clinic Al-Sheikh Plaza
Open ⋅ Closes 5 PM · +92 331 5005904",Dermatologist,Open,33.7153949,73.0548025,https://www.google.com/maps/place/DR+AASMA+TAYYAB+KHAN+-+Islamabad+laser+and+skin+clinic+%7C+Best+dermatologist+in+Islamabad+%7C+Best+laser+clinic/data=!4m7!3m6!1s0x38dfbf719ba93491:0xae95545bd08cc6f5!8m2!3d33.7153949!4d73.0548025!16s%2Fg%2F11s_s620p9!19sChIJkTSpm3G_3zgR9caM0FtUla4?authuser=0&hl=en&rclk=1,"Rehabilitation Center, Islamabad"
50,zobiahospitalg9islam_33.677978_73.030205,Zobia Hospital G-9 Islamabad,"Zobia Hospital G-9 Islamabad
3.5(103)
Hospital ·  · Street 30
Open 24 hours · +92 51 2261130",Hospital,Open 24 hours,33.6779776,73.0302046,https://www.google.com/maps/place/Zobia+Hospital+G-9+Islamabad/data=!4m7!3m6!1s0x38dfbf80a2b451a5:0x316fd483f145e55d!8m2!3d33.6779776!4d73.0302046!16s%2Fg%2F11h336n5v0!19sChIJpVG0ooC_3zgRXeVF8YPUbzE?authuser=0&hl=en&rclk=1,"Rehabilitation Center, Islamabad"
51,aayanhealthclinic_33.705295_73.068247,Aayan Health Clinic,"Aayan Health Clinic
4.6(19)
Medical clinic ·  · Sitara، Shop # 1-2, Kohsar Cinema Building. Sitara Market, Islamabad G-7 Markaz، Market
Open ⋅ Closes 11 PM · +92 51 2606816",Medical clinic,Open,33.7052947,73.0682471,https://www.google.com/maps/place/Aayan+Health+Clinic/data=!4m7!3m6!1s0x38dfbf94f6965785:0x4ac781ac8c060939!8m2!3d33.7052947!4d73.0682471!16s%2Fg%2F11c1ngy_97!19sChIJhVeW9pS_3zgROQkGjKyBx0o?authuser=0&hl=en&rclk=1,"Rehabilitation Center, Islamabad"
52,thefamilyclinic_33.722563_73.060438,The Family Clinic,"The Family Clinic
4.0(59)
Medical clinic · Jinnah super Market, Pak Land trade center, 3rd floor Office no 8 F7/2
Open ⋅ Closes 5 PM · +92 51 2651666",Medical clinic,Open,33.7225625,73.0604375,https://www.google.com/maps/place/The+Family+Clinic/data=!4m7!3m6!1s0x38dfbfd01869359d:0xa42e70676acb0d42!8m2!3d33.7225625!4d73.0604375!16s%2Fg%2F11v9byxh_3!19sChIJnTVpGNC_3zgRQg3LamdwLqQ?authuser=0&hl=en&rclk=1,"Rehabilitation Center, Islamabad"
53,pafhospitalislamabad_33.708229_73.015313,PAF Hospital Islamabad,"PAF Hospital Islamabad
3.7(690)
Doctor ·  · Main Margalla Rd
Open 24 hours · +92 51 9564000",Doctor,Open 24 hours,33.708229,73.015313,https://www.google.com/maps/place/PAF+Hospital+Islamabad/data=!4m7!3m6!1s0x38dfbf22bfada2c1:0xa4d9acbf9789555b!8m2!3d33.708229!4d73.015313!16s%2Fg%2F11gmgd5zhy!19sChIJwaKtvyK_3zgRW1WJl7-s2aQ?authuser=0&hl=en&rclk=1,"Rehabilitation Center, Islamabad"
54,glamorousprptherapyc_33.668064_73.074335,Glamorous PRP Therapy Clinic Islamabad - PRP Face & Hair,"Glamorous PRP Therapy Clinic Islamabad - PRP Face & Hair
4.9(39)
Dermatologist · Office No 32, 1st Floor, City Centre, 31
Open 24 hours · +92 333 5705871",Dermatologist,Open 24 hours,33.6680644,73.0743347,https://www.google.com/maps/place/Glamorous+PRP+Therapy+Clinic+Islamabad+-+PRP+Face+%26+Hair/data=!4m7!3m6!1s0x38dfbf1975d8b5e5:0x11d67fccb0a2f02b!8m2!3d33.6680644!4d73.0743347!16s%2Fg%2F11jt3psrd_!19sChIJ5bXYdRm_3zgRK_CisMx_1hE?authuser=0&hl=en&rclk=1,"Rehabilitation Center, Islamabad"
55,drtaliyasclinic_33.689457_73.039991,Dr. Taliya's Clinic,"Dr. Taliya's Clinic
3.9(117)
Medical Center ·  · Street #66, Noor Plaza, Taqwa Market
Open 24 hours · +92 51 2260010",Medical Center,Open 24 hours,33.6894567,73.0399914,https://www.google.com/maps/place/Dr.+Taliya%27s+Clinic/data=!4m7!3m6!1s0x38dfbe32c93d4c9b:0x57e939cbc65699b5!8m2!3d33.6894567!4d73.0399914!16s%2Fg%2F11b5s2gj9_!19sChIJm0w9yTK-3zgRtZlWxss56Vc?authuser=0&hl=en&rclk=1,"Rehabilitation Center, Islamabad"
56,islamabadspecialists_33.711194_73.041715,Islamabad Specialists Clinic F8,"Islamabad Specialists Clinic F8
3.7(70)
Doctor ·  · Kiran Plaza، 13-B Kohistan Rd
Open ⋅ Closes 10 PM · +92 343 0000433",Doctor,Open,33.7111944,73.0417154,https://www.google.com/maps/place/Islamabad+Specialists+Clinic+F8/data=!4m7!3m6!1s0x38dfbfad4708d48d:0x941929274b3a9944!8m2!3d33.7111944!4d73.0417154!16s%2Fg%2F11xmdm97h!19sChIJjdQIR62_3zgRRJk6SycpGZQ?authuser=0&hl=en&rclk=1,"Rehabilitation Center, Islamabad"
57,skinestheticsclinici_33.694753_72.999705,Skin Esthetics Clinic Islamabad,"Skin Esthetics Clinic Islamabad
4.8(112)
Skin care clinic · Idrees Market, Street 11A
Open ⋅ Closes 8 PM · +92 319 0531845",Skin care clinic,Open,33.6947529,72.9997047,https://www.google.com/maps/place/Skin+Esthetics+Clinic+Islamabad/data=!4m7!3m6!1s0x38dfbe3257cb5a49:0x36c80a2ed8fcff8f!8m2!3d33.6947529!4d72.9997047!16s%2Fg%2F11fsls9cc8!19sChIJSVrLVzK-3zgRj__82C4KyDY?authuser=0&hl=en&rclk=1,"Rehabilitation Center, Islamabad"
58,aestheticshubclinici_33.607265_73.167453,Aesthetics Hub Clinic Islamabad Gulberg Green,"Aesthetics Hub Clinic Islamabad Gulberg Green
4.8(138)
Skin care clinic · greens, G-20, Diamnond mall and residency, south ave Gulburg
Open ⋅ Closes 7 PM · +92 310 4456844",Skin care clinic,Open,33.6072653,73.1674528,https://www.google.com/maps/place/Aesthetics+Hub+Clinic+Islamabad+Gulberg+Green/data=!4m7!3m6!1s0x38df95ae61222609:0x1ccf605ea85e8240!8m2!3d33.6072653!4d73.1674528!16s%2Fg%2F11s5920tg1!19sChIJCSYiYa6V3zgRQIJeqF5gzxw?authuser=0&hl=en&rclk=1,"Rehabilitation Center, Islamabad"
59,myhairclinicislamaba_33.677936_72.984491,My Hair Clinic Islamabad,"My Hair Clinic Islamabad
4.5(53)
Medical clinic · House # 120 Street 9
Open ⋅ Closes 8 PM · +92 317 5555930",Medical clinic,Open,33.6779362,72.9844906,https://www.google.com/maps/place/My+Hair+Clinic+Islamabad/data=!4m7!3m6!1s0x38dfbdfae53c5ef9:0x34d663814e6f6a14!8m2!3d33.6779362!4d72.9844906!16s%2Fg%2F11c1txn6b1!19sChIJ-V485fq93zgRFGpvToFj1jQ?authuser=0&hl=en&rclk=1,"Rehabilitation Center, Islamabad"
60,esteticaskinandlaser_33.727518_73.087079,"Estetica Skin and Laser | Blue Area, Islamabad","Estetica Skin and Laser | Blue Area, Islamabad
4.6(412)
Skin care clinic · Block R F 6/4 Blue Area F6
Open ⋅ Closes 11:31 PM · +92 311 1100492",Skin care clinic,Open,33.7275182,73.0870787,"https://www.google.com/maps/place/Estetica+Skin+and+Laser+%7C+Blue+Area,+Islamabad/data=!4m7!3m6!1s0x38dfbf43fae82389:0x7010d9b29e675d88!8m2!3d33.7275182!4d73.0870787!16s%2Fg%2F11v3fjwtxl!19sChIJiSPo-kO_3zgRiF1nnrLZEHA?authuser=0&hl=en&rclk=1","Rehabilitation Center, Islamabad"
61,doctorayazsaeedclini_33.690269_73.030859,Doctor Ayaz Saeed Clinic,"Doctor Ayaz Saeed Clinic
4.6(25)
Medical clinic · M2RJ+485
Open ⋅ Closes 8 PM · +92 51 2256966",Medical clinic,Open,33.6902686,73.030859,https://www.google.com/maps/place/Doctor+Ayaz+Saeed+Clinic/data=!4m7!3m6!1s0x38dfbe30ef4e3973:0xac4d213f32baa8e8!8m2!3d33.6902686!4d73.030859!16s%2Fg%2F11g7csg6xt!19sChIJczlO7zC-3zgR6Ki6Mj8hTaw?authuser=0&hl=en&rclk=1,"Rehabilitation Center, Islamabad"
62,clinicsanddiagnostic_33.645425_72.963305,Clinics and Diagnostics hospital,"Clinics and Diagnostics hospital
3.9(97)
Hospital ·  · Main Double Rd
Open 24 hours · +92 51 2306391",Hospital,Open 24 hours,33.6454253,72.963305,https://www.google.com/maps/place/Clinics+and+Diagnostics+hospital/data=!4m7!3m6!1s0x38df9639edcee4db:0xf40796e6238e65de!8m2!3d33.6454253!4d72.963305!16s%2Fg%2F11bbrm0fw2!19sChIJ2-TO7TmW3zgR3mWOI-aWB_Q?authuser=0&hl=en&rclk=1,"Rehabilitation Center, Islamabad"
63,islamabadplasticsurg_33.711276_73.041596,Islamabad Plastic Surgery and Skin Clinic,"Islamabad Plastic Surgery and Skin Clinic
4.8(313)
Plastic surgeon ·  · Office 202, 2nd Floor Islamabad Diagnostic Centre, Kohistan Rd
Open ⋅ Closes 9:30 PM · +92 333 5967916",Plastic surgeon,Open,33.7112765,73.041596,https://www.google.com/maps/place/Islamabad+Plastic+Surgery+and+Skin+Clinic/data=!4m7!3m6!1s0x38dfbfad4781420f:0x19970a58e04ca369!8m2!3d33.7112765!4d73.041596!16s%2Fg%2F11f_j3n6vv!19sChIJD0KBR62_3zgRaaNM4FgKlxk?authuser=0&hl=en&rclk=1,"Rehabilitation Center, Islamabad"
64,cosmeticlaserskincli_33.710883_73.050973,Cosmetic Laser & Skin Clinic Best Skin Clinic in Islamabad|Best Dermatologist in Islamabad|Best Laser Treatment in Islamabad,"Cosmetic Laser & Skin Clinic Best Skin Clinic in Islamabad|Best Dermatologist in Islamabad|Best Laser Treatment in Islamabad
4.7(296)
Skin care clinic ·  · House # 1 Street 62
Open ⋅ Closes 8 PM · +92 51 2280747",Skin care clinic,Open,33.7108826,73.0509735,https://www.google.com/maps/place/Cosmetic+Laser+%26+Skin+Clinic+Best+Skin+Clinic+in+Islamabad%7CBest+Dermatologist+in+Islamabad%7CBest+Laser+Treatment+in+Islamabad/data=!4m7!3m6!1s0x38dfbfb01ec332c7:0x2094610b52e8e5ea!8m2!3d33.7108826!4d73.0509735!16s%2Fg%2F1v3kfwhn!19sChIJxzLDHrC_3zgR6uXoUgthlCA?authuser=0&hl=en&rclk=1,"Rehabilitation Center, Islamabad"
65,wellwomensclinic_33.525555_73.156396,Well Women's Clinic,"Well Women's Clinic
4.7(60)
Medical clinic · Plaza 26 second floor, 26 Iqbal Boulevard, above Churn Station, behind Giga Mall
Closed ⋅ Opens 8 PM · +92 333 6731508",Medical clinic,Closed,33.525555,73.1563965,https://www.google.com/maps/place/Well+Women%27s+Clinic/data=!4m7!3m6!1s0x38dfbd9dc68f8285:0x75aac27d3192a9d7!8m2!3d33.525555!4d73.1563965!16s%2Fg%2F11fjt1t8qn!19sChIJhYKPxp293zgR16mSMX3CqnU?authuser=0&hl=en&rclk=1,"Rehabilitation Center, Islamabad"
66,sochclinicsislamabad_33.696830_73.051393,SOCH Clinics Islamabad Branch,"SOCH Clinics Islamabad Branch
4.8(283)
Psychologist ·  · Clinic #2 Pakland Square
Open ⋅ Closes 9 PM · +92 343 1433331",Psychologist,Open,33.69683,73.0513934,https://www.google.com/maps/place/SOCH+Clinics+Islamabad+Branch/data=!4m7!3m6!1s0x38dfecffddb2c569:0x1aeb15c96e355700!8m2!3d33.69683!4d73.0513934!16s%2Fg%2F11f_0wnkrh!19sChIJacWy3f_s3zgRAFc1bskV6xo?authuser=0&hl=en&rclk=1,"Rehabilitation Center, Islamabad"
67,medicalclinicopensda_33.530813_73.158779,"Medical Clinic opens daily. Sunday opens, also online consultations with pre payment system","Medical Clinic opens daily. Sunday opens, also online consultations with pre payment system
4.8(23)
Medical clinic · G5J5+8GP
Open ⋅ Closes 9 PM · +92 335 5499905",Medical clinic,Open,33.5308134,73.1587789,"https://www.google.com/maps/place/Medical+Clinic+opens+daily.+Sunday+opens,+also+online+consultations+with+pre+payment+system/data=!4m7!3m6!1s0x38dfed45f8c49fe5:0x35945461af87b351!8m2!3d33.5308134!4d73.1587789!16s%2Fg%2F11v66txmf_!19sChIJ5Z_E-EXt3zgRUbOHr2FUlDU?authuser=0&hl=en&rclk=1","Rehabilitation Center, Islamabad"
68,enfieldroyalclinicsi_33.722832_73.059460,Enfield Royal Clinics - Islamabad Plastic surgery Clinic,"Enfield Royal Clinics - Islamabad Plastic surgery Clinic
4.7(397)
Cosmetic surgeon ·  · 3rd Floor, Ammar Center, Jinnah Super Market
Open ⋅ Closes 8 PM · +92 51 8482657",Cosmetic surgeon,Open,33.7228317,73.0594595,https://www.google.com/maps/place/Enfield+Royal+Clinics+-+Islamabad+Plastic+surgery+Clinic/data=!4m7!3m6!1s0x38dfbf5dbbc8c92b:0x96f3a2ea61c192db!8m2!3d33.7228317!4d73.0594595!16s%2Fg%2F11l29j8mwf!19sChIJK8nIu12_3zgR25LBYeqi85Y?authuser=0&hl=en&rclk=1,"Rehabilitation Center, Islamabad"
69,drjunaidshahzadentsp_33.698028_73.048982,Dr Junaid Shahzad | ENT specialist in Islamabad | Rhinoplasty | Sinus Surgery | Ear cleaning,"Dr Junaid Shahzad | ENT specialist in Islamabad | Rhinoplasty | Sinus Surgery | Ear cleaning
4.8(484)
Otolaryngologist ·  · Ground floor, M3W2+M2M JSK ENT clinic, Executive complex
Open ⋅ Closes 5 PM · +92 314 5325939",Otolaryngologist,Open,33.6980278,73.0489821,https://www.google.com/maps/place/Dr+Junaid+Shahzad+%7C+ENT+specialist+in+Islamabad+%7C+Rhinoplasty+%7C+Sinus+Surgery+%7C+Ear+cleaning/data=!4m7!3m6!1s0x38dfbf4880f6d677:0x8163e5273208931b!8m2!3d33.6980278!4d73.0489821!16s%2Fg%2F11fmz8vlr6!19sChIJd9b2gEi_3zgRG5MIMiflY4E?authuser=0&hl=en&rclk=1,"Rehabilitation Center, Islamabad"
70,alimedicalcentre_33.710413_73.042016,Ali Medical Centre,"Ali Medical Centre
3.4(730)
Private hospital ·  · P26Q+JWM, Kohistan Rd
Open 24 hours · +92 51 8090200",Private hospital,Open 24 hours,33.7104129,73.0420161,https://www.google.com/maps/place/Ali+Medical+Centre/data=!4m7!3m6!1s0x38dfbfad680bca0d:0x8035f4aacf56cf3d!8m2!3d33.7104129!4d73.0420161!16s%2Fg%2F1tgw88nw!19sChIJDcoLaK2_3zgRPc9Wz6r0NYA?authuser=0&hl=en&rclk=1,"Rehabilitation Center, Islamabad"
71,drfaridullahkhanzimr_33.711115_73.041550,Dr Faridullah Khan Zimri (Islamabad Orthopedic and Spine Clinic),"Dr Faridullah Khan Zimri (Islamabad Orthopedic and Spine Clinic)
4.8(705)
Orthopedic clinic ·  · Rawal Arcade, Ground Floor Plot 13-C
Open ⋅ Closes 7 PM · +92 51 2266066",Orthopedic clinic,Open,33.7111145,73.0415504,https://www.google.com/maps/place/Dr+Faridullah+Khan+Zimri+%28Islamabad+Orthopedic+and+Spine+Clinic%29/data=!4m7!3m6!1s0x38dfbfc9a8629e41:0xee0449aed8852dc7!8m2!3d33.7111145!4d73.0415504!16s%2Fg%2F11r9911vm1!19sChIJQZ5iqMm_3zgRxy2F2K5JBO4?authuser=0&hl=en&rclk=1,"Rehabilitation Center, Islamabad"
72,profdrikramullahkhan_33.693523_72.993837,Prof. Dr. Ikram Ullah Khan | Best Dermatologist in Islamabad | Best Skin Specialist,"Prof. Dr. Ikram Ullah Khan | Best Dermatologist in Islamabad | Best Skin Specialist
4.4(2,830)
Skin care clinic · House No. 518, Margalla Road, Service Rd N
Open ⋅ Closes 8 PM · +92 51 2211779",Skin care clinic,Open,33.6935235,72.9938372,https://www.google.com/maps/place/Prof.+Dr.+Ikram+Ullah+Khan+%7C+Best+Dermatologist+in+Islamabad+%7C+Best+Skin+Specialist/data=!4m7!3m6!1s0x38dfbe755dd2568f:0x559dc4d83060e80f!8m2!3d33.6935235!4d72.9938372!16s%2Fg%2F11c7s_10d4!19sChIJj1bSXXW-3zgRD-hgMNjEnVU?authuser=0&hl=en&rclk=1,"Rehabilitation Center, Islamabad"
73,islamabadhealthservi_33.568875_73.200526,Islamabad Health Services Hospital,"Islamabad Health Services Hospital
4.6(99)
Hospital ·  · D-23, Commercial Street 02, Block D Naval Anchorage, Islamabad Expressway Islamabad
Open 24 hours · +92 333 5767177",Hospital,Open 24 hours,33.5688753,73.200526,https://www.google.com/maps/place/Islamabad+Health+Services+Hospital/data=!4m7!3m6!1s0x38dfef77a8d3ea13:0xc7a33b4eb65b3bcf!8m2!3d33.5688753!4d73.200526!16s%2Fg%2F11h0b8y3g2!19sChIJE-rTqHfv3zgRzztbtk47o8c?authuser=0&hl=en&rclk=1,"Rehabilitation Center, Islamabad"
74,polyclinicdispensary_33.711719_73.070291,Poly Clinic Dispensary/Allergy Center/Epidemic Mngmt Cell,"Poly Clinic Dispensary/Allergy Center/Epidemic Mngmt Cell
4.3(23)
Hospital ·  · P36C+M4M, Street 55
Closed ⋅ Opens 8:30 AM Fri · +92 51 9252470",Hospital,Closed,33.7117194,73.0702913,https://www.google.com/maps/place/Poly+Clinic+Dispensary%2FAllergy+Center%2FEpidemic+Mngmt+Cell/data=!4m7!3m6!1s0x38dfbf90d269972f:0x76688e9987a97ba5!8m2!3d33.7117194!4d73.0702913!16s%2Fg%2F11c1p4fqz5!19sChIJL5dp0pC_3zgRpXuph5mOaHY?authuser=0&hl=en&rclk=1,"Rehabilitation Center, Islamabad"
75,jjaestheticshairtran_33.640322_73.061068,"JJ Aesthetics - Hair Transplant , Skin & Plastic Surgery Clinic in Islamabad and Rawalpindi","JJ Aesthetics - Hair Transplant , Skin & Plastic Surgery Clinic in Islamabad and Rawalpindi
4.9(1,578)
Plastic surgeon ·  · JJ Aesthetics Rajpoot Street Block E, Satellite Town Opposite Gate, 2 Holy Family Rd
Open ⋅ Closes 8:30 PM · +92 303 8211019",Plastic surgeon,Open,33.6403221,73.0610678,"https://www.google.com/maps/place/JJ+Aesthetics+-+Hair+Transplant+,+Skin+%26+Plastic+Surgery+Clinic+in+Islamabad+and+Rawalpindi/data=!4m7!3m6!1s0x38df951ba23c6ed3:0x98305854fb07a4de!8m2!3d33.6403221!4d73.0610678!16s%2Fg%2F11h0b6hg9n!19sChIJ0248ohuV3zgR3qQH-1RYMJg?authuser=0&hl=en&rclk=1","Rehabilitation Center, Islamabad"
77,drshyfaniazibestaest_33.721653_73.057423,Dr.Shyfa Niazi—Best Aesthetic Physician in Islamabad,"Dr.Shyfa Niazi—Best Aesthetic Physician in Islamabad
4.9(90)
Skin care clinic · unit no 6, Block 12C, jinnah super market
+92 334 1800048",Skin care clinic,,33.721653,73.0574232,https://www.google.com/maps/place/Dr.Shyfa+Niazi%E2%80%94Best+Aesthetic+Physician+in+Islamabad/data=!4m7!3m6!1s0x38dfbf482787548d:0x392ae135365bc032!8m2!3d33.721653!4d73.0574232!16s%2Fg%2F11y3kzp98z!19sChIJjVSHJ0i_3zgRMsBbNjXhKjk?authuser=0&hl=en&rclk=1,"Rehabilitation Center, Islamabad"
78,drsariasheikh6dskina_33.722610_73.060325,Dr. Saria Sheikh | 6D Skin Aesthetic Clinic Islamabad,"Dr. Saria Sheikh | 6D Skin Aesthetic Clinic Islamabad
4.7(58)
Skin care clinic · Pakland Plaza
Open ⋅ Closes 8 PM · +92 324 5495755",Skin care clinic,Open,33.7226104,73.0603248,https://www.google.com/maps/place/Dr.+Saria+Sheikh+%7C+6D+Skin+Aesthetic+Clinic+Islamabad/data=!4m7!3m6!1s0x38dfbfa6e688218f:0x8fb2e2d82bdce54f!8m2!3d33.7226104!4d73.0603248!16s%2Fg%2F11sybq8v09!19sChIJjyGI5qa_3zgRT-XcK9jiso8?authuser=0&hl=en&rclk=1,"Rehabilitation Center, Islamabad"
79,estheticare_33.721407_73.051146,Estheticare,"Estheticare
4.9(921)
Dermatologist · Plaza 4 , Rana Market
Open ⋅ Closes 11 PM · +92 301 1111110",Dermatologist,Open,33.7214073,73.0511459,https://www.google.com/maps/place/Estheticare/data=!4m7!3m6!1s0x38dfbf7abc3c908b:0x52a601ce1c8f4f22!8m2!3d33.7214073!4d73.0511459!16s%2Fg%2F11ptywff05!19sChIJi5A8vHq_3zgRIk-PHM4BplI?authuser=0&hl=en&rclk=1,"Rehabilitation Center, Islamabad"
80,dryassermasoodchildn_33.674264_73.065600,"Dr Yasser Masood , Child & Newborn Specialist Islamabad","Dr Yasser Masood , Child & Newborn Specialist Islamabad
4.8(139)
Pediatrician ·  · Shifa International Hospital, Pitras Bukhari Rd
Open ⋅ Closes 5 PM · +92 51 8463256",Pediatrician,Open,33.674264,73.0655997,"https://www.google.com/maps/place/Dr+Yasser+Masood+,+Child+%26+Newborn+Specialist+Islamabad/data=!4m7!3m6!1s0x38dfbf7bf1303ecf:0x8746b8e24d7e48c8!8m2!3d33.674264!4d73.0655997!16s%2Fg%2F11lgg4kqhh!19sChIJzz4w8Xu_3zgRyEh-TeK4Roc?authuser=0&hl=en&rclk=1","Rehabilitation Center, Islamabad"
81,drasmaclinic_33.550880_73.123616,Dr. Asma Clinic,"Dr. Asma Clinic
5.0(1)
Abortion clinic
Open ⋅ Closes 10 PM · +92 301 8555463",Abortion clinic,Open,33.5508798,73.1236164,https://www.google.com/maps/place/Dr.+Asma+Clinic/data=!4m7!3m6!1s0x8b9221460e767937:0x9f734b4057838ab0!8m2!3d33.5508798!4d73.1236164!16s%2Fg%2F11tsd0yg82!19sChIJN3l2DkYhkosRsIqDV0BLc58?authuser=0&hl=en&rclk=1,"Rehabilitation Center, Islamabad"
82,driubaigclinicipl_33.722504_73.082185,"Dr I U BAIG Clinic, IPL","Dr I U BAIG Clinic, IPL
4.3(12)
Medical clinic · 21 East AKM Fazl-ul-Haq Rd
Closed ⋅ Opens 4:30 PM · +92 300 5518890",Medical clinic,Closed,33.7225042,73.0821849,"https://www.google.com/maps/place/Dr+I+U+BAIG+Clinic,+IPL/data=!4m7!3m6!1s0x38dfbff09f8cec3b:0x9c59fef81c180c4!8m2!3d33.7225042!4d73.0821849!16s%2Fg%2F11j8zt6f04!19sChIJO-yMn_C_3zgRxIDBge-fxQk?authuser=0&hl=en&rclk=1","Rehabilitation Center, Islamabad"
83,drsalmanhairtranspla_33.618183_73.197846,Dr Salman Hair Transplant Plastic Surgery & Aesthetics Clinic Islamabad,"Dr Salman Hair Transplant Plastic Surgery & Aesthetics Clinic Islamabad
4.8(51)
Skin care clinic · Farm House D, 568 Margalla Avenue
Open ⋅ Closes 8 PM · +92 317 6777555",Skin care clinic,Open,33.6181829,73.1978457,https://www.google.com/maps/place/Dr+Salman+Hair+Transplant+Plastic+Surgery+%26+Aesthetics+Clinic+Islamabad/data=!4m7!3m6!1s0x38dfbfba8f24e343:0xe7d364f21c109b7e!8m2!3d33.6181829!4d73.1978457!16s%2Fg%2F11tmwv_5cb!19sChIJQ-Mkj7q_3zgRfpsQHPJk0-c?authuser=0&hl=en&rclk=1,"Rehabilitation Center, Islamabad"
84,alifamilyclinic_33.687832_73.032103,Ali Family Clinic,"Ali Family Clinic
4.8(5)
Medical clinic · Pehchan Mall under Mian Electronics, Lower Ground Mall 9
+92 333 5137045",Medical clinic,,33.6878317,73.0321027,https://www.google.com/maps/place/Ali+Family+Clinic/data=!4m7!3m6!1s0x38dfbe31bda0e0d7:0x6bc19a17305fb6e8!8m2!3d33.6878317!4d73.0321027!16s%2Fg%2F12mkwb4b7!19sChIJ1-CgvTG-3zgR6LZfMBeawWs?authuser=0&hl=en&rclk=1,"Rehabilitation Center, Islamabad"
85,drmuhammadsalmankhan_33.720207_73.073844,Dr Muhammad Salman Khan - Hair Transplant Expert in Islamabad,"Dr Muhammad Salman Khan - Hair Transplant Expert in Islamabad
5.0(103)
Hair transplantation clinic ·  · Office 20, Beverly Centre
Open ⋅ Closes 8 PM · +92 306 5577753",Hair transplantation clinic,Open,33.7202074,73.0738443,https://www.google.com/maps/place/Dr+Muhammad+Salman+Khan+-+Hair+Transplant+Expert+in+Islamabad/data=!4m7!3m6!1s0x38dfbf1942affd33:0x5f8da578154b2a1a!8m2!3d33.7202074!4d73.0738443!16s%2Fg%2F11r7h3b2bh!19sChIJM_2vQhm_3zgRGipLFXiljV8?authuser=0&hl=en&rclk=1,"Rehabilitation Center, Islamabad"
86,caremedicalcenter_33.698542_73.048703,Care+ Medical Center,"Care+ Medical Center
3.9(208)
Private hospital ·  · 20-C, M2XX+F95 Crescent Arcade
Open 24 hours · +92 51 111 111 097",Private hospital,Open 24 hours,33.6985419,73.0487032,https://www.google.com/maps/place/Care%2B+Medical+Center/data=!4m7!3m6!1s0x38dfbf4b32a7fb61:0xca3ac0299b9d7aa4!8m2!3d33.6985419!4d73.0487032!16s%2Fg%2F11g3y4qzr_!19sChIJYfunMku_3zgRpHqdmynAOso?authuser=0&hl=en&rclk=1,"Rehabilitation Center, Islamabad"
87,familycareclinic_33.606684_72.963325,Family Care Clinic,"Family Care Clinic
5.0(11)
Medical clinic · Street 38
Closed ⋅ Opens 4 PM · +92 321 5820049",Medical clinic,Closed,33.6066842,72.963325,https://www.google.com/maps/place/Family+Care+Clinic/data=!4m7!3m6!1s0x38df97e56928dff5:0xd5454f37bd3e9410!8m2!3d33.6066842!4d72.963325!16s%2Fg%2F11qg5qdxjr!19sChIJ9d8oaeWX3zgREJQ-vTdPRdU?authuser=0&hl=en&rclk=1,"Rehabilitation Center, Islamabad"
88,ipalclinic_33.717266_73.045957,IPAL Clinic,"IPAL Clinic
4.0(115)
Skin care clinic ·  · House 28 Street 10
Open ⋅ Closes 4:30 PM · +92 51 8896773",Skin care clinic,Open,33.7172658,73.0459569,https://www.google.com/maps/place/IPAL+Clinic/data=!4m7!3m6!1s0x38dfbf776ae3ffff:0xb66b26eb153545d9!8m2!3d33.7172658!4d73.0459569!16s%2Fg%2F11d_xlb7vm!19sChIJ___jane_3zgR2UU1Fesma7Y?authuser=0&hl=en&rclk=1,"Rehabilitation Center, Islamabad"
89,aestheticsloungeskin_33.682226_72.980188,Aesthetics Lounge | Skin and Hair Clinic Islamabad | Dr. Aftab Afzal | Best Dermatologist,"Aesthetics Lounge | Skin and Hair Clinic Islamabad | Dr. Aftab Afzal | Best Dermatologist
4.8(359)
Dermatologist · House No 126, F11/2 Street 19
Closed ⋅ Opens 3 PM · +92 332 7979791",Dermatologist,Closed,33.6822263,72.9801879,https://www.google.com/maps/place/Aesthetics+Lounge+%7C+Skin+and+Hair+Clinic+Islamabad+%7C+Dr.+Aftab+Afzal+%7C+Best+Dermatologist/data=!4m7!3m6!1s0x38dfbf1ed7460507:0xe768149fea9f4c18!8m2!3d33.6822263!4d72.9801879!16s%2Fg%2F11h8171y96!19sChIJBwVG1x6_3zgRGEyf6p8UaOc?authuser=0&hl=en&rclk=1,"Rehabilitation Center, Islamabad"
90,islamabadinternation_33.702019_72.967700,Islamabad International Hospital & Research Center (IIHRC),"Islamabad International Hospital & Research Center (IIHRC)
4.2(301)
Medical clinic ·  · 2 Main Double Rd
Open 24 hours · +92 51 2304941",Medical clinic,Open 24 hours,33.7020189,72.9676998,https://www.google.com/maps/place/Islamabad+International+Hospital+%26+Research+Center+%28IIHRC%29/data=!4m7!3m6!1s0x38dfbdb7b33ca017:0xc4f40d2ce1e0e985!8m2!3d33.7020189!4d72.9676998!16s%2Fg%2F11gf8hs6jv!19sChIJF6A8s7e93zgRheng4SwN9MQ?authuser=0&hl=en&rclk=1,"Rehabilitation Center, Islamabad"
91,glamorousaestheticsi_33.667128_73.076444,"Glamorous Aesthetics Islamabad - Hair Transplant, Plastic Surgery, Skincare, Fillers, Threads, Breast Implants, Vaginoplasty","Glamorous Aesthetics Islamabad - Hair Transplant, Plastic Surgery, Skincare, Fillers, Threads, Breast Implants, Vaginoplasty
4.9(186)
Skin care clinic · OFFICE NUMBER LG 20, 21 Interlace Rd
Open 24 hours · +92 333 0030084",Skin care clinic,Open 24 hours,33.6671277,73.0764442,"https://www.google.com/maps/place/Glamorous+Aesthetics+Islamabad+-+Hair+Transplant,+Plastic+Surgery,+Skincare,+Fillers,+Threads,+Breast+Implants,+Vaginoplasty/data=!4m7!3m6!1s0x38df95007865c76f:0x464ba23326aa3f4f!8m2!3d33.6671277!4d73.0764442!16s%2Fg%2F11lyry3zww!19sChIJb8dleACV3zgRTz-qJjOiS0Y?authuser=0&hl=en&rclk=1","Rehabilitation Center, Islamabad"
92,arshadhealthclinic_33.739461_73.082037,Arshad Health Clinic,"Arshad Health Clinic
4.9(11)
Medical clinic ·  · F-6-3, F-6, Islamabad, ICT
Closed ⋅ Opens 8 AM Fri · +92 51 2876866",Medical clinic,Closed,33.7394609,73.0820375,https://www.google.com/maps/place/Arshad+Health+Clinic/data=!4m7!3m6!1s0x38dfbf637c4b7d33:0xc6949c7b074bfe68!8m2!3d33.7394609!4d73.0820375!16s%2Fg%2F11xp58bq9!19sChIJM31LfGO_3zgRaP5LB3uclMY?authuser=0&hl=en&rclk=1,"Rehabilitation Center, Islamabad"
93,glamoroushydrafacial_33.738298_73.081317,Glamorous HydraFacial Clinic in Islamabad,"Glamorous HydraFacial Clinic in Islamabad
4.4(42)
Skin care clinic · 1st Floor, No 32, Pakland City Centre, Office
Open 24 hours · +92 333 5705871",Skin care clinic,Open 24 hours,33.7382981,73.0813166,https://www.google.com/maps/place/Glamorous+HydraFacial+Clinic+in+Islamabad/data=!4m7!3m6!1s0x38dfbf5aa559bcd5:0xb7187e30238e0ddf!8m2!3d33.7382981!4d73.0813166!16s%2Fg%2F11tf9nbwwy!19sChIJ1bxZpVq_3zgR3w2OIzB-GLc?authuser=0&hl=en&rclk=1,"Rehabilitation Center, Islamabad"
94,drshumailakhan_33.689510_73.003700,Dr. Shumaila Khan,"Dr. Shumaila Khan
4.2(521)
Dermatologist ·  · A-103، Main Sumbal Rd
Open ⋅ Closes 6 PM · +92 303 5558444",Dermatologist,Open,33.6895101,73.0037,https://www.google.com/maps/place/Dr.+Shumaila+Khan/data=!4m7!3m6!1s0x38dfbe0d94e377ef:0x75441eadaf1a588a!8m2!3d33.6895101!4d73.0037!16s%2Fg%2F1pp2vdpyg!19sChIJ73fjlA2-3zgRilgar60eRHU?authuser=0&hl=en&rclk=1,"Rehabilitation Center, Islamabad"
95,rapidhealingmedicals_33.616116_73.086108,Rapid Healing Medical Services-Islamabad Clinic,"Rapid Healing Medical Services-Islamabad Clinic
4.4(14)
Psychologist
Open ⋅ Closes 7 PM · +92 336 1820007",Psychologist,Open,33.6161162,73.086108,https://www.google.com/maps/place/Rapid+Healing+Medical+Services-Islamabad+Clinic/data=!4m7!3m6!1s0x38dfbfe77b6af223:0xabddc83fde9e436f!8m2!3d33.6161162!4d73.086108!16s%2Fg%2F11jr6hpnh6!19sChIJI_Jqe-e_3zgRb0Oe3j_I3as?authuser=0&hl=en&rclk=1,"Rehabilitation Center, Islamabad"
96,islamabadpsychiatric_33.663819_73.153974,Islamabad Psychiatric Clinic & Rehabilitation Centre | Addiction Treatment and Rehabilitation Center in Islamabad,"Islamabad Psychiatric Clinic & Rehabilitation Centre | Addiction Treatment and Rehabilitation Center in Islamabad
4.8(172)
Addiction treatment center ·  · House No 10, Main Park Rd, adjacent Embassy Lodge Hotel
Open 24 hours · +92 315 0040350",Addiction treatment center,Open 24 hours,33.6638193,73.1539744,https://www.google.com/maps/place/Islamabad+Psychiatric+Clinic+%26+Rehabilitation+Centre+%7C+Addiction+Treatment+and+Rehabilitation+Center+in+Islamabad/data=!4m7!3m6!1s0x38dfeb9814780d4d:0x8717ceb69842c135!8m2!3d33.6638193!4d73.1539744!16s%2Fg%2F11h1hnkywz!19sChIJTQ14FJjr3zgRNcFCmLbOF4c?authuser=0&hl=en&rclk=1,"Rehabilitation Center, Islamabad"
97,childrenclinic_33.663710_73.076287,Children Clinic,"Children Clinic
4.6(42)
Child health care centre · Pakeeza Market, St 1, I-8-4, I-8
Closed ⋅ Opens 5 PM · +92 331 5162034",Child health care centre,Closed,33.66371,73.076287,https://www.google.com/maps/place/Children+Clinic/data=!4m7!3m6!1s0x38df954884a66245:0x6984506b1765e2be!8m2!3d33.66371!4d73.076287!16s%2Fg%2F12ml2l4dt!19sChIJRWKmhEiV3zgRvuJlF2tQhGk?authuser=0&hl=en&rclk=1,"Rehabilitation Center, Islamabad"
98,islamabadspecialized_33.652723_73.071629,Islamabad specialized hospital...,"Islamabad specialized hospital...
4.6(150)
Doctor ·  · Main Double, Rawalpindi Stadium Rd
Open 24 hours · +92 51 8779111",Doctor,Open 24 hours,33.6527227,73.0716286,https://www.google.com/maps/place/Islamabad+specialized+hospital.../data=!4m7!3m6!1s0x38df95af2158e1c3:0xbcf787e80e5c86a4!8m2!3d33.6527227!4d73.0716286!16s%2Fg%2F11sq_hgzjk!19sChIJw-FYIa-V3zgRpIZcDuiH97w?authuser=0&hl=en&rclk=1,"Rehabilitation Center, Islamabad"
99,thedoctorsclinic_33.642235_72.972730,The Doctors Clinic,"The Doctors Clinic
5.0(8)
Medical clinic · Street 1 Khayaban-e-Faiz Rd
Open ⋅ Closes 10 PM · +92 348 9876817",Medical clinic,Open,33.6422354,72.97273,https://www.google.com/maps/place/The+Doctors+Clinic/data=!4m7!3m6!1s0x38df97723f5af091:0xc9628f80ac97ea13!8m2!3d33.6422354!4d72.97273!16s%2Fg%2F11gvx98c48!19sChIJkfBaP3KX3zgRE-qXrICPYsk?authuser=0&hl=en&rclk=1,"Rehabilitation Center, Islamabad"
100,theislamabadaestheti_33.646525_72.959982,The islamabad aesthetics clinic,"The islamabad aesthetics clinic
4.7(39)
Skin care clinic ·  · house # 55, Street 81
Open ⋅ Closes 10 PM · +92 308 5850009",Skin care clinic,Open,33.646525,72.9599821,https://www.google.com/maps/place/The+islamabad+aesthetics+clinic/data=!4m7!3m6!1s0x38df97e78f9978bd:0xeffade202c502a0e!8m2!3d33.646525!4d72.9599821!16s%2Fg%2F11v1813l5n!19sChIJvXiZj-eX3zgRDipQLCDe-u8?authuser=0&hl=en&rclk=1,"Rehabilitation Center, Islamabad"
101,dralitherapypvtltdbe_33.710667_73.040730,Dr Ali Therapy Pvt Ltd-best chiropractor Physiotherapist in Islamabad,"Dr Ali Therapy Pvt Ltd-best chiropractor Physiotherapist in Islamabad
4.8(1,603)
Physical therapist ·  · Pakland & Kiran Plaza, Kohistan Rd, near IDC
Open ⋅ Closes 1:30 AM · +92 51 6125380",Physical therapist,Open,33.7106669,73.04073,https://www.google.com/maps/place/Dr+Ali+Therapy+Pvt+Ltd-best+chiropractor+Physiotherapist+in+Islamabad/data=!4m7!3m6!1s0x38dfbf7f9667f1d5:0x287e188a6765e906!8m2!3d33.7106669!4d73.04073!16s%2Fg%2F11rss4ydvy!19sChIJ1fFnln-_3zgRBullZ4oYfig?authuser=0&hl=en&rclk=1,"Rehabilitation Center, Islamabad"
102,islamabadspecialistc_33.722479_73.082189,Islamabad Specialist Clinic,"Islamabad Specialist Clinic
5.0(1)
Diabetologist ·  · P3CJ+XVW, Huma Plaza
Open ⋅ Closes 5 PM · +92 51 2277244",Diabetologist,Open,33.7224792,73.0821894,https://www.google.com/maps/place/Islamabad+Specialist+Clinic/data=!4m7!3m6!1s0x38dfbff9131b50fd:0x832cc49996d63a63!8m2!3d33.7224792!4d73.0821894!16s%2Fg%2F11ffvw2l79!19sChIJ_VAbE_m_3zgRYzrWlpnELIM?authuser=0&hl=en&rclk=1,"Rehabilitation Center, Islamabad"
103,thediabetescentrecre_33.698521_73.048562,"The Diabetes Centre , Crescent Arcade, G-8 Markaz Clinic, Islamabad","The Diabetes Centre , Crescent Arcade, G-8 Markaz Clinic, Islamabad
3.7(18)
Medical clinic ·  · Crescent Arcade
Open ⋅ Closes 9 PM · +92 51 2266130",Medical clinic,Open,33.6985212,73.048562,"https://www.google.com/maps/place/The+Diabetes+Centre+,+Crescent+Arcade,+G-8+Markaz+Clinic,+Islamabad/data=!4m7!3m6!1s0x38dfbfa507e14ce1:0x85e66437780f31b4!8m2!3d33.6985212!4d73.048562!16s%2Fg%2F11lry96clf!19sChIJ4UzhB6W_3zgRtDEPeDdk5oU?authuser=0&hl=en&rclk=1","Rehabilitation Center, Islamabad"
104,islamabadclinic_33.722189_73.081613,Islamabad Clinic,"Islamabad Clinic
3.0(1)
Medical clinic · P3CJ+VJH, Huma Plaza, Fazal-e-Haq Rd, Block C, Blue Area
+92 346 5410860",Medical clinic,,33.7221895,73.0816131,https://www.google.com/maps/place/Islamabad+Clinic/data=!4m7!3m6!1s0x38dfbf83e0a54337:0x71ae13e20c84e362!8m2!3d33.7221895!4d73.0816131!16s%2Fg%2F12mkz7n5_!19sChIJN0Ol4IO_3zgRYuOEDOITrnE?authuser=0&hl=en&rclk=1,"Rehabilitation Center, Islamabad"
105,naqaishmedicare_33.666657_73.076139,Naqaish Medicare,"Naqaish Medicare
4.6(170)
Hospital ·  · Pakland Business Center
Open 24 hours · +92 304 2252555",Hospital,Open 24 hours,33.6666574,73.0761395,https://www.google.com/maps/place/Naqaish+Medicare/data=!4m7!3m6!1s0x38df9566e99b3abd:0xb0ad90d97b709256!8m2!3d33.6666574!4d73.0761395!16s%2Fg%2F11fq88qchw!19sChIJvTqb6WaV3zgRVpJwe9mQrbA?authuser=0&hl=en&rclk=1,"Rehabilitation Center, Islamabad"
106,drumarjamalkhanpedia_33.568642_73.200009,Dr Umar Jamal Khan - Pediatric Surgeon : Islamabad Circumcision Clinic,"Dr Umar Jamal Khan - Pediatric Surgeon : Islamabad Circumcision Clinic
5.0(44)
Pediatric clinic · House 23 Street 1
Open ⋅ Closes 10 PM · +92 333 3089485",Pediatric clinic,Open,33.5686422,73.200009,https://www.google.com/maps/place/Dr+Umar+Jamal+Khan+-+Pediatric+Surgeon+:+Islamabad+Circumcision+Clinic/data=!4m7!3m6!1s0x38dfef003874db0b:0xa96b432bf233258b!8m2!3d33.5686422!4d73.200009!16s%2Fg%2F11ldn6_1hd!19sChIJC9t0OADv3zgRiyUz8itDa6k?authuser=0&hl=en&rclk=1,"Rehabilitation Center, Islamabad"
107,mohsinclinicandultra_33.686639_73.032850,Mohsin Clinic and Ultrasound Center,"Mohsin Clinic and Ultrasound Center
5.0(3)
Medical clinic · 141, Posh Arcade, near Post Office
Closed ⋅ Opens 5:30 PM · +92 333 5107420",Medical clinic,Closed,33.686639,73.03285,https://www.google.com/maps/place/Mohsin+Clinic+and+Ultrasound+Center/data=!4m7!3m6!1s0x38dfbe2e2121f75b:0x112286a2989c23cd!8m2!3d33.686639!4d73.03285!16s%2Fg%2F1tkrk546!19sChIJW_chIS6-3zgRzSOcmKKGIhE?authuser=0&hl=en&rclk=1,"Rehabilitation Center, Islamabad"
108,drafsheenbilal_33.698468_73.048521,Dr. Afsheen Bilal,"Dr. Afsheen Bilal
4.4(220)
Dermatologist · Suite 11, 2nd Floor, Crescent Arcade, Markaz
Open ⋅ Closes 5:30 PM · +92 315 1620207",Dermatologist,Open,33.6984682,73.0485207,https://www.google.com/maps/place/Dr.+Afsheen+Bilal/data=!4m7!3m6!1s0x38dfbfaea48a8d15:0xc0b1ad8fd7549516!8m2!3d33.6984682!4d73.0485207!16s%2Fg%2F11fkhr9yqw!19sChIJFY2KpK6_3zgRFpVU14-tscA?authuser=0&hl=en&rclk=1,"Rehabilitation Center, Islamabad"
109,islamabadphysiothera_33.668328_73.150913,Islamabad Physiotherapy Clinic Islamabad,"Islamabad Physiotherapy Clinic Islamabad
5.0(78)
Physical therapy clinic · Park, Greens Avenue, Road
Closed ⋅ Opens 3 PM · +92 332 8214183",Physical therapy clinic,Closed,33.6683279,73.1509134,https://www.google.com/maps/place/Islamabad+Physiotherapy+Clinic+Islamabad/data=!4m7!3m6!1s0x38dfebe41569a977:0xe6da5699ef02744d!8m2!3d33.6683279!4d73.1509134!16s%2Fg%2F11j927349b!19sChIJd6lpFeTr3zgRTXQC75lW2uY?authuser=0&hl=en&rclk=1,"Rehabilitation Center, Islamabad"
110,mzsaestheticsphysiot_33.517880_73.085373,MZ’s Aesthetics & Physiotherapy Clinic,"MZ’s Aesthetics & Physiotherapy Clinic
4.5(72)
Skin care clinic · Office no 3 , 1st floor Sama arcade 3
Open ⋅ Closes 7 PM · +92 317 6176666",Skin care clinic,Open,33.5178801,73.0853734,https://www.google.com/maps/place/MZ%E2%80%99s+Aesthetics+%26+Physiotherapy+Clinic/data=!4m7!3m6!1s0x38df9336a5c0b00b:0x615b16638fec9e5!8m2!3d33.5178801!4d73.0853734!16s%2Fg%2F11nnm_85bd!19sChIJC7DApTaT3zgR5cn-OGaxFQY?authuser=0&hl=en&rclk=1,"Rehabilitation Center, Islamabad"
111,drmubashirdahabestde_33.721886_73.058689,Dr. Mubashir Daha | Best Dermatologist Islamabad| Best Skin Specialist Islamabad | Best Aesthetic Physician Islamabad,"Dr. Mubashir Daha | Best Dermatologist Islamabad| Best Skin Specialist Islamabad | Best Aesthetic Physician Islamabad
4.9(263)
Dermatologist ·  · Skin Laser and Dental Clinic
Open ⋅ Closes 8 PM · +92 333 5560507",Dermatologist,Open,33.7218858,73.058689,https://www.google.com/maps/place/Dr.+Mubashir+Daha+%7C+Best+Dermatologist+Islamabad%7C+Best+Skin+Specialist+Islamabad+%7C+Best+Aesthetic+Physician+Islamabad/data=!4m7!3m6!1s0x38dfbf5883dffd35:0x15d45f98e039b977!8m2!3d33.7218858!4d73.058689!16s%2Fg%2F11sjjwqpgb!19sChIJNf3fg1i_3zgRd7k54Jhf1BU?authuser=0&hl=en&rclk=1,"Rehabilitation Center, Islamabad"
112,consultantsplaceblue_33.710437_73.058876,Consultants Place - Blue Area - Islamabad,"Consultants Place - Blue Area - Islamabad
4.6(17)
Medical clinic · First Floor, Reshi Building, 110 AKM Fazl-ul-Haq Rd
Open ⋅ Closes 9 PM · +92 51 8311020",Medical clinic,Open,33.7104368,73.058876,https://www.google.com/maps/place/Consultants+Place+-+Blue+Area+-+Islamabad/data=!4m7!3m6!1s0x38dfbfbc9977f34d:0x29e6e684f1ded1de!8m2!3d33.7104368!4d73.058876!16s%2Fg%2F12mkw8ztb!19sChIJTfN3mby_3zgR3tHe8YTm5ik?authuser=0&hl=en&rclk=1,"Rehabilitation Center, Islamabad"
113,naginaclinicsohanisl_33.655686_73.054178,Nagina clinic sohan Islamabad,"Nagina clinic sohan Islamabad
No reviews
Medical clinic · H no.9 st No.01 west agina clinic opp Mehmood plaza main bazar
Closes soon ⋅ 2:30 PM ⋅ Reopens 5:30 PM · +92 313 5366823",Medical clinic,Closes soon,33.6556858,73.0541776,https://www.google.com/maps/place/Nagina+clinic+sohan+Islamabad/data=!4m7!3m6!1s0x38df9599234c15c7:0x9e25a4c361e7db73!8m2!3d33.6556858!4d73.0541776!16s%2Fg%2F11h60kw83p!19sChIJxxVMI5mV3zgRc9vnYcOkJZ4?authuser=0&hl=en&rclk=1,"Rehabilitation Center, Islamabad"
114,hearingclinicislamab_33.714812_73.067510,Hearing Clinic Islamabad,"Hearing Clinic Islamabad
4.5(330)
Audiologist · 3, Al-Rehman Chamber, Fazl-ul-Haq Road, opposite Tehzeeb Bakers
Open ⋅ Closes 5 PM · +92 321 4003556",Audiologist,Open,33.7148123,73.0675105,https://www.google.com/maps/place/Hearing+Clinic+Islamabad/data=!4m7!3m6!1s0x38dfbf99ca6a0e63:0xef0f0aa3b2945c38!8m2!3d33.7148123!4d73.0675105!16s%2Fg%2F11ycw7v_m!19sChIJYw5qypm_3zgROFyUsqMKD-8?authuser=0&hl=en&rclk=1,"Rehabilitation Center, Islamabad"
115,bhattifreedispensary_33.690192_73.032678,Bhatti free Dispensary and Welfare Clinic,"Bhatti free Dispensary and Welfare Clinic
5.0(1)
Free clinic · M2RM+33F
+92 51 8445612",Free clinic,,33.6901924,73.0326783,https://www.google.com/maps/place/Bhatti+free+Dispensary+and+Welfare+Clinic/data=!4m7!3m6!1s0x38dfbf3162e8d553:0xa05ec300747f9691!8m2!3d33.6901924!4d73.0326783!16s%2Fg%2F11ky99t_nr!19sChIJU9XoYjG_3zgRkZZ_dADDXqA?authuser=0&hl=en&rclk=1,"Rehabilitation Center, Islamabad"
116,ayeshaclinic_33.708922_73.083643,Ayesha Clinic,"Ayesha Clinic
5.0(4)
Medical clinic · P35M+HF6
Closed ⋅ Opens 5:20 PM",Medical clinic,Closed,33.708922,73.0836431,https://www.google.com/maps/place/Ayesha+Clinic/data=!4m7!3m6!1s0x38dfbfdf938166cf:0x9e3a005450ce3b3!8m2!3d33.708922!4d73.0836431!16s%2Fg%2F11gsbdjs_p!19sChIJz2aBk9-_3zgRs-MMRQWg4wk?authuser=0&hl=en&rclk=1,"Rehabilitation Center, Islamabad"
117,hrchayatrehabclinici_33.718884_73.172027,HRC Hayat Rehab Clinic Islamabad,"HRC Hayat Rehab Clinic Islamabad
4.9(176)
Addiction treatment center ·  · Bilal St
Open 24 hours · +92 331 5500090",Addiction treatment center,Open 24 hours,33.7188839,73.1720265,https://www.google.com/maps/place/HRC+Hayat+Rehab+Clinic+Islamabad/data=!4m7!3m6!1s0x38dfc19bfff5aa3b:0x57e07ebc5111cc21!8m2!3d33.7188839!4d73.1720265!16s%2Fg%2F11q1t258zl!19sChIJO6r1_5vB3zgRIcwRUbx-4Fc?authuser=0&hl=en&rclk=1,"Rehabilitation Center, Islamabad"
118,doctorsclinicnilorei_33.653078_73.239280,Doctors Clinic Nilore Islamabad,"Doctors Clinic Nilore Islamabad
5.0(9)
Medical clinic ·  · Raja Aziz Market, Al madni Town
Closed ⋅ Opens 5 PM · +92 309 6007765",Medical clinic,Closed,33.6530784,73.2392796,https://www.google.com/maps/place/Doctors+Clinic+Nilore+Islamabad/data=!4m7!3m6!1s0x38dfe95dc3f8aae7:0x3f3c64b3525275a9!8m2!3d33.6530784!4d73.2392796!16s%2Fg%2F11r36qm_ws!19sChIJ56r4w13p3zgRqXVSUrNkPD8?authuser=0&hl=en&rclk=1,"Rehabilitation Center, Islamabad"
119,hijamaislamabadclini_33.735879_73.171489,Hijama Islamabad Clinic | Hijama Center,"Hijama Islamabad Clinic | Hijama Center
5.0(13)
Medical clinic ·  · Imran Plaza، main Murree Rd، near Umania Restaurant
Open ⋅ Closes 10 PM · +92 315 5006060",Medical clinic,Open,33.7358788,73.1714894,https://www.google.com/maps/place/Hijama+Islamabad+Clinic+%7C+Hijama+Center/data=!4m7!3m6!1s0x38df99c315757565:0xb7a0f0a2864dcdb1!8m2!3d33.7358788!4d73.1714894!16s%2Fg%2F11gvsckv84!19sChIJZXV1FcOZ3zgRsc1NhqLwoLc?authuser=0&hl=en&rclk=1,"Rehabilitation Center, Islamabad"
120,dentocorrectclinicis_33.711577_73.039790,DentoCorrect Clinic - Islamabad,"DentoCorrect Clinic - Islamabad
5.0(5)
Dental clinic · 1st Floor, Kashif Plaza
Open ⋅ Closes 8 PM · +92 347 4623620",Dental clinic,Open,33.7115769,73.0397898,https://www.google.com/maps/place/DentoCorrect+Clinic+-+Islamabad/data=!4m7!3m6!1s0x38dfbf5ead9d5003:0x2313f213761e2a4b!8m2!3d33.7115769!4d73.0397898!16s%2Fg%2F11w_rlt5lv!19sChIJA1CdrV6_3zgRSyoedhPyEyM?authuser=0&hl=en&rclk=1,"Rehabilitation Center, Islamabad"
121,alshifaclinic_33.685791_73.044053,Al Shifa Clinic,"Al Shifa Clinic
5.0(3)
Medical clinic · M2PV+8J7
+92 321 7088091",Medical clinic,,33.685791,73.044053,https://www.google.com/maps/place/Al+Shifa+Clinic/data=!4m7!3m6!1s0x38dfbfd252de7cad:0x941d05f51b383990!8m2!3d33.685791!4d73.044053!16s%2Fg%2F11fxcgflr_!19sChIJrXzeUtK_3zgRkDk4G_UFHZQ?authuser=0&hl=en&rclk=1,"Rehabilitation Center, Islamabad"
122,wajahclinic_33.722678_73.077906,Wajah Clinic,"Wajah Clinic
5.0(1)
Mental health clinic
Open ⋅ Closes 5 PM · +92 333 7708886",Mental health clinic,Open,33.7226781,73.0779065,https://www.google.com/maps/place/Wajah+Clinic/data=!4m7!3m6!1s0x38dfbf923d1fed77:0x62437b136bbb428e!8m2!3d33.7226781!4d73.0779065!16s%2Fg%2F11rxxk93xf!19sChIJd-0fPZK_3zgRjkK7axN7Q2I?authuser=0&hl=en&rclk=1,"Rehabilitation Center, Islamabad"
123,clearcanvasclinic_33.723073_73.059901,ClearCanvas Clinic,"ClearCanvas Clinic
5.0(13)
Dermatologist · 3rd floor, Pakland trade centre
Open ⋅ Closes 6:30 PM · +92 331 6785556",Dermatologist,Open,33.7230732,73.059901,https://www.google.com/maps/place/ClearCanvas+Clinic/data=!4m7!3m6!1s0x38dfbf4ab45e154d:0xf9acd1c54828586a!8m2!3d33.7230732!4d73.059901!16s%2Fg%2F11svj3p294!19sChIJTRVetEq_3zgRalgoSMXRrPk?authuser=0&hl=en&rclk=1,"Rehabilitation Center, Islamabad"
124,anwarclinich13_33.642023_72.975742,Anwar Clinic H13,"Anwar Clinic H13
5.0(22)
Medical clinic · Bismillah Market, St 1
Open 24 hours · +92 313 5202221",Medical clinic,Open 24 hours,33.6420226,72.9757423,https://www.google.com/maps/place/Anwar+Clinic+H13/data=!4m7!3m6!1s0x38df97f44aea2c2b:0x5dbb15ef7fb3c030!8m2!3d33.6420226!4d72.9757423!16s%2Fg%2F11ln7nnq7m!19sChIJKyzqSvSX3zgRMMCzf-8Vu10?authuser=0&hl=en&rclk=1,"Rehabilitation Center, Islamabad"
125,aestheticsloungeblue_33.715891_73.071235,Aesthetics Lounge Blue Area | Skin and Hair Clinic Islamabad | Dr. Aftab Afzal | Best Dermatologist,"Aesthetics Lounge Blue Area | Skin and Hair Clinic Islamabad | Dr. Aftab Afzal | Best Dermatologist
4.9(139)
Dermatologist ·  · House 10 E, Luqman Hakeem Rd
Open ⋅ Closes 7 PM · +92 318 7979791",Dermatologist,Open,33.7158905,73.0712351,https://www.google.com/maps/place/Aesthetics+Lounge+Blue+Area+%7C+Skin+and+Hair+Clinic+Islamabad+%7C+Dr.+Aftab+Afzal+%7C+Best+Dermatologist/data=!4m7!3m6!1s0x38dfbf006068b30b:0x9a10e1faad8bb842!8m2!3d33.7158905!4d73.0712351!16s%2Fg%2F11wbyt32sz!19sChIJC7NoYAC_3zgRQriLrfrhEJo?authuser=0&hl=en&rclk=1,"Rehabilitation Center, Islamabad"
126,luminodentalandaesth_33.710611_73.040745,Lumino dental and aesthetics clinic Best Dentist in Islamabad,"Lumino dental and aesthetics clinic Best Dentist in Islamabad
5.0(63)
Dental clinic · P26R+67X",Dental clinic,,33.7106113,73.0407449,https://www.google.com/maps/place/Lumino+dental+and+aesthetics+clinic+Best+Dentist+in+Islamabad/data=!4m7!3m6!1s0x38dfbf002ca44dcb:0x15a2cfbf508c0d86!8m2!3d33.7106113!4d73.0407449!16s%2Fg%2F11lzs3sjdf!19sChIJy02kLAC_3zgRhg2MUL_PohU?authuser=0&hl=en&rclk=1,"Rehabilitation Center, Islamabad"
127,theclinic_33.710915_73.039699,The Clinic,"The Clinic
5.0(1)
Medical clinic
+92 51 2256011",Medical clinic,,33.710915,73.0396993,https://www.google.com/maps/place/The+Clinic/data=!4m7!3m6!1s0x38dfbe52c7f32e1d:0x1e17b65d59973721!8m2!3d33.710915!4d73.0396993!16s%2Fg%2F11xkr7js3!19sChIJHS7zx1K-3zgRITeXWV22Fx4?authuser=0&hl=en&rclk=1,"Rehabilitation Center, Islamabad"
128,mishalclinic_33.666969_73.073381,Mishal Clinic,"Mishal Clinic
5.0(20)
Medical Center ·  · Zaki center, Tipu Sultan Rd، near VIP Square
Closed ⋅ Opens 6:39 PM Sat · +92 51 4938111",Medical Center,Closed,33.6669686,73.0733808,https://www.google.com/maps/place/Mishal+Clinic/data=!4m7!3m6!1s0x38df9545c0ea3195:0x856209bd2ba37090!8m2!3d33.6669686!4d73.0733808!16s%2Fg%2F12mkz5vx7!19sChIJlTHqwEWV3zgRkHCjK70JYoU?authuser=0&hl=en&rclk=1,"Rehabilitation Center, Islamabad"
129,sadrihealthservicesh_33.696520_73.011317,Sadri Health Services (Holistic Clinic),"Sadri Health Services (Holistic Clinic)
3.7(6)
Ayurvedic clinic ·  · 13, 1st Floor, Capital Trade Center, Markaz
Open ⋅ Closes 10 PM · +92 333 6202688",Ayurvedic clinic,Open,33.6965202,73.0113166,https://www.google.com/maps/place/Sadri+Health+Services+%28Holistic+Clinic%29/data=!4m7!3m6!1s0x38dfbe6b6344eca5:0x38e650a1eb6e544!8m2!3d33.6965202!4d73.0113166!16s%2Fg%2F12mkzj465!19sChIJpexEY2u-3zgRROW2HgpljgM?authuser=0&hl=en&rclk=1,"Rehabilitation Center, Islamabad"
130,declinic_33.697846_73.049160,De Clinic,"De Clinic
5.0(1)
Medical clinic · Lower Ground, Executive Complex, Markaz, near HDS Labs
Open ⋅ Closes 10 PM · +92 51 8897865",Medical clinic,Open,33.6978465,73.0491595,https://www.google.com/maps/place/De+Clinic/data=!4m7!3m6!1s0x38dfbfb69346816d:0x44f221a6e7704edd!8m2!3d33.6978465!4d73.0491595!16s%2Fg%2F11v3ljzsj4!19sChIJbYFGk7a_3zgR3U5w56Yh8kQ?authuser=0&hl=en&rclk=1,"Rehabilitation Center, Islamabad"
131,infertilityivfclinic_33.697939_73.048766,Infertility & Ivf Clinic Islamabad,"Infertility & Ivf Clinic Islamabad
5.0(1)
Fertility clinic · 73°02'55.6""E, 33°41'52.3""N
Open ⋅ Closes 5 PM · +92 330 8884300",Fertility clinic,Open,33.6979394,73.0487657,https://www.google.com/maps/place/Infertility+%26+Ivf+Clinic+Islamabad/data=!4m7!3m6!1s0x6ff197a3a1982659:0x34f8e3d73d108533!8m2!3d33.6979394!4d73.0487657!16s%2Fg%2F11wvw9xp9t!19sChIJWSaYoaOX8W8RM4UQPdfj-DQ?authuser=0&hl=en&rclk=1,"Rehabilitation Center, Islamabad"
132,theclinic_33.689171_73.051348,The Clinic,"The Clinic
5.0(1)
Medical clinic · I&T Centre, St 64, G-8-1, G-8
+92 303 0599590",Medical clinic,,33.6891706,73.0513482,https://www.google.com/maps/place/The+Clinic/data=!4m7!3m6!1s0x38dfbfd01c6e8ad5:0xbe6ceab65df7250!8m2!3d33.6891706!4d73.0513482!16s%2Fg%2F12mkznys4!19sChIJ1YpuHNC_3zgRUHLfZavO5gs?authuser=0&hl=en&rclk=1,"Rehabilitation Center, Islamabad"
133,physiofittphysiother_33.715089_73.066862,Physiofitt - Physiotherapist Clinic Islamabad,"Physiofitt - Physiotherapist Clinic Islamabad
4.8(97)
Physical therapist ·  · Roshan centre, Lower ground
Open ⋅ Closes 11 PM · +92 345 5661110",Physical therapist,Open,33.7150895,73.0668624,https://www.google.com/maps/place/Physiofitt+-+Physiotherapist+Clinic+Islamabad/data=!4m7!3m6!1s0x38dfbf3d10c70a53:0x96c9a639f29cd898!8m2!3d33.7150895!4d73.0668624!16s%2Fg%2F11lfbgkv_d!19sChIJUwrHED2_3zgRmNic8jmmyZY?authuser=0&hl=en&rclk=1,"Rehabilitation Center, Islamabad"
134,medicsi_33.715287_73.063448,MEDICSi,"MEDICSi
3.3(205)
Hospital ·  · Saudi-Pak Towers، First floor, Low Rise، 61-A Jinnah Ave
Open 24 hours · +92 51 111 125 128",Hospital,Open 24 hours,33.7152872,73.0634478,https://www.google.com/maps/place/MEDICSi/data=!4m7!3m6!1s0x38dfbfa29a9387f9:0xfed9ddb53dd2a454!8m2!3d33.7152872!4d73.0634478!16s%2Fg%2F1tfrq91s!19sChIJ-YeTmqK_3zgRVKTSPbXd2f4?authuser=0&hl=en&rclk=1,"Rehabilitation Center, Islamabad"
135,tabibimedicalcentre_33.692288_73.030280,Tabibi Medical Centre,"Tabibi Medical Centre
4.8(77)
Hospital ·  · Stree# 5, Jahangir Market
Open 24 hours · +92 51 2324344",Hospital,Open 24 hours,33.6922879,73.0302795,https://www.google.com/maps/place/Tabibi+Medical+Centre/data=!4m7!3m6!1s0x38dfbfee5aca6f49:0x96d49ed063951d5!8m2!3d33.6922879!4d73.0302795!16s%2Fg%2F11m29ljvl1!19sChIJSW_KWu6_3zgR1VE5Bu1JbQk?authuser=0&hl=en&rclk=1,"Rehabilitation Center, Islamabad"
136,islamabadmedicalclin_25.276863_55.328636,Islamabad Medical Clinic LLC,"Islamabad Medical Clinic LLC
4.7(42)
Medical clinic ·  · Abu Baker Al Siddique St
Closed ⋅ Opens 7:30 PM · +971 4 226 4443",Medical clinic,Closed,25.2768629,55.3286357,https://www.google.com/maps/place/Islamabad+Medical+Clinic+LLC/data=!4m7!3m6!1s0x3e5f5d20fdceee5b:0x7e203f611163a52b!8m2!3d25.2768629!4d55.3286357!16s%2Fg%2F11lfh5gd71!19sChIJW-7O_SBdXz4RK6VjEWE_IH4?authuser=0&hl=en&rclk=1,"Rehabilitation Center, Islamabad"
137,islamabadclinic_33.669471_72.981086,Islamabad Clinic,"Islamabad Clinic
5.0(1)
Hospital · MX9J+QCP, Shah Allah Ditta Rd
Closed ⋅ Opens 5 PM · +92 315 6833455",Hospital,Closed,33.6694708,72.9810856,https://www.google.com/maps/place/Islamabad+Clinic/data=!4m7!3m6!1s0x38dfbdf7f0daf607:0x9e5ec4e58ff8ea6e!8m2!3d33.6694708!4d72.9810856!16s%2Fg%2F11c1vbbv47!19sChIJB_ba8Pe93zgRbur4j-XEXp4?authuser=0&hl=en&rclk=1,"Rehabilitation Center, Islamabad"
138,islamabadmedicalcent_33.687118_73.032261,Islamabad Medical Centre,"Islamabad Medical Centre
4.6(9)
Doctor · ICT, Rohtas Rd, G9 markaz
Open ⋅ Closes 9 PM · +92 51 2256966",Doctor,Open,33.6871184,73.0322605,https://www.google.com/maps/place/Islamabad+Medical+Centre/data=!4m7!3m6!1s0x38dfbe311dc56119:0x5d4fe7011e598db1!8m2!3d33.6871184!4d73.0322605!16s%2Fg%2F11xc8c18r!19sChIJGWHFHTG-3zgRsY1ZHgHnT10?authuser=0&hl=en&rclk=1,"Rehabilitation Center, Islamabad"
139,drshehzadmunirclinic_33.699021_73.048481,Dr Shehzad Munir Clinic,"Dr Shehzad Munir Clinic
4.8(18)
Medical clinic · Allah Dad Plaza
+92 313 5187116",Medical clinic,,33.6990214,73.0484811,https://www.google.com/maps/place/Dr+Shehzad+Munir+Clinic/data=!4m7!3m6!1s0x38dfbfc9c5adfb19:0x5d575853db92ee07!8m2!3d33.6990214!4d73.0484811!16s%2Fg%2F12mkw78sy!19sChIJGfutxcm_3zgRB-6S21NYV10?authuser=0&hl=en&rclk=1,"Rehabilitation Center, Islamabad"
140,islamabadspecialistc_33.710904_73.041184,Islamabad Specialist Clinic 2,"Islamabad Specialist Clinic 2
No reviews
Medical clinic · Ground Floor, Rawal Arcade, Plot 13-C Kohistan Rd",Medical clinic,,33.7109041,73.0411844,https://www.google.com/maps/place/Islamabad+Specialist+Clinic+2/data=!4m7!3m6!1s0x38dfbf005a60f281:0x48c36e3a7817420a!8m2!3d33.7109041!4d73.0411844!16s%2Fg%2F11lzp3mfbb!19sChIJgfJgWgC_3zgRCkIXeDpuw0g?authuser=0&hl=en&rclk=1,"Rehabilitation Center, Islamabad"
141,khwajaclinic_33.722045_73.080911,Khwaja Clinic,"Khwaja Clinic
3.1(10)
Medical clinic ·  · P3CJ+R97, Service Rd
+92 51 2274009",Medical clinic,,33.7220445,73.0809107,https://www.google.com/maps/place/Khwaja+Clinic/data=!4m7!3m6!1s0x38dfbf83e9d0b6b1:0x506166da257a1f0!8m2!3d33.7220445!4d73.0809107!16s%2Fg%2F1v6p7705!19sChIJsbbQ6YO_3zgR8KFXom0WBgU?authuser=0&hl=en&rclk=1,"Rehabilitation Center, Islamabad"
142,aestheticsinnhairski_33.521677_73.098890,Aesthetics Inn HAIR & SKIN Clinic Islamabad,"Aesthetics Inn HAIR & SKIN Clinic Islamabad
4.9(15)
Hair transplantation clinic · 1st Floor, Plaza 49, Mini Extension
Closed ⋅ Opens 4 PM · +92 300 1052020",Hair transplantation clinic,Closed,33.5216771,73.0988899,https://www.google.com/maps/place/Aesthetics+Inn+HAIR+%26+SKIN+Clinic+Islamabad/data=!4m7!3m6!1s0x38dfedd16bac7bfb:0x7f5ef3b9bda8768a!8m2!3d33.5216771!4d73.0988899!16s%2Fg%2F11v_28rt53!19sChIJ-3usa9Ht3zgRinaovbnzXn8?authuser=0&hl=en&rclk=1,"Rehabilitation Center, Islamabad"
143,zenaestheticsclinici_33.731654_73.079274,ZEN Aesthetics Clinic Islamabad,"ZEN Aesthetics Clinic Islamabad
5.0(4)
Skin care clinic · Office 3, 2nd Floor, Mount View Plaza
Open ⋅ Closes 7 PM · +92 51 2726737",Skin care clinic,Open,33.7316542,73.079274,https://www.google.com/maps/place/ZEN+Aesthetics+Clinic+Islamabad/data=!4m7!3m6!1s0x38dfbfaf9b25f6df:0xc6cced5ed3d5ae07!8m2!3d33.7316542!4d73.079274!16s%2Fg%2F11l679kt4v!19sChIJ3_Ylm6-_3zgRB67V017tzMY?authuser=0&hl=en&rclk=1,"Rehabilitation Center, Islamabad"
144,silkskinclinicbestde_33.571867_73.107375,Silk Skin Clinic best dermatologist Rawalpindi Islamabad,"Silk Skin Clinic best dermatologist Rawalpindi Islamabad
4.8(70)
Dermatologist · House 39 Sir Syed Ave
Open ⋅ Closes 6 PM · +92 315 5742342",Dermatologist,Open,33.5718674,73.107375,https://www.google.com/maps/place/Silk+Skin+Clinic+best+dermatologist+Rawalpindi+Islamabad/data=!4m7!3m6!1s0x38dfecc3dafe6cdb:0x60d74982e61bbe55!8m2!3d33.5718674!4d73.107375!16s%2Fg%2F11hdq8l6x2!19sChIJ22z-2sPs3zgRVb4b5oJJ12A?authuser=0&hl=en&rclk=1,"Rehabilitation Center, Islamabad"
145,wellmedclinicvccinat_33.668146_72.997229,Well Med Clinic & Vccination Centre,"Well Med Clinic & Vccination Centre
4.2(16)
Hospital · Ground floor, with Faysal Bank, Alanyat Plaza, Markaz
Closed ⋅ Opens 6 PM · +92 336 8360622",Hospital,Closed,33.6681456,72.997229,https://www.google.com/maps/place/Well+Med+Clinic+%26+Vccination+Centre/data=!4m7!3m6!1s0x38df95fefcd5e79b:0xd58cb2de6bb95435!8m2!3d33.6681456!4d72.997229!16s%2Fg%2F11bc8cd852!19sChIJm-fV_P6V3zgRNVS5a96yjNU?authuser=0&hl=en&rclk=1,"Rehabilitation Center, Islamabad"
146,drghazanfarali_33.697132_73.011047,Dr. Ghazanfar Ali,"Dr. Ghazanfar Ali
4.6(385)
Dermatologist ·  · Building 7-P، Hospital Parking،, opposite Maroof International
Open ⋅ Closes 6 PM · +92 310 1239007",Dermatologist,Open,33.6971321,73.0110473,https://www.google.com/maps/place/Dr.+Ghazanfar+Ali/data=!4m7!3m6!1s0x38dfbf2fc64d17bd:0x167fa09f571d4dcd!8m2!3d33.6971321!4d73.0110473!16s%2Fg%2F11g_zfc43s!19sChIJvRdNxi-_3zgRzU0dV5-gfxY?authuser=0&hl=en&rclk=1,"Rehabilitation Center, Islamabad"
147,drsanasclearskinlase_33.718682_73.054340,Dr. Sana's Clear Skin Laser Clinic,"Dr. Sana's Clear Skin Laser Clinic
3.6(95)
Doctor · block 15, Bhittai Rd, next to jugnu saloon
Closed ⋅ Opens 3 PM · +92 336 3253251",Doctor,Closed,33.7186815,73.0543401,https://www.google.com/maps/place/Dr.+Sana%27s+Clear+Skin+Laser+Clinic/data=!4m7!3m6!1s0x38dfbddb1de9648f:0x1206dbc109523266!8m2!3d33.7186815!4d73.0543401!16s%2Fg%2F11d_7wgpxs!19sChIJj2TpHdu93zgRZjJSCcHbBhI?authuser=0&hl=en&rclk=1,"Rehabilitation Center, Islamabad"
148,bestplasticcosmetics_33.722871_73.059686,Best Plastic/ Cosmetic Surgery Clinic in Islamabad - Royal Clinic,"Best Plastic/ Cosmetic Surgery Clinic in Islamabad - Royal Clinic
4.9(32)
Cosmetic surgeon · 3rd floor, Enfield Royal Clinic, Al-Ammar center, next to Khyber bank
Open ⋅ Closes 8 AM Fri · +92 330 5488777",Cosmetic surgeon,Open,33.722871,73.0596858,https://www.google.com/maps/place/Best+Plastic%2F+Cosmetic+Surgery+Clinic+in+Islamabad+-+Royal+Clinic/data=!4m7!3m6!1s0x38dfbf0c72fb746b:0x2e28c130974f5a42!8m2!3d33.722871!4d73.0596858!16s%2Fg%2F11vx6n5m5p!19sChIJa3T7cgy_3zgRQlpPlzDBKC4?authuser=0&hl=en&rclk=1,"Rehabilitation Center, Islamabad"
149,almobeenclinichumaki_33.540474_73.138015,AL-MOBEEN CLINIC HUMAK ISLAMABAD,"AL-MOBEEN CLINIC HUMAK ISLAMABAD
5.0(3)
Medical clinic · G4RQ+663
Closed ⋅ Opens 9 AM Sun · +92 313 5024425",Medical clinic,Closed,33.5404741,73.1380155,https://www.google.com/maps/place/AL-MOBEEN+CLINIC+HUMAK+ISLAMABAD/data=!4m7!3m6!1s0x38dfed005df76417:0x1c0173028b9bb050!8m2!3d33.5404741!4d73.1380155!16s%2Fg%2F11vq1690y4!19sChIJF2T3XQDt3zgRULCbiwJzARw?authuser=0&hl=en&rclk=1,"Rehabilitation Center, Islamabad"
150,glamoroushairtranspl_33.667632_73.075120,"Glamorous Hair Transplant in Islamabad | Hair Surgeon's - FUE Hair Transplant, FUT Transplant, BioFibre, Hair PRP, PRF","Glamorous Hair Transplant in Islamabad | Hair Surgeon's - FUE Hair Transplant, FUT Transplant, BioFibre, Hair PRP, PRF
4.9(45)
Hair transplantation clinic · Pakland City Centre, Office No 32, 1st Floor
Open 24 hours · +92 333 5705871",Hair transplantation clinic,Open 24 hours,33.6676323,73.0751198,"https://www.google.com/maps/place/Glamorous+Hair+Transplant+in+Islamabad+%7C+Hair+Surgeon%27s+-+FUE+Hair+Transplant,+FUT+Transplant,+BioFibre,+Hair+PRP,+PRF/data=!4m7!3m6!1s0x38df95dece4326e9:0x2d31f68cfb094003!8m2!3d33.6676323!4d73.0751198!16s%2Fg%2F11s90vkch6!19sChIJ6SZDzt6V3zgRA0AJ-4z2MS0?authuser=0&hl=en&rclk=1","Rehabilitation Center, Islamabad"
151,elixirhairtransplant_33.678278_72.988198,Elixir Hair Transplant Center,"Elixir Hair Transplant Center
4.2(47)
Hair transplantation clinic ·  · House No, 5-A Double Road
Open ⋅ Closes 6:30 PM · +92 332 5778880",Hair transplantation clinic,Open,33.6782779,72.9881982,https://www.google.com/maps/place/Elixir+Hair+Transplant+Center/data=!4m7!3m6!1s0x38dfbe0c3d6407ab:0x1b10a574ef8f32de!8m2!3d33.6782779!4d72.9881982!16s%2Fg%2F11r9w3rpt!19sChIJqwdkPQy-3zgR3jKP73SlEBs?authuser=0&hl=en&rclk=1,"Rehabilitation Center, Islamabad"
152,islamabadmindwellnes_33.572145_73.144785,Islamabad Mind Wellness Clinic & Rehabilitation Centre (Best Drug Addiction and Psychiatric Treatment Centre),"Islamabad Mind Wellness Clinic & Rehabilitation Centre (Best Drug Addiction and Psychiatric Treatment Centre)
4.5(226)
Psychiatric hospital ·  · House 265 Street Number 1
Open 24 hours · +92 333 0951030",Psychiatric hospital,Open 24 hours,33.5721454,73.1447852,https://www.google.com/maps/place/Islamabad+Mind+Wellness+Clinic+%26+Rehabilitation+Centre+%28Best+Drug+Addiction+and+Psychiatric+Treatment+Centre%29/data=!4m7!3m6!1s0x38dfedc7a53e932d:0x8d427a47b7c7278a!8m2!3d33.5721454!4d73.1447852!16s%2Fg%2F11vbl9w77p!19sChIJLZM-pcft3zgRiifHt0d6Qo0?authuser=0&hl=en&rclk=1,"Rehabilitation Center, Islamabad"
153,aestheticskinclinic_33.730916_73.081133,Aesthetic Skin Clinic,"Aesthetic Skin Clinic
3.8(16)
Skin care clinic ·  · House 11A Agha Khan Rd
Open ⋅ Closes 6 PM",Skin care clinic,Open,33.7309159,73.0811328,https://www.google.com/maps/place/Aesthetic+Skin+Clinic/data=!4m7!3m6!1s0x38dfbff7da9fbd49:0xb3f1631f0c4dcea1!8m2!3d33.7309159!4d73.0811328!16s%2Fg%2F11ghfrljpv!19sChIJSb2f2ve_3zgRoc5NDB9j8bM?authuser=0&hl=en&rclk=1,"Rehabilitation Center, Islamabad"
154,glutathionetreatment_33.667697_73.075207,Glutathione Treatment Clinic Islamabad Pakistan - Whitening Injections,"Glutathione Treatment Clinic Islamabad Pakistan - Whitening Injections
5.0(5)
Skin care clinic · 1st Floor, Office No, City Centre, 31
Open 24 hours · +92 327 5479779",Skin care clinic,Open 24 hours,33.6676974,73.0752068,https://www.google.com/maps/place/Glutathione+Treatment+Clinic+Islamabad+Pakistan+-+Whitening+Injections/data=!4m7!3m6!1s0x38df9537c807ed93:0x1001e26a9224a551!8m2!3d33.6676974!4d73.0752068!16s%2Fg%2F11sf926wb0!19sChIJk-0HyDeV3zgRUaUkkmriARA?authuser=0&hl=en&rclk=1,"Rehabilitation Center, Islamabad"
155,islamabadrheumatolog_33.696833_73.051169,Islamabad Rheumatology Clinic (IRC),"Islamabad Rheumatology Clinic (IRC)
4.6(37)
Medical clinic ·  · M3W2+PCX, Hanna Rd, near Islamabad Diagnostic Center IDC
+92 51 2340287",Medical clinic,,33.6968334,73.0511688,https://www.google.com/maps/place/Islamabad+Rheumatology+Clinic+%28IRC%29/data=!4m7!3m6!1s0x38dfbf00756ead79:0x3ad567f6385bf8b0!8m2!3d33.6968334!4d73.0511688!16s%2Fg%2F11lcym9q_h!19sChIJea1udQC_3zgRsPhbOPZn1To?authuser=0&hl=en&rclk=1,"Rehabilitation Center, Islamabad"
1,na_noloc,,,,,,,,"Rehabilitation Center, Islamabad"
5,islamabadrehabandcar_33.567427_73.154942,Islamabad Rehab And Caring Center,,Rehabilitation center,Open 24 hours,33.567427,73.1549423,https://www.google.com/maps/place/Islamabad+Rehab+And+Caring+Center/data=!4m7!3m6!1s0x38dfed4ed3cad877:0x53a306aec6d7185f!8m2!3d33.567427!4d73.1549423!16s%2Fg%2F11h6l_vjzs!19sChIJd9jK007t3zgRXxjXxq4Go1M?authuser=0&hl=en&rclk=1,"Rehabilitation Center, Islamabad"
37,thenewliferehabpsych_33.565061_73.140612,The New Life Rehab & Psychiatric Center Islamabad,"The New Life Rehab & Psychiatric Center Islamabad
4.7(166)
Rehabilitation center · House 107, Street 22, Main PWD Rd, near SSL School
Open 24 hours · +92 333 7749772",Rehabilitation center,Open 24 hours,33.5650613,73.1406119,https://www.google.com/maps/place/The+New+Life+Rehab+%26+Psychiatric+Center+Islamabad/data=!4m7!3m6!1s0x38dfed89a42aaaf9:0x2290f122e5d762da!8m2!3d33.5650613!4d73.1406119!16s%2Fg%2F11t57gs19p!19sChIJ-aoqpInt3zgR2mLX5SLxkCI?authuser=0&hl=en&rclk=1,"Rehabilitation Center, Islamabad"
38,alirehabcenterislama_33.633030_73.136666,Ali Rehab Center Islamabad-ARCI | Best Addiction & Psychiatric Hospital | & Best Rehab in Islamabad |Mental Health Matters|,"Ali Rehab Center Islamabad-ARCI | Best Addiction & Psychiatric Hospital | & Best Rehab in Islamabad |Mental Health Matters|
4.9(223)
Rehabilitation center ·  · House 1, Garden, Street no 3 Ghauri
Open 24 hours · +92 322 5252212",Rehabilitation center,Open 24 hours,33.6330304,73.1366658,https://www.google.com/maps/place/Ali+Rehab+Center+Islamabad-ARCI+%7C+Best+Addiction+%26+Psychiatric+Hospital+%7C+%26+Best+Rehab+in+Islamabad+%7CMental+Health+Matters%7C/data=!4m7!3m6!1s0x38dfebb1b1b2f443:0x45306261f2a39a0b!8m2!3d33.6330304!4d73.1366658!16s%2Fg%2F11h_6xhhv6!19sChIJQ_SysbHr3zgRC5qj8mFiMEU?authuser=0&hl=en&rclk=1,"Rehabilitation Center, Islamabad"
39,hrchayatrehabclinici_33.718884_73.172027,HRC Hayat Rehab Clinic Islamabad,"HRC Hayat Rehab Clinic Islamabad
4.9(176)
Addiction treatment center ·  · Bilal St
Open 24 hours · +92 331 5500090",Addiction treatment center,Open 24 hours,33.7188839,73.1720265,https://www.google.com/maps/place/HRC+Hayat+Rehab+Clinic+Islamabad/data=!4m7!3m6!1s0x38dfc19bfff5aa3b:0x57e07ebc5111cc21!8m2!3d33.7188839!4d73.1720265!16s%2Fg%2F11q1t258zl!19sChIJO6r1_5vB3zgRIcwRUbx-4Fc?authuser=0&hl=en&rclk=1,"Rehabilitation Center, Islamabad"
40,newhoperehabandcarin_33.565337_73.132672,"New Hope Rehab and Caring Center Islamabad, Pakistan","New Hope Rehab and Caring Center Islamabad, Pakistan
4.8(91)
Rehabilitation center ·  · House # 275 Street No. 2
Open 24 hours · +92 312 7493940",Rehabilitation center,Open 24 hours,33.5653371,73.1326722,"https://www.google.com/maps/place/New+Hope+Rehab+and+Caring+Center+Islamabad,+Pakistan/data=!4m7!3m6!1s0x38dfedae88f3faa7:0xb8f2292148958ceb!8m2!3d33.5653371!4d73.1326722!16s%2Fg%2F11shm84wxh!19sChIJp_rziK7t3zgR64yVSCEp8rg?authuser=0&hl=en&rclk=1","Rehabilitation Center, Islamabad"
41,newhoperehabandaddic_33.573671_73.178923,New Hope Rehab and Addiction Treatment Center Islamabad,"New Hope Rehab and Addiction Treatment Center Islamabad
4.6(53)
Rehabilitation center · House#5G Street Number 62
Open 24 hours · +92 300 5049772",Rehabilitation center,Open 24 hours,33.5736713,73.1789234,https://www.google.com/maps/place/New+Hope+Rehab+and+Addiction+Treatment+Center+Islamabad/data=!4m7!3m6!1s0x38dfed4ca9f03ef5:0x529e2fba29a48bf5!8m2!3d33.5736713!4d73.1789234!16s%2Fg%2F11tp2cd3zr!19sChIJ9T7wqUzt3zgR9YukKbovnlI?authuser=0&hl=en&rclk=1,"Rehabilitation Center, Islamabad"
42,healingdoorrehabcent_33.708984_73.154221,Healing Door Rehab Center,"Healing Door Rehab Center
4.9(189)
Rehabilitation center ·  · Main Jinnah Rd, opposite Meezan Bank
Open 24 hours · +92 314 9922547",Rehabilitation center,Open 24 hours,33.7089845,73.154221,https://www.google.com/maps/place/Healing+Door+Rehab+Center/data=!4m7!3m6!1s0x38dfc1c531c72659:0x8d183f99ef7aac08!8m2!3d33.7089845!4d73.154221!16s%2Fg%2F11ptq68twy!19sChIJWSbHMcXB3zgRCKx675k_GI0?authuser=0&hl=en&rclk=1,"Rehabilitation Center, Islamabad"
43,newsochrehabpsychiat_33.571474_73.142974,New Soch Rehab & Psychiatric Centre Islamabad,"New Soch Rehab & Psychiatric Centre Islamabad
5.0(45)
Rehabilitation center · House # 66 Street Number 1
Open 24 hours · +92 315 0005613",Rehabilitation center,Open 24 hours,33.571474,73.1429736,https://www.google.com/maps/place/New+Soch+Rehab+%26+Psychiatric+Centre+Islamabad/data=!4m7!3m6!1s0x38dfefe26738cbe7:0x16c2d8c7fd71a032!8m2!3d33.571474!4d73.1429736!16s%2Fg%2F11txfqk_hr!19sChIJ58s4Z-Lv3zgRMqBx_cfYwhY?authuser=0&hl=en&rclk=1,"Rehabilitation Center, Islamabad"
44,ircislamabadrehabcli_33.718918_73.182941,IRC Islamabad Rehab Clinic,"IRC Islamabad Rehab Clinic
4.6(156)
Rehabilitation center · 110 Qasim Avenue
Open 24 hours · +92 305 9053335",Rehabilitation center,Open 24 hours,33.7189184,73.1829414,https://www.google.com/maps/place/IRC+Islamabad+Rehab+Clinic/data=!4m7!3m6!1s0x38dfc17e0029a67d:0xac0498ba9d58ea35!8m2!3d33.7189184!4d73.1829414!16s%2Fg%2F11g_r3s4bf!19sChIJfaYpAH7B3zgRNepYnbqYBKw?authuser=0&hl=en&rclk=1,"Rehabilitation Center, Islamabad"
45,serenityplacerehabce_33.708857_73.164486,Serenity Place Rehab Center Islamabad-SPI,"Serenity Place Rehab Center Islamabad-SPI
5.0(87)
Addiction treatment center ·  · House 11, 786 St Zaib-Un-Nisa St
Open 24 hours · +92 318 5196938",Addiction treatment center,Open 24 hours,33.708857,73.1644858,https://www.google.com/maps/place/Serenity+Place+Rehab+Center+Islamabad-SPI/data=!4m7!3m6!1s0x38dfc190a96b163b:0x527afc1f17d4b2ab!8m2!3d33.708857!4d73.1644858!16s%2Fg%2F11s1wtdgtp!19sChIJOxZrqZDB3zgRq7LUFx_8elI?authuser=0&hl=en&rclk=1,"Rehabilitation Center, Islamabad"
46,thehoperehabilitatio_33.576777_73.179056,The Hope Rehabilitation Center in Islamabad,"The Hope Rehabilitation Center in Islamabad
5.0(34)
Rehabilitation center ·  · House # 9-A Street 130
Open 24 hours · +92 327 5049244",Rehabilitation center,Open 24 hours,33.5767765,73.1790561,https://www.google.com/maps/place/The+Hope+Rehabilitation+Center+in+Islamabad/data=!4m7!3m6!1s0x38dfed2606f19faf:0x4a51dfe78aff9b9!8m2!3d33.5767765!4d73.1790561!16s%2Fg%2F11kk98rnrt!19sChIJr5_xBibt3zgRufmveP4dpQQ?authuser=0&hl=en&rclk=1,"Rehabilitation Center, Islamabad"
47,rehabcenterinislamab_33.714733_73.154987,Rehab Center in Islamabad Akbar Rehab Clinic and Phycatri Center Islamabad,"Rehab Center in Islamabad Akbar Rehab Clinic and Phycatri Center Islamabad
4.9(85)
Rehabilitation center · Maple St, Bani Gala, Islamabad, Islamabad Capital Territory Mohmand
Open 24 hours · +92 327 5566640",Rehabilitation center,Open 24 hours,33.7147328,73.154987,https://www.google.com/maps/place/Rehab+Center+in+Islamabad+Akbar+Rehab+Clinic+and+Phycatri+Center+Islamabad/data=!4m7!3m6!1s0x38dfe9e0c6410119:0x1fcd65fc86d56714!8m2!3d33.7147328!4d73.154987!16s%2Fg%2F11w8slslhl!19sChIJGQFBxuDp3zgRFGfVhvxlzR8?authuser=0&hl=en&rclk=1,"Rehabilitation Center, Islamabad"
48,thesunrisehealingdru_33.568423_73.133912,The Sunrise Healing Drug rehabilitation and psychiatric treatment center | best drug rehab in Islamabad,"The Sunrise Healing Drug rehabilitation and psychiatric treatment center | best drug rehab in Islamabad
5.0(56)
Addiction treatment center · House # 948 Street c9
Open 24 hours · +92 318 7681580",Addiction treatment center,Open 24 hours,33.5684229,73.1339119,https://www.google.com/maps/place/The+Sunrise+Healing+Drug+rehabilitation+and+psychiatric+treatment+center+%7C+best+drug+rehab+in+Islamabad/data=!4m7!3m6!1s0x38dfed7dbbd1fee1:0x82ed248f7ca79545!8m2!3d33.5684229!4d73.1339119!16s%2Fg%2F11jz65hw0s!19sChIJ4f7Ru33t3zgRRZWnfI8k7YI?authuser=0&hl=en&rclk=1,"Rehabilitation Center, Islamabad"
49,newliferehabcentervi_33.570148_73.193611,New Life Rehab Center VIP Branch 2 at Naval Anchorage Islamabad,"New Life Rehab Center VIP Branch 2 at Naval Anchorage Islamabad
4.8(27)
Rehabilitation center ·  · House number, 6 Road E
Open ⋅ Closes 10 PM · +92 321 4528124",Rehabilitation center,Open,33.5701483,73.1936106,https://www.google.com/maps/place/New+Life+Rehab+Center+VIP+Branch+2+at+Naval+Anchorage+Islamabad/data=!4m7!3m6!1s0x38dfedd5903016a3:0x9a0cc7dd11534e5!8m2!3d33.5701483!4d73.1936106!16s%2Fg%2F11p5x5m_rh!19sChIJoxYwkNXt3zgR5TQV0X3MoAk?authuser=0&hl=en&rclk=1,"Rehabilitation Center, Islamabad"
50,tnithenewinceptionfe_33.565004_73.144216,TNI - The New Inception - Female Rehab Center Islamabad,"TNI - The New Inception - Female Rehab Center Islamabad
4.9(40)
Rehabilitation center · Plot # 75 Pakistan Town Phase 2 Rd
Open 24 hours · +92 318 4815494",Rehabilitation center,Open 24 hours,33.5650041,73.144216,https://www.google.com/maps/place/TNI+-+The+New+Inception+-+Female+Rehab+Center+Islamabad/data=!4m7!3m6!1s0x38df95e3c1ed9e1d:0x2026b1275d58f9e0!8m2!3d33.5650041!4d73.144216!16s%2Fg%2F11jyzl5cq7!19sChIJHZ7tweOV3zgR4PlYXSexJiA?authuser=0&hl=en&rclk=1,"Rehabilitation Center, Islamabad"
51,lifelinerehabbestreh_33.722870_73.167677,Lifeline Rehab Best Rehab Center in Islamabad | Addiction Treatment Center,"Lifeline Rehab Best Rehab Center in Islamabad | Addiction Treatment Center
4.5(121)
Rehabilitation center ·  · 398 Lane No. 1
Open 24 hours · +92 313 0000051",Rehabilitation center,Open 24 hours,33.7228695,73.1676769,https://www.google.com/maps/place/Lifeline+Rehab+Best+Rehab+Center+in+Islamabad+%7C+Addiction+Treatment+Center/data=!4m7!3m6!1s0x38dfbf835077dd8d:0x86b9a2572b98ffb0!8m2!3d33.7228695!4d73.1676769!16s%2Fg%2F11g1nrcppp!19sChIJjd13UIO_3zgRsP-YK1eiuYY?authuser=0&hl=en&rclk=1,"Rehabilitation Center, Islamabad"
52,islamabadmentalwelln_33.566372_73.126688,Islamabad Mental & Wellness Center - Rehab & Drug Addiction Treatment Center in Islamabad,"Islamabad Mental & Wellness Center - Rehab & Drug Addiction Treatment Center in Islamabad
4.7(37)
Rehabilitation center ·  · Plot No, House # 228, Street 1, 145 Gate 2, near Bahria Town
Open 24 hours · +92 335 0509344",Rehabilitation center,Open 24 hours,33.5663725,73.1266875,https://www.google.com/maps/place/Islamabad+Mental+%26+Wellness+Center+-+Rehab+%26+Drug+Addiction+Treatment+Center+in+Islamabad/data=!4m7!3m6!1s0x38dfed247dec6007:0x119a0db1742eaf5!8m2!3d33.5663725!4d73.1266875!16s%2Fg%2F11s538pj89!19sChIJB2DsfSTt3zgR9epCF9ugGQE?authuser=0&hl=en&rclk=1,"Rehabilitation Center, Islamabad"
53,thenewlifefemalereha_33.565121_73.141421,The New Life Female Rehabilitation & Addiction Treatment Center Islamabad,"The New Life Female Rehabilitation & Addiction Treatment Center Islamabad
5.0(22)
Rehabilitation center · House # 90, Street # 19 Pakistan Town Phase 2 Rd
Open ⋅ Closes 10 PM · +92 321 4528124",Rehabilitation center,Open,33.5651213,73.1414211,https://www.google.com/maps/place/The+New+Life+Female+Rehabilitation+%26+Addiction+Treatment+Center+Islamabad/data=!4m7!3m6!1s0x38dfedc3a3925ad1:0xf4feaceb024f201f!8m2!3d33.5651213!4d73.1414211!16s%2Fg%2F11tfpbwmk7!19sChIJ0VqSo8Pt3zgRHyBPAuus_vQ?authuser=0&hl=en&rclk=1,"Rehabilitation Center, Islamabad"
54,sunnytrustdrugrehabi_33.741731_73.182869,Sunny Trust - Drug Rehabilitation Center Islamabad,"Sunny Trust - Drug Rehabilitation Center Islamabad
4.9(347)
Rehabilitation center · opposite United Bank Ltd
Open 24 hours · +92 301 8666434",Rehabilitation center,Open 24 hours,33.741731,73.1828695,https://www.google.com/maps/place/Sunny+Trust+-+Drug+Rehabilitation+Center+Islamabad/data=!4m7!3m6!1s0x38dfc3d55c3e0eff:0x5fd8f4df429fb0f0!8m2!3d33.741731!4d73.1828695!16s%2Fg%2F11xk4h7pg!19sChIJ_w4-XNXD3zgR8LCfQt_02F8?authuser=0&hl=en&rclk=1,"Rehabilitation Center, Islamabad"
55,psychaffinityrehabil_33.699940_73.146192,Psychaffinity | Rehabilitation Center | Top Rehab center in Islamabad - Pakistan,"Psychaffinity | Rehabilitation Center | Top Rehab center in Islamabad - Pakistan
4.9(41)
Rehabilitation center ·  · House No. 1, Kiyani Street Lakhwal
Open 24 hours · +92 302 5437982",Rehabilitation center,Open 24 hours,33.6999398,73.1461915,https://www.google.com/maps/place/Psychaffinity+%7C+Rehabilitation+Center+%7C+Top+Rehab+center+in+Islamabad+-+Pakistan/data=!4m7!3m6!1s0x38df952f292bb429:0x7af919b839c03a6f!8m2!3d33.6999398!4d73.1461915!16s%2Fg%2F11h4tq01hz!19sChIJKbQrKS-V3zgRbzrAObgZ-Xo?authuser=0&hl=en&rclk=1,"Rehabilitation Center, Islamabad"
56,islamabadpsychiatric_33.663819_73.153974,Islamabad Psychiatric Clinic & Rehabilitation Centre | Addiction Treatment and Rehabilitation Center in Islamabad,"Islamabad Psychiatric Clinic & Rehabilitation Centre | Addiction Treatment and Rehabilitation Center in Islamabad
4.8(172)
Addiction treatment center ·  · House No 10, Main Park Rd, adjacent Embassy Lodge Hotel
Open 24 hours · +92 315 0040350",Addiction treatment center,Open 24 hours,33.6638193,73.1539744,https://www.google.com/maps/place/Islamabad+Psychiatric+Clinic+%26+Rehabilitation+Centre+%7C+Addiction+Treatment+and+Rehabilitation+Center+in+Islamabad/data=!4m7!3m6!1s0x38dfeb9814780d4d:0x8717ceb69842c135!8m2!3d33.6638193!4d73.1539744!16s%2Fg%2F11h1hnkywz!19sChIJTQ14FJjr3zgRNcFCmLbOF4c?authuser=0&hl=en&rclk=1,"Rehabilitation Center, Islamabad"
57,islamabadmindwellnes_33.572145_73.144785,Islamabad Mind Wellness Clinic & Rehabilitation Centre (Best Drug Addiction and Psychiatric Treatment Centre),"Islamabad Mind Wellness Clinic & Rehabilitation Centre (Best Drug Addiction and Psychiatric Treatment Centre)
4.5(226)
Addiction treatment center ·  · House 265 Street Number 1
Open 24 hours · +92 333 0951030",Addiction treatment center,Open 24 hours,33.5721454,73.1447852,https://www.google.com/maps/place/Islamabad+Mind+Wellness+Clinic+%26+Rehabilitation+Centre+%28Best+Drug+Addiction+and+Psychiatric+Treatment+Centre%29/data=!4m7!3m6!1s0x38dfedc7a53e932d:0x8d427a47b7c7278a!8m2!3d33.5721454!4d73.1447852!16s%2Fg%2F11vbl9w77p!19sChIJLZM-pcft3zgRiifHt0d6Qo0?authuser=0&hl=en&rclk=1,"Rehabilitation Center, Islamabad"
58,bestrehabcenterinisl_33.693005_73.037870,Best Rehab Center in islamabad Healing Hub Rehab Pakistan,"Best Rehab Center in islamabad Healing Hub Rehab Pakistan
5.0(33)
Rehabilitation center ·  · House 193 Street 74
Open 24 hours · +92 340 4638238",Rehabilitation center,Open 24 hours,33.6930047,73.0378704,https://www.google.com/maps/place/Best+Rehab+Center+in+islamabad+Healing+Hub+Rehab+Pakistan/data=!4m7!3m6!1s0x38dfeb2d72cc2603:0xbbd87223bcf91739!8m2!3d33.6930047!4d73.0378704!16s%2Fg%2F11sdq3zt9c!19sChIJAybMci3r3zgRORf5vCNy2Ls?authuser=0&hl=en&rclk=1,"Rehabilitation Center, Islamabad"
59,newleafrehabcenteran_33.633706_73.156898,New Leaf Rehab Center and Addiction treatment center,"New Leaf Rehab Center and Addiction treatment center
4.9(74)
Rehabilitation center ·  · house no 1, Main sarfaraz town, street no 6
Open 24 hours · +92 345 1939246",Rehabilitation center,Open 24 hours,33.6337064,73.1568977,https://www.google.com/maps/place/New+Leaf+Rehab+Center+and+Addiction+treatment+center/data=!4m7!3m6!1s0x38dfeb72b2e90371:0x53b41d39681a8135!8m2!3d33.6337064!4d73.1568977!16s%2Fg%2F11svm7mx78!19sChIJcQPpsnLr3zgRNYEaaDkdtFM?authuser=0&hl=en&rclk=1,"Rehabilitation Center, Islamabad"
60,umeedeshifarehabilit_33.712481_73.164543,Umeed E Shifa Rehabilitation Centre,"Umeed E Shifa Rehabilitation Centre
4.7(85)
Addiction treatment center ·  · House No 1, Durrani street, Main Jinnah Rd
Open 24 hours · +92 336 5603498",Addiction treatment center,Open 24 hours,33.7124809,73.1645432,https://www.google.com/maps/place/Umeed+E+Shifa+Rehabilitation+Centre/data=!4m7!3m6!1s0x38dfed7f4019a27f:0x8a539d8e8d7bf9ef!8m2!3d33.7124809!4d73.1645432!16s%2Fg%2F11rck7twf9!19sChIJf6IZQH_t3zgR7_l7jY6dU4o?authuser=0&hl=en&rclk=1,"Rehabilitation Center, Islamabad"
61,islamabadrehabcenter_33.572956_73.146337,Islamabad Rehab Center,"Islamabad Rehab Center
4.9(39)
Rehabilitation center · Plot # 270, Street # 1 A
Open 24 hours · +92 300 8465840",Rehabilitation center,Open 24 hours,33.5729556,73.1463369,https://www.google.com/maps/place/Islamabad+Rehab+Center/data=!4m7!3m6!1s0x38dfed162f5f25e1:0x8869a6b1961ec9f1!8m2!3d33.5729556!4d73.1463369!16s%2Fg%2F11vwr76qp3!19sChIJ4SVfLxbt3zgR8ckelrGmaYg?authuser=0&hl=en&rclk=1,"Rehabilitation Center, Islamabad"
62,nishanrehabpakistan_33.708123_73.154154,Nishan Rehab Pakistan,"Nishan Rehab Pakistan
4.9(116)
Rehabilitation center ·  · House # 1 Street 9
Open 24 hours · +92 300 2255606",Rehabilitation center,Open 24 hours,33.7081232,73.1541539,https://www.google.com/maps/place/Nishan+Rehab+Pakistan/data=!4m7!3m6!1s0x38dfc1554b074d01:0x14b608528d37854e!8m2!3d33.7081232!4d73.1541539!16s%2Fg%2F11p10sncbm!19sChIJAU0HS1XB3zgRToU3jVIIthQ?authuser=0&hl=en&rclk=1,"Rehabilitation Center, Islamabad"
63,modeladdictiontreatm_33.543934_73.144159,Model Addiction Treatment & Rehabilitation Centre,"Model Addiction Treatment & Rehabilitation Centre
4.8(16)
Addiction treatment center ·  · G4VV+HMF burji stop, Kahuta Rd
Open ⋅ Closes 4 PM · +92 51 4492079",Addiction treatment center,Open,33.5439337,73.1441591,https://www.google.com/maps/place/Model+Addiction+Treatment+%26+Rehabilitation+Centre/data=!4m7!3m6!1s0x38dfea48efbebdc1:0xd6f91a3ce8685a2b!8m2!3d33.5439337!4d73.1441591!16s%2Fg%2F12mkz9l0n!19sChIJwb2-70jq3zgRK1po6Dwa-dY?authuser=0&hl=en&rclk=1,"Rehabilitation Center, Islamabad"
64,rehabcenterinislamab_33.660273_72.989600,Rehab center in Islamabad Kiran Rehab Center,"Rehab center in Islamabad Kiran Rehab Center
5.0(29)
Rehabilitation center
Open 24 hours · +92 314 1570722",Rehabilitation center,Open 24 hours,33.6602732,72.9895999,https://www.google.com/maps/place/Rehab+center+in+Islamabad+Kiran+Rehab+Center/data=!4m7!3m6!1s0x38df977d0b0da46d:0x92b067b1a398a00!8m2!3d33.6602732!4d72.9895999!16s%2Fg%2F11h1hw3128!19sChIJbaQNC32X3zgRAIo5GnsGKwk?authuser=0&hl=en&rclk=1,"Rehabilitation Center, Islamabad"
65,islamabadnewsochaddi_33.564409_73.139882,Islamabad New Soch Addiction And Rehabilitation Centre,"Islamabad New Soch Addiction And Rehabilitation Centre
5.0(14)
Rehabilitation center · Street 20 Main PWD Rd
Open 24 hours · +92 316 5551124",Rehabilitation center,Open 24 hours,33.5644087,73.1398824,https://www.google.com/maps/place/Islamabad+New+Soch+Addiction+And+Rehabilitation+Centre/data=!4m7!3m6!1s0x38dfed548fc5fdad:0xdc2d083c9841cef5!8m2!3d33.5644087!4d73.1398824!16s%2Fg%2F11v653wfsk!19sChIJrf3Fj1Tt3zgR9c5BmDwILdw?authuser=0&hl=en&rclk=1,"Rehabilitation Center, Islamabad"
66,willingwaysislamabad_33.758309_73.214638,Willing Ways Islamabad,"Willing Ways Islamabad
4.8(37)
Rehabilitation center ·  · 17 Miles
Open 24 hours · +92 334 5145145",Rehabilitation center,Open 24 hours,33.7583092,73.2146383,https://www.google.com/maps/place/Willing+Ways+Islamabad/data=!4m7!3m6!1s0x38dfbf8f2d99df21:0x759b5d4547479ce9!8m2!3d33.7583092!4d73.2146383!16s%2Fg%2F11d_2g0shr!19sChIJId-ZLY-_3zgR6ZxHR0Vdm3U?authuser=0&hl=en&rclk=1,"Rehabilitation Center, Islamabad"
67,stlrehabilitationcen_33.662495_73.053579,STL Rehabilitation Centre (Pvt) Ltd | Autism Centre | Child Development Centre | Slow Learner School,"STL Rehabilitation Centre (Pvt) Ltd | Autism Centre | Child Development Centre | Slow Learner School
4.7(26)
Rehabilitation center ·  · Plot # 216 Street 7
Closes soon ⋅ 3 PM ⋅ Opens 9 AM Fri · +92 331 1119104",Rehabilitation center,Closes soon,33.6624953,73.0535791,https://www.google.com/maps/place/STL+Rehabilitation+Centre+%28Pvt%29+Ltd+%7C+Autism+Centre+%7C+Child+Development+Centre+%7C+Slow+Learner+School/data=!4m7!3m6!1s0x38df953865e9a14f:0xeb262d192818a60!8m2!3d33.6624953!4d73.0535791!16s%2Fg%2F11tnvr758b!19sChIJT6HpZTiV3zgRYIqBktFisg4?authuser=0&hl=en&rclk=1,"Rehabilitation Center, Islamabad"
68,rhsrehabilitationcen_33.666623_73.076278,RHS Rehabilitation Center,"RHS Rehabilitation Center
5.0(23)
Physical therapy clinic · Shop no 18, Lower Ground, Pakland, Business Center, Markaz
Open ⋅ Closes 9 PM · +92 51 4800568",Physical therapy clinic,Open,33.6666225,73.0762777,https://www.google.com/maps/place/RHS+Rehabilitation+Center/data=!4m7!3m6!1s0x38df95a3622c5709:0xe3179a5dfe626fbc!8m2!3d33.6666225!4d73.0762777!16s%2Fg%2F11tfypvdl5!19sChIJCVcsYqOV3zgRvG9i_l2aF-M?authuser=0&hl=en&rclk=1,"Rehabilitation Center, Islamabad"
69,herohealthcare_33.566239_73.156202,Hero Health Care,"Hero Health Care
5.0(511)
Rehabilitation center ·  · Plot no 16, Shalimar Rd
Open 24 hours",Rehabilitation center,Open 24 hours,33.566239,73.1562017,https://www.google.com/maps/place/Hero+Health+Care/data=!4m7!3m6!1s0x38dfed42d9d3cfa3:0x67d80b28e7b7a5bb!8m2!3d33.566239!4d73.1562017!16s%2Fg%2F11hz7fd1kq!19sChIJo8_T2ULt3zgRu6W35ygL2Gc?authuser=0&hl=en&rclk=1,"Rehabilitation Center, Islamabad"
70,rawalrehabilitationc_33.631837_73.136245,"Rawal Rehabilitation Center & Carring House Islamabad, Pakistan","Rawal Rehabilitation Center & Carring House Islamabad, Pakistan
5.0(19)
Rehabilitation center · 56 B, Street 05 Ghouri Garden Main Rd
Open 24 hours · +92 333 1179900",Rehabilitation center,Open 24 hours,33.6318372,73.1362453,"https://www.google.com/maps/place/Rawal+Rehabilitation+Center+%26+Carring+House+Islamabad,+Pakistan/data=!4m7!3m6!1s0x38dfeb0056759b7f:0x912a9080ce1eff8d!8m2!3d33.6318372!4d73.1362453!16s%2Fg%2F11y3bts1jx!19sChIJf5t1VgDr3zgRjf8ezoCQKpE?authuser=0&hl=en&rclk=1","Rehabilitation Center, Islamabad"
71,aquashoulderrehab_33.697865_73.048871,Aqua Shoulder Rehab,"Aqua Shoulder Rehab
4.9(50)
Rehabilitation center ·  · Office No. 4, 2nd Floor, Executive Complex
Closed ⋅ Opens 4 PM · +92 331 5191713",Rehabilitation center,Closed,33.6978654,73.0488706,https://www.google.com/maps/place/Aqua+Shoulder+Rehab/data=!4m7!3m6!1s0x38dfed639e62b15f:0xcc3f535525b90804!8m2!3d33.6978654!4d73.0488706!16s%2Fg%2F11hm1g61ny!19sChIJX7FinmPt3zgRBAi5JVVTP8w?authuser=0&hl=en&rclk=1,"Rehabilitation Center, Islamabad"
72,healthcaringrehabcen_33.633513_73.131635,Health Caring Rehab Center Islamabad HCRC Best Addiction & Psychiatric Hospital Best Rehab in Islamabad Mental Health Issues,"Health Caring Rehab Center Islamabad HCRC Best Addiction & Psychiatric Hospital Best Rehab in Islamabad Mental Health Issues
4.5(23)
Addiction treatment center ·  · J4MJ+CM2, Burma Bridge
Open 24 hours · +92 318 8520056",Addiction treatment center,Open 24 hours,33.6335135,73.1316352,https://www.google.com/maps/place/Health+Caring+Rehab+Center+Islamabad+HCRC+Best+Addiction+%26+Psychiatric+Hospital+Best+Rehab+in+Islamabad+Mental+Health+Issues/data=!4m7!3m6!1s0x38dfeb4badda0e61:0x2a9ee94c46e62303!8m2!3d33.6335135!4d73.1316352!16s%2Fg%2F11t6gbb0m8!19sChIJYQ7arUvr3zgRAyPmRkzpnio?authuser=0&hl=en&rclk=1,"Rehabilitation Center, Islamabad"
73,iradaclinic_33.613194_73.131884,IRADA Clinic,"IRADA Clinic
4.8(54)
Rehabilitation center · Karim Plaza main double Road
Open 24 hours · +92 308 5222270",Rehabilitation center,Open 24 hours,33.6131939,73.1318844,https://www.google.com/maps/place/IRADA+Clinic/data=!4m7!3m6!1s0x38df95113e382f6b:0x39b69dc1ba880b9e!8m2!3d33.6131939!4d73.1318844!16s%2Fg%2F11fkyx9x29!19sChIJay84PhGV3zgRnguIusGdtjk?authuser=0&hl=en&rclk=1,"Rehabilitation Center, Islamabad"
74,iprcislamabadphysiot_33.548874_73.125061,IPRC- Islamabad Physiotherapy and Rehabilitation Center - Bahria Town Phase 4,"IPRC- Islamabad Physiotherapy and Rehabilitation Center - Bahria Town Phase 4
4.8(290)
Physical therapy clinic ·  · Plaza #147, Block D St
Open ⋅ Closes 10 PM · +92 335 7778883",Physical therapy clinic,Open,33.5488739,73.125061,https://www.google.com/maps/place/IPRC-+Islamabad+Physiotherapy+and+Rehabilitation+Center+-+Bahria+Town+Phase+4/data=!4m7!3m6!1s0x38dfed59b23341c3:0xa5d28535ed8aba59!8m2!3d33.5488739!4d73.125061!16s%2Fg%2F11fj47qgr7!19sChIJw0Ezslnt3zgRWbqK7TWF0qU?authuser=0&hl=en&rclk=1,"Rehabilitation Center, Islamabad"
75,shifacaringmedicalce_33.661521_73.092097,Shifa Caring & Medical Centre.,"Shifa Caring & Medical Centre.
5.0(156)
Rehabilitation center ·  · Sohan Highway, Flyover, near Faizabad
Open 24 hours · +92 51 2613256",Rehabilitation center,Open 24 hours,33.6615211,73.0920966,https://www.google.com/maps/place/Shifa+Caring+%26+Medical+Centre./data=!4m7!3m6!1s0x38dfeaca6b095683:0x476b5968bbc81c15!8m2!3d33.6615211!4d73.0920966!16s%2Fg%2F11g9nt5b6p!19sChIJg1YJa8rq3zgRFRzIu2hZa0c?authuser=0&hl=en&rclk=1,"Rehabilitation Center, Islamabad"
76,falahrehabrehabilita_33.658023_72.970149,Falah Rehab (Rehabilitation Centre),"Falah Rehab (Rehabilitation Centre)
4.5(17)
Rehabilitation center ·  · opposite Street 167, near A.Q khan School System
Open 24 hours · +92 333 8197800",Rehabilitation center,Open 24 hours,33.6580235,72.9701486,https://www.google.com/maps/place/Falah+Rehab+%28Rehabilitation+Centre%29/data=!4m7!3m6!1s0x38df976655671357:0x300766c5c57af80f!8m2!3d33.6580235!4d72.9701486!16s%2Fg%2F11w1nwlyv0!19sChIJVxNnVWaX3zgRD_h6xcVmBzA?authuser=0&hl=en&rclk=1,"Rehabilitation Center, Islamabad"
77,caringwaysrehabandps_33.714197_73.163842,Caring Ways Rehab and Psychiatric Center,"Caring Ways Rehab and Psychiatric Center
4.8(75)
Addiction treatment center · House # 3, Zakria Street Muzzafar Khan, Korang Road
Open 24 hours · +92 314 1570722",Addiction treatment center,Open 24 hours,33.7141968,73.1638415,https://www.google.com/maps/place/Caring+Ways+Rehab+and+Psychiatric+Center/data=!4m7!3m6!1s0x38dfc142bbba8d4d:0x7303a48a55861368!8m2!3d33.7141968!4d73.1638415!16s%2Fg%2F11v9lfg_x1!19sChIJTY26u0LB3zgRaBOGVYqkA3M?authuser=0&hl=en&rclk=1,"Rehabilitation Center, Islamabad"
78,iprcislamabadphysiot_33.695246_73.060701,IPRC | Islamabad Physiotherapy & Rehabilitation Centre | G-8 Islamabad,"IPRC | Islamabad Physiotherapy & Rehabilitation Centre | G-8 Islamabad
4.6(17)
Hospital ·  · PTCL Health Center, IPRC, Street 22
Open ⋅ Closes 7 PM · +92 333 2724447",Hospital,Open,33.695246,73.0607014,https://www.google.com/maps/place/IPRC+%7C+Islamabad+Physiotherapy+%26+Rehabilitation+Centre+%7C+G-8+Islamabad/data=!4m7!3m6!1s0x38dfbf3839409f0b:0xaeeb8e0f4153d941!8m2!3d33.695246!4d73.0607014!16s%2Fg%2F11j3xm19nw!19sChIJC59AOTi_3zgRQdlTQQ-O664?authuser=0&hl=en&rclk=1,"Rehabilitation Center, Islamabad"
79,capitalrehabilitatio_33.705820_73.161611,Capital Rehabilitation and psychiatric Centre,"Capital Rehabilitation and psychiatric Centre
4.8(54)
Addiction treatment center · P546+GGG
Open 24 hours · +92 337 5000051",Addiction treatment center,Open 24 hours,33.70582,73.161611,https://www.google.com/maps/place/Capital+Rehabilitation+and+psychiatric+Centre/data=!4m7!3m6!1s0x38dfc100200f8981:0xe54bdaf4d507e2b6!8m2!3d33.70582!4d73.161611!16s%2Fg%2F11vz9gl2nh!19sChIJgYkPIADB3zgRtuIH1fTaS-U?authuser=0&hl=en&rclk=1,"Rehabilitation Center, Islamabad"
80,imrinstituteofmedica_33.697015_73.051193,IMR: Institute of Medical Rehabilitation,"IMR: Institute of Medical Rehabilitation
4.9(95)
Rehabilitation center ·  · 12M
Open ⋅ Closes 9 PM · +92 332 2266136",Rehabilitation center,Open,33.6970145,73.0511933,https://www.google.com/maps/place/IMR:+Institute+of+Medical+Rehabilitation/data=!4m7!3m6!1s0x38dfbfc88e7a6653:0x8821d14b8fe96eaf!8m2!3d33.6970145!4d73.0511933!16s%2Fg%2F11ckqr975r!19sChIJU2Z6jsi_3zgRr27pj0vRIYg?authuser=0&hl=en&rclk=1,"Rehabilitation Center, Islamabad"
81,primehealthcarecente_33.645388_73.226597,"Prime Healthcare Center, Islamabad","Prime Healthcare Center, Islamabad
5.0(10)
Rehabilitation center ·  · Prime Healthcare Centre
Open 24 hours · +92 300 5785547",Rehabilitation center,Open 24 hours,33.6453882,73.2265973,"https://www.google.com/maps/place/Prime+Healthcare+Center,+Islamabad/data=!4m7!3m6!1s0x38dfe9c85815f8b9:0x3e52b973a6116f38!8m2!3d33.6453882!4d73.2265973!16s%2Fg%2F11t5_y57dn!19sChIJufgVWMjp3zgROG8RpnO5Uj4?authuser=0&hl=en&rclk=1","Rehabilitation Center, Islamabad"
82,themeadowsrecoveryce_33.700107_73.153569,The Meadows Recovery Centre,"The Meadows Recovery Centre
5.0(3)
Rehabilitation center · Ghaus Al Azam Rd
Open 24 hours · +92 329 5065413",Rehabilitation center,Open 24 hours,33.7001066,73.1535692,https://www.google.com/maps/place/The+Meadows+Recovery+Centre/data=!4m7!3m6!1s0x38dfc1001ab63a37:0x95dac6a7748549ac!8m2!3d33.7001066!4d73.1535692!16s%2Fg%2F11wr0596cz!19sChIJNzq2GgDB3zgRrEmFdKfG2pU?authuser=0&hl=en&rclk=1,"Rehabilitation Center, Islamabad"
83,leprleadingedgephysi_33.521098_73.104437,LEPR | Leading Edge Physiotherapy & Rehabilitation | Bahria Town Phase 7 Rawalpindi,"LEPR | Leading Edge Physiotherapy & Rehabilitation | Bahria Town Phase 7 Rawalpindi
4.9(185)
Rehabilitation center ·  · Third Floor, Center Point Plaza Number 57 Opposite DHA 1, bridge
Open ⋅ Closes 9 PM · +92 335 3559603",Rehabilitation center,Open,33.5210978,73.1044373,https://www.google.com/maps/place/LEPR+%7C+Leading+Edge+Physiotherapy+%26+Rehabilitation+%7C+Bahria+Town+Phase+7+Rawalpindi/data=!4m7!3m6!1s0x38dfed9e2c509b53:0x10b19e1e3e8e7f36!8m2!3d33.5210978!4d73.1044373!16s%2Fg%2F11pq9472ml!19sChIJU5tQLJ7t3zgRNn-OPh6esRA?authuser=0&hl=en&rclk=1,"Rehabilitation Center, Islamabad"
84,peacerehabilitationc_33.643608_73.195000,Peace Rehabilitation Centre,"Peace Rehabilitation Centre
5.0(3)
Mental health service ·  · J5VW+C2R CNG, Lehtrar Road Alipur Near Alipur
Open 24 hours · +92 333 9213674",Mental health service,Open 24 hours,33.6436083,73.1950001,https://www.google.com/maps/place/Peace+Rehabilitation+Centre/data=!4m7!3m6!1s0x38dfe956fe43a165:0xd1a36e07cb7bc248!8m2!3d33.6436083!4d73.1950001!16s%2Fg%2F11ls_gxld7!19sChIJZaFD_lbp3zgRSMJ7ywduo9E?authuser=0&hl=en&rclk=1,"Rehabilitation Center, Islamabad"
85,dskphysiorehabcenter_33.520824_73.105469,DSK Physio & Rehab Center - Physiotherapy in Islamabad - Rehab Center in Bahria Town Islamabad,"DSK Physio & Rehab Center - Physiotherapy in Islamabad - Rehab Center in Bahria Town Islamabad
5.0(21)
Rehabilitation center ·  · Rafi arcade 2 plaza no 16 acantilado Commercial, Bahria Town Phase 7 phase 7
Open ⋅ Closes 10 PM · +92 51 6103396",Rehabilitation center,Open,33.5208242,73.105469,https://www.google.com/maps/place/DSK+Physio+%26+Rehab+Center+-+Physiotherapy+in+Islamabad+-+Rehab+Center+in+Bahria+Town+Islamabad/data=!4m7!3m6!1s0x38dfed0055f80a47:0x80bfe6b310bd102a!8m2!3d33.5208242!4d73.105469!16s%2Fg%2F11vq8t_0y2!19sChIJRwr4VQDt3zgRKhC9ELPmv4A?authuser=0&hl=en&rclk=1,"Rehabilitation Center, Islamabad"
86,islamabadmindtherapy_33.564690_73.140304,Islamabad Mind Therapy | Best Mental Health Rehab Center Islamabad,"Islamabad Mind Therapy | Best Mental Health Rehab Center Islamabad
5.0(6)
Rehabilitation center · House# 115, St#19 Pakistan Town Phase 2 Rd, Block C Phase 2 PWD, Islamabad, Punjab, near SSL School
Open 24 hours · +92 331 7443330",Rehabilitation center,Open 24 hours,33.5646902,73.1403041,https://www.google.com/maps/place/Islamabad+Mind+Therapy+%7C+Best+Mental+Health+Rehab+Center+Islamabad/data=!4m7!3m6!1s0x38dfed1da1f70f4b:0x115089003208ea43!8m2!3d33.5646902!4d73.1403041!16s%2Fg%2F11lcfsrv53!19sChIJSw_3oR3t3zgRQ-oIMgCJUBE?authuser=0&hl=en&rclk=1,"Rehabilitation Center, Islamabad"
87,happylifepsychologic_33.619057_73.140475,Happy Life Psychological Services (HLPS),"Happy Life Psychological Services (HLPS)
5.0(272)
Rehabilitation center · HLPS Drugs Addiction Treatment Center, Street 5
Open 24 hours · +92 300 0945066",Rehabilitation center,Open 24 hours,33.6190574,73.1404751,https://www.google.com/maps/place/Happy+Life+Psychological+Services+%28HLPS%29/data=!4m7!3m6!1s0x38dfeb3df297c315:0xbc3c428ab879ac66!8m2!3d33.6190574!4d73.1404751!16s%2Fg%2F11t7p8bmc3!19sChIJFcOX8j3r3zgRZqx5uIpCPLw?authuser=0&hl=en&rclk=1,"Rehabilitation Center, Islamabad"
88,rubabrehabcaringcent_33.650687_72.976412,Rubab Rehab & Caring Center,"Rubab Rehab & Caring Center
3.9(11)
Rehabilitation center · MX2G+7HF
Open 24 hours · +92 336 5316872",Rehabilitation center,Open 24 hours,33.6506874,72.9764121,https://www.google.com/maps/place/Rubab+Rehab+%26+Caring+Center/data=!4m7!3m6!1s0x38df964701cbb285:0xf97a7c381060da67!8m2!3d33.6506874!4d72.9764121!16s%2Fg%2F11n0pfjwbl!19sChIJhbLLAUeW3zgRZ9pgEDh8evk?authuser=0&hl=en&rclk=1,"Rehabilitation Center, Islamabad"
89,nationalinstituteofr_33.695805_73.041512,National Institute of Rehabilitation Medicine (NIRM),"National Institute of Rehabilitation Medicine (NIRM)
4.2(244)
Government hospital ·  · 2 Street 9
Closed ⋅ Opens 8 AM Fri · +92 51 9262213",Government hospital,Closed,33.6958055,73.0415123,https://www.google.com/maps/place/National+Institute+of+Rehabilitation+Medicine+%28NIRM%29/data=!4m7!3m6!1s0x38dfbfcb2174c5f3:0x36de02b41a2e62d2!8m2!3d33.6958055!4d73.0415123!16s%2Fg%2F12mkz5mms!19sChIJ88V0Icu_3zgR0mIuGrQC3jY?authuser=0&hl=en&rclk=1,"Rehabilitation Center, Islamabad"
90,healinghousepsychiat_33.640596_73.054772,"Healing House Psychiatric Clinic,Drug Detoxification and Rehabilitation Centre","Healing House Psychiatric Clinic,Drug Detoxification and Rehabilitation Centre
4.9(78)
Rehabilitation center ·  · House 230, near Holy Family Hospital
Open 24 hours · +92 337 4806917",Rehabilitation center,Open 24 hours,33.6405961,73.0547715,"https://www.google.com/maps/place/Healing+House+Psychiatric+Clinic,Drug+Detoxification+and+Rehabilitation+Centre/data=!4m7!3m6!1s0x38df959bbfd92a13:0x90bd3fe03754fd9e!8m2!3d33.6405961!4d73.0547715!16s%2Fg%2F11rspsznr3!19sChIJEyrZv5uV3zgRnv1UN-A_vZA?authuser=0&hl=en&rclk=1","Rehabilitation Center, Islamabad"
91,islamabadbraincare_33.721548_73.053143,Islamabad Brain Care,"Islamabad Brain Care
5.0(11)
Addiction treatment center ·  · House# 45 Street 20, near F-7 Markaz
Open 24 hours · +92 300 5384550",Addiction treatment center,Open 24 hours,33.7215476,73.0531426,https://www.google.com/maps/place/Islamabad+Brain+Care/data=!4m7!3m6!1s0x38dfbf938f244519:0xd599720cb5577d2c!8m2!3d33.7215476!4d73.0531426!16s%2Fg%2F11gw2pswy2!19sChIJGUUkj5O_3zgRLH1XtQxymdU?authuser=0&hl=en&rclk=1,"Rehabilitation Center, Islamabad"
92,neurogenixmedirehabc_33.566164_73.177562,Neurogenix Medirehab Centre (NMC Pakistan),"Neurogenix Medirehab Centre (NMC Pakistan)
5.0(25)
Physical therapy clinic ·  · Plot No 32 , JCC2, near Main Gate
Closed ⋅ Opens 3 PM · +92 337 8630076",Physical therapy clinic,Closed,33.5661641,73.1775618,https://www.google.com/maps/place/Neurogenix+Medirehab+Centre+%28NMC+Pakistan%29/data=!4m7!3m6!1s0x38dfed8ca82c5a13:0x23cbd272098348a4!8m2!3d33.5661641!4d73.1775618!16s%2Fg%2F11pwb_yxp4!19sChIJE1osqIzt3zgRpEiDCXLSyyM?authuser=0&hl=en&rclk=1,"Rehabilitation Center, Islamabad"
93,stepandcurerehabilit_33.656837_73.156283,Step and cure rehabilitation centre,"Step and cure rehabilitation centre
5.0(1)
Rehabilitation center · Street 2, Lane 12 Alsyed
Open ⋅ Closes 5:30 AM Fri · +92 344 6481400",Rehabilitation center,Open,33.6568368,73.1562827,https://www.google.com/maps/place/Step+and+cure+rehabilitation+centre/data=!4m7!3m6!1s0x38dfebfe7135a1f3:0x651a60ae9449f021!8m2!3d33.6568368!4d73.1562827!16s%2Fg%2F11vwfnxk98!19sChIJ86E1cf7r3zgRIfBJlK5gGmU?authuser=0&hl=en&rclk=1,"Rehabilitation Center, Islamabad"
94,aimanrehabcenter_33.632480_73.150506,Aiman Rehab center,"Aiman Rehab center
4.0(4)
Rehabilitation center ·  · house 5, nawab bakers
Open 24 hours · +92 311 5611716",Rehabilitation center,Open 24 hours,33.6324796,73.1505061,https://www.google.com/maps/place/Aiman+Rehab+center/data=!4m7!3m6!1s0x38dfeb56d4cb12f5:0x382da4c0ee485a9a!8m2!3d33.6324796!4d73.1505061!16s%2Fg%2F11hgfxvrkg!19sChIJ9RLL1Fbr3zgRmlpI7sCkLTg?authuser=0&hl=en&rclk=1,"Rehabilitation Center, Islamabad"
95,internationalrehabce_33.733910_73.221639,International Rehab Centre,"International Rehab Centre
4.3(8)
Rehabilitation center ·  · Simly Dam Road, adjacent to shaheen farms
Open 24 hours · +92 336 7777145",Rehabilitation center,Open 24 hours,33.7339095,73.2216394,https://www.google.com/maps/place/International+Rehab+Centre/data=!4m7!3m6!1s0x38df97192c01fb21:0xda9530cdc6700304!8m2!3d33.7339095!4d73.2216394!16s%2Fg%2F11m_hx5ptm!19sChIJIfsBLBmX3zgRBANwxs0wldo?authuser=0&hl=en&rclk=1,"Rehabilitation Center, Islamabad"
96,mindcarerehabcenterm_33.616237_73.138736,Mind Care Rehab Center(M.C.R.C),"Mind Care Rehab Center(M.C.R.C)
2.8(19)
Addiction treatment center · J48Q+FFX, Street 4
Open 24 hours · +92 347 5300141",Addiction treatment center,Open 24 hours,33.616237,73.1387363,https://www.google.com/maps/place/Mind+Care+Rehab+Center%28M.C.R.C%29/data=!4m7!3m6!1s0x38dfeb79e2cef659:0xace5634703444685!8m2!3d33.616237!4d73.1387363!16s%2Fg%2F11dxl6n635!19sChIJWfbO4nnr3zgRhUZEA0dj5aw?authuser=0&hl=en&rclk=1,"Rehabilitation Center, Islamabad"
97,islamiamedicalandreh_33.640837_73.154487,Islamia Medical and Rehab center,"Islamia Medical and Rehab center
5.0(9)
Rehabilitation center ·  · Main Lehtrar Rd, near mezan bankTarlai Kalan
Open 24 hours · +92 345 5094665",Rehabilitation center,Open 24 hours,33.6408366,73.1544869,https://www.google.com/maps/place/Islamia+Medical+and+Rehab+center/data=!4m7!3m6!1s0x38dfeb000e103c35:0xa8fd48ec8d79236b!8m2!3d33.6408366!4d73.1544869!16s%2Fg%2F11vpgck2r2!19sChIJNTwQDgDr3zgRayN5jexI_ag?authuser=0&hl=en&rclk=1,"Rehabilitation Center, Islamabad"
98,alnoorrehabclinic_33.566783_73.167648,Al-NOOR REHAB & CLINIC,"Al-NOOR REHAB & CLINIC
5.0(1)
Addiction treatment center · St# 107, H #34 E block, Jinnah Garden, phase 1, naval road, Islamabad Expy
Open 24 hours · +92 337 8618098",Addiction treatment center,Open 24 hours,33.5667825,73.1676484,https://www.google.com/maps/place/Al-NOOR+REHAB+%26+CLINIC/data=!4m7!3m6!1s0x38dfed4f6854c2a7:0x4777d46d5ba922fa!8m2!3d33.5667825!4d73.1676484!16s%2Fg%2F11khks9tvq!19sChIJp8JUaE_t3zgR-iKpW23Ud0c?authuser=0&hl=en&rclk=1,"Rehabilitation Center, Islamabad"
99,highliferehabbestreh_33.722981_73.167950,Highlife Rehab | Best Rehab in Pakistan,"Highlife Rehab | Best Rehab in Pakistan
5.0(4)
Rehabilitation center · 105, Street 1, LVL
Open 24 hours · +92 334 0000097",Rehabilitation center,Open 24 hours,33.7229806,73.1679498,https://www.google.com/maps/place/Highlife+Rehab+%7C+Best+Rehab+in+Pakistan/data=!4m7!3m6!1s0x38dfc1ecb7681983:0xc8dcac007161a191!8m2!3d33.7229806!4d73.1679498!16s%2Fg%2F11svh6r4ny!19sChIJgxlot-zB3zgRkaFhcQCs3Mg?authuser=0&hl=en&rclk=1,"Rehabilitation Center, Islamabad"
100,ayyatzahramedicalcen_33.633289_73.129231,Ayyat Zahra Medical Center,"Ayyat Zahra Medical Center
5.0(2)
Addiction treatment center · Lehtrar, Mehmand Plaza, Opposite Al-Firdous Marriage Hall, Near Burma Bridge, Road
Open 24 hours · +92 303 5304444",Addiction treatment center,Open 24 hours,33.6332887,73.1292309,https://www.google.com/maps/place/Ayyat+Zahra+Medical+Center/data=!4m7!3m6!1s0x38dfeb99a727cf55:0x89af75074ac175ef!8m2!3d33.6332887!4d73.1292309!16s%2Fg%2F11x0407z3z!19sChIJVc8np5nr3zgR73XBSgd1r4k?authuser=0&hl=en&rclk=1,"Rehabilitation Center, Islamabad"
101,physiocarerehabilita_33.643920_72.952568,Physiocare Rehabilitation Center,"Physiocare Rehabilitation Center
5.0(54)
Rehabilitation center ·  · 1068Street 6
Closed ⋅ Opens 4 PM · +92 316 6460441",Rehabilitation center,Closed,33.6439202,72.9525677,https://www.google.com/maps/place/Physiocare+Rehabilitation+Center/data=!4m7!3m6!1s0x38df97ab6faabc99:0xd84ff6bd71722ee6!8m2!3d33.6439202!4d72.9525677!16s%2Fg%2F11tf22l041!19sChIJmbyqb6uX3zgR5i5ycb32T9g?authuser=0&hl=en&rclk=1,"Rehabilitation Center, Islamabad"
102,mmrcislamabad_33.717364_73.083895,MMRC ISLAMABAD,"MMRC ISLAMABAD
4.9(30)
Rehabilitation center ·  · Street 98, First Floor Mir Square, Melody Market, Post Office Road
Open ⋅ Closes 10 PM · +92 51 2825657",Rehabilitation center,Open,33.7173637,73.0838949,https://www.google.com/maps/place/MMRC+ISLAMABAD/data=!4m7!3m6!1s0x38dfbffaaeb0da1d:0x82a6f6814c3cdb01!8m2!3d33.7173637!4d73.0838949!16s%2Fg%2F11qmqg06_h!19sChIJHdqwrvq_3zgRAds8TIH2poI?authuser=0&hl=en&rclk=1,"Rehabilitation Center, Islamabad"
103,wellnesspsychologica_33.515506_73.084393,Wellness Psychological and Rehabilitation Center,"Wellness Psychological and Rehabilitation Center
5.0(25)
Rehabilitation center · Shop # LG-6B Paradigm Heights Eiffel tower Commercial
Open ⋅ Closes 7 PM · +92 311 5332674",Rehabilitation center,Open,33.5155058,73.0843926,https://www.google.com/maps/place/Wellness+Psychological+and+Rehabilitation+Center/data=!4m7!3m6!1s0x38df9328ea226c45:0xa8745198f40fe714!8m2!3d33.5155058!4d73.0843926!16s%2Fg%2F11sgz5yn74!19sChIJRWwi6iiT3zgRFOcP9JhRdKg?authuser=0&hl=en&rclk=1,"Rehabilitation Center, Islamabad"
104,ayyazhopecentre_33.748033_73.192958,Ayyaz Hope Centre,"Ayyaz Hope Centre
4.8(4)
Addiction treatment center · Murree Road, Street No 06, near PSO Petrol Pump
Open ⋅ Closes 5 PM · +92 51 2165118",Addiction treatment center,Open,33.7480326,73.1929575,https://www.google.com/maps/place/Ayyaz+Hope+Centre/data=!4m7!3m6!1s0x38dfc3d6f7924be5:0x276585fe90b90c51!8m2!3d33.7480326!4d73.1929575!16s%2Fg%2F11g4ddxzlq!19sChIJ5UuS99bD3zgRUQy5kP6FZSc?authuser=0&hl=en&rclk=1,"Rehabilitation Center, Islamabad"
105,thesilverliningrehab_33.573146_73.164282,The Silverlining Rehab Center Islamabad,"The Silverlining Rehab Center Islamabad
5.0(33)
Addiction treatment center · House#09, street 07 Capital
Temporarily closed · +92 314 2828229",Addiction treatment center,,33.5731457,73.1642816,https://www.google.com/maps/place/The+Silverlining+Rehab+Center+Islamabad/data=!4m7!3m6!1s0x38dfed9c1f4a0c41:0x9c674450e4139fb8!8m2!3d33.5731457!4d73.1642816!16s%2Fg%2F11p9m486dg!19sChIJQQxKH5zt3zgRuJ8T5FBEZ5w?authuser=0&hl=en&rclk=1,"Rehabilitation Center, Islamabad"
106,rehabinitiative_33.642798_73.021565,Rehab Initiative,"Rehab Initiative
5.0(5)
Rehabilitation center ·  · Plot #18, Main Faqir Aipee Road
Open ⋅ Closes 5 PM · +92 51 8441237",Rehabilitation center,Open,33.6427985,73.0215652,https://www.google.com/maps/place/Rehab+Initiative/data=!4m7!3m6!1s0x38df95db3aa5534b:0xa201677c79b72ac6!8m2!3d33.6427985!4d73.0215652!16s%2Fg%2F11fm_2p1bg!19sChIJS1OlOtuV3zgRxiq3eXxnAaI?authuser=0&hl=en&rclk=1,"Rehabilitation Center, Islamabad"
107,brcbanoorirehabilita_33.752009_72.762819,BRC-Banoori Rehabilitation center,"BRC-Banoori Rehabilitation center
4.8(22)
Rehabilitation center ·  · Main double road
Open ⋅ Closes 9 PM · +92 313 9106088",Rehabilitation center,Open,33.7520087,72.7628189,https://www.google.com/maps/place/BRC-Banoori+Rehabilitation+center/data=!4m7!3m6!1s0x38dfa729d0d133a7:0x3f37bce5a84a6e68!8m2!3d33.7520087!4d72.7628189!16s%2Fg%2F11jtcqc4jk!19sChIJpzPR0Cmn3zgRaG5KqOW8Nz8?authuser=0&hl=en&rclk=1,"Rehabilitation Center, Islamabad"
108,mehramshahrehabilita_33.626197_73.109827,Mehram Shah Rehabilitation centre,"Mehram Shah Rehabilitation centre
5.0(6)
Rehabilitation center ·  · J4G5+FWG, KRL Rd, opposite Rahat bekary, near Khanna Pul
Open ⋅ Closes 4 PM · +92 311 5338989",Rehabilitation center,Open,33.6261971,73.1098271,https://www.google.com/maps/place/Mehram+Shah+Rehabilitation+centre/data=!4m7!3m6!1s0x38dfeb3bd1ed11a1:0xc97a3b07d549229!8m2!3d33.6261971!4d73.1098271!16s%2Fg%2F11kq4pbcwg!19sChIJoRHt0Tvr3zgRKZJUfbCjlww?authuser=0&hl=en&rclk=1,"Rehabilitation Center, Islamabad"
109,revivephysicaltherap_33.614957_72.970751,Revive Physical Therapy and Rehabilitation Center,"Revive Physical Therapy and Rehabilitation Center
5.0(1)
Rehabilitation center · no 1167 Street Number 67
Open ⋅ Closes 9 PM · +92 333 5485042",Rehabilitation center,Open,33.6149569,72.9707514,https://www.google.com/maps/place/Revive+Physical+Therapy+and+Rehabilitation+Center/data=!4m7!3m6!1s0x38df97090a0e377d:0x7e5e65e49edebbed!8m2!3d33.6149569!4d72.9707514!16s%2Fg%2F11tgd5850_!19sChIJfTcOCgmX3zgR7bvenuRlXn4?authuser=0&hl=en&rclk=1,"Rehabilitation Center, Islamabad"
110,physiopsychrehabcent_33.669398_72.999912,Physio & Psych Rehab Center,"Physio & Psych Rehab Center
5.0(20)
Physical therapy clinic ·  · Office 28,3rd Floor, Al Rehmat Mall, Markaz, near Tehzeeb Bakers
Open ⋅ Closes 9 PM · +92 333 5960075",Physical therapy clinic,Open,33.6693979,72.9999122,https://www.google.com/maps/place/Physio+%26+Psych+Rehab+Center/data=!4m7!3m6!1s0x38df9539e7876793:0x4487fa2aae409c1b!8m2!3d33.6693979!4d72.9999122!16s%2Fg%2F11wjqt2vk7!19sChIJk2eH5zmV3zgRG5xArir6h0Q?authuser=0&hl=en&rclk=1,"Rehabilitation Center, Islamabad"
111,psychiatristassistpr_33.713320_73.163975,Psychiatrist / Assist.Prof. Dr Hafiz sultan Muhammad MBBS-FCPS- Caring Ways Rehab and Psychiatric center Islamabad,"Psychiatrist / Assist.Prof. Dr Hafiz sultan Muhammad MBBS-FCPS- Caring Ways Rehab and Psychiatric center Islamabad
4.2(5)
Addiction treatment center · House no 3, Zakria street, Muzafar Khan road
Open 24 hours · +92 314 1570722",Addiction treatment center,Open 24 hours,33.7133203,73.1639752,https://www.google.com/maps/place/Psychiatrist+%2F+Assist.Prof.+Dr+Hafiz+sultan+Muhammad+MBBS-FCPS-+Caring+Ways+Rehab+and+Psychiatric+center+Islamabad/data=!4m7!3m6!1s0x38dfc186c28036f7:0xdee97bbf620cd2d6!8m2!3d33.7133203!4d73.1639752!16s%2Fg%2F11l38zml4v!19sChIJ9zaAwobB3zgR1tIMYr976d4?authuser=0&hl=en&rclk=1,"Rehabilitation Center, Islamabad"
112,msasmafaridclinicalp_33.575440_73.198172,Ms. Asma Farid Clinical Psychologist | New Soch Rehab Centre Islamabad,"Ms. Asma Farid Clinical Psychologist | New Soch Rehab Centre Islamabad
5.0(30)
Rehabilitation center · House # 6, Street 12 Main Road
Open ⋅ Closes 8 PM · +92 315 9491681",Rehabilitation center,Open,33.5754397,73.198172,https://www.google.com/maps/place/Ms.+Asma+Farid+Clinical+Psychologist+%7C+New+Soch+Rehab+Centre+Islamabad/data=!4m7!3m6!1s0x97d3df12109579:0x6761c0153e5543b4!8m2!3d33.5754397!4d73.198172!16s%2Fg%2F11stszzq05!19sChIJeZUQEt_TlwARtENVPhXAYWc?authuser=0&hl=en&rclk=1,"Rehabilitation Center, Islamabad"
113,safecaretrustinterna_33.629311_72.936755,Safe Care Trust International,"Safe Care Trust International
4.9(94)
Psychiatric hospital ·  · Main Motorway Chowk، Gillani Avenue, Motorway Service Rd, near almizan college
Open 24 hours · +92 333 5643733",Psychiatric hospital,Open 24 hours,33.6293111,72.9367553,https://www.google.com/maps/place/Safe+Care+Trust+International/data=!4m7!3m6!1s0x38df97ae4cfec8a1:0x1bd9ac1fc513b6fb!8m2!3d33.6293111!4d72.9367553!16s%2Fg%2F11c2p5vb6l!19sChIJocj-TK6X3zgR-7YTxR-s2Rs?authuser=0&hl=en&rclk=1,"Rehabilitation Center, Islamabad"
114,hopeinnthechilddevel_33.561823_73.146231,HOPE INN - The Child Development & Rehab Center,"HOPE INN - The Child Development & Rehab Center
5.0(4)
Rehabilitation center ·  · Plot No.12, Street Number 9
Closed ⋅ Opens 8:30 AM Fri · +92 51 5738034",Rehabilitation center,Closed,33.5618234,73.1462308,https://www.google.com/maps/place/HOPE+INN+-+The+Child+Development+%26+Rehab+Center/data=!4m7!3m6!1s0x38dfec4d559ed63b:0x7bc378fe8c11bc01!8m2!3d33.5618234!4d73.1462308!16s%2Fg%2F11jg8977jp!19sChIJO9aeVU3s3zgRAbwRjP54w3s?authuser=0&hl=en&rclk=1,"Rehabilitation Center, Islamabad"
115,hopedrugtreatmentcen_33.735942_73.210499,Hope Drug Treatment Center,"Hope Drug Treatment Center
5.0(9)
Addiction treatment center ·  · House # 3, Street 1, Main Simly Dam Road, near Seri Chowk
Open 24 hours · +92 314 8001353",Addiction treatment center,Open 24 hours,33.7359422,73.2104995,https://www.google.com/maps/place/Hope+Drug+Treatment+Center/data=!4m7!3m6!1s0x38dfc33675600f6d:0x9b431a87379297f4!8m2!3d33.7359422!4d73.2104995!16s%2Fg%2F11rc__5wb4!19sChIJbQ9gdTbD3zgR9JeSN4caQ5s?authuser=0&hl=en&rclk=1,"Rehabilitation Center, Islamabad"
116,dralitherapypvtltdbe_33.710667_73.040730,Dr Ali Therapy Pvt Ltd-best chiropractor Physiotherapist in Islamabad,"Dr Ali Therapy Pvt Ltd-best chiropractor Physiotherapist in Islamabad
4.8(1,603)
Rehabilitation center ·  · Pakland & Kiran Plaza, Kohistan Rd, near IDC
Open ⋅ Closes 1:30 AM · +92 51 6125380",Rehabilitation center,Open,33.7106669,73.04073,https://www.google.com/maps/place/Dr+Ali+Therapy+Pvt+Ltd-best+chiropractor+Physiotherapist+in+Islamabad/data=!4m7!3m6!1s0x38dfbf7f9667f1d5:0x287e188a6765e906!8m2!3d33.7106669!4d73.04073!16s%2Fg%2F11rss4ydvy!19sChIJ1fFnln-_3zgRBullZ4oYfig?authuser=0&hl=en&rclk=1,"Rehabilitation Center, Islamabad"
117,rehabilitationfacili_33.746921_73.184825,Rehabilitation facility (Drug Addiction & Psychological Treatment Centre),"Rehabilitation facility (Drug Addiction & Psychological Treatment Centre)
5.0(1)
Medical Center · Hamdan St
Open ⋅ Closes 8 PM · +92 331 5335501",Medical Center,Open,33.7469206,73.184825,https://www.google.com/maps/place/Rehabilitation+facility+%28Drug+Addiction+%26+Psychological+Treatment+Centre%29/data=!4m7!3m6!1s0x38dfc1eb5a1ab25d:0x1a999a2f16298c5a!8m2!3d33.7469206!4d73.184825!16s%2Fg%2F11fszz97y4!19sChIJXbIaWuvB3zgRWowpFi-amRo?authuser=0&hl=en&rclk=1,"Rehabilitation Center, Islamabad"
118,gulfaddictiontreatme_33.568251_73.124780,Gulf Addiction Treatment Center & Psychiatric Care,"Gulf Addiction Treatment Center & Psychiatric Care
5.0(17)
Rehabilitation center · Address Gulf Addiction Treatment Center and Psychiatric Care, Building # 695, block D, National police Foundation Housing Society, Street 8/1, near Main PWD Road
Open 24 hours · +92 300 1561495",Rehabilitation center,Open 24 hours,33.568251,73.1247799,https://www.google.com/maps/place/Gulf+Addiction+Treatment+Center+%26+Psychiatric+Care/data=!4m7!3m6!1s0x38dfed88ce6a9d75:0xde6b48db151353a2!8m2!3d33.568251!4d73.1247799!16s%2Fg%2F11trfqrk2f!19sChIJdZ1qzojt3zgRolMTFdtIa94?authuser=0&hl=en&rclk=1,"Rehabilitation Center, Islamabad"
119,islamabadrehabilitat_33.575301_73.198227,Islamabad Rehabilitation and addiction treatment Centre,"Islamabad Rehabilitation and addiction treatment Centre
No reviews
Addiction treatment center · Main Double Road, opposite Muhammad masjid
Open ⋅ Closes 8 PM · +92 315 9491681",Addiction treatment center,Open,33.5753013,73.198227,https://www.google.com/maps/place/Islamabad+Rehabilitation+and+addiction+treatment+Centre/data=!4m7!3m6!1s0x38dfef8e1860453d:0xd227ebd530841896!8m2!3d33.5753013!4d73.198227!16s%2Fg%2F11wc6nmhg1!19sChIJPUVgGI7v3zgRlhiEMNXrJ9I?authuser=0&hl=en&rclk=1,"Rehabilitation Center, Islamabad"
120,sehatrehabclinic_33.641466_73.061563,Sehat Rehab Clinic,"Sehat Rehab Clinic
5.0(28)
Addiction treatment center · J3R6+HJP
Open 24 hours · +92 306 5283661",Addiction treatment center,Open 24 hours,33.6414665,73.0615634,https://www.google.com/maps/place/Sehat+Rehab+Clinic/data=!4m7!3m6!1s0x38df950023b66609:0x5196b528bc36ba7d!8m2!3d33.6414665!4d73.0615634!16s%2Fg%2F11y3nnr918!19sChIJCWa2IwCV3zgRfbo2vCi1llE?authuser=0&hl=en&rclk=1,"Rehabilitation Center, Islamabad"
121,edenhealthservices_33.618903_73.157360,Eden Health Services,"Eden Health Services
5.0(15)
Rehabilitation center · Plot no 79/c, near Ali Akbar chowk
Open 24 hours · +92 331 3331925",Rehabilitation center,Open 24 hours,33.6189031,73.1573601,https://www.google.com/maps/place/Eden+Health+Services/data=!4m7!3m6!1s0x38dfebff8c588be5:0x4e5ee6779b23a8ee!8m2!3d33.6189031!4d73.1573601!16s%2Fg%2F11rpvnzn75!19sChIJ5YtYjP_r3zgR7qgjm3fmXk4?authuser=0&hl=en&rclk=1,"Rehabilitation Center, Islamabad"
122,physiotherapyrehabil_33.518112_73.085513,Physiotherapy & Rehabilitation Centre,"Physiotherapy & Rehabilitation Centre
5.0(4)
Rehabilitation center ·  · Plaza 99D, Spring North, opposite Gloria Jeans
Open 24 hours · +92 309 0715258",Rehabilitation center,Open 24 hours,33.5181116,73.0855127,https://www.google.com/maps/place/Physiotherapy+%26+Rehabilitation+Centre/data=!4m7!3m6!1s0x38df930ed2042bff:0xea076e852bb3e067!8m2!3d33.5181116!4d73.0855127!16s%2Fg%2F11h5928v9h!19sChIJ_ysE0g6T3zgRZ-CzK4VuB-o?authuser=0&hl=en&rclk=1,"Rehabilitation Center, Islamabad"
123,aauislamabadnaizinda_33.643353_73.132966,AAU Islamabad Naizindagi,"AAU Islamabad Naizindagi
5.0(2)
Rehabilitation center ·  · P-40 Java Rd
Open 24 hours · +92 51 8485406",Rehabilitation center,Open 24 hours,33.6433529,73.1329662,https://www.google.com/maps/place/AAU+Islamabad+Naizindagi/data=!4m7!3m6!1s0x38dfeb02e5875b65:0xfeb7e294438fac52!8m2!3d33.6433529!4d73.1329662!16s%2Fg%2F11tbvbz4x0!19sChIJZVuH5QLr3zgRUqyPQ5Tit_4?authuser=0&hl=en&rclk=1,"Rehabilitation Center, Islamabad"
124,islamicmedicalcentre_33.623804_73.121415,Islamic Medical Centre,"Islamic Medical Centre
4.0(69)
Hospital ·  · Express Highway، near Khannapur, Kazmi St
Open 24 hours · +92 320 5500040",Hospital,Open 24 hours,33.623804,73.1214151,https://www.google.com/maps/place/Islamic+Medical+Centre/data=!4m7!3m6!1s0x38dfeb732fffffff:0xa1f5b898a02013c0!8m2!3d33.623804!4d73.1214151!16s%2Fg%2F11f_fhzm7l!19sChIJ____L3Pr3zgRwBMgoJi49aE?authuser=0&hl=en&rclk=1,"Rehabilitation Center, Islamabad"
125,maageerehabclinic_33.562461_73.133764,MAA GEE REHAB CLINIC,"MAA GEE REHAB CLINIC
5.0(4)
Addiction treatment center · House no 6-F, Street E2
Open 24 hours · +92 319 1515095",Addiction treatment center,Open 24 hours,33.5624606,73.1337639,https://www.google.com/maps/place/MAA+GEE+REHAB+CLINIC/data=!4m7!3m6!1s0x38dfed578b190103:0x573d5eeed3cae7aa!8m2!3d33.5624606!4d73.1337639!16s%2Fg%2F11y4b_zpgh!19sChIJAwEZi1ft3zgRqufK0-5ePVc?authuser=0&hl=en&rclk=1,"Rehabilitation Center, Islamabad"
126,rehabilitationcenter_33.708656_73.055701,Rehabilitation Center Islamabad (R.C.I),"Rehabilitation Center Islamabad (R.C.I)
No reviews
Medical Center ·  · C/O Islamabad Hearing Center, Office 11-B Basement Khyber Plaza A-K Fazal-e-Haq Road
+92 300 7247323",Medical Center,,33.7086564,73.0557006,https://www.google.com/maps/place/Rehabilitation+Center+Islamabad+%28R.C.I%29/data=!4m7!3m6!1s0x38dfbf514eac4a89:0x3b1b6bd0a0bdb609!8m2!3d33.7086564!4d73.0557006!16s%2Fg%2F11h5rlv6gt!19sChIJiUqsTlG_3zgRCba9oNBrGzs?authuser=0&hl=en&rclk=1,"Rehabilitation Center, Islamabad"
127,zobiamianbestclinica_33.568525_73.136535,"Zobia Mian - Best Clinical Psychologist (Gold Medalist), Psychotherapist, Drug Addiction Therapist and Special Educationist","Zobia Mian - Best Clinical Psychologist (Gold Medalist), Psychotherapist, Drug Addiction Therapist and Special Educationist
5.0(19)
Addiction treatment center · House#1896-A, St 7
Open ⋅ Closes 6 PM · +92 333 1585921",Addiction treatment center,Open,33.5685253,73.1365347,"https://www.google.com/maps/place/Zobia+Mian+-+Best+Clinical+Psychologist+%28Gold+Medalist%29,+Psychotherapist,+Drug+Addiction+Therapist+and+Special+Educationist/data=!4m7!3m6!1s0x38dfa3db54d22481:0x3e75267d1fddfc14!8m2!3d33.5685253!4d73.1365347!16s%2Fg%2F11tnfs16xf!19sChIJgSTSVNuj3zgRFPzdH30mdT4?authuser=0&hl=en&rclk=1","Rehabilitation Center, Islamabad"
128,flexphysiotherapyand_33.611577_73.129738,Flex Physiotherapy and Rehab Center Islamabad,"Flex Physiotherapy and Rehab Center Islamabad
5.0(27)
Physical therapy clinic ·  · Back to Save Mart, FPRC Islamabad, Street No 1-B, Main Double Road
Open ⋅ Closes 11 PM · +92 334 8437279",Physical therapy clinic,Open,33.6115766,73.1297379,https://www.google.com/maps/place/Flex+Physiotherapy+and+Rehab+Center+Islamabad/data=!4m7!3m6!1s0x38dfbd1a27782143:0x81b946f5236dd6bc!8m2!3d33.6115766!4d73.1297379!16s%2Fg%2F11rj_kw_0g!19sChIJQyF4Jxq93zgRvNZtI_VGuYE?authuser=0&hl=en&rclk=1,"Rehabilitation Center, Islamabad"
129,newwayrehabcenter_33.615590_73.129800,New Way Rehab Center,"New Way Rehab Center
5.0(7)
Rehabilitation center ·  · House#225 Main Market Road
+92 336 9200006",Rehabilitation center,,33.6155896,73.1298001,https://www.google.com/maps/place/New+Way+Rehab+Center/data=!4m7!3m6!1s0x38dfeb8a934cabc5:0x97cf7fc1fe924f92!8m2!3d33.6155896!4d73.1298001!16s%2Fg%2F11vt8chsly!19sChIJxatMk4rr3zgRkk-S_sF_z5c?authuser=0&hl=en&rclk=1,"Rehabilitation Center, Islamabad"
130,wellbeingcentreforte_33.628124_73.120034,Well Being Centre for Teens & Adults,"Well Being Centre for Teens & Adults
5.0(3)
Rehabilitation center · House #134, J4HC+725, Street 6F
Open ⋅ Closes 6 PM",Rehabilitation center,Open,33.6281245,73.1200335,https://www.google.com/maps/place/Well+Being+Centre+for+Teens+%26+Adults/data=!4m7!3m6!1s0x38dfebf0151eaf0b:0xe5a111b13579a629!8m2!3d33.6281245!4d73.1200335!16s%2Fg%2F11nms29q84!19sChIJC68eFfDr3zgRKaZ5NbERoeU?authuser=0&hl=en&rclk=1,"Rehabilitation Center, Islamabad"
131,hoslaaddictionpsychi_33.664932_73.153088,Hosla Addiction & Psychiatric Treatment Centre,"Hosla Addiction & Psychiatric Treatment Centre
5.0(2)
Rehabilitation center · Main Park Rd
+92 335 2321144",Rehabilitation center,,33.6649321,73.1530882,https://www.google.com/maps/place/Hosla+Addiction+%26+Psychiatric+Treatment+Centre/data=!4m7!3m6!1s0x38dfebfc4d0ccff3:0x4b73a02511da3444!8m2!3d33.6649321!4d73.1530882!16s%2Fg%2F11rmn9zht0!19sChIJ888MTfzr3zgRRDTaESWgc0s?authuser=0&hl=en&rclk=1,"Rehabilitation Center, Islamabad"
132,abidchpsychologistth_33.570251_73.194192,Abid Ch Psychologist- The New Life Naval Anchorage Islamabad,"Abid Ch Psychologist- The New Life Naval Anchorage Islamabad
4.9(81)
Rehabilitation center · House 8 Road E
Open ⋅ Closes 9 PM · +92 307 7850808",Rehabilitation center,Open,33.5702513,73.1941916,https://www.google.com/maps/place/Abid+Ch+Psychologist-+The+New+Life+Naval+Anchorage+Islamabad/data=!4m7!3m6!1s0x38dfeff13eb412b7:0x462d7a1089428587!8m2!3d33.5702513!4d73.1941916!16s%2Fg%2F11t83lwrlq!19sChIJtxK0PvHv3zgRh4VCiRB6LUY?authuser=0&hl=en&rclk=1,"Rehabilitation Center, Islamabad"
133,newbacktoliferehabce_33.562221_73.091204,New Back To Life Rehab Center,"New Back To Life Rehab Center
4.4(18)
Rehabilitation center · House # 4128, 728 Lane 9
Open 24 hours · +92 333 6708983",Rehabilitation center,Open 24 hours,33.5622207,73.0912036,https://www.google.com/maps/place/New+Back+To+Life+Rehab+Center/data=!4m7!3m6!1s0x38dfedc4b2bc3059:0x509aa33b77d4a87c!8m2!3d33.5622207!4d73.0912036!16s%2Fg%2F11kgs7x_j0!19sChIJWTC8ssTt3zgRfKjUdzujmlA?authuser=0&hl=en&rclk=1,"Rehabilitation Center, Islamabad"
134,bahriatownstrokeandr_33.573740_73.106850,Bahria Town Stroke and Rehabilitation Centre,"Bahria Town Stroke and Rehabilitation Centre
4.7(46)
Hospital ·  · New Safari Hospital Building, Safari Villa-1, near Car Chowk
Open now · +92 333 2718111",Hospital,Open now,33.5737401,73.1068504,https://www.google.com/maps/place/Bahria+Town+Stroke+and+Rehabilitation+Centre/data=!4m7!3m6!1s0x38dfedb4bd8cba67:0x4f9cec937f688c32!8m2!3d33.5737401!4d73.1068504!16s%2Fg%2F11qh7j32vb!19sChIJZ7qMvbTt3zgRMoxof5PsnE8?authuser=0&hl=en&rclk=1,"Rehabilitation Center, Islamabad"
135,drqaisarkhattakbestp_33.697905_73.050656,Dr Qaisar Khattak - Best Physiotherapist in Islamabad,"Dr Qaisar Khattak - Best Physiotherapist in Islamabad
4.9(35)
Rehabilitation center ·  · G, 8 Markaz Rd, adjacent to Faysal Bank, near Advance Diagnostic Center
Open ⋅ Closes 10 PM · +92 345 9860646",Rehabilitation center,Open,33.6979047,73.0506562,https://www.google.com/maps/place/Dr+Qaisar+Khattak+-+Best+Physiotherapist+in+Islamabad/data=!4m7!3m6!1s0x38dfbf00712a7d3b:0x518bd667119a56e7!8m2!3d33.6979047!4d73.0506562!16s%2Fg%2F11wbt8lzj6!19sChIJO30qcQC_3zgR51aaEWfWi1E?authuser=0&hl=en&rclk=1,"Rehabilitation Center, Islamabad"
136,therealhealth_33.696894_73.051305,The Real Health,"The Real Health
4.8(68)
Rehabilitation center ·  · Second floor. Doctor plaza, IDC Building, G8 Markaz, Markaz Rd
Open 24 hours · +92 333 5303130",Rehabilitation center,Open 24 hours,33.6968941,73.0513054,https://www.google.com/maps/place/The+Real+Health/data=!4m7!3m6!1s0x38dfbf0a1d6d75c5:0xe2e0c100385d126c!8m2!3d33.6968941!4d73.0513054!16s%2Fg%2F11q83ynbhn!19sChIJxXVtHQq_3zgRbBJdOADB4OI?authuser=0&hl=en&rclk=1,"Rehabilitation Center, Islamabad"
137,physiofittphysiother_33.715089_73.066862,Physiofitt - Physiotherapist Clinic Islamabad,"Physiofitt - Physiotherapist Clinic Islamabad
4.8(97)
Rehabilitation center ·  · Roshan centre, Lower ground
Open ⋅ Closes 11 PM · +92 345 5661110",Rehabilitation center,Open,33.7150895,73.0668624,https://www.google.com/maps/place/Physiofitt+-+Physiotherapist+Clinic+Islamabad/data=!4m7!3m6!1s0x38dfbf3d10c70a53:0x96c9a639f29cd898!8m2!3d33.7150895!4d73.0668624!16s%2Fg%2F11lfbgkv_d!19sChIJUwrHED2_3zgRmNic8jmmyZY?authuser=0&hl=en&rclk=1,"Rehabilitation Center, Islamabad"
138,therapyworkshouseisl_33.730685_73.070102,Therapy Works House Islamabad,"Therapy Works House Islamabad
2.3(6)
Rehabilitation center · Plaza No.3، Street 25، near Firdous Market
Open ⋅ Closes 9 PM · +92 51 2601632",Rehabilitation center,Open,33.7306853,73.0701019,https://www.google.com/maps/place/Therapy+Works+House+Islamabad/data=!4m7!3m6!1s0x38dfbff2d57f671d:0xce2c97da4cbd84db!8m2!3d33.7306853!4d73.0701019!16s%2Fg%2F11rggp9h76!19sChIJHWd_1fK_3zgR24S9TNqXLM4?authuser=0&hl=en&rclk=1,"Rehabilitation Center, Islamabad"
139,drphysiorehab_33.562726_73.148219,Dr Physio Rehab,"Dr Physio Rehab
4.8(54)
Physical therapy clinic ·  · Ground floor, Ascon Heights II, Soan Ave
Open ⋅ Closes 11:45 PM · +92 333 1343878",Physical therapy clinic,Open,33.5627263,73.1482195,https://www.google.com/maps/place/Dr+Physio+Rehab/data=!4m7!3m6!1s0x38dfed18e49b00d1:0x6e43689cb48e8b22!8m2!3d33.5627263!4d73.1482195!16s%2Fg%2F11pd1sy1mt!19sChIJ0QCb5Bjt3zgRIouOtJxoQ24?authuser=0&hl=en&rclk=1,"Rehabilitation Center, Islamabad"
140,devotionrehabcenter_33.500878_73.105725,Devotion Rehab Center,"Devotion Rehab Center
4.2(13)
Addiction treatment center ·  · Subhan plaza 57, Linear commercial Bahria town, Commercial Dr
Open 24 hours · +92 333 6001971",Addiction treatment center,Open 24 hours,33.500878,73.1057251,https://www.google.com/maps/place/Devotion+Rehab+Center/data=!4m7!3m6!1s0x38df8d2daa3fb597:0x35af9a504dc1cfeb!8m2!3d33.500878!4d73.1057251!16s%2Fg%2F11f1khq5y5!19sChIJl7U_qi2N3zgR68_BTVCarzU?authuser=0&hl=en&rclk=1,"Rehabilitation Center, Islamabad"
141,drnadirspainrehabcen_33.712702_73.037063,Dr Nadir's Pain Rehab Center,"Dr Nadir's Pain Rehab Center
5.0(6)
Medical clinic · P27P+3RP
+92 300 5102406",Medical clinic,,33.712702,73.0370631,https://www.google.com/maps/place/Dr+Nadir%27s+Pain+Rehab+Center/data=!4m7!3m6!1s0x38dfbf508a618ee9:0x92ec971fd229fa91!8m2!3d33.712702!4d73.0370631!16s%2Fg%2F11gy74nw8b!19sChIJ6Y5hilC_3zgRkfop0h-X7JI?authuser=0&hl=en&rclk=1,"Rehabilitation Center, Islamabad"
142,ahsanrehabcentre_33.639102_73.154307,Ahsan Rehab Centre,"Ahsan Rehab Centre
5.0(7)
Physical therapy clinic · Al-Hassan Plaza, Lehtrar Rd
Open ⋅ Closes 10 PM · +92 312 5146515",Physical therapy clinic,Open,33.6391023,73.1543073,https://www.google.com/maps/place/Ahsan+Rehab+Centre/data=!4m7!3m6!1s0x38dfeb00281b90a5:0xce12b3dfee039adb!8m2!3d33.6391023!4d73.1543073!16s%2Fg%2F11vt5b29j9!19sChIJpZAbKADr3zgR25oD7t-zEs4?authuser=0&hl=en&rclk=1,"Rehabilitation Center, Islamabad"
143,najjattrust_33.622043_73.060399,Najjat Trust,"Najjat Trust
4.3(116)
Addiction treatment center ·  · J3C7+PM4، P-330, Janglat Road
Open 24 hours · +92 51 5542000",Addiction treatment center,Open 24 hours,33.622043,73.0603993,https://www.google.com/maps/place/Najjat+Trust/data=!4m7!3m6!1s0x38df94e91a171549:0xf6069e800ff451d6!8m2!3d33.622043!4d73.0603993!16s%2Fg%2F1hc45ltgq!19sChIJSRUXGumU3zgR1lH0D4CeBvY?authuser=0&hl=en&rclk=1,"Rehabilitation Center, Islamabad"
144,khayabanrehabcenter_33.634736_73.047649,Khayaban Rehab Center,"Khayaban Rehab Center
5.0(70)
Rehabilitation center ·  · J2MX+V3R, main road, near The Bank Of Punjab
Open ⋅ Closes 8 AM Fri · +92 333 8279056",Rehabilitation center,Open,33.6347361,73.0476491,https://www.google.com/maps/place/Khayaban+Rehab+Center/data=!4m7!3m6!1s0x38df950015ea125d:0xf1d2b7250acda4e9!8m2!3d33.6347361!4d73.0476491!16s%2Fg%2F11vqc8nsx7!19sChIJXRLqFQCV3zgR6aTNCiW30vE?authuser=0&hl=en&rclk=1,"Rehabilitation Center, Islamabad"
145,roshnidrugsrehabilit_33.736685_73.217848,Roshni | Drugs Rehabilitation & Mental Healthcare Centre | RDRC,"Roshni | Drugs Rehabilitation & Mental Healthcare Centre | RDRC
4.5(10)
Rehabilitation center · Fareed street ADIL height, Simly Dam Road
Temporarily closed",Rehabilitation center,,33.7366845,73.2178477,https://www.google.com/maps/place/Roshni+%7C+Drugs+Rehabilitation+%26+Mental+Healthcare+Centre+%7C+RDRC/data=!4m7!3m6!1s0x38dfc10922671533:0xd6c00a33e889dfd9!8m2!3d33.7366845!4d73.2178477!16s%2Fg%2F11r7sqlmgs!19sChIJMxVnIgnB3zgR2d-J6DMKwNY?authuser=0&hl=en&rclk=1,"Rehabilitation Center, Islamabad"
146,spiremedicalrehabili_33.564428_73.126578,Spire Medical & Rehabilitation Center,"Spire Medical & Rehabilitation Center
5.0(10)
Medical Center ·  · 5
Open ⋅ Closes 9 PM · +92 330 2592597",Medical Center,Open,33.5644277,73.1265778,https://www.google.com/maps/place/Spire+Medical+%26+Rehabilitation+Center/data=!4m7!3m6!1s0x38dfed58f6848b0b:0x656c0a50acdd2174!8m2!3d33.5644277!4d73.1265778!16s%2Fg%2F11hdsmjwwp!19sChIJC4uE9ljt3zgRdCHdrFAKbGU?authuser=0&hl=en&rclk=1,"Rehabilitation Center, Islamabad"
147,bintefatimaoldhome_33.724330_73.166537,Bint e Fatima Old Home,"Bint e Fatima Old Home
4.7(39)
Rehabilitation center · House #32,street # 5, Korang Rd
Open ⋅ Closes 5 PM · +92 310 5500116",Rehabilitation center,Open,33.7243298,73.1665371,https://www.google.com/maps/place/Bint+e+Fatima+Old+Home/data=!4m7!3m6!1s0x38dfc3cbbdc380d3:0x23bf1de73938007a!8m2!3d33.7243298!4d73.1665371!16s%2Fg%2F11f_z9r_pc!19sChIJ04DDvcvD3zgRegA4OecdvyM?authuser=0&hl=en&rclk=1,"Rehabilitation Center, Islamabad"
148,uniquerehabilitation_33.561770_73.058979,Unique Rehabilitation Center,"Unique Rehabilitation Center
5.0(3)
Rehabilitation center · 82 School Rd
Open 24 hours · +92 334 1251254",Rehabilitation center,Open 24 hours,33.5617699,73.0589791,https://www.google.com/maps/place/Unique+Rehabilitation+Center/data=!4m7!3m6!1s0x38df93927c960373:0x54499ff92d78383e!8m2!3d33.5617699!4d73.0589791!16s%2Fg%2F11w35mc29m!19sChIJcwOWfJKT3zgRPjh4LfmfSVQ?authuser=0&hl=en&rclk=1,"Rehabilitation Center, Islamabad"
149,arminternationalreha_33.632267_72.919317,ARM International Rehab Center,"ARM International Rehab Center
5.0(11)
Rehabilitation center · House 196 Street 9
Temporarily closed · +92 336 7777145",Rehabilitation center,,33.632267,72.9193166,https://www.google.com/maps/place/ARM+International+Rehab+Center/data=!4m7!3m6!1s0x38df9745522ac92d:0x8c3b666f87edc651!8m2!3d33.632267!4d72.9193166!16s%2Fg%2F11l8pk32zg!19sChIJLckqUkWX3zgRUcbth29mO4w?authuser=0&hl=en&rclk=1,"Rehabilitation Center, Islamabad"
150,maxrehabphysicalther_33.697313_73.048687,Max Rehab & Physical Therapy Centre,"Max Rehab & Physical Therapy Centre
5.0(5)
Hospital ·  · Markaz
Open ⋅ Closes 8 PM · +92 333 5468034",Hospital,Open,33.6973125,73.0486875,https://www.google.com/maps/place/Max+Rehab+%26+Physical+Therapy+Centre/data=!4m7!3m6!1s0x38dfbf583a7235e5:0xea295c539c3c259!8m2!3d33.6973125!4d73.0486875!16s%2Fg%2F11gl1596pl!19sChIJ5TVyOli_3zgRWcLDOcWVog4?authuser=0&hl=en&rclk=1,"Rehabilitation Center, Islamabad"
151,chineserehabilitatio_33.711744_73.037741,Chinese Rehabilitation Center,"Chinese Rehabilitation Center
4.0(4)
Homeopath · Shop#8, Shahwaiz Center
Open ⋅ Closes 9 PM · +92 51 8480427",Homeopath,Open,33.7117438,73.0377408,https://www.google.com/maps/place/Chinese+Rehabilitation+Center/data=!4m7!3m6!1s0x38dfbf3fd9a30813:0xb1ac023ec6d605c!8m2!3d33.7117438!4d73.0377408!16s%2Fg%2F11y1fcfrwj!19sChIJEwij2T-_3zgRXGBt7CPAGgs?authuser=0&hl=en&rclk=1,"Rehabilitation Center, Islamabad"
152,painreliefrehabilita_33.573526_73.107017,Pain Relief & Rehabilitation Center Bahria Town Rawalpindi,"Pain Relief & Rehabilitation Center Bahria Town Rawalpindi
5.0(1)
Rehabilitation center ·  · Rehabilitation Center
Open 24 hours",Rehabilitation center,Open 24 hours,33.5735256,73.1070174,https://www.google.com/maps/place/Pain+Relief+%26+Rehabilitation+Center+Bahria+Town+Rawalpindi/data=!4m7!3m6!1s0x38dfed8850dca553:0x7da6a96b96bc340a!8m2!3d33.5735256!4d73.1070174!16s%2Fg%2F11rwwt5jpd!19sChIJU6XcUIjt3zgRCjS8lmuppn0?authuser=0&hl=en&rclk=1,"Rehabilitation Center, Islamabad"
153,athleanphysicalthera_33.699593_72.973609,"ATHLEAN PHYSICAL THERAPY, ISLAMABAD","ATHLEAN PHYSICAL THERAPY, ISLAMABAD
4.9(69)
Rehabilitation center ·  · Karsaaz Tower 2
Open ⋅ Closes 8 PM · +92 318 5422232",Rehabilitation center,Open,33.6995934,72.9736092,"https://www.google.com/maps/place/ATHLEAN+PHYSICAL+THERAPY,+ISLAMABAD/data=!4m7!3m6!1s0x38dfbd9a78080115:0xb47e87dd085cbcbc!8m2!3d33.6995934!4d72.9736092!16s%2Fg%2F11qsv49x2r!19sChIJFQEIeJq93zgRvLxcCN2HfrQ?authuser=0&hl=en&rclk=1","Rehabilitation Center, Islamabad"
154,stlrehabilitationcen_33.501404_73.097472,STL Rehabilitation Centre Bahria | School for Slow Learner | Autism Centre | Home Schooling | School for Down Syndrome,"STL Rehabilitation Centre Bahria | School for Slow Learner | Autism Centre | Home Schooling | School for Down Syndrome
5.0(8)
Rehabilitation center · Town, Alkarim Heights (Plaza 19) Rafi Commercial Bahria, 8 phase
Open ⋅ Closes 4:30 PM · +92 331 1119106",Rehabilitation center,Open,33.5014035,73.0974717,https://www.google.com/maps/place/STL+Rehabilitation+Centre+Bahria+%7C+School+for+Slow+Learner+%7C+Autism+Centre+%7C+Home+Schooling+%7C+School+for+Down+Syndrome/data=!4m7!3m6!1s0x40e67e692ced7ae9:0x14b1b5f719b45c21!8m2!3d33.5014035!4d73.0974717!16s%2Fg%2F11yb7xcrcn!19sChIJ6XrtLGl-5kARIVy0Gfe1sRQ?authuser=0&hl=en&rclk=1,"Rehabilitation Center, Islamabad"
155,reconnectphysiothera_33.689262_72.832251,Reconnect Physiotherapy Centre ( RPC) B-17,"Reconnect Physiotherapy Centre ( RPC) B-17
5.0(24)
Rehabilitation center ·  · House no, 226 Street 13
Open ⋅ Closes 9 PM · +92 344 5760646",Rehabilitation center,Open,33.6892618,72.8322515,https://www.google.com/maps/place/Reconnect+Physiotherapy+Centre+%28+RPC%29+B-17/data=!4m7!3m6!1s0x38dfa323340ecf77:0x66c4b4aa98e456ff!8m2!3d33.6892618!4d72.8322515!16s%2Fg%2F11ldd20qj2!19sChIJd88ONCOj3zgR_1bkmKq0xGY?authuser=0&hl=en&rclk=1,"Rehabilitation Center, Islamabad"
