Index,Place Id,Name,Address,Category,Status,Latitude,Longitude,Link,SearchKeyword
1,na_noloc,,,,,,,,"Veterinarian, Islamabad"
5,thepetshospitalislam_33.676070_73.026178,The Pet's Hospital Islamabad,,Veterinarian,Open,33.6760701,73.0261779,https://www.google.com/maps/place/The+Pet%27s+Hospital+Islamabad/data=!4m7!3m6!1s0x38dfbe279900d70d:0xbfcef2e5012bf525!8m2!3d33.6760701!4d73.0261779!16s%2Fg%2F11bxft2w7j!19sChIJDdcAmSe-3zgRJfUrAeXyzr8?authuser=0&hl=en&rclk=1,"Veterinarian, Islamabad"
37,usmanpethospitalisla_33.694688_72.970218,Usman Pet Hospital Islamabad,"Usman Pet Hospital Islamabad
4.7(238)
Animal hospital · Shop no 5 Basement, Shah Muhmmad Plaza, Markaz
Open ⋅ Closes 10 PM · +92 317 4654462",Animal hospital,Open,33.6946884,72.9702179,https://www.google.com/maps/place/Usman+Pet+Hospital+Islamabad/data=!4m7!3m6!1s0x38dfbd23185d7d01:0x277adcb1c84f458!8m2!3d33.6946884!4d72.9702179!16s%2Fg%2F11q95rvh5d!19sChIJAX1dGCO93zgRWPSEHMutdwI?authuser=0&hl=en&rclk=1,"Veterinarian, Islamabad"
38,vetplusclinicislamab_33.671788_73.068503,Vet plus clinic Islamabad,"Vet plus clinic Islamabad
5.0(124)
Animal hospital ·  · hajveri market, Street 47
Open ⋅ Closes 11 PM · +92 302 3888831",Animal hospital,Open,33.6717883,73.0685032,https://www.google.com/maps/place/Vet+plus+clinic+Islamabad/data=!4m7!3m6!1s0x38dfbfdd495de483:0x92ae194e0d6210a4!8m2!3d33.6717883!4d73.0685032!16s%2Fg%2F11rdbdwrt6!19sChIJg-RdSd2_3zgRpBBiDU4ZrpI?authuser=0&hl=en&rclk=1,"Veterinarian, Islamabad"
39,dralisveterinaryhosp_33.633477_72.918658,Dr.Ali's veterinary hospital,"Dr.Ali's veterinary hospital
4.9(193)
Veterinarian
Open 24 hours · +92 51 2160022",Veterinarian,Open 24 hours,33.6334773,72.9186582,https://www.google.com/maps/place/Dr.Ali%27s+veterinary+hospital/data=!4m7!3m6!1s0x38df97de9ca8f19d:0xaf66c8492772a562!8m2!3d33.6334773!4d72.9186582!16s%2Fg%2F11qs1vqpcv!19sChIJnfGonN6X3zgRYqVyJ0nIZq8?authuser=0&hl=en&rclk=1,"Veterinarian, Islamabad"
40,aliyanpetshospitalis_33.698537_72.967989,Aliyan Pets Hospital Islamabad 24/7 Emergency,"Aliyan Pets Hospital Islamabad 24/7 Emergency
4.4(446)
Animal hospital · Shop No 1/2 LGF NAFEES ARCHADE
Open 24 hours · +92 332 4373070",Animal hospital,Open 24 hours,33.6985371,72.9679891,https://www.google.com/maps/place/Aliyan+Pets+Hospital+Islamabad+24%2F7+Emergency/data=!4m7!3m6!1s0x38dfbd1c38b87583:0x56afa4c3e7c2cb7!8m2!3d33.6985371!4d72.9679891!16s%2Fg%2F11ll6rv4yh!19sChIJg3W4OBy93zgRtyx8Pkz6agU?authuser=0&hl=en&rclk=1,"Veterinarian, Islamabad"
41,familypetclinicislam_33.668871_73.013074,Family Pet Clinic Islamabad,"Family Pet Clinic Islamabad
4.6(296)
Veterinarian · shop 5, 89 Street 35
Open 24 hours · +92 314 3710571",Veterinarian,Open 24 hours,33.6688712,73.0130738,https://www.google.com/maps/place/Family+Pet+Clinic+Islamabad/data=!4m7!3m6!1s0x38dfbfe5ad1f7d05:0xbf8a6e83284f75d0!8m2!3d33.6688712!4d73.0130738!16s%2Fg%2F11np3hpd0b!19sChIJBX0freW_3zgR0HVPKINuir8?authuser=0&hl=en&rclk=1,"Veterinarian, Islamabad"
42,alphapetcareanimalho_33.692262_72.829864,Alpha Pet Care | Animal Hospital | Veterinary Clinic | Pet Supplies,"Alpha Pet Care | Animal Hospital | Veterinary Clinic | Pet Supplies
4.9(99)
Veterinarian · Alpha pet care, Executive arcade
Open ⋅ Closes 9 PM · +92 306 4567154",Veterinarian,Open,33.6922615,72.8298638,https://www.google.com/maps/place/Alpha+Pet+Care+%7C+Animal+Hospital+%7C+Veterinary+Clinic+%7C+Pet+Supplies/data=!4m7!3m6!1s0x38dfa3901a359e7b:0xf96a25cc7de0e17d!8m2!3d33.6922615!4d72.8298638!16s%2Fg%2F11ql6cg16f!19sChIJe541GpCj3zgRfeHgfcwlavk?authuser=0&hl=en&rclk=1,"Veterinarian, Islamabad"
43,shahpetsclinicislama_33.673679_72.996522,Shah Pets Clinic Islamabad,"Shah Pets Clinic Islamabad
5.0(80)
Veterinarian · Shop 8F Street # 94 Madni Market G11/3 Islamabad G 11 Sector G 11/3
Open ⋅ Closes 10 PM · +92 333 5436363",Veterinarian,Open,33.6736794,72.9965216,https://www.google.com/maps/place/Shah+Pets+Clinic+Islamabad/data=!4m7!3m6!1s0x38dfbfbd9355fc55:0xec5ce0ad68cce2d1!8m2!3d33.6736794!4d72.9965216!16s%2Fg%2F11rsspvlcp!19sChIJVfxVk72_3zgR0eLMaK3gXOw?authuser=0&hl=en&rclk=1,"Veterinarian, Islamabad"
44,royalpetshospital_33.708930_73.046280,Royal Pets Hospital,"Royal Pets Hospital
4.7(203)
Veterinarian · Najam Market, Street 55
Open 24 hours · +92 51 2100062",Veterinarian,Open 24 hours,33.7089297,73.0462797,https://www.google.com/maps/place/Royal+Pets+Hospital/data=!4m7!3m6!1s0x38df935c08b74675:0xbf13cec1808c843!8m2!3d33.7089297!4d73.0462797!16s%2Fg%2F11lk1ksgtl!19sChIJdUa3CFyT3zgRQ8gIGOw88Qs?authuser=0&hl=en&rclk=1,"Veterinarian, Islamabad"
45,pawsnclawspetsclinic_33.663470_73.076616,Paws N Claws Pets Clinic Islamabad,"Paws N Claws Pets Clinic Islamabad
3.9(248)
Animal hospital ·  · Paws N Claws Pets Clinic, 1 Pakeeza Market Street
Open 24 hours · +92 332 8888788",Animal hospital,Open 24 hours,33.6634702,73.0766158,https://www.google.com/maps/place/Paws+N+Claws+Pets+Clinic+Islamabad/data=!4m7!3m6!1s0x38df954884426e41:0xa2803180906e5ffb!8m2!3d33.6634702!4d73.0766158!16s%2Fg%2F12mkz9j97!19sChIJQW5ChEiV3zgR-19ukIAxgKI?authuser=0&hl=en&rclk=1,"Veterinarian, Islamabad"
46,petsvets_33.721650_73.063367,Pets & Vets,"Pets & Vets
3.8(857)
Veterinarian · Maqbool Market, 1 Street 61
Open 24 hours · +92 300 8545566",Veterinarian,Open 24 hours,33.7216503,73.0633672,https://www.google.com/maps/place/Pets+%26+Vets/data=!4m7!3m6!1s0x38dfbfa02f729ea5:0xf2e54b7ec06e43e!8m2!3d33.7216503!4d73.0633672!16s%2Fg%2F11f3w9d4zq!19sChIJpZ5yL6C_3zgRPuQG7LdULg8?authuser=0&hl=en&rclk=1,"Veterinarian, Islamabad"
47,drranaspetcarecenter_33.727707_73.047837,Dr. Rana's Pet Care Center,"Dr. Rana's Pet Care Center
3.5(647)
Veterinarian ·  · Shaheen Market, Block 4-A, St#14
Open 24 hours · +92 51 2653157 ext. 2653218",Veterinarian,Open 24 hours,33.7277067,73.0478372,https://www.google.com/maps/place/Dr.+Rana%27s+Pet+Care+Center/data=!4m7!3m6!1s0x38dfbf0426171515:0x21aa933d0e97e217!8m2!3d33.7277067!4d73.0478372!16s%2Fg%2F1tdxj76y!19sChIJFRUXJgS_3zgRF-KXDj2TqiE?authuser=0&hl=en&rclk=1,"Veterinarian, Islamabad"
48,drnaveedpetclinic_33.686419_73.005444,Dr.Naveed Pet Clinic,"Dr.Naveed Pet Clinic
4.9(165)
Animal hospital · khursheed market, Street 30
Open 24 hours · +92 310 0056521",Animal hospital,Open 24 hours,33.6864192,73.0054439,https://www.google.com/maps/place/Dr.Naveed+Pet+Clinic/data=!4m7!3m6!1s0x38dfbf0e031c6d37:0x95ad5369aa109ce6!8m2!3d33.6864192!4d73.0054439!16s%2Fg%2F11kbrwy4s4!19sChIJN20cAw6_3zgR5pwQqmlTrZU?authuser=0&hl=en&rclk=1,"Veterinarian, Islamabad"
49,vetcarepetshospitali_33.674812_73.015278,VetCare Pets Hospital Islamabad 24/7 Emergency,"VetCare Pets Hospital Islamabad 24/7 Emergency
4.4(301)
Animal hospital ·  · Basement Kosar Plaza, Bela Rd
Open 24 hours · +92 326 4008949",Animal hospital,Open 24 hours,33.6748119,73.0152785,https://www.google.com/maps/place/VetCare+Pets+Hospital+Islamabad+24%2F7+Emergency/data=!4m7!3m6!1s0x38df952e1a54041d:0x68d75640d96b84b5!8m2!3d33.6748119!4d73.0152785!16s%2Fg%2F11tf8cg55c!19sChIJHQRUGi6V3zgRtYRr2UBW12g?authuser=0&hl=en&rclk=1,"Veterinarian, Islamabad"
50,theanimalcarecenter_33.677258_72.986244,The Animal Care Center,"The Animal Care Center
4.9(124)
Animal hospital · Ali Market, Street 73
Open 24 hours · +92 349 3355570",Animal hospital,Open 24 hours,33.6772577,72.986244,https://www.google.com/maps/place/The+Animal+Care+Center/data=!4m7!3m6!1s0x38dfbd5654775593:0xfbb6a805dee3b30b!8m2!3d33.6772577!4d72.986244!16s%2Fg%2F11shm_xt3n!19sChIJk1V3VFa93zgRC7Pj3gWotvs?authuser=0&hl=en&rclk=1,"Veterinarian, Islamabad"
51,petsavianhealthclini_33.612851_73.133444,Pets & Avian Health Clinic,"Pets & Avian Health Clinic
4.7(78)
Veterinarian · Street 10-D
Open ⋅ Closes 5 PM · +92 341 5160985",Veterinarian,Open,33.6128511,73.1334443,https://www.google.com/maps/place/Pets+%26+Avian+Health+Clinic/data=!4m7!3m6!1s0x38dfeb126214277f:0x7c4de3058a095ae8!8m2!3d33.6128511!4d73.1334443!16s%2Fg%2F11gc03zcsn!19sChIJfycUYhLr3zgR6FoJigXjTXw?authuser=0&hl=en&rclk=1,"Veterinarian, Islamabad"
52,petpointclinic_33.686717_73.006338,Pet Point Clinic,"Pet Point Clinic
4.5(82)
Animal hospital · Street 30
Open 24 hours · +92 315 4033333",Animal hospital,Open 24 hours,33.6867169,73.0063383,https://www.google.com/maps/place/Pet+Point+Clinic/data=!4m7!3m6!1s0x38dfbfecffb411b7:0xd0c4ae206a43e4a4!8m2!3d33.6867169!4d73.0063383!16s%2Fg%2F11h0tj3ltr!19sChIJtxG0_-y_3zgRpORDaiCuxNA?authuser=0&hl=en&rclk=1,"Veterinarian, Islamabad"
53,pawsfeatherspetclini_33.651396_72.953221,Paws & Feathers Pet Clinic,"Paws & Feathers Pet Clinic
4.4(117)
Veterinarian ·  · Mughal Market, Street 54
Open ⋅ Closes 10:30 PM · +92 51 2154497",Veterinarian,Open,33.6513963,72.9532206,https://www.google.com/maps/place/Paws+%26+Feathers+Pet+Clinic/data=!4m7!3m6!1s0x38df9701d9d8a8c3:0x35300c549aeb6387!8m2!3d33.6513963!4d72.9532206!16s%2Fg%2F11j1f4j8g3!19sChIJw6jY2QGX3zgRh2PrmlQMMDU?authuser=0&hl=en&rclk=1,"Veterinarian, Islamabad"
54,petswellclinicncare_33.715062_73.054980,PETSWELL Clinic n Care,"PETSWELL Clinic n Care
4.5(219)
Animal hospital ·  · Street 31 plot no 8 Al naseeb plaza 1st floor faisal market f7/1 Islamabad Street 38 plot no 8 Al naseeb plaza 1st floor faisal market
Open ⋅ Closes 9 PM · +92 342 1111007",Animal hospital,Open,33.7150619,73.0549796,https://www.google.com/maps/place/PETSWELL+Clinic+n+Care/data=!4m7!3m6!1s0x38dfbf494bcaf317:0x183c4c5cefba0119!8m2!3d33.7150619!4d73.0549796!16s%2Fg%2F11c2y4zbd1!19sChIJF_PKS0m_3zgRGQG671xMPBg?authuser=0&hl=en&rclk=1,"Veterinarian, Islamabad"
55,petscareclinic_33.720547_73.056390,Pets Care Clinic,"Pets Care Clinic
4.6(69)
Veterinarian · Shop 1 basement, JJ plaza, Jinnah super, adjacent Safa Gold Mall
Open 24 hours · +92 333 5056537",Veterinarian,Open 24 hours,33.7205471,73.0563904,https://www.google.com/maps/place/Pets+Care+Clinic/data=!4m7!3m6!1s0x38dfbf64082e0679:0x7bed35ac049d6e0e!8m2!3d33.7205471!4d73.0563904!16s%2Fg%2F11krk8w1gk!19sChIJeQYuCGS_3zgRDm6dBKw17Xs?authuser=0&hl=en&rclk=1,"Veterinarian, Islamabad"
56,petsempirehospital_33.663815_73.075929,Pets Empire Hospital,"Pets Empire Hospital
4.8(137)
Animal hospital · Shop no 4, Pakeeza Market, Near Street 1, opposite M A dental care
Open 24 hours · +92 321 6833343",Animal hospital,Open 24 hours,33.6638153,73.075929,https://www.google.com/maps/place/Pets+Empire+Hospital/data=!4m7!3m6!1s0x38df955f7444a243:0xfd60a67f2806b674!8m2!3d33.6638153!4d73.075929!16s%2Fg%2F11rdc159vt!19sChIJQ6JEdF-V3zgRdLYGKH-mYP0?authuser=0&hl=en&rclk=1,"Veterinarian, Islamabad"
57,islamabadpetsclinic_33.736062_73.170608,Islamabad Pets Clinic,"Islamabad Pets Clinic
4.6(31)
Veterinarian · Jilani stop, Murree Rd
Open ⋅ Closes 9 PM · +92 321 5284530",Veterinarian,Open,33.7360619,73.1706083,https://www.google.com/maps/place/Islamabad+Pets+Clinic/data=!4m7!3m6!1s0x38dfc19cf929e015:0x7058ce3ffbe49585!8m2!3d33.7360619!4d73.1706083!16s%2Fg%2F11dyx69ss1!19sChIJFeAp-ZzB3zgRhZXk-z_OWHA?authuser=0&hl=en&rclk=1,"Veterinarian, Islamabad"
58,animalsoasishospital_33.519648_73.151860,Animals Oasis Hospital Islamabad | 24/7,"Animals Oasis Hospital Islamabad | 24/7
5.0(112)
Veterinarian · Plot# 12, Jeddah Town, opposite Giga Mall
Open 24 hours · +92 349 9992935",Veterinarian,Open 24 hours,33.5196479,73.1518598,https://www.google.com/maps/place/Animals+Oasis+Hospital+Islamabad+%7C+24%2F7/data=!4m7!3m6!1s0x38df99a2dc3a5889:0x9acaf882c426476b!8m2!3d33.5196479!4d73.1518598!16s%2Fg%2F11sv1mn4sd!19sChIJiVg63KKZ3zgRa0cmxIL4ypo?authuser=0&hl=en&rclk=1,"Veterinarian, Islamabad"
59,petpulseanimalhospit_33.684698_72.988942,Pet Pulse Animal Hospital & Pet Shop F11 Islamabad,"Pet Pulse Animal Hospital & Pet Shop F11 Islamabad
4.9(56)
Veterinarian · Plot no. 14, markez
Open 24 hours · +92 334 5357888",Veterinarian,Open 24 hours,33.684698,72.9889419,https://www.google.com/maps/place/Pet+Pulse+Animal+Hospital+%26+Pet+Shop+F11+Islamabad/data=!4m7!3m6!1s0x38dfbd38a3cae3ad:0x13c2d001ebdbd175!8m2!3d33.684698!4d72.9889419!16s%2Fg%2F11vwq2vhtn!19sChIJrePKozi93zgRddHb6wHQwhM?authuser=0&hl=en&rclk=1,"Veterinarian, Islamabad"
60,surgeonspetclinic_33.682704_72.979977,Surgeon's Pet Clinic,"Surgeon's Pet Clinic
5.0(96)
Veterinarian · plot# 2A ground floor, Suleman Market, Street 20, near Cheema & Chatha
Open 24 hours · +92 51 4718173",Veterinarian,Open 24 hours,33.6827045,72.979977,https://www.google.com/maps/place/Surgeon%27s+Pet+Clinic/data=!4m7!3m6!1s0x38dfbd002f55124d:0xe493544f06cb7321!8m2!3d33.6827045!4d72.979977!16s%2Fg%2F11lf4wk1cg!19sChIJTRJVLwC93zgRIXPLBk9Uk-Q?authuser=0&hl=en&rclk=1,"Veterinarian, Islamabad"
61,capitalpetshospital_33.648772_73.040669,Capital Pets Hospital,"Capital Pets Hospital
5.0(126)
Animal hospital · Korang Road
Open ⋅ Closes 10 PM · +92 334 7555982",Animal hospital,Open,33.648772,73.040669,https://www.google.com/maps/place/Capital+Pets+Hospital/data=!4m7!3m6!1s0x38df9550f593db21:0xdb6deec2fc51a70c!8m2!3d33.648772!4d73.040669!16s%2Fg%2F11rv32pqs3!19sChIJIduT9VCV3zgRDKdR_MLubds?authuser=0&hl=en&rclk=1,"Veterinarian, Islamabad"
62,maazpetshospital_33.667057_73.073669,Maaz Pets Hospital,"Maaz Pets Hospital
5.0(207)
Animal hospital · Shop # 11 Basement, AM PM Cafe, Zaki Centre
Open 24 hours · +92 333 7441564",Animal hospital,Open 24 hours,33.667057,73.0736692,https://www.google.com/maps/place/Maaz+Pets+Hospital/data=!4m7!3m6!1s0x38df952b47073a41:0x427cca2de33d06b!8m2!3d33.667057!4d73.0736692!16s%2Fg%2F11v56p5t5m!19sChIJQToHRyuV3zgRa9Az3qLMJwQ?authuser=0&hl=en&rclk=1,"Veterinarian, Islamabad"
63,hopepetsclinicislama_33.643704_73.162750,Hope Pets Clinic Islamabad,"Hope Pets Clinic Islamabad
4.8(127)
Hospital · Islamabad diagnostic basement, Lehtrar Rd، near anum medical store
Open ⋅ Closes 10:30 PM · +92 300 5155589",Hospital,Open,33.6437039,73.1627497,https://www.google.com/maps/place/Hope+Pets+Clinic+Islamabad/data=!4m7!3m6!1s0x38dfebcc031ceeb9:0x9c906645aa2883b3!8m2!3d33.6437039!4d73.1627497!16s%2Fg%2F11f9xgj331!19sChIJue4cA8zr3zgRs4MoqkVmkJw?authuser=0&hl=en&rclk=1,"Veterinarian, Islamabad"
64,alphaveterinaryclini_33.739725_73.196485,Alpha veterinary Clinic,"Alpha veterinary Clinic
4.9(95)
Veterinarian · Ptv colony Main simly dam road bharakahu
Open ⋅ Closes 10 PM · +92 307 0500715",Veterinarian,Open,33.739725,73.1964848,https://www.google.com/maps/place/Alpha+veterinary+Clinic/data=!4m7!3m6!1s0x38dfc3a89ea45bcb:0x709bc159e8235b4a!8m2!3d33.739725!4d73.1964848!16s%2Fg%2F11q8gzm771!19sChIJy1uknqjD3zgRSlsj6FnBm3A?authuser=0&hl=en&rclk=1,"Veterinarian, Islamabad"
65,petpatclinic_33.537310_73.169508,Pet & Pat Clinic,"Pet & Pat Clinic
4.4(319)
Veterinarian · Plaza No, 11 Tipu Boulevard, beside Attock Petrol Pump
Open ⋅ Closes 11 PM · +92 313 5167865",Veterinarian,Open,33.5373105,73.1695081,https://www.google.com/maps/place/Pet+%26+Pat+Clinic/data=!4m7!3m6!1s0x38dfedfd0af8dccd:0x3d37ff61a95ee6c2!8m2!3d33.5373105!4d73.1695081!16s%2Fg%2F11g07z8bn2!19sChIJzdz4Cv3t3zgRwuZeqWH_Nz0?authuser=0&hl=en&rclk=1,"Veterinarian, Islamabad"
66,animalcareclinicisla_33.695930_72.967870,Animal care clinic islamabad,"Animal care clinic islamabad
4.6(22)
Veterinarian · Eman arcade, Main Double Rd
Open ⋅ Closes 9 PM · +92 335 7860261",Veterinarian,Open,33.6959299,72.9678697,https://www.google.com/maps/place/Animal+care+clinic+islamabad/data=!4m7!3m6!1s0x38dfbd8cfafbc101:0x4ee0fb0a848c795e!8m2!3d33.6959299!4d72.9678697!16s%2Fg%2F11rpklbvgb!19sChIJAcH7-oy93zgRXnmMhAr74E4?authuser=0&hl=en&rclk=1,"Veterinarian, Islamabad"
67,surgeonspetclinic_33.521581_73.154841,Surgeons Pet Clinic,"Surgeons Pet Clinic
4.8(183)
Veterinarian · FAISAL BANK BASEMENT, 12 St 26A
Open 24 hours · +92 330 6700008",Veterinarian,Open 24 hours,33.5215812,73.1548413,https://www.google.com/maps/place/Surgeons+Pet+Clinic/data=!4m7!3m6!1s0x38dfed37084ff017:0xb651001565e376e!8m2!3d33.5215812!4d73.1548413!16s%2Fg%2F11vpp78kgt!19sChIJF_BPCDft3zgRbjdeVgEQZQs?authuser=0&hl=en&rclk=1,"Veterinarian, Islamabad"
68,pet2vetclinicstoreph_33.519556_73.086195,Pet 2 Vet Clinic & Store Phase 7,"Pet 2 Vet Clinic & Store Phase 7
4.5(154)
Animal hospital ·  · Plaza #F151 Bahria town phase 7 Islamabad, Pakistan 7
Open 24 hours · +92 336 7221322",Animal hospital,Open 24 hours,33.5195561,73.0861951,https://www.google.com/maps/place/Pet+2+Vet+Clinic+%26+Store+Phase+7/data=!4m7!3m6!1s0x38dfed915a779499:0x6e8713730bed568!8m2!3d33.5195561!4d73.0861951!16s%2Fg%2F11jcmjt9w9!19sChIJmZR3WpHt3zgRaNW-MDdx6AY?authuser=0&hl=en&rclk=1,"Veterinarian, Islamabad"
69,thejanwarpkpetsandve_33.690534_73.210230,TheJanwar.pk-Pets and Vets Enclave Clinic and Pet shop,"TheJanwar.pk-Pets and Vets Enclave Clinic and Pet shop
4.9(40)
Animal hospital · Street 2،Ground Floor, Shop#2, sector A Bahria Enclave Islamabad
Open 24 hours · +92 313 4261666",Animal hospital,Open 24 hours,33.6905344,73.21023,https://www.google.com/maps/place/TheJanwar.pk-Pets+and+Vets+Enclave+Clinic+and+Pet+shop/data=!4m7!3m6!1s0x38dfe99c03d2ec53:0x160d680d72ee07fd!8m2!3d33.6905344!4d73.21023!16s%2Fg%2F11r9h69cfl!19sChIJU-zSA5zp3zgR_Qfucg1oDRY?authuser=0&hl=en&rclk=1,"Veterinarian, Islamabad"
70,petspaceanimalhospit_33.549303_73.122349,Petspace Animal Hospital - Bahria Town Ph 4 Branch,"Petspace Animal Hospital - Bahria Town Ph 4 Branch
4.6(163)
Animal hospital · Plaza 44a Civic Centre Bahria Town Phase 4
Open ⋅ Closes 2 AM · +92 333 9170909",Animal hospital,Open,33.5493032,73.1223495,https://www.google.com/maps/place/Petspace+Animal+Hospital+-+Bahria+Town+Ph+4+Branch/data=!4m7!3m6!1s0x38dfeddb46f5d6fb:0xb66b3a481daf7e6c!8m2!3d33.5493032!4d73.1223495!16s%2Fg%2F11rhz3rws2!19sChIJ-9b1Rtvt3zgRbH6vHUg6a7Y?authuser=0&hl=en&rclk=1,"Veterinarian, Islamabad"
71,petsnpawsclinicandst_33.571790_73.146483,Pets N Paws Clinic and Store,"Pets N Paws Clinic and Store
4.4(582)
Veterinarian ·  · H4CW+PH9, St 17
Open ⋅ Closes 10 PM · +92 51 5970726",Veterinarian,Open,33.5717899,73.1464829,https://www.google.com/maps/place/Pets+N+Paws+Clinic+and+Store/data=!4m7!3m6!1s0x38dfec50033fb477:0x4a98d0bce8082a87!8m2!3d33.5717899!4d73.1464829!16s%2Fg%2F11d_d37ybc!19sChIJd7Q_A1Ds3zgRhyoI6LzQmEo?authuser=0&hl=en&rclk=1,"Veterinarian, Islamabad"
72,drsajidpetservices_33.672140_72.983953,Dr Sajid Pet Services,"Dr Sajid Pet Services
5.0(30)
Veterinarian · Golra, Service Rd W, opposite street 1
Open 24 hours · +92 307 8181479",Veterinarian,Open 24 hours,33.6721395,72.9839534,https://www.google.com/maps/place/Dr+Sajid+Pet+Services/data=!4m7!3m6!1s0x38dfbd7575d65ccb:0x16b7c476579a169c!8m2!3d33.6721395!4d72.9839534!16s%2Fg%2F11wx4krryq!19sChIJy1zWdXW93zgRnBaaV3bEtxY?authuser=0&hl=en&rclk=1,"Veterinarian, Islamabad"
73,allcreaturesanimalho_33.660673_73.238592,All Creatures Animal Hospital and Shelter,"All Creatures Animal Hospital and Shelter
4.6(55)
Animal hospital ·  · All creatures animal hospital and shelter
Open ⋅ Closes 6 PM · +92 311 0406666",Animal hospital,Open,33.6606732,73.2385916,https://www.google.com/maps/place/All+Creatures+Animal+Hospital+and+Shelter/data=!4m7!3m6!1s0x38dfe913137b7a5d:0x8c1d607f5875ead8!8m2!3d33.6606732!4d73.2385916!16s%2Fg%2F11hd__2fg_!19sChIJXXp7ExPp3zgR2Op1WH9gHYw?authuser=0&hl=en&rclk=1,"Veterinarian, Islamabad"
74,petloversclinic_33.696954_73.011845,Pet Lover's Clinic,"Pet Lover's Clinic
4.7(43)
Veterinarian · Shop #4-5 Basement, Near Maroof Hospital, F-10 Markaz
Open 24 hours · +92 345 6965242",Veterinarian,Open 24 hours,33.6969536,73.011845,https://www.google.com/maps/place/Pet+Lover%27s+Clinic/data=!4m7!3m6!1s0x38dfbfb7aff56a9b:0x5ad1d97dae0baab6!8m2!3d33.6969536!4d73.011845!16s%2Fg%2F11k5gbmcsx!19sChIJm2r1r7e_3zgRtqoLrn3Z0Vo?authuser=0&hl=en&rclk=1,"Veterinarian, Islamabad"
75,veteranpetscare_33.642582_72.952203,Veteran Pets Care,"Veteran Pets Care
4.9(82)
Veterinarian · Ground floor, hamayun arcade, Street 14 & 10, near Allied bank
Open 24 hours · +92 300 9166947",Veterinarian,Open 24 hours,33.6425819,72.9522029,https://www.google.com/maps/place/Veteran+Pets+Care/data=!4m7!3m6!1s0x38df975ab84ebe3f:0x282c3f410533a719!8m2!3d33.6425819!4d72.9522029!16s%2Fg%2F11t77hc58z!19sChIJP75OuFqX3zgRGaczBUE_LCg?authuser=0&hl=en&rclk=1,"Veterinarian, Islamabad"
76,noblepetsclinicislam_33.691154_72.999355,Noble Pets Clinic Islamabad,"Noble Pets Clinic Islamabad
4.3(23)
Veterinarian · Tariq Market, Street 14
Open 24 hours · +92 331 4477750",Veterinarian,Open 24 hours,33.6911544,72.9993551,https://www.google.com/maps/place/Noble+Pets+Clinic+Islamabad/data=!4m7!3m6!1s0x38dfbf2ac61bbe89:0xd9dd33dff49c9324!8m2!3d33.6911544!4d72.9993551!16s%2Fg%2F11trrq4yk2!19sChIJib4bxiq_3zgRJJOc9N8z3dk?authuser=0&hl=en&rclk=1,"Veterinarian, Islamabad"
77,vetnariapetshospital_33.537534_73.156504,Vetnaria Pets Hospital,"Vetnaria Pets Hospital
4.9(74)
Veterinarian · Plaza No. 78, D, Street 2A, near Summi's dumplings
Open 24 hours · +92 333 1112524",Veterinarian,Open 24 hours,33.5375339,73.1565036,https://www.google.com/maps/place/Vetnaria+Pets+Hospital/data=!4m7!3m6!1s0xc9ae9d84b8f696d:0x596206cf28f8b7e3!8m2!3d33.5375339!4d73.1565036!16s%2Fg%2F11t_jcsmdv!19sChIJbWmPS9jpmgwR47f4KM8GYlk?authuser=0&hl=en&rclk=1,"Veterinarian, Islamabad"
78,equinehorseveterinar_33.706382_73.086089,"Equine (Horse) Veterinary Services, Islamabad.","Equine (Horse) Veterinary Services, Islamabad.
4.9(17)
Veterinarian · Shop no 22A, Aslama Market
Open 24 hours · +92 312 4534085",Veterinarian,Open 24 hours,33.7063825,73.086089,"https://www.google.com/maps/place/Equine+%28Horse%29+Veterinary+Services,+Islamabad./data=!4m7!3m6!1s0x38dfbfbb99746b65:0x9aed57bf7cd6e156!8m2!3d33.7063825!4d73.086089!16s%2Fg%2F11pckmh6fv!19sChIJZWt0mbu_3zgRVuHWfL9X7Zo?authuser=0&hl=en&rclk=1","Veterinarian, Islamabad"
79,mobileanimalhospital_33.708990_73.046375,Mobile Animal Hospital,"Mobile Animal Hospital
5.0(11)
Veterinarian · Najam Market, Street 55
Open 24 hours · +92 51 2100062",Veterinarian,Open 24 hours,33.7089895,73.0463752,https://www.google.com/maps/place/Mobile+Animal+Hospital/data=!4m7!3m6!1s0x38dfbf93c09f7c59:0xe12d7f249de875b0!8m2!3d33.7089895!4d73.0463752!16s%2Fg%2F11n68t3z3b!19sChIJWXyfwJO_3zgRsHXonSR_LeE?authuser=0&hl=en&rclk=1,"Veterinarian, Islamabad"
80,petopiavetcareclinic_33.626584_73.119912,PETOPIA VET CARE CLINIC,"PETOPIA VET CARE CLINIC
4.6(29)
Animal hospital · ALLAH WALA GOL CHOWK, VIP BLOCK, Ghori Rd
Open ⋅ Closes 8 PM · +92 347 7463760",Animal hospital,Open,33.6265845,73.119912,https://www.google.com/maps/place/PETOPIA+VET+CARE+CLINIC/data=!4m7!3m6!1s0x38dfeb05ee1fcfb5:0x4ff44b4b9320dcf4!8m2!3d33.6265845!4d73.119912!16s%2Fg%2F11l1mf14sq!19sChIJtc8f7gXr3zgR9Nwgk0tL9E8?authuser=0&hl=en&rclk=1,"Veterinarian, Islamabad"
81,thepetscare_33.561340_73.134579,The Pet's Care,"The Pet's Care
4.9(53)
Veterinarian · Shop #6, Main Double Road, next to 136 Van Stand
Open ⋅ Closes 10 PM · +92 331 8882273",Veterinarian,Open,33.5613401,73.1345794,https://www.google.com/maps/place/The+Pet%27s+Care/data=!4m7!3m6!1s0x38dfed0d1732c193:0x9ee28ce8db4e0a25!8m2!3d33.5613401!4d73.1345794!16s%2Fg%2F11syf5qb2q!19sChIJk8EyFw3t3zgRJQpO2-iM4p4?authuser=0&hl=en&rclk=1,"Veterinarian, Islamabad"
82,drkhansanimalclinic_33.698416_72.967649,Dr. Khan's Animal Clinic,"Dr. Khan's Animal Clinic
3.9(145)
Veterinarian ·  · Hill Rd
+92 300 5257454",Veterinarian,,33.6984164,72.9676487,https://www.google.com/maps/place/Dr.+Khan%27s+Animal+Clinic/data=!4m7!3m6!1s0x38dfbdb82331a203:0xa1c19e9e9372b936!8m2!3d33.6984164!4d72.9676487!16s%2Fg%2F11dztrwjw2!19sChIJA6IxI7i93zgRNrlyk56ewaE?authuser=0&hl=en&rclk=1,"Veterinarian, Islamabad"
83,lifelinepetshospital_33.634005_72.925555,Lifeline Pets Hospital,"Lifeline Pets Hospital
4.9(183)
Animal hospital · Street 6
Open ⋅ Closes 9 PM · +92 301 0100392",Animal hospital,Open,33.6340046,72.9255545,https://www.google.com/maps/place/Lifeline+Pets+Hospital/data=!4m7!3m6!1s0x38df97f553a36533:0xf87a26551d418af8!8m2!3d33.6340046!4d72.9255545!16s%2Fg%2F11qr0ybkms!19sChIJM2WjU_WX3zgR-IpBHVUmevg?authuser=0&hl=en&rclk=1,"Veterinarian, Islamabad"
84,waqarpetsclinic_33.616116_73.086108,Waqar pets clinic,"Waqar pets clinic
5.0(18)
Veterinarian
Open 24 hours · +92 346 7600687",Veterinarian,Open 24 hours,33.6161162,73.086108,https://www.google.com/maps/place/Waqar+pets+clinic/data=!4m7!3m6!1s0xa874a2a8c0b6d085:0x380cc1d756793916!8m2!3d33.6161162!4d73.086108!16s%2Fg%2F11v5f031cy!19sChIJhdC2wKiidKgRFjl5VtfBDDg?authuser=0&hl=en&rclk=1,"Veterinarian, Islamabad"
85,ghauribirdsgbpetanim_33.559354_73.182307,Ghauri Birds (GB) & Pet Animal Clinic,"Ghauri Birds (GB) & Pet Animal Clinic
4.2(38)
Veterinarian · Japan road Gagri
Open 24 hours · +92 312 9949906",Veterinarian,Open 24 hours,33.5593544,73.1823072,https://www.google.com/maps/place/Ghauri+Birds+%28GB%29+%26+Pet+Animal+Clinic/data=!4m7!3m6!1s0x38dfeb5ac18eb2fd:0x75e4f357eb427ec8!8m2!3d33.5593544!4d73.1823072!16s%2Fg%2F11js0rhqj0!19sChIJ_bKOwVrr3zgRyH5C61fz5HU?authuser=0&hl=en&rclk=1,"Veterinarian, Islamabad"
86,ukpetsclinic_33.565453_73.127457,U.K Pet's Clinic,"U.K Pet's Clinic
4.7(22)
Veterinarian · National police foundation, Main PWD Rd, near Punjab Cash and carry
Open ⋅ Closes 11 PM · +92 326 7714114",Veterinarian,Open,33.5654527,73.1274568,https://www.google.com/maps/place/U.K+Pet%27s+Clinic/data=!4m7!3m6!1s0x38dfed8653681315:0xa34c44277ed2225c!8m2!3d33.5654527!4d73.1274568!16s%2Fg%2F11v0bf02qg!19sChIJFRNoU4bt3zgRXCLSfidETKM?authuser=0&hl=en&rclk=1,"Veterinarian, Islamabad"
87,drmuhammadasadshafiq_33.661817_73.098496,Dr Muhammad AsaD ShafiQ,"Dr Muhammad AsaD ShafiQ
5.0(6)
Veterinarian · Khalid Bin Waleed Rd
Open ⋅ Closes 8 PM · +92 335 3010190",Veterinarian,Open,33.6618167,73.0984962,https://www.google.com/maps/place/Dr+Muhammad+AsaD+ShafiQ/data=!4m7!3m6!1s0x38dfed35b28b5801:0x56b84d1bf2055dcb!8m2!3d33.6618167!4d73.0984962!16s%2Fg%2F11y6cw9mgx!19sChIJAViLsjXt3zgRy10F8htNuFY?authuser=0&hl=en&rclk=1,"Veterinarian, Islamabad"
88,elitepetshospitalisl_33.704397_72.980042,Elite Pet's Hospital Islamabad,"Elite Pet's Hospital Islamabad
5.0(5)
Veterinarian · Areej Tower Basement of Jamil Sweet's, Shop No 3&6 street 63, Plot 28 Markaz
Open 24 hours · +92 51 2712288",Veterinarian,Open 24 hours,33.704397,72.9800417,https://www.google.com/maps/place/Elite+Pet%27s+Hospital+Islamabad/data=!4m7!3m6!1s0x38dfbda1fd15d939:0xa28f1d9829d99f76!8m2!3d33.704397!4d72.9800417!16s%2Fg%2F11ln_lz_v5!19sChIJOdkV_aG93zgRdp_ZKZgdj6I?authuser=0&hl=en&rclk=1,"Veterinarian, Islamabad"
89,mvsmobilevetcareserv_33.651433_72.953237,MVS Mobile Vet Care Service (MVS),"MVS Mobile Vet Care Service (MVS)
4.3(17)
Emergency veterinarian service · Shop 10 Street 54
+92 51 2154497",Emergency veterinarian service,,33.6514332,72.9532365,https://www.google.com/maps/place/MVS+Mobile+Vet+Care+Service+%28MVS%29/data=!4m7!3m6!1s0x38dfbf7ad0b621df:0xfb09f41244cbc791!8m2!3d33.6514332!4d72.9532365!16s%2Fg%2F11gj5qtmrc!19sChIJ3yG20Hq_3zgRkcfLRBL0Cfs?authuser=0&hl=en&rclk=1,"Veterinarian, Islamabad"
90,aliyanvetshospitalpe_33.536081_73.173439,Aliyan Vets Hospital & Pet Store,"Aliyan Vets Hospital & Pet Store
4.5(71)
Animal hospital · J, 19 A Block, opposite unique mart
Open ⋅ Closes 10 PM · +92 300 4121278",Animal hospital,Open,33.5360811,73.1734389,https://www.google.com/maps/place/Aliyan+Vets+Hospital+%26+Pet+Store/data=!4m7!3m6!1s0x38dfed22945227e7:0xde6198ef8abbe453!8m2!3d33.5360811!4d73.1734389!16s%2Fg%2F11svk8jk8j!19sChIJ5ydSlCLt3zgRU-S7iu-YYd4?authuser=0&hl=en&rclk=1,"Veterinarian, Islamabad"
91,petcareclinick9train_33.680668_73.154593,Pet care clinic & k-9 training center,"Pet care clinic & k-9 training center
4.8(6)
Veterinarian · Oppo. Huma Medical Complex, Chak Shahzad, New Mal Chowk
Open ⋅ Closes 5 PM · +92 302 9278799",Veterinarian,Open,33.6806676,73.1545934,https://www.google.com/maps/place/Pet+care+clinic+%26+k-9+training+center/data=!4m7!3m6!1s0x38df952bacee9367:0xd3c7f08430f0d55b!8m2!3d33.6806676!4d73.1545934!16s%2Fg%2F11gj19ty__!19sChIJZ5PurCuV3zgRW9XwMITwx9M?authuser=0&hl=en&rclk=1,"Veterinarian, Islamabad"
92,drawansanimalhospita_33.587443_73.148358,Dr. Awan's Animal Hospital Islamabad,"Dr. Awan's Animal Hospital Islamabad
4.5(13)
Animal hospital · H4PX+X8H
Open ⋅ Closes 8 PM · +92 313 9765763",Animal hospital,Open,33.5874427,73.1483582,https://www.google.com/maps/place/Dr.+Awan%27s+Animal+Hospital+Islamabad/data=!4m7!3m6!1s0x38dfed1282a8fa81:0x3e03b106cb937097!8m2!3d33.5874427!4d73.1483582!16s%2Fg%2F11g10xbjzm!19sChIJgfqoghLt3zgRl3CTywaxAz4?authuser=0&hl=en&rclk=1,"Veterinarian, Islamabad"
93,petschoicepetcarecen_33.698707_72.966977,Pet's Choice Pet Care Center,"Pet's Choice Pet Care Center
3.2(98)
Veterinarian · Basement RS Plaza, Hill Rd, opp. Al-Rehman Mosque
+92 336 9772220",Veterinarian,,33.6987068,72.9669767,https://www.google.com/maps/place/Pet%27s+Choice+Pet+Care+Center/data=!4m7!3m6!1s0x38dfbd146bcd9b49:0xc10439c548e06116!8m2!3d33.6987068!4d72.9669767!16s%2Fg%2F11sc33xfsk!19sChIJSZvNaxS93zgRFmHgSMU5BME?authuser=0&hl=en&rclk=1,"Veterinarian, Islamabad"
94,petzonethelifecarecl_33.690298_73.212185,"Pet Zone , The Life Care Clinic","Pet Zone , The Life Care Clinic
3.8(12)
Veterinarian · Office 8/9 , Mezzanine Floor , Vertax Arcade, Commercial Ave
Open ⋅ Closes 10 PM · +92 312 8877738",Veterinarian,Open,33.6902985,73.2121852,"https://www.google.com/maps/place/Pet+Zone+,+The+Life+Care+Clinic/data=!4m7!3m6!1s0x38dfe9f36e711927:0x86a5e8ff8f7d7712!8m2!3d33.6902985!4d73.2121852!16s%2Fg%2F11t29h9hlh!19sChIJJxlxbvPp3zgREnd9j__opYY?authuser=0&hl=en&rclk=1","Veterinarian, Islamabad"
95,petsvetshospitalbahr_33.556927_73.136957,Pets & Vets Hospital Bahria Town,"Pets & Vets Hospital Bahria Town
4.1(203)
Animal hospital · Crescent Mall, Central Ave
Open ⋅ Closes 10 PM · +92 335 6299954",Animal hospital,Open,33.5569267,73.1369568,https://www.google.com/maps/place/Pets+%26+Vets+Hospital+Bahria+Town/data=!4m7!3m6!1s0x38dfedaa3af74329:0x7fe460138e5e77f9!8m2!3d33.5569267!4d73.1369568!16s%2Fg%2F11gdkwx257!19sChIJKUP3Oqrt3zgR-XdejhNg5H8?authuser=0&hl=en&rclk=1,"Veterinarian, Islamabad"
96,mypethospitalpwdbran_33.567532_73.136932,My Pet Hospital - PWD Branch,"My Pet Hospital - PWD Branch
5.0(2)
Veterinarian · Plot No. 1283, Hoor Plaza, Main Double Road
Open ⋅ Closes 5:30 PM ⋅ Reopens 7:30 PM · +92 330 0496556",Veterinarian,Open,33.5675325,73.1369322,https://www.google.com/maps/place/My+Pet+Hospital+-+PWD+Branch/data=!4m7!3m6!1s0x38dfbdfd60f15679:0x3938b0610b83f97a!8m2!3d33.5675325!4d73.1369322!16s%2Fg%2F11x0w_qm5x!19sChIJeVbxYP293zgRevmDC2GwODk?authuser=0&hl=en&rclk=1,"Veterinarian, Islamabad"
97,pawsitivepetsclinicp_33.645139_72.964048,Pawsitive Pets Clinic & Petshop Islamabad,"Pawsitive Pets Clinic & Petshop Islamabad
5.0(79)
Veterinarian · Office 111 First floor, Decent Arcade, 1 Street 108
Open 24 hours · +92 315 9672450",Veterinarian,Open 24 hours,33.645139,72.9640479,https://www.google.com/maps/place/Pawsitive+Pets+Clinic+%26+Petshop+Islamabad/data=!4m7!3m6!1s0x835bdcd873dfc3a1:0x5a307097652d9830!8m2!3d33.645139!4d72.9640479!16s%2Fg%2F11wx05kv_1!19sChIJocPfc9jcW4MRMJgtZZdwMFo?authuser=0&hl=en&rclk=1,"Veterinarian, Islamabad"
98,healanimalhealthserv_33.644827_73.168921,Heal Animal Health Services,"Heal Animal Health Services
4.7(99)
Animal hospital · Alipur, Lehtrar Rd, near shell petrol pump
Open ⋅ Closes 9 PM · +92 334 3402578",Animal hospital,Open,33.6448271,73.1689211,https://www.google.com/maps/place/Heal+Animal+Health+Services/data=!4m7!3m6!1s0x38dfebbbb01abd83:0xf228e74459139952!8m2!3d33.6448271!4d73.1689211!16s%2Fg%2F11ksnwfq8r!19sChIJg70asLvr3zgRUpkTWUTnKPI?authuser=0&hl=en&rclk=1,"Veterinarian, Islamabad"
99,happypetsclinicacces_33.571474_73.145199,Happy Pets Clinic & Accessories,"Happy Pets Clinic & Accessories
4.3(10)
Veterinarian · H4CW+H3P
Open ⋅ Closes 10 PM · +92 311 6218861",Veterinarian,Open,33.5714738,73.1451994,https://www.google.com/maps/place/Happy+Pets+Clinic+%26+Accessories/data=!4m7!3m6!1s0x38dfed80ce40cb67:0xb2e5cfc967af8ed4!8m2!3d33.5714738!4d73.1451994!16s%2Fg%2F11f64crj73!19sChIJZ8tAzoDt3zgR1I6vZ8nP5bI?authuser=0&hl=en&rclk=1,"Veterinarian, Islamabad"
100,petchesteranimalclin_33.565809_73.138771,PETCHESTER ANIMAL CLINIC,"PETCHESTER ANIMAL CLINIC
4.7(10)
Veterinarian · town, Plot number 109, Hassan Plaza Pakistan, 2 phase
Open ⋅ Closes 11 PM · +92 307 9809000",Veterinarian,Open,33.5658088,73.1387714,https://www.google.com/maps/place/PETCHESTER+ANIMAL+CLINIC/data=!4m7!3m6!1s0x38dfed140d4c635b:0x67cf6d5680d60c66!8m2!3d33.5658088!4d73.1387714!16s%2Fg%2F11s56zfz3y!19sChIJW2NMDRTt3zgRZgzWgFZtz2c?authuser=0&hl=en&rclk=1,"Veterinarian, Islamabad"
101,hamzapetsclinicandpo_33.635980_73.139888,Hamza Pets Clinic and Poultry Service.dairy form vets animals and fish form services.,"Hamza Pets Clinic and Poultry Service.dairy form vets animals and fish form services.
4.4(63)
Veterinarian · Hamza Pets Clinic and Poultry Service، Al bader masjid, Lehtrar Rd
Open ⋅ Closes 5 PM",Veterinarian,Open,33.6359801,73.1398882,https://www.google.com/maps/place/Hamza+Pets+Clinic+and+Poultry+Service.dairy+form+vets+animals+and+fish+form+services./data=!4m7!3m6!1s0x38dfeb46bd122f5d:0x884903b790a502c6!8m2!3d33.6359801!4d73.1398882!16s%2Fg%2F11h5sn6p4_!19sChIJXS8SvUbr3zgRxgKlkLcDSYg?authuser=0&hl=en&rclk=1,"Veterinarian, Islamabad"
102,nationalveterinaryla_33.685543_73.130418,National Veterinary Laboratories,"National Veterinary Laboratories
4.3(93)
Veterinary care ·  · M4PJ+657, Park Rd
Open ⋅ Closes 4 PM",Veterinary care,Open,33.6855427,73.1304181,https://www.google.com/maps/place/National+Veterinary+Laboratories/data=!4m7!3m6!1s0x38dfea814038d15f:0xc2edbc27f1c99b99!8m2!3d33.6855427!4d73.1304181!16s%2Fg%2F11hbh68qc0!19sChIJX9E4QIHq3zgRmZvJ8Se87cI?authuser=0&hl=en&rclk=1,"Veterinarian, Islamabad"
103,petcurehomeservicera_33.628479_73.111215,Pet Cure Home Service Rawalpindi/Islamabad,"Pet Cure Home Service Rawalpindi/Islamabad
3.9(26)
Veterinarian · J4H6+9FW
Open 24 hours · +92 305 5289529",Veterinarian,Open 24 hours,33.6284788,73.1112145,https://www.google.com/maps/place/Pet+Cure+Home+Service+Rawalpindi%2FIslamabad/data=!4m7!3m6!1s0x38dfeb78f9769ad5:0xdaa1e3175c017360!8m2!3d33.6284788!4d73.1112145!16s%2Fg%2F11fd3rfbl2!19sChIJ1Zp2-Xjr3zgRYHMBXBfjodo?authuser=0&hl=en&rclk=1,"Veterinarian, Islamabad"
104,doorsteppetclinicisl_33.674112_72.997568,doorstep pet clinic islamabad,"doorstep pet clinic islamabad
4.0(4)
Veterinarian · 3
Open 24 hours · +92 349 0762147",Veterinarian,Open 24 hours,33.6741117,72.9975685,https://www.google.com/maps/place/doorstep+pet+clinic+islamabad/data=!4m7!3m6!1s0x38dfbfe475383927:0x879fe36c43123007!8m2!3d33.6741117!4d72.9975685!16s%2Fg%2F11ndvm04n6!19sChIJJzk4deS_3zgRBzASQ2zjn4c?authuser=0&hl=en&rclk=1,"Veterinarian, Islamabad"
105,rehmanvetstoreclinic_33.647481_73.133764,Rehman vet store & clinic,"Rehman vet store & clinic
5.0(3)
Veterinarian · Alrehman vet store, Java Rd
Open ⋅ Closes 9 PM · +92 315 7877017",Veterinarian,Open,33.6474805,73.1337643,https://www.google.com/maps/place/Rehman+vet+store+%26+clinic/data=!4m7!3m6!1s0x38dfebd31aaf07ed:0x7dcdfec649d7c409!8m2!3d33.6474805!4d73.1337643!16s%2Fg%2F11tcqy4p2n!19sChIJ7QevGtPr3zgRCcTXScb-zX0?authuser=0&hl=en&rclk=1,"Veterinarian, Islamabad"
106,purepawspetclinic_33.567731_73.154805,PurePaws Pet Clinic,"PurePaws Pet Clinic
5.0(5)
Veterinarian · beneath IDC Paris, business center, LG-4
Open ⋅ Closes 9 PM · +92 300 1415872",Veterinarian,Open,33.567731,73.1548046,https://www.google.com/maps/place/PurePaws+Pet+Clinic/data=!4m7!3m6!1s0x38dfed003446ebb9:0x551f5501bdca3dd2!8m2!3d33.567731!4d73.1548046!16s%2Fg%2F11lp6119fd!19sChIJuetGNADt3zgR0j3KvQFVH1U?authuser=0&hl=en&rclk=1,"Veterinarian, Islamabad"
107,petclinicpetstore_33.616116_73.086108,Pet Clinic & Pet Store,"Pet Clinic & Pet Store
4.7(55)
Animal hospital
Open ⋅ Closes 9 PM · +92 300 5155589",Animal hospital,Open,33.6161162,73.086108,https://www.google.com/maps/place/Pet+Clinic+%26+Pet+Store/data=!4m7!3m6!1s0x38dfedffeb7a79ad:0x47265aa03bb7e5ba!8m2!3d33.6161162!4d73.086108!16s%2Fg%2F11qbqsgsr6!19sChIJrXl66__t3zgRuuW3O6BaJkc?authuser=0&hl=en&rclk=1,"Veterinarian, Islamabad"
108,animalscareclinicand_33.645261_73.171446,Animals care clinic and poultry service pets,"Animals care clinic and poultry service pets
5.0(8)
Animal hospital · opposite side HBS general hospital neyeabadi
Open ⋅ Closes 8 PM · +92 336 8402960",Animal hospital,Open,33.6452615,73.1714455,https://www.google.com/maps/place/Animals+care+clinic+and+poultry+service+pets/data=!4m7!3m6!1s0x38dfebce3a53b0d1:0x3a78d9f7caa593b9!8m2!3d33.6452615!4d73.1714455!16s%2Fg%2F11m0pxkqxw!19sChIJ0bBTOs7r3zgRuZOlyvfZeDo?authuser=0&hl=en&rclk=1,"Veterinarian, Islamabad"
109,veterinaryhospital_33.659760_72.958687,Veterinary hospital,"Veterinary hospital
4.4(37)
Animal hospital · 
Open 24 hours · +92 345 5949607",Animal hospital,Open 24 hours,33.6597604,72.9586866,https://www.google.com/maps/place/Veterinary+hospital/data=!4m7!3m6!1s0x38df976bf6e566e9:0x117ac0d506eca49f!8m2!3d33.6597604!4d72.9586866!16s%2Fg%2F11jbkysm2f!19sChIJ6Wbl9muX3zgRn6TsBtXAehE?authuser=0&hl=en&rclk=1,"Veterinarian, Islamabad"
110,thepethospitalislama_33.633303_72.877809,The Pet Hospital Islamabad,"The Pet Hospital Islamabad
No reviews
Veterinarian · 2 Street 35
Open 24 hours · +92 51 8852877",Veterinarian,Open 24 hours,33.6333027,72.8778091,https://www.google.com/maps/place/The+Pet+Hospital+Islamabad/data=!4m7!3m6!1s0x38df9973f2a78935:0x1b1d057c3c281128!8m2!3d33.6333027!4d72.8778091!16s%2Fg%2F11nsb1cbck!19sChIJNYmn8nOZ3zgRKBEoPHwFHRs?authuser=0&hl=en&rclk=1,"Veterinarian, Islamabad"
111,syedbrothervetservic_33.660943_72.958095,Syed Brother Vet Services,"Syed Brother Vet Services
5.0(1)
Veterinarian · MX65+96H, Golra Rd
Open ⋅ Closes 9 PM · +92 347 5735588",Veterinarian,Open,33.6609434,72.9580949,https://www.google.com/maps/place/Syed+Brother+Vet+Services/data=!4m7!3m6!1s0x38df979d7df6990b:0x5c75af8a2c7465b0!8m2!3d33.6609434!4d72.9580949!16s%2Fg%2F11rmscn6vs!19sChIJC5n2fZ2X3zgRsGV0LIqvdVw?authuser=0&hl=en&rclk=1,"Veterinarian, Islamabad"
112,doctorpethospitaldra_33.546643_73.125407,Doctor Pet Hospital (Dr. Ali Usman),"Doctor Pet Hospital (Dr. Ali Usman)
4.9(101)
Animal hospital · Plaza 15 Marina Commercial Opposite Mini Golf Club Main Corniche Road Phase, 4
Open 24 hours · +92 300 6167374",Animal hospital,Open 24 hours,33.5466429,73.1254069,https://www.google.com/maps/place/Doctor+Pet+Hospital+%28Dr.+Ali+Usman%29/data=!4m7!3m6!1s0x38dfeddbc0d201f3:0xc4582b3926337c2b!8m2!3d33.5466429!4d73.1254069!16s%2Fg%2F11vwgm67d6!19sChIJ8wHSwNvt3zgRK3wzJjkrWMQ?authuser=0&hl=en&rclk=1,"Veterinarian, Islamabad"
113,muneebpetsclinic_33.652215_73.230778,Muneeb Pet's Clinic,"Muneeb Pet's Clinic
5.0(3)
Animal hospital ·  · M62J+V8J, Thanda Pani, Lehtrar Rd, near Kiyani Service Station
Open 24 hours · +92 321 5250160",Animal hospital,Open 24 hours,33.6522147,73.2307776,https://www.google.com/maps/place/Muneeb+Pet%27s+Clinic/data=!4m7!3m6!1s0x38dfe9571cfb0385:0x15228b4bbd1ae97c!8m2!3d33.6522147!4d73.2307776!16s%2Fg%2F11rr_xtckk!19sChIJhQP7HFfp3zgRfOkavUuLIhU?authuser=0&hl=en&rclk=1,"Veterinarian, Islamabad"
114,bangashenclaveanimal_33.648996_72.839045,Bangash Enclave Animal clinic and veterinary store,"Bangash Enclave Animal clinic and veterinary store
4.2(9)
Animal hospital
Open ⋅ Closes 7 PM · +92 332 9280658",Animal hospital,Open,33.6489962,72.839045,https://www.google.com/maps/place/Bangash+Enclave+Animal+clinic+and+veterinary+store/data=!4m7!3m6!1s0x38dfbfb8d52c9999:0x9d55b4f51ae94d9!8m2!3d33.6489962!4d72.839045!16s%2Fg%2F11gj6_s8m6!19sChIJmZks1bi_3zgR2ZSuUU9b1Qk?authuser=0&hl=en&rclk=1,"Veterinarian, Islamabad"
115,haseebvets_33.620653_73.086234,Haseeb Vets,"Haseeb Vets
5.0(60)
Veterinarian
Open 24 hours · +92 347 7751753",Veterinarian,Open 24 hours,33.6206526,73.0862337,https://www.google.com/maps/place/Haseeb+Vets/data=!4m7!3m6!1s0x47a2c54effac6a1d:0x3d721ac0d94ef9d6!8m2!3d33.6206526!4d73.0862337!16s%2Fg%2F11vpwtxyj2!19sChIJHWqs_07FokcR1vlO2cAacj0?authuser=0&hl=en&rclk=1,"Veterinarian, Islamabad"
116,alshifaveterinarycli_33.628937_72.883188,Al-Shifa veterinary clinic and services.,"Al-Shifa veterinary clinic and services.
4.7(3)
Emergency veterinarian service
+92 310 7865455",Emergency veterinarian service,,33.6289375,72.8831875,https://www.google.com/maps/place/Al-Shifa+veterinary+clinic+and+services./data=!4m7!3m6!1s0x38df996d7ae92b23:0x985aba852f220802!8m2!3d33.6289375!4d72.8831875!16s%2Fg%2F11py1qwqz6!19sChIJIyvpem2Z3zgRAggiL4W6Wpg?authuser=0&hl=en&rclk=1,"Veterinarian, Islamabad"
117,mspetclinicrawalpind_33.582338_73.097750,MS PET CLINIC Rawalpindi,"MS PET CLINIC Rawalpindi
4.5(1,386)
Veterinarian ·  · electronic shop, Chaudhry Bostan Khan Rd, opposite to Adiyala
Open ⋅ Closes 9 PM · +92 331 5242509",Veterinarian,Open,33.5823385,73.0977497,https://www.google.com/maps/place/MS+PET+CLINIC+Rawalpindi/data=!4m7!3m6!1s0x38dfed12efee89e9:0x1e3121acc6e656a0!8m2!3d33.5823385!4d73.0977497!16s%2Fg%2F11jyllmd9w!19sChIJ6Ynu7xLt3zgRoFbmxqwhMR4?authuser=0&hl=en&rclk=1,"Veterinarian, Islamabad"
118,drusmanmobilevetclin_33.720815_73.057929,Dr-Usman Mobile Vet Clinic,"Dr-Usman Mobile Vet Clinic
4.8(26)
Animal hospital · Jinnah super
Temporarily closed · +92 313 9472432",Animal hospital,,33.7208153,73.0579287,https://www.google.com/maps/place/Dr-Usman+Mobile+Vet+Clinic/data=!4m7!3m6!1s0x38dfbfb937236067:0x101e2671ee493683!8m2!3d33.7208153!4d73.0579287!16s%2Fg%2F11tp37xpzq!19sChIJZ2AjN7m_3zgRgzZJ7nEmHhA?authuser=0&hl=en&rclk=1,"Veterinarian, Islamabad"
119,mightypawsveterinary_33.688779_73.172743,Mighty paws Veterinary Complex,"Mighty paws Veterinary Complex
3.0(6)
Animal hospital · M5P7+62Q, Rehara Plaza, Bahria Enclave Road, New Mul
Open 24 hours · +92 316 5807627",Animal hospital,Open 24 hours,33.688779,73.1727431,https://www.google.com/maps/place/Mighty+paws+Veterinary+Complex/data=!4m7!3m6!1s0x38dfeb2b4d83a135:0x350d8d116095a094!8m2!3d33.688779!4d73.1727431!16s%2Fg%2F11rmkpzt_7!19sChIJNaGDTSvr3zgRlKCVYBGNDTU?authuser=0&hl=en&rclk=1,"Veterinarian, Islamabad"
120,waytopet_33.566998_73.147390,Way to Pet,"Way to Pet
4.7(3)
Veterinarian · H48W+QXR, Kohsar Rd
Open ⋅ Closes 8 PM · +92 345 5171573",Veterinarian,Open,33.5669985,73.1473899,https://www.google.com/maps/place/Way+to+Pet/data=!4m7!3m6!1s0x38dfed047b9f1435:0x9b543ddde8b85508!8m2!3d33.5669985!4d73.1473899!16s%2Fg%2F11rj687647!19sChIJNRSfewTt3zgRCFW46N09VJs?authuser=0&hl=en&rclk=1,"Veterinarian, Islamabad"
121,petpalaceveterinaryc_33.606971_73.166829,Pet Palace Veterinary Clinic,"Pet Palace Veterinary Clinic
5.0(7)
Animal hospital · Shop# G-74, Diamond Mall and Residencey
Open ⋅ Closes 11 PM · +92 348 4634773",Animal hospital,Open,33.6069708,73.1668294,https://www.google.com/maps/place/Pet+Palace+Veterinary+Clinic/data=!4m7!3m6!1s0x38dfed002ac81653:0xa4dd0d847a9e6909!8m2!3d33.6069708!4d73.1668294!16s%2Fg%2F11y7rbg3mb!19sChIJUxbIKgDt3zgRCWmeeoQN3aQ?authuser=0&hl=en&rclk=1,"Veterinarian, Islamabad"
122,skilledvetsconsultan_33.649101_72.838874,Skilled vets consultants,"Skilled vets consultants
5.0(2)
Emergency veterinarian service · paswal chawk paswal link road M5
Open ⋅ Closes 9 PM · +92 311 2150857",Emergency veterinarian service,Open,33.649101,72.838874,https://www.google.com/maps/place/Skilled+vets+consultants/data=!4m7!3m6!1s0x38dfa336e596c265:0x550eb78bb206715!8m2!3d33.649101!4d72.838874!16s%2Fg%2F11fsvy_j2r!19sChIJZcKW5Taj3zgRFWcgu3jrUAU?authuser=0&hl=en&rclk=1,"Veterinarian, Islamabad"
123,animalclinic_33.698535_72.968422,Animal clinic,"Animal clinic
4.5(11)
Animal hospital · 148 Street 82
Open now",Animal hospital,Open now,33.698535,72.9684222,https://www.google.com/maps/place/Animal+clinic/data=!4m7!3m6!1s0x38dfbdc95246d8bd:0x27ad22db10a259f8!8m2!3d33.698535!4d72.9684222!16s%2Fg%2F11g_xd00lf!19sChIJvdhGUsm93zgR-FmiENsirSc?authuser=0&hl=en&rclk=1,"Veterinarian, Islamabad"
124,petcareclinicdribrah_33.583664_73.096167,Pet Care Clinic - (Dr Ibrahim),"Pet Care Clinic - (Dr Ibrahim)
4.4(609)
Veterinarian ·  · Natural healing centre, Bostan Khan Road First floor SHAHEEN BOOK POINT, Zeeshan St
Open 24 hours · +92 308 8881120",Veterinarian,Open 24 hours,33.5836635,73.0961672,https://www.google.com/maps/place/Pet+Care+Clinic+-+%28Dr+Ibrahim%29/data=!4m7!3m6!1s0x38dfed11ba745aa5:0xca5ade669fc02911!8m2!3d33.5836635!4d73.0961672!16s%2Fg%2F11t27h_z60!19sChIJpVp0uhHt3zgRESnAn2beWso?authuser=0&hl=en&rclk=1,"Veterinarian, Islamabad"
125,fazalerabiveterinary_33.672672_72.948339,Fazal-e-Rabi veterinary medical store and pet center,"Fazal-e-Rabi veterinary medical store and pet center
5.0(3)
Veterinary pharmacy · MWFX+29M, Golra Rd
Open ⋅ Closes 9 PM · +92 343 1565538",Veterinary pharmacy,Open,33.6726718,72.9483392,https://www.google.com/maps/place/Fazal-e-Rabi+veterinary+medical+store+and+pet+center/data=!4m7!3m6!1s0x38dfbd0021333aeb:0x4788145f55f979ba!8m2!3d33.6726718!4d72.9483392!16s%2Fg%2F11wh39jk80!19sChIJ6zozIQC93zgRunn5VV8UiEc?authuser=0&hl=en&rclk=1,"Veterinarian, Islamabad"
126,poultryplanetbestpou_33.654227_73.081284,Poultry Planet |Best Poultry Medicine Store in Rawalpindi Islamabad|Top Poultry Consultant/Doctor|,"Poultry Planet |Best Poultry Medicine Store in Rawalpindi Islamabad|Top Poultry Consultant/Doctor|
5.0(21)
Veterinarian ·  · Aalishan Plaza Murree Rd Ojri Kalan
Open ⋅ Closes 10 PM · +92 312 9880988",Veterinarian,Open,33.6542269,73.0812838,https://www.google.com/maps/place/Poultry+Planet+%7CBest+Poultry+Medicine+Store+in+Rawalpindi+Islamabad%7CTop+Poultry+Consultant%2FDoctor%7C/data=!4m7!3m6!1s0x38df95c393aa3293:0xa58b8bfe1984d772!8m2!3d33.6542269!4d73.0812838!16s%2Fg%2F11p068p1kp!19sChIJkzKqk8OV3zgRcteEGf6Li6U?authuser=0&hl=en&rclk=1,"Veterinarian, Islamabad"
127,fourleggedfamilyvet_33.688075_72.819635,Four-Legged Family Vet,"Four-Legged Family Vet
No reviews
Veterinarian · Block Apt, 403, Islamabad Arcade, B-1
Open 24 hours · +92 349 7019364",Veterinarian,Open 24 hours,33.6880749,72.8196354,https://www.google.com/maps/place/Four-Legged+Family+Vet/data=!4m7!3m6!1s0x38dfed2da5c79ca7:0x19f399288f91af63!8m2!3d33.6880749!4d72.8196354!16s%2Fg%2F11vk_9_42d!19sChIJp5zHpS3t3zgRY6-RjyiZ8xk?authuser=0&hl=en&rclk=1,"Veterinarian, Islamabad"
128,capitalmobileveterin_33.653169_72.854120,Capital Mobile Veterinary Services,"Capital Mobile Veterinary Services
3.7(3)
Veterinarian · Ever Gold Plaza, Street 41
Open 24 hours · +92 303 2230997",Veterinarian,Open 24 hours,33.6531689,72.8541202,https://www.google.com/maps/place/Capital+Mobile+Veterinary+Services/data=!4m7!3m6!1s0x38dfa38929f3af97:0x5f1d73d2227bdbdd!8m2!3d33.6531689!4d72.8541202!16s%2Fg%2F11ppybnzf3!19sChIJl6_zKYmj3zgR3dt7ItJzHV8?authuser=0&hl=en&rclk=1,"Veterinarian, Islamabad"
129,medivetanimalclinic_33.668721_72.863078,Medivet Animal Clinic,"Medivet Animal Clinic
4.5(22)
Animal hospital · Shop no#10, plaza no #1Main gate D-17
Closed ⋅ Opens 3 PM · +92 333 0670518",Animal hospital,Closed,33.6687215,72.8630779,https://www.google.com/maps/place/Medivet+Animal+Clinic/data=!4m7!3m6!1s0x38dfa3b93f8705e1:0xa47cc2f1a41e69a8!8m2!3d33.6687215!4d72.8630779!16s%2Fg%2F11rc9wmt8j!19sChIJ4QWHP7mj3zgRqGkepPHCfKQ?authuser=0&hl=en&rclk=1,"Veterinarian, Islamabad"
130,capitalveterinarycli_33.607267_73.014866,Capital Veterinary Clinic ( Dr Usama Naseer ),"Capital Veterinary Clinic ( Dr Usama Naseer )
4.9(124)
Emergency veterinarian service ·  · Raffy mall, Main Peshawar Rd
Open 24 hours · +92 348 9032106",Emergency veterinarian service,Open 24 hours,33.6072665,73.0148658,https://www.google.com/maps/place/Capital+Veterinary+Clinic+%28+Dr+Usama+Naseer+%29/data=!4m7!3m6!1s0x38df93c54dc2e43d:0xb457ac3760b8d396!8m2!3d33.6072665!4d73.0148658!16s%2Fg%2F11r_dksxry!19sChIJPeTCTcWT3zgRltO4YDesV7Q?authuser=0&hl=en&rclk=1,"Veterinarian, Islamabad"
131,jamshaidpetsveterina_33.724305_73.233317,"Jamshaid pets,veterinary clinic and services","Jamshaid pets,veterinary clinic and services
5.0(1)
Emergency veterinarian service · pak navy chouk, Simly Dam Road
Open ⋅ Closes 10 PM · +92 302 7603875",Emergency veterinarian service,Open,33.7243054,73.2333174,"https://www.google.com/maps/place/Jamshaid+pets,veterinary+clinic+and+services/data=!4m7!3m6!1s0x38dfc391c8d8a2f9:0xacee6a863eb92e33!8m2!3d33.7243054!4d73.2333174!16s%2Fg%2F11sw7bskrr!19sChIJ-aLYyJHD3zgRMy65PoZq7qw?authuser=0&hl=en&rclk=1","Veterinarian, Islamabad"
132,mobilevetandpetclinc_33.617782_73.126453,Mobile Vet and Pet Clinc 24/7,"Mobile Vet and Pet Clinc 24/7
No reviews
Veterinarian · Ahmed plaza ground floor Main entrance
Open 24 hours · +92 312 9949906",Veterinarian,Open 24 hours,33.6177818,73.1264535,https://www.google.com/maps/place/Mobile+Vet+and+Pet+Clinc+24%2F7/data=!4m7!3m6!1s0x38dfebc6d5162d81:0xdcbc2d2f4a37bfba!8m2!3d33.6177818!4d73.1264535!16s%2Fg%2F11t3hx6v09!19sChIJgS0W1cbr3zgRur83Si8tvNw?authuser=0&hl=en&rclk=1,"Veterinarian, Islamabad"
133,askariveterinaryclin_33.651671_73.081720,ASKARI VETERINARY CLINIC AND K-9 TRAINING CENTER,"ASKARI VETERINARY CLINIC AND K-9 TRAINING CENTER
2.9(7)
Veterinarian · M32J+MM9 RAJA ASID HAMEED STREET, Murree Rd
Open ⋅ Closes 9 PM · +92 343 5133612",Veterinarian,Open,33.6516705,73.0817199,https://www.google.com/maps/place/ASKARI+VETERINARY+CLINIC+AND+K-9+TRAINING+CENTER/data=!4m7!3m6!1s0x38df9583236cc545:0xab6e2dc619788e91!8m2!3d33.6516705!4d73.0817199!16s%2Fg%2F11scp865rx!19sChIJRcVsI4OV3zgRkY54GcYtbqs?authuser=0&hl=en&rclk=1,"Veterinarian, Islamabad"
134,governmentveterinary_33.645689_73.161210,Government Veterinary Hospital Tramri,"Government Veterinary Hospital Tramri
3.1(11)
Veterans hospital · Park Rd
Open ⋅ Closes 3:30 PM",Veterans hospital,Open,33.6456888,73.1612098,https://www.google.com/maps/place/Government+Veterinary+Hospital+Tramri/data=!4m7!3m6!1s0x38dfebca2dc3c317:0x3fbddefbf51dfd23!8m2!3d33.6456888!4d73.1612098!16s%2Fg%2F11c45jvm5t!19sChIJF8PDLcrr3zgRI_0d9fvevT8?authuser=0&hl=en&rclk=1,"Veterinarian, Islamabad"
135,surgivetpetsclinic_33.536643_73.156241,SURGIVET PETS CLINIC,"SURGIVET PETS CLINIC
4.8(4)
Veterinarian · G5P4+MF5
+92 304 1218161",Veterinarian,,33.5366434,73.156241,https://www.google.com/maps/place/SURGIVET+PETS+CLINIC/data=!4m7!3m6!1s0x38dfed8f0675592d:0xd3cd9fc60797ed4f!8m2!3d33.5366434!4d73.156241!16s%2Fg%2F11r1xdtwvn!19sChIJLVl1Bo_t3zgRT-2XB8afzdM?authuser=0&hl=en&rclk=1,"Veterinarian, Islamabad"
138,smartpetclinic_33.611419_73.129847,SMART PET CLINIC,"SMART PET CLINIC
5.0(13)
Veterinarian · Ghouri, Shop #03 Al Moiz plaza, 5 Street 1-B
Closed ⋅ Opens 7 PM · +92 329 5202669",Veterinarian,Closed,33.6114193,73.1298474,https://www.google.com/maps/place/SMART+PET+CLINIC/data=!4m7!3m6!1s0x38dfeb6d02d4cc05:0x5fc409f54028550e!8m2!3d33.6114193!4d73.1298474!16s%2Fg%2F11wp8t84j2!19sChIJBczUAm3r3zgRDlUoQPUJxF8?authuser=0&hl=en&rclk=1,"Veterinarian, Islamabad"
139,pakistanveterinaryme_33.670659_73.018463,Pakistan Veterinary Medical Council (PVMC),"Pakistan Veterinary Medical Council (PVMC)
3.2(18)
Government office · 41-Mauve Area near EOBI House
Open ⋅ Closes 5 PM · +92 51 9108342",Government office,Open,33.6706594,73.0184627,https://www.google.com/maps/place/Pakistan+Veterinary+Medical+Council+%28PVMC%29/data=!4m7!3m6!1s0x38df958b183e72cb:0x5560916dc7094791!8m2!3d33.6706594!4d73.0184627!16s%2Fg%2F11f2wlryfk!19sChIJy3I-GIuV3zgRkUcJx22RYFU?authuser=0&hl=en&rclk=1,"Veterinarian, Islamabad"
140,tampabaypethospital_33.700349_72.972996,Tampa Bay Pet Hospital,"Tampa Bay Pet Hospital
4.3(55)
Animal hospital · Shop No 1, 2 Puran Arcade، 1
Closed ⋅ Opens 3 PM · +92 333 4730991",Animal hospital,Closed,33.700349,72.9729957,https://www.google.com/maps/place/Tampa+Bay+Pet+Hospital/data=!4m7!3m6!1s0x38dfbdef72cd6b65:0xa195b6fd2238bdd!8m2!3d33.700349!4d72.9729957!16s%2Fg%2F11c1nxm8kd!19sChIJZWvNcu-93zgR3Ysj0m9bGQo?authuser=0&hl=en&rclk=1,"Veterinarian, Islamabad"
141,meowpetclinic_33.640746_73.071860,Meow Pet Clinic,"Meow Pet Clinic
4.8(191)
Veterinarian · J3RC+7PW, St 3, in front of Furqan Masjid, near Stone Oven Pizza Valley
Open 24 hours · +92 303 8015966",Veterinarian,Open 24 hours,33.6407462,73.0718595,https://www.google.com/maps/place/Meow+Pet+Clinic/data=!4m7!3m6!1s0x38df95eb22c3ae63:0x3e5da133d4db9830!8m2!3d33.6407462!4d73.0718595!16s%2Fg%2F11q8x5q6_y!19sChIJY67DIuuV3zgRMJjb1DOhXT4?authuser=0&hl=en&rclk=1,"Veterinarian, Islamabad"
142,chaudarybrothersmedi_33.618186_72.938461,Chaudary brothers medical store,"Chaudary brothers medical store
5.0(1)
Veterinarian · chinar market, Rehman Town Link Rd, near Nala Bridge
Open ⋅ Closes 8 PM · +92 343 5030578",Veterinarian,Open,33.618186,72.9384613,https://www.google.com/maps/place/Chaudary+brothers+medical+store/data=!4m7!3m6!1s0x38df977a7f70a61b:0x88b3469a2bdabee3!8m2!3d33.618186!4d72.9384613!16s%2Fg%2F11rjv6jr8z!19sChIJG6Zwf3qX3zgR477aK5pGs4g?authuser=0&hl=en&rclk=1,"Veterinarian, Islamabad"
143,junnivetspetsbirdswi_33.612765_73.063385,"JunniVet's Pets, Birds & Wildlife Hospital","JunniVet's Pets, Birds & Wildlife Hospital
4.4(202)
Veterinarian · Plaza, Sardar, Bird's Market, Basement, Ajee, Alam Khan Rd, near Committee Chowk
Open ⋅ Closes 8 PM · +92 322 3950039",Veterinarian,Open,33.6127647,73.0633848,"https://www.google.com/maps/place/JunniVet%27s+Pets,+Birds+%26+Wildlife+Hospital/data=!4m7!3m6!1s0x38df94959fd3a291:0x15460829e8f80cfa!8m2!3d33.6127647!4d73.0633848!16s%2Fg%2F11b80bfdcb!19sChIJkaLTn5WU3zgR-gz46CkIRhU?authuser=0&hl=en&rclk=1","Veterinarian, Islamabad"
144,pawsomepetclinic_33.616116_73.086108,Pawsome Pet Clinic,"Pawsome Pet Clinic
5.0(8)
Veterinarian
Open 24 hours · +92 331 8334929",Veterinarian,Open 24 hours,33.6161162,73.086108,https://www.google.com/maps/place/Pawsome+Pet+Clinic/data=!4m7!3m6!1s0x6a17ad6e2864cfeb:0x913eaaa434878236!8m2!3d33.6161162!4d73.086108!16s%2Fg%2F11lcrlcb6s!19sChIJ689kKG6tF2oRNoKHNKSqPpE?authuser=0&hl=en&rclk=1,"Veterinarian, Islamabad"
145,drkhanveterinaryclin_33.741591_73.181268,Dr. Khan Veterinary Clinic,"Dr. Khan Veterinary Clinic
4.1(12)
Veterinarian · P5RJ+JGJ
Open ⋅ Closes 8 PM · +92 334 8285105",Veterinarian,Open,33.7415911,73.1812678,https://www.google.com/maps/place/Dr.+Khan+Veterinary+Clinic/data=!4m7!3m6!1s0x38dfc17fe8366b43:0x353d332c25993833!8m2!3d33.7415911!4d73.1812678!16s%2Fg%2F11csph99yh!19sChIJQ2s26H_B3zgRMziZJSwzPTU?authuser=0&hl=en&rclk=1,"Veterinarian, Islamabad"
146,malikahsanpetsveteri_33.648326_72.967809,Malik Ahsan pets & veterinary specialist,"Malik Ahsan pets & veterinary specialist
4.1(8)
Veterinary pharmacy · 131
Open ⋅ Closes 10 PM · +92 334 5423345",Veterinary pharmacy,Open,33.6483258,72.9678092,https://www.google.com/maps/place/Malik+Ahsan+pets+%26+veterinary+specialist/data=!4m7!3m6!1s0x38df97eb21da654d:0x4f350ad44406210a!8m2!3d33.6483258!4d72.9678092!16s%2Fg%2F11lpsspv8q!19sChIJTWXaIeuX3zgRCiEGRNQKNU8?authuser=0&hl=en&rclk=1,"Veterinarian, Islamabad"
147,federalpetclinic_33.667750_72.997111,Federal Pet Clinic,"Federal Pet Clinic
5.0(1)
Veterinarian · Shop#9 Ground Floor Al-anayat Plaza
+92 348 3885415",Veterinarian,,33.6677501,72.9971114,https://www.google.com/maps/place/Federal+Pet+Clinic/data=!4m7!3m6!1s0x38df95478db5a787:0x5af53bf9355db0f4!8m2!3d33.6677501!4d72.9971114!16s%2Fg%2F11tdcndzht!19sChIJh6e1jUeV3zgR9LBdNfk79Vo?authuser=0&hl=en&rclk=1,"Veterinarian, Islamabad"
148,petspaceanimalhospit_33.500774_73.102619,"Petspace Animal Hospital - Bahria Phase 8 Branch - Vet for cat, dog and more species","Petspace Animal Hospital - Bahria Phase 8 Branch - Vet for cat, dog and more species
4.7(61)
Veterinarian · Plaza 106, Rafi linear commercial
Open 24 hours · +92 333 9170909",Veterinarian,Open 24 hours,33.5007739,73.1026185,"https://www.google.com/maps/place/Petspace+Animal+Hospital+-+Bahria+Phase+8+Branch+-+Vet+for+cat,+dog+and+more+species/data=!4m7!3m6!1s0x38dff35d681f9729:0xa31f7ed294cd0b37!8m2!3d33.5007739!4d73.1026185!16s%2Fg%2F11vcm2kfkf!19sChIJKZcfaF3z3zgRNwvNlNJ-H6M?authuser=0&hl=en&rclk=1","Veterinarian, Islamabad"
149,alrafayveterinarycli_33.736856_73.209973,Alrafay veterinary clinic,"Alrafay veterinary clinic
5.0(1)
Veterinarian · sairi chouk barakho, Simly Dam Road",Veterinarian,,33.7368557,73.2099731,https://www.google.com/maps/place/Alrafay+veterinary+clinic/data=!4m7!3m6!1s0x38dfc30e534bbd97:0xd8f5ca6dfd82883!8m2!3d33.7368557!4d73.2099731!16s%2Fg%2F11s8mrj213!19sChIJl71LUw7D3zgRgyjY36Zcjw0?authuser=0&hl=en&rclk=1,"Veterinarian, Islamabad"
150,petshomeservicesfrom_33.616116_73.086108,Pets home services(From Alpha vet clinic),"Pets home services(From Alpha vet clinic)
5.0(4)
Veterinarian
Open ⋅ Closes 9 PM · +92 307 0500715",Veterinarian,Open,33.6161162,73.086108,https://www.google.com/maps/place/Pets+home+services%28From+Alpha+vet+clinic%29/data=!4m7!3m6!1s0x2f9552e975138ce5:0x291c8ab5ff9de1fe!8m2!3d33.6161162!4d73.086108!16s%2Fg%2F11w376vgwb!19sChIJ5YwTdelSlS8R_uGd_7WKHCk?authuser=0&hl=en&rclk=1,"Veterinarian, Islamabad"
151,pioneerpetshospitala_33.639547_73.074176,Pioneer Pets Hospital and Clinic (Pioneer labs),"Pioneer Pets Hospital and Clinic (Pioneer labs)
4.3(178)
Veterinarian ·  · D-208 Fifth Rd, opposite Al-Falah Restaurant
Open ⋅ Closes 11 PM · +92 333 9677550",Veterinarian,Open,33.6395466,73.0741764,https://www.google.com/maps/place/Pioneer+Pets+Hospital+and+Clinic+%28Pioneer+labs%29/data=!4m7!3m6!1s0x38df958784144fcb:0xd8407f3f25430945!8m2!3d33.6395466!4d73.0741764!16s%2Fg%2F11v3nqs_f1!19sChIJy08UhIeV3zgRRQlDJT9_QNg?authuser=0&hl=en&rclk=1,"Veterinarian, Islamabad"
152,anayasveterinaryclin_33.624208_73.140928,Anaya’s veterinary clinic Islamabad,"Anaya’s veterinary clinic Islamabad
4.8(5)
Veterinary care · J4FR+M9M, Ghouri Garden Main Rd
Closed ⋅ Opens 4:30 PM · +92 345 5257883",Veterinary care,Closed,33.624208,73.140928,https://www.google.com/maps/place/Anaya%E2%80%99s+veterinary+clinic+Islamabad/data=!4m7!3m6!1s0x38dfebf5b8dbb21d:0xfa7b8576e47e5106!8m2!3d33.624208!4d73.140928!16s%2Fg%2F11hj4ydy7h!19sChIJHbLbuPXr3zgRBlF-5HaFe_o?authuser=0&hl=en&rclk=1,"Veterinarian, Islamabad"
153,civilveterinaryhospi_33.645578_73.161233,"Civil Veterinary Hospital, Tarlai, Islamabad","Civil Veterinary Hospital, Tarlai, Islamabad
4.0(1)
Hospital ·  · J5W6+6FQ",Hospital,,33.6455775,73.1612326,"https://www.google.com/maps/place/Civil+Veterinary+Hospital,+Tarlai,+Islamabad/data=!4m7!3m6!1s0x38dfebca2db5a397:0xb31107cd92e77d3b!8m2!3d33.6455775!4d73.1612326!16s%2Fg%2F11bzzyrfhb!19sChIJl6O1Lcrr3zgRO33nks0HEbM?authuser=0&hl=en&rclk=1","Veterinarian, Islamabad"
154,alshifaveterinarypet_33.634439_73.126776,Al-Shifa Veterinary & Pet Clinic,"Al-Shifa Veterinary & Pet Clinic
2.3(3)
Hospital · J4MG+QPC, Sanam Rd
Open ⋅ Closes 10 PM · +92 300 8359851",Hospital,Open,33.6344394,73.1267759,https://www.google.com/maps/place/Al-Shifa+Veterinary+%26+Pet+Clinic/data=!4m7!3m6!1s0x38dfeb700f639e7f:0x8ea1ef1e9f867fec!8m2!3d33.6344394!4d73.1267759!16s%2Fg%2F11g4g462l0!19sChIJf55jD3Dr3zgR7H-Gnx7voY4?authuser=0&hl=en&rclk=1,"Veterinarian, Islamabad"
155,petcareclinicbahriat_33.517579_73.105682,Pet Care Clinic (Bahria town),"Pet Care Clinic (Bahria town)
4.4(143)
Animal hospital · 66 plaza lower ground square commercial, near pso pump
Open ⋅ Closes 9 PM · +92 333 1904310",Animal hospital,Open,33.5175793,73.1056822,https://www.google.com/maps/place/Pet+Care+Clinic+%28Bahria+town%29/data=!4m7!3m6!1s0x38dfed544ee4d7bb:0xafd7261649b7f231!8m2!3d33.5175793!4d73.1056822!16s%2Fg%2F11mxcv9fb4!19sChIJu9fkTlTt3zgRMfK3SRYm168?authuser=0&hl=en&rclk=1,"Veterinarian, Islamabad"
156,littlepawspetclinic_33.565460_73.045446,Little Paw's Pet Clinic,"Little Paw's Pet Clinic
4.9(71)
Veterinarian · Tulsa Rd
Open 24 hours · +92 317 5779693",Veterinarian,Open 24 hours,33.5654602,73.0454462,https://www.google.com/maps/place/Little+Paw%27s+Pet+Clinic/data=!4m7!3m6!1s0x38df935a11170a31:0xa9379e7db3fb0a4a!8m2!3d33.5654602!4d73.0454462!16s%2Fg%2F11p60t8ph9!19sChIJMQoXEVqT3zgRSgr7s32eN6k?authuser=0&hl=en&rclk=1,"Veterinarian, Islamabad"
157,faizipetshealthclini_33.515887_73.107821,Faizi Pets Health Clinic,"Faizi Pets Health Clinic
4.2(296)
Animal hospital · Square Commercial, near Allah ho choak
Open 24 hours · +92 320 1119333",Animal hospital,Open 24 hours,33.5158874,73.1078211,https://www.google.com/maps/place/Faizi+Pets+Health+Clinic/data=!4m7!3m6!1s0x38dfed80bdfb550b:0x55fabd75d4d4ee8a!8m2!3d33.5158874!4d73.1078211!16s%2Fg%2F11j4st740f!19sChIJC1X7vYDt3zgRiu7U1HW9-lU?authuser=0&hl=en&rclk=1,"Veterinarian, Islamabad"
