Index,Place Id,Name,Address,Category,Status,Latitude,Longitude,Link,SearchKeyword
1,na_noloc,,,,,,,,"Acupuncturist, Islamabad"
5,msanamzafaracupunctu_33.716164_73.069916,Ms. Anam Zafar - Acupuncturist In Islamabad,,Acupuncturist,Open,33.7161635,73.0699161,https://www.google.com/maps/place/Ms.+Anam+Zafar+-+Acupuncturist+In+Islamabad/data=!4m7!3m6!1s0x38dfbffea6c9cb9b:0x5640ed61085b34b7!8m2!3d33.7161635!4d73.0699161!16s%2Fg%2F11s5vk066h!19sChIJm8vJpv6_3zgRtzRbCGHtQFY?authuser=0&hl=en&rclk=1,"Acupuncturist, Islamabad"
37,reboundphysiotherapy_33.566743_73.132633,Rebound Physiotherapy Clinic | Acupuncturist | Chiropractor | Home Services Available,"Rebound Physiotherapy Clinic | Acupuncturist | Chiropractor | Home Services Available
4.9(78)
Acupuncture clinic · 1st Floor, Plot No, Rebound Physiotherapy Clinic, 760 Main PWD Rd, opposite National Bank PWD
Open ⋅ Closes 10 PM · +92 319 9460797",Acupuncture clinic,Open,33.5667431,73.1326334,https://www.google.com/maps/place/Rebound+Physiotherapy+Clinic+%7C+Acupuncturist+%7C+Chiropractor+%7C+Home+Services+Available/data=!4m7!3m6!1s0x38dfedafb0dbb8bb:0xd209b0f4548c2727!8m2!3d33.5667431!4d73.1326334!16s%2Fg%2F11vj4zd6wd!19sChIJu7jbsK_t3zgRJyeMVPSwCdI?authuser=0&hl=en&rclk=1,"Acupuncturist, Islamabad"
38,easternscholarsacupu_33.688060_73.010894,Eastern Scholars Acupuncture Clinic,"Eastern Scholars Acupuncture Clinic
5.0(5)
Acupuncture clinic ·  · 4 2nd Floor, Treatment Rooms, House 66 Street 46
Open ⋅ Closes 8 PM · +92 310 0001419",Acupuncture clinic,Open,33.6880598,73.0108938,https://www.google.com/maps/place/Eastern+Scholars+Acupuncture+Clinic/data=!4m7!3m6!1s0x38dfbf07eba16e7d:0xcb5a1ef3758d4d55!8m2!3d33.6880598!4d73.0108938!16s%2Fg%2F11t6l1hqwn!19sChIJfW6h6we_3zgRVU2NdfMeWss?authuser=0&hl=en&rclk=1,"Acupuncturist, Islamabad"
39,koreanacupuncturecli_33.696936_73.051352,Korean Acupuncture Clinic G-8 Markaz,"Korean Acupuncture Clinic G-8 Markaz
5.0(21)
Alternative medicine practitioner ·  · Office No.6, 2nd Floor, G-8 Square(Doctor Plaza), G-8 Markaz
Closed ⋅ Opens 9:30 AM Fri · +92 51 8449832",Alternative medicine practitioner,Closed,33.696936,73.0513521,https://www.google.com/maps/place/Korean+Acupuncture+Clinic+G-8+Markaz/data=!4m7!3m6!1s0x38df95dd0b723d1b:0xfc419ab7e0d08bc!8m2!3d33.696936!4d73.0513521!16s%2Fg%2F11j11dcl61!19sChIJGz1yC92V3zgRvAgNfqsZxA8?authuser=0&hl=en&rclk=1,"Acupuncturist, Islamabad"
40,chinaacupuncturecent_33.693313_73.013849,China Acupuncture Centre and Clinical Lab,"China Acupuncture Centre and Clinical Lab
4.3(18)
Diagnostic center · 3 & 4 First Floor , Rajan plaza
Open ⋅ Closes 7:30 PM · +92 51 2103449",Diagnostic center,Open,33.6933133,73.0138494,https://www.google.com/maps/place/China+Acupuncture+Centre+and+Clinical+Lab/data=!4m7!3m6!1s0xa2fe87bc74139281:0x793fc70ba30f4729!8m2!3d33.6933133!4d73.0138494!16s%2Fg%2F11y3339vss!19sChIJgZITdLyH_qIRKUcPowvHP3k?authuser=0&hl=en&rclk=1,"Acupuncturist, Islamabad"
41,arclinicsphysiothera_33.546380_73.128109,AR CLINICS - Physiotherapy and Aesthetics,"AR CLINICS - Physiotherapy and Aesthetics
4.9(156)
Physical therapy clinic ·  · Plaza 56 & 58, Marina Complex, Corniche Road
Open ⋅ Closes 10 PM · +92 318 5119014",Physical therapy clinic,Open,33.5463798,73.128109,https://www.google.com/maps/place/AR+CLINICS+-+Physiotherapy+and+Aesthetics/data=!4m7!3m6!1s0x38dfed02afffb97d:0x73d954749bd1fdea!8m2!3d33.5463798!4d73.128109!16s%2Fg%2F11qbs6mncg!19sChIJfbn_rwLt3zgR6v3Rm3RU2XM?authuser=0&hl=en&rclk=1,"Acupuncturist, Islamabad"
42,alshaaficlinichijama_33.704504_72.980024,Al-Shaafi Clinic Hijama & Herbal Medicine,"Al-Shaafi Clinic Hijama & Herbal Medicine
5.0(72)
Doctor · 63 Markaz, near Jameel Sweet
Closed ⋅ Opens 4 PM · +92 334 6986690",Doctor,Closed,33.7045036,72.9800242,https://www.google.com/maps/place/Al-Shaafi+Clinic+Hijama+%26+Herbal+Medicine/data=!4m7!3m6!1s0x38dfbdce478242b7:0x947f0bb00d5a94aa!8m2!3d33.7045036!4d72.9800242!16s%2Fg%2F11dz2k60_8!19sChIJt0KCR8693zgRqpRaDbALf5Q?authuser=0&hl=en&rclk=1,"Acupuncturist, Islamabad"
43,physiotherapydryneed_33.554937_73.159468,"Physiotherapy, Dry needling and Dry Cupping therapy center","Physiotherapy, Dry needling and Dry Cupping therapy center
5.0(32)
Acupuncture clinic · garden, Street 25
Open ⋅ Closes 10:30 PM · +92 332 5705643",Acupuncture clinic,Open,33.5549368,73.1594684,"https://www.google.com/maps/place/Physiotherapy,+Dry+needling+and+Dry+Cupping+therapy+center/data=!4m7!3m6!1s0x38dfed2c6f305a69:0xf633c24ae07085b3!8m2!3d33.5549368!4d73.1594684!16s%2Fg%2F11jyf7d941!19sChIJaVowbyzt3zgRs4Vw4ErCM_Y?authuser=0&hl=en&rclk=1","Acupuncturist, Islamabad"
44,alnoorhomeoandacupun_33.617073_72.995254,Al-Noor Homeo and Acupuncture Medical Center,"Al-Noor Homeo and Acupuncture Medical Center
5.0(5)
Hospital · Pir House, Pirwadhai moor Igp Sarvice road, 1 Street 1, opposite turbo CNG, near British Home
Closed ⋅ Opens 3 PM · +92 300 9151998",Hospital,Closed,33.6170727,72.9952544,https://www.google.com/maps/place/Al-Noor+Homeo+and+Acupuncture+Medical+Center/data=!4m7!3m6!1s0x38df97f63e3379f5:0xb9bb6bb8b0cc6fdf!8m2!3d33.6170727!4d72.9952544!16s%2Fg%2F11rj064ypk!19sChIJ9XkzPvaX3zgR32_MsLhru7k?authuser=0&hl=en&rclk=1,"Acupuncturist, Islamabad"
45,eastwestacupuncturea_33.525301_73.152577,East West Acupuncture and Cupping Clinic,"East West Acupuncture and Cupping Clinic
5.0(1)
Alternative medicine practitioner · House No, 17 Street 20
Closed ⋅ Opens 8 AM Fri",Alternative medicine practitioner,Closed,33.5253014,73.1525771,https://www.google.com/maps/place/East+West+Acupuncture+and+Cupping+Clinic/data=!4m7!3m6!1s0x38dfedf1a8bbd62d:0xbe90a2bcb796f87c!8m2!3d33.5253014!4d73.1525771!16s%2Fg%2F11pzs3f01n!19sChIJLda7qPHt3zgRfPiWt7yikL4?authuser=0&hl=en&rclk=1,"Acupuncturist, Islamabad"
46,healthistan_33.690272_73.030668,Healthistan,"Healthistan
5.0(1)
Acupuncture clinic · G, D waston, 9
Open ⋅ Closes 5 PM · +92 333 2587985",Acupuncture clinic,Open,33.6902724,73.0306678,https://www.google.com/maps/place/Healthistan/data=!4m7!3m6!1s0x38dfbf2b0667596b:0x2c71f8b152134b86!8m2!3d33.6902724!4d73.0306678!16s%2Fg%2F11nz3x1z5m!19sChIJa1lnBiu_3zgRhksTUrH4cSw?authuser=0&hl=en&rclk=1,"Acupuncturist, Islamabad"
47,greenscholaracupunct_33.687930_73.010826,Green Scholar Acupuncture Clinic,"Green Scholar Acupuncture Clinic
No reviews
Acupuncture clinic · House 66 Street 43
Open ⋅ Closes 9 PM · +92 332 0384443",Acupuncture clinic,Open,33.6879303,73.010826,https://www.google.com/maps/place/Green+Scholar+Acupuncture+Clinic/data=!4m7!3m6!1s0x38dfbf25fd5353f1:0x52693f2f481da6d2!8m2!3d33.6879303!4d73.010826!16s%2Fg%2F11s5cyxt6c!19sChIJ8VNT_SW_3zgR0qYdSC8_aVI?authuser=0&hl=en&rclk=1,"Acupuncturist, Islamabad"
48,chineserehabilitatio_33.711744_73.037741,Chinese Rehabilitation Center,"Chinese Rehabilitation Center
4.0(4)
Homeopath · Shop#8, Shahwaiz Center
Open ⋅ Closes 9 PM · +92 51 8480427",Homeopath,Open,33.7117438,73.0377408,https://www.google.com/maps/place/Chinese+Rehabilitation+Center/data=!4m7!3m6!1s0x38dfbf3fd9a30813:0xb1ac023ec6d605c!8m2!3d33.7117438!4d73.0377408!16s%2Fg%2F11y1fcfrwj!19sChIJEwij2T-_3zgRXGBt7CPAGgs?authuser=0&hl=en&rclk=1,"Acupuncturist, Islamabad"
49,drhuanghaitaosclinic_33.729288_73.052106,Dr Huang Haitao's Clinic,"Dr Huang Haitao's Clinic
4.0(3)
Chinese medicine clinic · 35 Street 5
Closed ⋅ Opens 4 PM · +92 300 9501298",Chinese medicine clinic,Closed,33.729288,73.0521063,https://www.google.com/maps/place/Dr+Huang+Haitao%27s+Clinic/data=!4m7!3m6!1s0x38dfbf00c7b9fbe3:0xa6fba845500abad1!8m2!3d33.729288!4d73.0521063!16s%2Fg%2F11h52qt5wv!19sChIJ4_u5xwC_3zgR0boKUEWo-6Y?authuser=0&hl=en&rclk=1,"Acupuncturist, Islamabad"
50,chiropractordraghaeb_33.694181_73.051088,Chiropractor Dr. Agha Ebrahim,"Chiropractor Dr. Agha Ebrahim
4.8(1,018)
Chiropractor ·  · Media Foundation Plaza
Open ⋅ Closes 11 PM · +92 331 2305222",Chiropractor,Open,33.6941812,73.0510881,https://www.google.com/maps/place/Chiropractor+Dr.+Agha+Ebrahim/data=!4m7!3m6!1s0x38dfbfcfb4ec6faf:0xc0ced3db65a9ab87!8m2!3d33.6941812!4d73.0510881!16s%2Fg%2F11h25pxj2j!19sChIJr2_stM-_3zgRh6upZdvTzsA?authuser=0&hl=en&rclk=1,"Acupuncturist, Islamabad"
51,acupunctureintegrati_33.540620_73.139439,"Acupuncture & Integrative medicine, pain management","Acupuncture & Integrative medicine, pain management
3.7(3)
Acupuncturist · 21 Kahuta Rd
Temporarily closed · +92 331 8193639",Acupuncturist,,33.5406201,73.1394391,"https://www.google.com/maps/place/Acupuncture+%26+Integrative+medicine,+pain+management/data=!4m7!3m6!1s0x38dfedc1ca98c4b9:0x9ff60ad833f04e81!8m2!3d33.5406201!4d73.1394391!16s%2Fg%2F11rkg8_7v7!19sChIJucSYysHt3zgRgU7wM9gK9p8?authuser=0&hl=en&rclk=1","Acupuncturist, Islamabad"
52,capitalhijamacupping_33.668466_72.996530,Capital Hijama cupping cupping center,"Capital Hijama cupping cupping center
5.0(315)
Medical clinic ·  · office No 19, G_11 Markaz islambad silver City Plaza second floor
Open ⋅ Closes 9 PM · +92 336 3123454",Medical clinic,Open,33.6684655,72.9965297,https://www.google.com/maps/place/Capital+Hijama+cupping+cupping+center/data=!4m7!3m6!1s0x38df9536e5d46ecf:0xb2f78970dae4237!8m2!3d33.6684655!4d72.9965297!16s%2Fg%2F11qh3_b8lc!19sChIJz27U5TaV3zgRN0KuDZd4Lws?authuser=0&hl=en&rclk=1,"Acupuncturist, Islamabad"
53,drkhalidmehmoodlifec_33.574188_73.107125,Dr. Khalid Mehmood/Life Coach/Master Practitioner of NLP/Acupuncturist,"Dr. Khalid Mehmood/Life Coach/Master Practitioner of NLP/Acupuncturist
5.0(1)
Acupuncturist ·  · Bahria Town. Street # 11, House 2 Safari Villas 1
Open ⋅ Closes 6:30 PM · +92 332 3274084",Acupuncturist,Open,33.5741875,73.1071252,https://www.google.com/maps/place/Dr.+Khalid+Mehmood%2FLife+Coach%2FMaster+Practitioner+of+NLP%2FAcupuncturist/data=!4m7!3m6!1s0x38dfed348ed32d1d:0x1ad1240c9b996c5a!8m2!3d33.5741875!4d73.1071252!16s%2Fg%2F11qnfh53wm!19sChIJHS3TjjTt3zgRWmyZmwwk0Ro?authuser=0&hl=en&rclk=1,"Acupuncturist, Islamabad"
54,_33.673409_72.949047,السنت حجامہ سنٹراسلام آباد,"السنت حجامہ سنٹراسلام آباد
No reviews
Acupuncture clinic · Madni masjid street Golra
+92 305 9799959",Acupuncture clinic,,33.6734094,72.9490472,https://www.google.com/maps/place/%D8%A7%D9%84%D8%B3%D9%86%D8%AA+%D8%AD%D8%AC%D8%A7%D9%85%DB%81+%D8%B3%D9%86%D9%B9%D8%B1%D8%A7%D8%B3%D9%84%D8%A7%D9%85+%D8%A2%D8%A8%D8%A7%D8%AF%E2%80%AD/data=!4m7!3m6!1s0x38dfbd46071aaf07:0xd99aa38cea759dae!8m2!3d33.6734094!4d72.9490472!16s%2Fg%2F11t4b_kls6!19sChIJB68aB0a93zgRrp116oyjmtk?authuser=0&hl=en&rclk=1,"Acupuncturist, Islamabad"
