Index,Place Id,Name,Address,Category,Status,Latitude,Longitude,Link,SearchKeyword
1,na_noloc,,,,,,,,"Centres, Islamabad"
5,pakistanchinafriends_33.697233_73.085247,Pakistan-China Friendship Center,,Exhibition and trade centre,Open,33.6972334,73.0852466,https://www.google.com/maps/place/Pakistan-China+Friendship+Center/data=!4m7!3m6!1s0x38dfbff6f02523ef:0x18a33ce6db52a94d!8m2!3d33.6972334!4d73.0852466!16s%2Fm%2F0r8ljq5!19sChIJ7yMl8Pa_3zgRTalS2-Y8oxg?authuser=0&hl=en&rclk=1,"Centres, Islamabad"
37,kamrancentre_33.716478_73.069581,Kamran Centre,"Kamran Centre
4.0(217)
Corporate office · Kamran Centre, 85 East Jinnah Ave
Open ⋅ Closes 5 PM",Corporate office,Open,33.7164781,73.0695812,https://www.google.com/maps/place/Kamran+Centre/data=!4m7!3m6!1s0x38dfbf997f61b945:0x8a136f14f8aba45c!8m2!3d33.7164781!4d73.0695812!16s%2Fg%2F12mkw93gk!19sChIJRblhf5m_3zgRXKSr-BRvE4o?authuser=0&hl=en&rclk=1,"Centres, Islamabad"
38,awamitradecentreisla_33.690065_73.031062,Awami Trade Centre Islamabad,"Awami Trade Centre Islamabad
4.2(8,473)
Shopping mall ·  · M2RJ+2CF, Rohtas Rd
Open ⋅ Closes 10 PM · +92 51 2285030",Shopping mall,Open,33.6900646,73.031062,https://www.google.com/maps/place/Awami+Trade+Centre+Islamabad/data=!4m7!3m6!1s0x38dfbe30e4a58925:0x79fd2d4810229e14!8m2!3d33.6900646!4d73.031062!16s%2Fg%2F1pty72zcl!19sChIJJYml5DC-3zgRFJ4iEEgt_Xk?authuser=0&hl=en&rclk=1,"Centres, Islamabad"
39,cdafacilitationcentr_33.711310_73.065203,CDA Facilitation Centre Islamabad,"CDA Facilitation Centre Islamabad
3.7(661)
Government office ·  · P368+G3G
Open ⋅ Closes 4:30 PM · +92 342 5221570",Government office,Open,33.7113103,73.0652035,https://www.google.com/maps/place/CDA+Facilitation+Centre+Islamabad/data=!4m7!3m6!1s0x38dfbf97c69bf609:0xeb13955d6c93d7d9!8m2!3d33.7113103!4d73.0652035!16s%2Fg%2F11g6hwcntm!19sChIJCfabxpe_3zgR2deTbF2VE-s?authuser=0&hl=en&rclk=1,"Centres, Islamabad"
40,prometrictestingcent_33.733853_73.068939,Prometric Testing Center No. 8782,"Prometric Testing Center No. 8782
4.1(82)
Educational testing service ·  · House 5, Street 17
Open ⋅ Closes 5 PM · +92 51 8431300",Educational testing service,Open,33.7338529,73.0689389,https://www.google.com/maps/place/Prometric+Testing+Center+No.+8782/data=!4m7!3m6!1s0x38dfbf7229b21949:0x66a7501508ae8cc0!8m2!3d33.7338529!4d73.0689389!16s%2Fg%2F1w4f6g_f!19sChIJSRmyKXK_3zgRwIyuCBVQp2Y?authuser=0&hl=en&rclk=1,"Centres, Islamabad"
41,rewiredhijamaandruqy_33.711485_73.041331,Rewired Hijama and Ruqyah Centre Islamabad,"Rewired Hijama and Ruqyah Centre Islamabad
5.0(274)
Medical clinic · Shop# 1B, Basement, Umar Plaza, ICT, 13-F Kohistan Rd
Open ⋅ Closes 9 PM · +92 333 1117834",Medical clinic,Open,33.7114849,73.0413315,https://www.google.com/maps/place/Rewired+Hijama+and+Ruqyah+Centre+Islamabad/data=!4m7!3m6!1s0x38dfbfea5d0fd797:0x2827b650b2b9e7a9!8m2!3d33.7114849!4d73.0413315!16s%2Fg%2F11s8dc35sz!19sChIJl9cPXeq_3zgRqee5slC2Jyg?authuser=0&hl=en&rclk=1,"Centres, Islamabad"
42,centaurusmall_33.707728_73.049792,Centaurus Mall,"Centaurus Mall
4.4(78,170)
Shopping mall ·  · 4 Jinnah Avenue
Sizable, contemporary shopping center
Open ⋅ Closes 11 PM · +92 51 8483040",Shopping mall,Open,33.7077281,73.0497919,https://www.google.com/maps/place/Centaurus+Mall/data=!4m7!3m6!1s0x38dfbfb0f4f77379:0xf8c50b8651f56d02!8m2!3d33.7077281!4d73.0497919!16s%2Fm%2F01xmgnl!19sChIJeXP39LC_3zgRAm31UYYLxfg?authuser=0&hl=en&rclk=1,"Centres, Islamabad"
43,jinnahconventioncent_33.713322_73.105372,Jinnah Convention Centre,"Jinnah Convention Centre
4.5(4,480)
Convention center ·  · Club Rd
Open 24 hours",Convention center,Open 24 hours,33.7133225,73.1053723,https://www.google.com/maps/place/Jinnah+Convention+Centre/data=!4m7!3m6!1s0x38dfc06c07cee5f3:0x3708b59d9f7db81!8m2!3d33.7133225!4d73.1053723!16s%2Fm%2F0j43zfz!19sChIJ8-XOB2zA3zgRgdv32VmLcAM?authuser=0&hl=en&rclk=1,"Centres, Islamabad"
44,staffwelfareorganisa_33.690628_73.023724,"Staff Welfare Organisation, Community Center Islamabad","Staff Welfare Organisation, Community Center Islamabad
4.2(1,306)
Community center ·  · M2RF+7F5, Street 11",Community center,,33.6906277,73.0237237,"https://www.google.com/maps/place/Staff+Welfare+Organisation,+Community+Center+Islamabad/data=!4m7!3m6!1s0x38dfbe3be17c48b5:0x32eeed020b6f9094!8m2!3d33.6906277!4d73.0237237!16s%2Fg%2F11c3tn_jq9!19sChIJtUh84Tu-3zgRlJBvCwLt7jI?authuser=0&hl=en&rclk=1","Centres, Islamabad"
45,citycenter_33.642761_73.197052,City Center,"City Center
4.4(56)
Shopping mall · J5VW+4R3
Open ⋅ Closes 9:30 PM",Shopping mall,Open,33.6427606,73.1970515,https://www.google.com/maps/place/City+Center/data=!4m7!3m6!1s0x38dfe96e4d0fe533:0x2962e3511788f624!8m2!3d33.6427606!4d73.1970515!16s%2Fg%2F11c60320yj!19sChIJM-UPTW7p3zgRJPaIF1HjYik?authuser=0&hl=en&rclk=1,"Centres, Islamabad"
46,primemassagecenteris_33.673061_72.998084,Prime Massage Center Islamabad,"Prime Massage Center Islamabad
4.8(3,387)
Massage spa ·  · 98
Open ⋅ Closes 11 PM · +92 305 1211113",Massage spa,Open,33.6730613,72.9980835,https://www.google.com/maps/place/Prime+Massage+Center+Islamabad/data=!4m7!3m6!1s0x38dfbfef84aae125:0xf0765ae251f1b05d!8m2!3d33.6730613!4d72.9980835!16s%2Fg%2F11h6drcm28!19sChIJJeGqhO-_3zgRXbDxUeJadvA?authuser=0&hl=en&rclk=1,"Centres, Islamabad"
47,beverlycentre_33.720180_73.073823,Beverly Centre,"Beverly Centre
4.4(3,171)
Business center ·  · Beverly Centre, Jinnah Ave
Open ⋅ Closes 6 PM · +92 51 8895111",Business center,Open,33.7201801,73.0738234,https://www.google.com/maps/place/Beverly+Centre/data=!4m7!3m6!1s0x38dfbf8d766402f1:0x772f112e08aed554!8m2!3d33.7201801!4d73.0738234!16s%2Fg%2F11fmf3wzp5!19sChIJ8QJkdo2_3zgRVNWuCC4RL3c?authuser=0&hl=en&rclk=1,"Centres, Islamabad"
48,gigamallislamabad_33.521111_73.158519,Giga Mall Islamabad.,"Giga Mall Islamabad.
4.5(46,534)
Shopping mall ·  · Main Grand Trunk Rd, Defense Housing Authority
Brand-name shopping, dining & movies
Open ⋅ Closes 11 PM · +92 51 8491040",Shopping mall,Open,33.5211113,73.1585192,https://www.google.com/maps/place/Giga+Mall+Islamabad./data=!4m7!3m6!1s0x38dfed736df2ee2b:0xd2c18a69157f1c54!8m2!3d33.5211113!4d73.1585192!16s%2Fg%2F1z44bhl9_!19sChIJK-7ybXPt3zgRVBx_FWmKwdI?authuser=0&hl=en&rclk=1,"Centres, Islamabad"
49,islamicshehedcentren_33.711737_73.060654,Islamic Shehed Centre Near Subway,"Islamic Shehed Centre Near Subway
4.1(70)
Honey farm · 11D Jinnah Ave
Open ⋅ Closes 11 PM · +92 51 2803134",Honey farm,Open,33.711737,73.0606545,https://www.google.com/maps/place/Islamic+Shehed+Centre+Near+Subway/data=!4m7!3m6!1s0x38dfbfbcda63e491:0x93ea237ea5c33ef4!8m2!3d33.711737!4d73.0606545!16s%2Fg%2F11g68ydc01!19sChIJkeRj2ry_3zgR9D7DpX4j6pM?authuser=0&hl=en&rclk=1,"Centres, Islamabad"
50,audiologycentreislam_33.696917_73.051143,Audiology Centre Islamabad,"Audiology Centre Islamabad
5.0(63)
Audiologist ·  · 3rd Floor, Institute of Medical Rehabilitation, Doctor plaza, near Noori Hospital
Open ⋅ Closes 9:30 PM · +92 308 7786400",Audiologist,Open,33.6969175,73.0511432,https://www.google.com/maps/place/Audiology+Centre+Islamabad/data=!4m7!3m6!1s0x38dfbf5fab97d3ff:0xdf71ee24ffff99cf!8m2!3d33.6969175!4d73.0511432!16s%2Fg%2F11sw_43pvs!19sChIJ_9OXq1-_3zgRz5n__yTucd8?authuser=0&hl=en&rclk=1,"Centres, Islamabad"
51,safagoldmall_33.720709_73.055502,Safa Gold Mall,"Safa Gold Mall
4.3(32,134)
Shopping mall ·  · Plot No، 5 College Rd
Mall with chain stores & a food court
Open ⋅ Closes 11 PM · +92 51 2656766",Shopping mall,Open,33.7207086,73.0555015,https://www.google.com/maps/place/Safa+Gold+Mall/data=!4m7!3m6!1s0x38dfbfa7067ea8d3:0x49a6054408b8b584!8m2!3d33.7207086!4d73.0555015!16s%2Fg%2F11byxfvf5h!19sChIJ06h-Bqe_3zgRhLW4CEQFpkk?authuser=0&hl=en&rclk=1,"Centres, Islamabad"
52,islamabadbraincare_33.721548_73.053143,Islamabad Brain Care,"Islamabad Brain Care
5.0(11)
Addiction treatment center ·  · House# 45 Street 20, near F-7 Markaz
Open 24 hours · +92 300 5384550",Addiction treatment center,Open 24 hours,33.7215476,73.0531426,https://www.google.com/maps/place/Islamabad+Brain+Care/data=!4m7!3m6!1s0x38dfbf938f244519:0xd599720cb5577d2c!8m2!3d33.7215476!4d73.0531426!16s%2Fg%2F11gw2pswy2!19sChIJGUUkj5O_3zgRLH1XtQxymdU?authuser=0&hl=en&rclk=1,"Centres, Islamabad"
53,islamabadskillscentr_33.644595_73.190400,Islamabad Skills Centre,"Islamabad Skills Centre
5.0(3)
Education center · 1st floor, Labaik Plaza, Main Lehtrar Rd
Open ⋅ Closes 9 PM · +92 317 4812852",Education center,Open,33.6445948,73.1904004,https://www.google.com/maps/place/Islamabad+Skills+Centre/data=!4m7!3m6!1s0x38dfe9836a7057b5:0x99b0eea5dbc0df38!8m2!3d33.6445948!4d73.1904004!16s%2Fg%2F11ssj0wv17!19sChIJtVdwaoPp3zgRON_A26XusJk?authuser=0&hl=en&rclk=1,"Centres, Islamabad"
54,themoimall_33.682369_72.990509,The MOI Mall,"The MOI Mall
4.2(437)
Shopping mall ·  · Plot no, 07 Hilal Rd
Open ⋅ Closes 11 PM · +92 331 0001086",Shopping mall,Open,33.6823685,72.9905094,https://www.google.com/maps/place/The+MOI+Mall/data=!4m7!3m6!1s0x38dfbde3aa2eb38d:0x4773b3d8251ee308!8m2!3d33.6823685!4d72.9905094!16s%2Fg%2F11bw3yp0k4!19sChIJjbMuquO93zgRCOMeJdizc0c?authuser=0&hl=en&rclk=1,"Centres, Islamabad"
55,islamabadcochlearimp_33.711228_73.041177,"Islamabad Cochlear Implant Centre (ICIC) Cochlear Implant, Hearing Aids and Speech Therapy Services","Islamabad Cochlear Implant Centre (ICIC) Cochlear Implant, Hearing Aids and Speech Therapy Services
5.0(57)
Speech pathologist ·  · Office #2, HBL Bank Basement, Shalimar plaza, Markaz, near IDC
Open ⋅ Closes 8:30 PM · +92 343 5261874",Speech pathologist,Open,33.7112283,73.0411772,"https://www.google.com/maps/place/Islamabad+Cochlear+Implant+Centre+%28ICIC%29+Cochlear+Implant,+Hearing+Aids+and+Speech+Therapy+Services/data=!4m7!3m6!1s0x38dfbf16d0d59b6b:0x6afdd06aeed21017!8m2!3d33.7112283!4d73.0411772!16s%2Fg%2F11t5l4mbf0!19sChIJa5vV0Ba_3zgRFxDS7mrQ_Wo?authuser=0&hl=en&rclk=1","Centres, Islamabad"
57,royalmassagespacente_33.699102_72.973601,Royal Massage Spa Center Islamabad,"Royal Massage Spa Center Islamabad
4.7(564)
Massage spa ·  · Office # 301, 3th Floor, Royal Suite Plaza, SCHS, Khalid Bin Waleed Rd
Open 24 hours · +92 309 1129999",Massage spa,Open 24 hours,33.6991022,72.9736006,https://www.google.com/maps/place/Royal+Massage+Spa+Center+Islamabad/data=!4m7!3m6!1s0x38dfbd3e18018eb5:0xb86116cd8347a81b!8m2!3d33.6991022!4d72.9736006!16s%2Fg%2F11scxkw0l3!19sChIJtY4BGD693zgRG6hHg80WYbg?authuser=0&hl=en&rclk=1,"Centres, Islamabad"
58,ptepakistan_33.724652_73.085834,PTE Pakistan,"PTE Pakistan
4.9(154)
Education center ·  · Office 02 First Floor, USAID Plaza Fazal ul Haq Road Near Parade Ground Metro Station Blue Area Bloack, A
Open ⋅ Closes 6 PM · +92 311 9813757",Education center,Open,33.7246518,73.0858335,https://www.google.com/maps/place/PTE+Pakistan/data=!4m7!3m6!1s0x38dfbf8d380957f9:0xcd8948a8ac72e45d!8m2!3d33.7246518!4d73.0858335!16s%2Fg%2F11rcmpccgp!19sChIJ-VcJOI2_3zgRXeRyrKhIic0?authuser=0&hl=en&rclk=1,"Centres, Islamabad"
59,ilcislamabadlearning_33.698899_73.044483,ILC - Islamabad Learning Center,"ILC - Islamabad Learning Center
4.7(12)
Education center · Main Tipu Market Road
Open ⋅ Closes 8 PM · +92 334 9576919",Education center,Open,33.6988994,73.0444834,https://www.google.com/maps/place/ILC+-+Islamabad+Learning+Center/data=!4m7!3m6!1s0x38dfbfae9dbd1fc5:0x62b2e25d89f282ca!8m2!3d33.6988994!4d73.0444834!16s%2Fg%2F11j8jy4d58!19sChIJxR-9na6_3zgRyoLyiV3ismI?authuser=0&hl=en&rclk=1,"Centres, Islamabad"
60,advanceddiagnosticce_33.698044_73.050535,Advanced Diagnostic Centre,"Advanced Diagnostic Centre
4.3(186)
Medical diagnostic imaging center ·  · General Apartments D-12, near PSO Pump،
Open 24 hours · +92 51 8446888",Medical diagnostic imaging center,Open 24 hours,33.6980443,73.0505348,https://www.google.com/maps/place/Advanced+Diagnostic+Centre/data=!4m7!3m6!1s0x38dfbfc85cbd1639:0x9b7b0ded00fe1617!8m2!3d33.6980443!4d73.0505348!16s%2Fg%2F1tj8_xw3!19sChIJORa9XMi_3zgRFxb-AO0Ne5s?authuser=0&hl=en&rclk=1,"Centres, Islamabad"
61,islamabaddiagnosticc_33.711251_73.041795,Islamabad Diagnostic Center F8 Head Office (IDC),"Islamabad Diagnostic Center F8 Head Office (IDC)
4.7(434)
Medical laboratory ·  · P26R+9GV, 13a Kohistan Rd
Open 24 hours · +92 311 1000432",Medical laboratory,Open 24 hours,33.7112508,73.0417954,https://www.google.com/maps/place/Islamabad+Diagnostic+Center+F8+Head+Office+%28IDC%29/data=!4m7!3m6!1s0x38dfbf15b51b9f9d:0x7c75fe9748b21907!8m2!3d33.7112508!4d73.0417954!16s%2Fg%2F11tr_1lx_8!19sChIJnZ8btRW_3zgRBxmySJf-dXw?authuser=0&hl=en&rclk=1,"Centres, Islamabad"
62,itcentre_33.698237_73.069766,I & T Centre,"I & T Centre
No reviews
G 7/1 G-7, Islamabad
Pakistan","G 7/1 G-7, Islamabad",,33.6982374,73.0697655,https://www.google.com/maps/place/I+%26+T+Centre/data=!4m7!3m6!1s0x38dfbfebf7008a37:0x3c57c04ec00ba0b3!8m2!3d33.6982374!4d73.0697655!16s%2Fg%2F11b6gcpp7q!19sChIJN4oA9-u_3zgRs6ALwE7AVzw?authuser=0&hl=en&rclk=1,"Centres, Islamabad"
63,thecentrepoint_33.683249_73.249201,The Centre Point,"The Centre Point
4.4(69)
Apartment building ·  · Plot no 6 Avenue 4, Civic Zone, opposite Bahria Enclave Head office
Open ⋅ Closes 6 PM · +92 311 1786738",Apartment building,Open,33.6832494,73.2492007,https://www.google.com/maps/place/The+Centre+Point/data=!4m7!3m6!1s0x38dfe9b91bce04b1:0xf222cd80b3e1a94f!8m2!3d33.6832494!4d73.2492007!16s%2Fg%2F11gvwswvqt!19sChIJsQTOG7np3zgRT6nhs4DNIvI?authuser=0&hl=en&rclk=1,"Centres, Islamabad"
64,islamabadeyecentre_33.723781_73.083577,Islamabad Eye Centre,"Islamabad Eye Centre
4.6(66)
Hospital ·  · 24-D, Rashid Plaza, 3rd Floor, Opposite Parade Ground Metro Station
Open ⋅ Closes 4 PM · +92 333 5174488",Hospital,Open,33.7237809,73.0835767,https://www.google.com/maps/place/Islamabad+Eye+Centre/data=!4m7!3m6!1s0x38dfbf81a8c371a7:0x8ac2b6e2f29dc32b!8m2!3d33.7237809!4d73.0835767!16s%2Fg%2F11f5h3yl2p!19sChIJp3HDqIG_3zgRK8Od8uK2woo?authuser=0&hl=en&rclk=1,"Centres, Islamabad"
65,centre9_33.687031_73.035419,Centre-9,"Centre-9
4.8(6)
Business center · Plot No, 40-B Mangla Rd
Open ⋅ Closes 5 PM · +92 333 1117501",Business center,Open,33.6870314,73.0354189,https://www.google.com/maps/place/Centre-9/data=!4m7!3m6!1s0x38dfbfd587ea20d9:0x851b6c41988cfc88!8m2!3d33.6870314!4d73.0354189!16s%2Fg%2F11s0wmzs7y!19sChIJ2SDqh9W_3zgRiPyMmEFsG4U?authuser=0&hl=en&rclk=1,"Centres, Islamabad"
66,citilabresearchcentr_33.720296_73.077954,Citilab & Research Centre (CRC) Islamabad,"Citilab & Research Centre (CRC) Islamabad
5.0(14)
Medical laboratory ·  · Shop #5, SNC Centre, AKM Fazl-ul-Haq Rd
Open ⋅ Closes 10 PM · +92 51 2120922",Medical laboratory,Open,33.7202956,73.077954,https://www.google.com/maps/place/Citilab+%26+Research+Centre+%28CRC%29+Islamabad/data=!4m7!3m6!1s0x38dfbff4061c5d55:0xe5cde00be5375b50!8m2!3d33.7202956!4d73.077954!16s%2Fg%2F11mx5w19kv!19sChIJVV0cBvS_3zgRUFs35QvgzeU?authuser=0&hl=en&rclk=1,"Centres, Islamabad"
67,dreamsspafullbodymas_33.699088_72.975847,"Dreams SPA ( Full Body Massage Center, Spa In Islamabad, )","Dreams SPA ( Full Body Massage Center, Spa In Islamabad, )
4.6(79)
Massage spa ·  · 2nd Floor, Manoor Plaza, Main Double Rd
Open 24 hours",Massage spa,Open 24 hours,33.6990877,72.9758472,"https://www.google.com/maps/place/Dreams+SPA+%28+Full+Body+Massage+Center,+Spa+In+Islamabad,+%29/data=!4m7!3m6!1s0x38dfbd2faf88628f:0xf0c685cff1f609aa!8m2!3d33.6990877!4d72.9758472!16s%2Fg%2F11nsvjl5w7!19sChIJj2KIry-93zgRqgn28c-FxvA?authuser=0&hl=en&rclk=1","Centres, Islamabad"
68,islamabadpakistan_33.631279_73.144366,Islamabad pakistan,"Islamabad pakistan
3.7(3)
Education center · USEFP- Islamabad, H-5 Street 17
+92 312 2161352",Education center,,33.6312788,73.1443659,https://www.google.com/maps/place/Islamabad+pakistan/data=!4m7!3m6!1s0x38dfbff18a17ceab:0xc1a73aa27a4d13e9!8m2!3d33.6312788!4d73.1443659!16s%2Fg%2F11ssqf052q!19sChIJq84XivG_3zgR6RNNeqI6p8E?authuser=0&hl=en&rclk=1,"Centres, Islamabad"
69,ufonecopsoffice_33.661063_73.056564,Ufone COPS Office,"Ufone COPS Office
4.4(500)
Call center · 3
Open 24 hours · +92 51 111 333 100",Call center,Open 24 hours,33.6610633,73.0565644,https://www.google.com/maps/place/Ufone+COPS+Office/data=!4m7!3m6!1s0x38df956c5d0ae9dd:0x441232393c6eafd6!8m2!3d33.6610633!4d73.0565644!16s%2Fg%2F11cjnnd84x!19sChIJ3ekKXWyV3zgR1q9uPDkyEkQ?authuser=0&hl=en&rclk=1,"Centres, Islamabad"
70,cpspregionalcentre_33.700451_73.048017,CPSP Regional Centre,"CPSP Regional Centre
4.3(360)
College ·  · P22X+56J
Open ⋅ Closes 4 PM · +92 51 9262590",College,Open,33.7004515,73.0480169,https://www.google.com/maps/place/CPSP+Regional+Centre/data=!4m7!3m6!1s0x38dfbf36e53af553:0xaea8f9e24d9d346a!8m2!3d33.7004515!4d73.0480169!16s%2Fg%2F11h6v8tp4j!19sChIJU_U65Ta_3zgRajSdTeL5qK4?authuser=0&hl=en&rclk=1,"Centres, Islamabad"
71,idclabdiagnosticcent_33.711293_73.041761,IDC Lab & Diagnostic Center F-8,"IDC Lab & Diagnostic Center F-8
4.9(2,506)
Medical laboratory ·  · 13a Kohistan Rd
Open 24 hours · +92 311 1000432",Medical laboratory,Open 24 hours,33.7112927,73.0417614,https://www.google.com/maps/place/IDC+Lab+%26+Diagnostic+Center+F-8/data=!4m7!3m6!1s0x38dfbf4ca205db57:0xfe2bb7c648b8bd95!8m2!3d33.7112927!4d73.0417614!16s%2Fg%2F11rmxk4zyr!19sChIJV9sFoky_3zgRlb24SMa3K_4?authuser=0&hl=en&rclk=1,"Centres, Islamabad"
72,silkroadculturalcent_33.719515_73.097149,Silk Road Cultural Center Islamabad,"Silk Road Cultural Center Islamabad
4.7(3)
Community center · 19 Ataturk Ave
Open ⋅ Closes 6 PM · +92 51 8489344",Community center,Open,33.7195148,73.0971489,https://www.google.com/maps/place/Silk+Road+Cultural+Center+Islamabad/data=!4m7!3m6!1s0x38dfc130584a6c23:0x1e1308002fcd8ca1!8m2!3d33.7195148!4d73.0971489!16s%2Fg%2F11y76s2chv!19sChIJI2xKWDDB3zgRoYzNLwAIEx4?authuser=0&hl=en&rclk=1,"Centres, Islamabad"
73,errandsservicespvtlt_33.666322_73.075988,Errands Services Pvt. Ltd - BPO and Call Center Islamabad,"Errands Services Pvt. Ltd - BPO and Call Center Islamabad
4.2(34)
BPO company ·  · 3rd floor, Laraib Centre
Closed ⋅ Opens 6 PM · +92 337 9846294",BPO company,Closed,33.6663222,73.0759883,https://www.google.com/maps/place/Errands+Services+Pvt.+Ltd+-+BPO+and+Call+Center+Islamabad/data=!4m7!3m6!1s0x38df953b36eb6169:0x6b650e4cd3fba516!8m2!3d33.6663222!4d73.0759883!16s%2Fg%2F11ppysz1_1!19sChIJaWHrNjuV3zgRFqX700wOZWs?authuser=0&hl=en&rclk=1,"Centres, Islamabad"
74,chaudhryrehmatalicom_33.703383_73.069368,Chaudhry Rehmat Ali Community Center,"Chaudhry Rehmat Ali Community Center
4.3(85)
Sports activity location · CDA Police Cricket Ground
Closed ⋅ Opens 8 AM Fri · +92 51 9253000",Sports activity location,Closed,33.7033831,73.0693683,https://www.google.com/maps/place/Chaudhry+Rehmat+Ali+Community+Center/data=!4m7!3m6!1s0x38dfbf94af778c13:0x780436485b7baa3!8m2!3d33.7033831!4d73.0693683!16s%2Fg%2F1tg59gwb!19sChIJE4x3r5S_3zgRo7q3hWRDgAc?authuser=0&hl=en&rclk=1,"Centres, Islamabad"
75,globecallcenterbpobe_33.652190_73.045064,Globe Call Center | BPO | Best Call Center in Islamabad,"Globe Call Center | BPO | Best Call Center in Islamabad
4.8(29)
Call center · Plot 206, 3 Service Rd East I-10
Open 24 hours · +92 51 8484842",Call center,Open 24 hours,33.6521903,73.0450645,https://www.google.com/maps/place/Globe+Call+Center+%7C+BPO+%7C+Best+Call+Center+in+Islamabad/data=!4m7!3m6!1s0x38df959c405a5e55:0xc5efaae65d567f24!8m2!3d33.6521903!4d73.0450645!16s%2Fg%2F11vm89mkpc!19sChIJVV5aQJyV3zgRJH9WXeaq78U?authuser=0&hl=en&rclk=1,"Centres, Islamabad"
76,newyoumassagecenteri_33.687719_73.033909,New You Massage Center Islamabad,"New You Massage Center Islamabad
4.7(116)
Massage spa · 1st floor, Beauty Plaza
Open 24 hours · +92 333 5553229",Massage spa,Open 24 hours,33.687719,73.033909,https://www.google.com/maps/place/New+You+Massage+Center+Islamabad/data=!4m7!3m6!1s0x38dfbfbaaa0e7041:0x222031da3f5296ad!8m2!3d33.687719!4d73.033909!16s%2Fg%2F11twqwl0h6!19sChIJQXAOqrq_3zgRrZZSP9oxICI?authuser=0&hl=en&rclk=1,"Centres, Islamabad"
77,ogdclmedicalcentre_33.712874_73.037630,OGDCL Medical Centre,"OGDCL Medical Centre
4.3(64)
Medical Center ·  · Park Rd, F-8 Markaz, F-8, Islamabad, ICT
Open ⋅ Closes 4:45 PM · +92 51 9258152",Medical Center,Open,33.7128737,73.0376303,https://www.google.com/maps/place/OGDCL+Medical+Centre/data=!4m7!3m6!1s0x38dfbe53091c5bc9:0x4e91d75d67507739!8m2!3d33.7128737!4d73.0376303!16s%2Fg%2F1ttdwtvr!19sChIJyVscCVO-3zgROXdQZ13XkU4?authuser=0&hl=en&rclk=1,"Centres, Islamabad"
78,massagecenterspainis_33.697442_73.012099,Massage Center ( Spa In Islamabad ),"Massage Center ( Spa In Islamabad )
4.7(55)
Spa · near Maroof International Hospital F 10
Open 24 hours · +92 341 9447776",Spa,Open 24 hours,33.6974419,73.0120986,https://www.google.com/maps/place/Massage+Center+%28+Spa+In+Islamabad+%29/data=!4m7!3m6!1s0x38dfbf0e688a815b:0x5ad7103b47e8a5b0!8m2!3d33.6974419!4d73.0120986!16s%2Fg%2F11k9st2tbw!19sChIJW4GKaA6_3zgRsKXoRzsQ11o?authuser=0&hl=en&rclk=1,"Centres, Islamabad"
79,citizenfacilitationc_33.729121_73.077530,Citizen Facilitation Center,"Citizen Facilitation Center
4.3(111)
Corporate office ·  · P3HH+J2R
Open ⋅ Closes 8 PM ⋅ Reopens 9 PM · +92 51 9201522",Corporate office,Open,33.7291205,73.0775299,https://www.google.com/maps/place/Citizen+Facilitation+Center/data=!4m7!3m6!1s0x38dfbf308fff3ce3:0xf5314f8ace8c2e0e!8m2!3d33.7291205!4d73.0775299!16s%2Fg%2F11h3g97_lx!19sChIJ4zz_jzC_3zgRDi6MzopPMfU?authuser=0&hl=en&rclk=1,"Centres, Islamabad"
80,islamabadmedicalcent_33.687118_73.032261,Islamabad Medical Centre,"Islamabad Medical Centre
4.6(9)
Doctor · ICT, Rohtas Rd, G9 markaz
Open ⋅ Closes 9 PM · +92 51 2256966",Doctor,Open,33.6871184,73.0322605,https://www.google.com/maps/place/Islamabad+Medical+Centre/data=!4m7!3m6!1s0x38dfbe311dc56119:0x5d4fe7011e598db1!8m2!3d33.6871184!4d73.0322605!16s%2Fg%2F11xc8c18r!19sChIJGWHFHTG-3zgRsY1ZHgHnT10?authuser=0&hl=en&rclk=1,"Centres, Islamabad"
81,smartwellnesscentre_33.712778_73.048142,Smart Wellness Centre,"Smart Wellness Centre
5.0(2)
Health consultant · House No 10 A, Smart Wellness Centre, Main Kaghan Rd
Open ⋅ Closes 5 PM",Health consultant,Open,33.7127781,73.0481419,https://www.google.com/maps/place/Smart+Wellness+Centre/data=!4m7!3m6!1s0x38dfbfbf6eaee29f:0xffd6de5b07de1e68!8m2!3d33.7127781!4d73.0481419!16s%2Fg%2F11f25twnfs!19sChIJn-Kubr-_3zgRaB7eB1ve1v8?authuser=0&hl=en&rclk=1,"Centres, Islamabad"
82,bestrehabcenterinisl_33.693005_73.037870,Best Rehab Center in islamabad Healing Hub Rehab Pakistan,"Best Rehab Center in islamabad Healing Hub Rehab Pakistan
5.0(33)
Rehabilitation center ·  · House 193 Street 74
Open 24 hours · +92 340 4638238",Rehabilitation center,Open 24 hours,33.6930047,73.0378704,https://www.google.com/maps/place/Best+Rehab+Center+in+islamabad+Healing+Hub+Rehab+Pakistan/data=!4m7!3m6!1s0x38dfeb2d72cc2603:0xbbd87223bcf91739!8m2!3d33.6930047!4d73.0378704!16s%2Fg%2F11sdq3zt9c!19sChIJAybMci3r3zgRORf5vCNy2Ls?authuser=0&hl=en&rclk=1,"Centres, Islamabad"
83,hanifdiabetescentrei_33.696784_73.051429,Hanif Diabetes Centre - Islamabad,"Hanif Diabetes Centre - Islamabad
4.8(75)
General hospital ·  · First Floor, Pakland Square, Office 5,6 and 7, above IDC MRI Facility
Open ⋅ Closes 9 PM · +92 309 8487999",General hospital,Open,33.6967835,73.0514286,https://www.google.com/maps/place/Hanif+Diabetes+Centre+-+Islamabad/data=!4m7!3m6!1s0x38df957009835fa3:0x7332d5fce5fd019d!8m2!3d33.6967835!4d73.0514286!16s%2Fg%2F11kqxjmzpb!19sChIJo1-DCXCV3zgRnQH95fzVMnM?authuser=0&hl=en&rclk=1,"Centres, Islamabad"
84,cdavaccinationcenter_33.687841_73.034466,CDA Vaccination Center G-9,"CDA Vaccination Center G-9
4.4(21)
Community health centre ·  · M2QM+4QP, Mangla Rd، near Niazi Bus stop
Open ⋅ Closes 7:30 PM · +92 322 4864831",Community health centre,Open,33.6878407,73.0344665,https://www.google.com/maps/place/CDA+Vaccination+Center+G-9/data=!4m7!3m6!1s0x38dfbf5daf752205:0xe3f1dc39b4078013!8m2!3d33.6878407!4d73.0344665!16s%2Fg%2F11q2tpkwhb!19sChIJBSJ1r12_3zgRE4AHtDnc8eM?authuser=0&hl=en&rclk=1,"Centres, Islamabad"
85,iprcislamabadphysiot_33.695246_73.060701,IPRC | Islamabad Physiotherapy & Rehabilitation Centre | G-8 Islamabad,"IPRC | Islamabad Physiotherapy & Rehabilitation Centre | G-8 Islamabad
4.6(17)
Hospital ·  · PTCL Health Center, IPRC, Street 22
Open ⋅ Closes 7 PM · +92 333 2724447",Hospital,Open,33.695246,73.0607014,https://www.google.com/maps/place/IPRC+%7C+Islamabad+Physiotherapy+%26+Rehabilitation+Centre+%7C+G-8+Islamabad/data=!4m7!3m6!1s0x38dfbf3839409f0b:0xaeeb8e0f4153d941!8m2!3d33.695246!4d73.0607014!16s%2Fg%2F11j3xm19nw!19sChIJC59AOTi_3zgRQdlTQQ-O664?authuser=0&hl=en&rclk=1,"Centres, Islamabad"
86,techtoneprivatelimit_33.711507_73.041097,Tech Tone (Private) Limited,"Tech Tone (Private) Limited
3.8(13)
Call center · Crystal Arcade, Office # 1, 1st Floor
Open ⋅ Closes 7 PM · +92 332 9316280",Call center,Open,33.7115066,73.0410974,https://www.google.com/maps/place/Tech+Tone+%28Private%29+Limited/data=!4m7!3m6!1s0x38dfbfd856b66e51:0xd016b754b14ca18f!8m2!3d33.7115066!4d73.0410974!16s%2Fg%2F11qbkptc_n!19sChIJUW62Vti_3zgRj6FMsVS3FtA?authuser=0&hl=en&rclk=1,"Centres, Islamabad"
87,cdafacilitationcentr_33.728098_73.074447,CDA Facilitation Centre,"CDA Facilitation Centre
3.8(14)
City government office ·  · P3HF+6QP, Waris Shah Rd
Open ⋅ Closes 5 PM · +92 312 6547515",City government office,Open,33.7280983,73.0744469,https://www.google.com/maps/place/CDA+Facilitation+Centre/data=!4m7!3m6!1s0x38dfbfedb00528bd:0x6ebfafa04237c7a7!8m2!3d33.7280983!4d73.0744469!16s%2Fg%2F11c5xn7m_1!19sChIJvSgFsO2_3zgRp8c3QqCvv24?authuser=0&hl=en&rclk=1,"Centres, Islamabad"
88,onewindowehsaascentr_33.710519_73.065436,One Window Ehsaas Centre,"One Window Ehsaas Centre
4.0(42)
Government office ·  · P368+653, Jasmin Rd
Open ⋅ Closes 3:30 PM · +92 51 9210022",Government office,Open,33.7105188,73.0654355,https://www.google.com/maps/place/One+Window+Ehsaas+Centre/data=!4m7!3m6!1s0x38dfbf2cee898589:0x35f2ff0adecb4624!8m2!3d33.7105188!4d73.0654355!16s%2Fg%2F11q26mg0xq!19sChIJiYWJ7iy_3zgRJEbL3gr_8jU?authuser=0&hl=en&rclk=1,"Centres, Islamabad"
89,nationalsavingcenter_33.712075_73.038848,"National Saving Center, F-8, Islamabad","National Saving Center, F-8, Islamabad
3.2(21)
Bank · P26Q+RGH
Closes soon ⋅ 2:30 PM ⋅ Opens 9 AM Fri · +92 51 9261919",Bank,Closes soon,33.7120749,73.0388475,"https://www.google.com/maps/place/National+Saving+Center,+F-8,+Islamabad/data=!4m7!3m6!1s0x38dfbf2dc1747f77:0xf64fefb8028c975a!8m2!3d33.7120749!4d73.0388475!16s%2Fg%2F11gjszczf2!19sChIJd390wS2_3zgRWpeMArjvT_Y?authuser=0&hl=en&rclk=1","Centres, Islamabad"
90,cabcallinternational_33.704966_72.979824,CabCall International,"CabCall International
4.1(52)
Call center · Areej Tower, Street 63
Open 24 hours · +92 51 8740620",Call center,Open 24 hours,33.7049662,72.9798244,https://www.google.com/maps/place/CabCall+International/data=!4m7!3m6!1s0x38dfbdce4836dd79:0x9280fd47694dcfa6!8m2!3d33.7049662!4d72.9798244!16s%2Fg%2F124ylrp2x!19sChIJed02SM693zgRps9NaUf9gJI?authuser=0&hl=en&rclk=1,"Centres, Islamabad"
91,thediabetescentrecre_33.698521_73.048562,"The Diabetes Centre , Crescent Arcade, G-8 Markaz Clinic, Islamabad","The Diabetes Centre , Crescent Arcade, G-8 Markaz Clinic, Islamabad
3.7(18)
Hospital ·  · Crescent Arcade
Open ⋅ Closes 9 PM · +92 51 2266130",Hospital,Open,33.6985212,73.048562,"https://www.google.com/maps/place/The+Diabetes+Centre+,+Crescent+Arcade,+G-8+Markaz+Clinic,+Islamabad/data=!4m7!3m6!1s0x38dfbfa507e14ce1:0x85e66437780f31b4!8m2!3d33.6985212!4d73.048562!16s%2Fg%2F11lry96clf!19sChIJ4UzhB6W_3zgRtDEPeDdk5oU?authuser=0&hl=en&rclk=1","Centres, Islamabad"
92,escapespamassagecent_33.722166_73.057662,Escape Spa & Massage Center Islamabad F-7,"Escape Spa & Massage Center Islamabad F-7
4.5(199)
Massage spa · Safa Gold Mall, College Rd, near to Uion
Open 24 hours · +92 347 5688609",Massage spa,Open 24 hours,33.7221664,73.0576616,https://www.google.com/maps/place/Escape+Spa+%26+Massage+Center+Islamabad+F-7/data=!4m7!3m6!1s0x38dfbf3058c23c5b:0xcd31f13cd979b10!8m2!3d33.7221664!4d73.0576616!16s%2Fg%2F11k43kkk9b!19sChIJWzzCWDC_3zgREJuXzRMf0ww?authuser=0&hl=en&rclk=1,"Centres, Islamabad"
93,mojomassagecenterini_33.669500_72.998959,Mojo Massage Center In Islamabad,"Mojo Massage Center In Islamabad
4.6(173)
Massage spa · G 11 Markaz Islamabad Near To Bank Alfalah G 11
Open 24 hours · +92 335 6763906",Massage spa,Open 24 hours,33.6694995,72.998959,https://www.google.com/maps/place/Mojo+Massage+Center+In+Islamabad/data=!4m7!3m6!1s0x38dfed7661ad948f:0xe31443b8b628be05!8m2!3d33.6694995!4d72.998959!16s%2Fg%2F11tnj1vsyk!19sChIJj5StYXbt3zgRBb4otrhDFOM?authuser=0&hl=en&rclk=1,"Centres, Islamabad"
94,sunrisemassagecenter_33.722209_73.059326,Sun Rise Massage Center Islamabad,"Sun Rise Massage Center Islamabad
4.4(53)
Spa · P3C5+VP5
Open ⋅ Closes 11:30 PM · +92 300 8740076",Spa,Open,33.7222089,73.0593257,https://www.google.com/maps/place/Sun+Rise+Massage+Center+Islamabad/data=!4m7!3m6!1s0x38dfbd84361204bf:0x8d4609784f5c8c16!8m2!3d33.7222089!4d73.0593257!16s%2Fg%2F11v_18m4fm!19sChIJvwQSNoS93zgRFoxcT3gJRo0?authuser=0&hl=en&rclk=1,"Centres, Islamabad"
95,nikoncentreislamabad_33.720180_73.073823,"Nikon Centre, Islamabad","Nikon Centre, Islamabad
4.3(280)
Camera store · Beverly Centre, Jinnah Ave
Open ⋅ Closes 8 PM · +92 300 8626415",Camera store,Open,33.7201801,73.0738234,"https://www.google.com/maps/place/Nikon+Centre,+Islamabad/data=!4m7!3m6!1s0x38dfbfbb6df88161:0x4fab726393f57d9!8m2!3d33.7201801!4d73.0738234!16s%2Fg%2F11bz_vztww!19sChIJYYH4bbu_3zgR2Vc_OSa3-gQ?authuser=0&hl=en&rclk=1","Centres, Islamabad"
96,modernbatterycentrem_33.716963_73.084495,Modern Battery Centre (Main Distributor) Battery Wholesaler Whole Sale Shop Ups Solar Tubular Automotive Battery,"Modern Battery Centre (Main Distributor) Battery Wholesaler Whole Sale Shop Ups Solar Tubular Automotive Battery
4.3(216)
Battery wholesaler · SHOP NO 13A BLOCK NO 7, MELODY MARKET, Municipal Rd
Open ⋅ Closes 9 PM · +92 51 2827262",Battery wholesaler,Open,33.7169628,73.0844947,https://www.google.com/maps/place/Modern+Battery+Centre+%28Main+Distributor%29+Battery+Wholesaler+Whole+Sale+Shop+Ups+Solar+Tubular+Automotive+Battery/data=!4m7!3m6!1s0x38dfbf1bcbd13211:0x38bdf97361484089!8m2!3d33.7169628!4d73.0844947!16s%2Fg%2F11rcgh899n!19sChIJETLRyxu_3zgRiUBIYXP5vTg?authuser=0&hl=en&rclk=1,"Centres, Islamabad"
97,lushlifespaandmassag_33.698187_73.011812,Lush Life Spa And Massage Center E-11,"Lush Life Spa And Massage Center E-11
4.6(557)
Massage spa · M2X6+7P, near Al Maroof International Hospital
Open 24 hours · +92 312 1551660",Massage spa,Open 24 hours,33.6981866,73.011812,https://www.google.com/maps/place/Lush+Life+Spa+And+Massage+Center+E-11/data=!4m7!3m6!1s0x38dfbf07e64cbf4f:0x48b61d11c2ef0afe!8m2!3d33.6981866!4d73.011812!16s%2Fg%2F11s8vys2r3!19sChIJT79M5ge_3zgR_grvwhEdtkg?authuser=0&hl=en&rclk=1,"Centres, Islamabad"
98,callboxbpoislamabad_33.708966_73.056097,Call Box BPO Islamabad,"Call Box BPO Islamabad
3.7(74)
Call center ·  · 16 United Plaza, Blue Area
Closed ⋅ Opens 3 PM · +92 51 2804193",Call center,Closed,33.708966,73.056097,https://www.google.com/maps/place/Call+Box+BPO+Islamabad/data=!4m7!3m6!1s0x38dfbfbba7cb9993:0xaad71e4663f491df!8m2!3d33.708966!4d73.056097!16s%2Fg%2F11clyd43g3!19sChIJk5nLp7u_3zgR35H0Y0Ye16o?authuser=0&hl=en&rclk=1,"Centres, Islamabad"
99,massageandspacenteri_33.691135_73.032348,Massage and Spa Center in Islamabad,"Massage and Spa Center in Islamabad
4.5(39)
Massage spa · Mobile Empire Plaza, markaz
Open 24 hours · +92 309 2705555",Massage spa,Open 24 hours,33.6911346,73.0323481,https://www.google.com/maps/place/Massage+and+Spa+Center+in+Islamabad/data=!4m7!3m6!1s0x38dfbfc991c2b909:0xe8d41d8a2aa6414c!8m2!3d33.6911346!4d73.0323481!16s%2Fg%2F11ts89n3sg!19sChIJCbnCkcm_3zgRTEGmKood1Og?authuser=0&hl=en&rclk=1,"Centres, Islamabad"
100,legalstudycentreisla_33.708709_73.033184,"Legal Study Centre, Islamabad, Pakistan","Legal Study Centre, Islamabad, Pakistan
5.0(4)
Law school · House No.20, Street No.29, F8/1, Islamabad.
Open ⋅ Closes 5 PM · +92 51 2252144",Law school,Open,33.7087089,73.0331836,"https://www.google.com/maps/place/Legal+Study+Centre,+Islamabad,+Pakistan/data=!4m7!3m6!1s0x38dfeb10db866f37:0x152d19465b82dfb8!8m2!3d33.7087089!4d73.0331836!16s%2Fg%2F11c7wdrxqb!19sChIJN2-G2xDr3zgRuN-CW0YZLRU?authuser=0&hl=en&rclk=1","Centres, Islamabad"
101,mindbodyspamassagece_33.699350_72.973081,Mind Body Spa & Massage Center Islamabad,"Mind Body Spa & Massage Center Islamabad
4.8(92)
Spa and health club · E, Markaz, near to Broadway Pizza
Open 24 hours · +92 313 3439544",Spa and health club,Open 24 hours,33.6993499,72.973081,https://www.google.com/maps/place/Mind+Body+Spa+%26+Massage+Center+Islamabad/data=!4m7!3m6!1s0x4559fcd15e00a977:0x1285ad24a160fcac!8m2!3d33.6993499!4d72.973081!16s%2Fg%2F11v_8jbhn0!19sChIJd6kAXtH8WUURrPxgoSSthRI?authuser=0&hl=en&rclk=1,"Centres, Islamabad"
102,pecfacilitationcentr_33.723856_73.093314,PEC Facilitation Centre (PEC HQ Islamabad),"PEC Facilitation Centre (PEC HQ Islamabad)
4.3(61)
Engineering consultant ·  · P3FV+G8W
Open ⋅ Closes 5 PM · +92 51 9219013",Engineering consultant,Open,33.7238557,73.093314,https://www.google.com/maps/place/PEC+Facilitation+Centre+%28PEC+HQ+Islamabad%29/data=!4m7!3m6!1s0x38dfc1e732ec44a9:0xd86051edf862c16!8m2!3d33.7238557!4d73.093314!16s%2Fg%2F11sqkszx8h!19sChIJqUTsMufB3zgRFiyG3x4Fhg0?authuser=0&hl=en&rclk=1,"Centres, Islamabad"
103,sonyservicecentreisl_33.709942_73.058006,Sony Service Centre Islamabad.,"Sony Service Centre Islamabad.
3.9(93)
Electronics repair shop ·  · Royal Centre, Shop No. 1, Mezzanine Floor, Fazal e Haq Road
Open ⋅ Closes 7 PM · +92 51 2806055",Electronics repair shop,Open,33.7099425,73.0580063,https://www.google.com/maps/place/Sony+Service+Centre+Islamabad./data=!4m7!3m6!1s0x38dfbf99f7308e3b:0x67a367398b192d3c!8m2!3d33.7099425!4d73.0580063!16s%2Fg%2F12mkzc5d1!19sChIJO44w95m_3zgRPC0Zizlno2c?authuser=0&hl=en&rclk=1,"Centres, Islamabad"
104,theeclecticcounselin_33.698987_73.048552,The Eclectic Counseling Center Islamabad,"The Eclectic Counseling Center Islamabad
4.9(11)
Psychologist · Allah Dad Plaza, Flat No 8 block 19
+92 333 4215688",Psychologist,,33.6989867,73.0485523,https://www.google.com/maps/place/The+Eclectic+Counseling+Center+Islamabad/data=!4m7!3m6!1s0x38dfbf1a8548262f:0xbb3a27ee50be25ea!8m2!3d33.6989867!4d73.0485523!16s%2Fg%2F11rs064v8v!19sChIJLyZIhRq_3zgR6iW-UO4nOrs?authuser=0&hl=en&rclk=1,"Centres, Islamabad"
105,escopkhikvisionexper_33.711980_73.062000,esco.pk | Hikvision Experience Center Islamabad,"esco.pk | Hikvision Experience Center Islamabad
4.1(71)
Electronics company · Ground Floor, Rata Mansion, 69-W, Shop 4 AKM Fazl-ul-Haq Rd
Open ⋅ Closes 7 PM · +92 51 8357098",Electronics company,Open,33.7119799,73.0620003,https://www.google.com/maps/place/esco.pk+%7C+Hikvision+Experience+Center+Islamabad/data=!4m7!3m6!1s0x38dfbf211386c1fd:0x2bf8925af8ceeae8!8m2!3d33.7119799!4d73.0620003!16s%2Fg%2F11g0zrrxz0!19sChIJ_cGGEyG_3zgR6OrO-FqS-Cs?authuser=0&hl=en&rclk=1,"Centres, Islamabad"
106,biodiagnosticcenter_33.722543_73.082297,Bio Diagnostic Center,"Bio Diagnostic Center
3.8(4)
Medical diagnostic imaging center · 21-E, Huma Plaza 87 East AKM Fazl-ul-Haq Road, Block, opposite Polyclinic
Open ⋅ Closes 9:30 PM · +92 51 2876595",Medical diagnostic imaging center,Open,33.7225425,73.0822969,https://www.google.com/maps/place/Bio+Diagnostic+Center/data=!4m7!3m6!1s0x38dfbf9ce60a3207:0xb262d76aa5677643!8m2!3d33.7225425!4d73.0822969!16s%2Fg%2F11f6y2vnp1!19sChIJBzIK5py_3zgRQ3ZnpWrXYrI?authuser=0&hl=en&rclk=1,"Centres, Islamabad"
107,amanlabsdiagnosticce_33.708748_73.055895,Aman Labs & Diagnostic Center,"Aman Labs & Diagnostic Center
4.8(83)
Laboratory · 
Open 24 hours · +92 51 2120751",Laboratory,Open 24 hours,33.7087476,73.0558947,https://www.google.com/maps/place/Aman+Labs+%26+Diagnostic+Center/data=!4m7!3m6!1s0x38dfbf2d0980f4c3:0x75951559fe86344e!8m2!3d33.7087476!4d73.0558947!16s%2Fg%2F11t2b74jzm!19sChIJw_SACS2_3zgRTjSG_lkVlXU?authuser=0&hl=en&rclk=1,"Centres, Islamabad"
108,specialeducationcent_33.722110_73.041620,Special Education Centre,"Special Education Centre
4.9(14)
School ·  · P2CR+RJX, Shangrila Rd
+92 332 5544578",School,,33.72211,73.04162,https://www.google.com/maps/place/Special+Education+Centre/data=!4m7!3m6!1s0x38dfbf003ddee88f:0xf2ca909045871134!8m2!3d33.72211!4d73.04162!16s%2Fg%2F11xbjz4fb!19sChIJj-jePQC_3zgRNBGHRZCQyvI?authuser=0&hl=en&rclk=1,"Centres, Islamabad"
109,amazontrainingcentre_33.603209_73.109001,Amazon Training Centre-Practical,"Amazon Training Centre-Practical
5.0(7)
Training centre
Open 24 hours · +92 316 0570896",Training centre,Open 24 hours,33.6032087,73.1090012,https://www.google.com/maps/place/Amazon+Training+Centre-Practical/data=!4m7!3m6!1s0x23af717eeafedf39:0xd01acca601f549ee!8m2!3d33.6032087!4d73.1090012!16s%2Fg%2F11sv0v27m9!19sChIJOd_-6n5xryMR7kn1AabMGtA?authuser=0&hl=en&rclk=1,"Centres, Islamabad"
110,mediacenterbeverlyce_33.720019_73.074165,MediaCenter - Beverly Center,"MediaCenter - Beverly Center
4.3(9)
Electronics store · Beverly Centre, Shop No. 12-13, Lower Ground
Open ⋅ Closes 8 PM · +92 51 2814331",Electronics store,Open,33.7200195,73.0741647,https://www.google.com/maps/place/MediaCenter+-+Beverly+Center/data=!4m7!3m6!1s0x38dfbf7dc8a5fa8b:0x4c467617daf36a0d!8m2!3d33.7200195!4d73.0741647!16s%2Fg%2F11h802djk1!19sChIJi_qlyH2_3zgRDWrz2hd2Rkw?authuser=0&hl=en&rclk=1,"Centres, Islamabad"
111,poliovaccinationcent_33.704563_73.055562,Polio Vaccination Center,"Polio Vaccination Center
4.5(17)
Hospital department ·  · P334+R7M
Closed ⋅ Opens 8 AM Fri · +92 311 5566992",Hospital department,Closed,33.7045625,73.0555625,https://www.google.com/maps/place/Polio+Vaccination+Center/data=!4m7!3m6!1s0x38dfbfb90947d967:0x61af9d2772130a11!8m2!3d33.7045625!4d73.0555625!16s%2Fg%2F11c5s_bwxm!19sChIJZ9lHCbm_3zgREQoTciedr2E?authuser=0&hl=en&rclk=1,"Centres, Islamabad"
112,islamabadentcenterpv_33.697989_73.048847,"Islamabad ENT Center-Pvt.Ltd"" (Rhinoplasty) Ear, Nose, Throat Specialist's, Surgeon's","Islamabad ENT Center-Pvt.Ltd"" (Rhinoplasty) Ear, Nose, Throat Specialist's, Surgeon's
4.8(186)
Otolaryngology clinic ·  · officia 20 Ground Floor, executive Complex, Back Side PSO Pump, Markaz, near TCS Office
Open ⋅ Closes 9 PM · +92 342 4512784",Otolaryngology clinic,Open,33.6979885,73.0488475,"https://www.google.com/maps/place/Islamabad+ENT+Center-Pvt.Ltd%22+%28Rhinoplasty%29+Ear,+Nose,+Throat+Specialist%27s,+Surgeon%27s/data=!4m7!3m6!1s0x38dfbfbf21ad4751:0xd3a073468163936!8m2!3d33.6979885!4d73.0488475!16s%2Fg%2F11mwys_dgl!19sChIJUUetIb-_3zgRNjkWaDQHOg0?authuser=0&hl=en&rclk=1","Centres, Islamabad"
113,islamabadpainspinest_33.696798_73.051433,"Islamabad Pain, Spine & Stroke Center","Islamabad Pain, Spine & Stroke Center
4.4(55)
Hospital ·  · Pain Spine and stroke center, Pakland Plaza, near IDC
Closed ⋅ Opens 3:30 PM · +92 332 9077315",Hospital,Closed,33.6967976,73.0514329,"https://www.google.com/maps/place/Islamabad+Pain,+Spine+%26+Stroke+Center/data=!4m7!3m6!1s0x38dfbfc88d9e87d3:0x23eccb64859b44bd!8m2!3d33.6967976!4d73.0514329!16s%2Fg%2F11hcw7wjlx!19sChIJ04eejci_3zgRvUSbhWTL7CM?authuser=0&hl=en&rclk=1","Centres, Islamabad"
114,oceanspaandmassagece_33.699171_72.973549,Ocean Spa And Massage Center,"Ocean Spa And Massage Center
4.5(221)
Massage spa · E, 11/2 Markaz, near to Royal Suites Plaza
Open 24 hours · +92 331 8688127",Massage spa,Open 24 hours,33.6991706,72.973549,https://www.google.com/maps/place/Ocean+Spa+And+Massage+Center/data=!4m7!3m6!1s0x38dfbd877502e001:0x35f0ae736b0f284f!8m2!3d33.6991706!4d72.973549!16s%2Fg%2F11tnfpk0fj!19sChIJAeACdYe93zgRTygPa3Ou8DU?authuser=0&hl=en&rclk=1,"Centres, Islamabad"
115,massagecenterislamab_33.694624_73.014360,Massage Center Islamabad,"Massage Center Islamabad
5.0(6)
Spa · Markaz, near Sana Safinaz
Open ⋅ Closes 12 AM · +92 330 5978991",Spa,Open,33.694624,73.0143597,https://www.google.com/maps/place/Massage+Center+Islamabad/data=!4m7!3m6!1s0x624c1226b86a80ff:0x4c1e709aedbdeeb1!8m2!3d33.694624!4d73.0143597!16s%2Fg%2F11vkstxh3f!19sChIJ_4BquCYSTGIRse697ZpwHkw?authuser=0&hl=en&rclk=1,"Centres, Islamabad"
116,taxicallcentre_33.719418_73.073830,Taxi Call Centre,"Taxi Call Centre
3.7(3)
Call center · 9 West Jinnah Ave
Open 24 hours · +92 333 0606060",Call center,Open 24 hours,33.7194181,73.0738298,https://www.google.com/maps/place/Taxi+Call+Centre/data=!4m7!3m6!1s0x38dfbfa678161bc9:0x1f40c7427dadefb6!8m2!3d33.7194181!4d73.0738298!16s%2Fg%2F11pyc1g4qf!19sChIJyRsWeKa_3zgRtu-tfULHQB8?authuser=0&hl=en&rclk=1,"Centres, Islamabad"
117,taichihealthclub_33.712506_73.040200,Tai Chi Health Club 太极养生堂,"Tai Chi Health Club 太极养生堂
4.7(228)
Spa ·  · Oriental Hotel, Upper Ground, Kohistan Rd
Open ⋅ Closes 12 AM · +92 51 2744688",Spa,Open,33.7125058,73.0402001,https://www.google.com/maps/place/Tai+Chi+Health+Club+%E5%A4%AA%E6%9E%81%E5%85%BB%E7%94%9F%E5%A0%82/data=!4m7!3m6!1s0x38dfbf2fc2edebad:0x9d4e6208e3b8cdb8!8m2!3d33.7125058!4d73.0402001!16s%2Fg%2F11tjnp_47w!19sChIJrevtwi-_3zgRuM244whiTp0?authuser=0&hl=en&rclk=1,"Centres, Islamabad"
118,burncentrepims_33.702531_73.056167,Burn Centre PIMS,"Burn Centre PIMS
4.3(21)
Hospital department ·  · Burn Centre - PIMS
Closed ⋅ Opens 8 AM Fri · +92 324 5476230",Hospital department,Closed,33.7025307,73.0561668,https://www.google.com/maps/place/Burn+Centre+PIMS/data=!4m7!3m6!1s0x38dfbfb892e739a3:0x844a7c65173fac68!8m2!3d33.7025307!4d73.0561668!16s%2Fg%2F11ckwszkjd!19sChIJoznnkri_3zgRaKw_F2V8SoQ?authuser=0&hl=en&rclk=1,"Centres, Islamabad"
119,psychologicalhealthc_33.697728_73.046929,Psychological health care center Islamabad,"Psychological health care center Islamabad
4.8(33)
Psychologist · House no, 279 Street 3, opposite tandoori restaurant
+92 300 8505221",Psychologist,,33.6977283,73.0469289,https://www.google.com/maps/place/Psychological+health+care+center+Islamabad/data=!4m7!3m6!1s0x38dfbf72b1434937:0xe555922930620b05!8m2!3d33.6977283!4d73.0469289!16s%2Fg%2F11r7s3l2sh!19sChIJN0lDsXK_3zgRBQtiMCmSVeU?authuser=0&hl=en&rclk=1,"Centres, Islamabad"
120,rehabilitationcenter_33.708656_73.055701,Rehabilitation Center Islamabad (R.C.I),"Rehabilitation Center Islamabad (R.C.I)
No reviews
Medical Center ·  · C/O Islamabad Hearing Center, Office 11-B Basement Khyber Plaza A-K Fazal-e-Haq Road
+92 300 7247323",Medical Center,,33.7086564,73.0557006,https://www.google.com/maps/place/Rehabilitation+Center+Islamabad+%28R.C.I%29/data=!4m7!3m6!1s0x38dfbf514eac4a89:0x3b1b6bd0a0bdb609!8m2!3d33.7086564!4d73.0557006!16s%2Fg%2F11h5rlv6gt!19sChIJiUqsTlG_3zgRCba9oNBrGzs?authuser=0&hl=en&rclk=1,"Centres, Islamabad"
121,blsspainvisaapplicat_33.704533_73.083240,BLS Spain Visa Application Centre Islamabad,"BLS Spain Visa Application Centre Islamabad
3.9(113)
Visa and passport office ·  · TCS Visatronix Shakeel, Chamber, 15 Khayaban-e-Suhrwardy Rd
Open ⋅ Closes 5 PM · +92 342 3958623",Visa and passport office,Open,33.7045328,73.0832404,https://www.google.com/maps/place/BLS+Spain+Visa+Application+Centre+Islamabad/data=!4m7!3m6!1s0x38dfbf6d5b6f2e63:0xff2f7dc3a70ef222!8m2!3d33.7045328!4d73.0832404!16s%2Fg%2F11mqwl0scy!19sChIJYy5vW22_3zgRIvIOp8N9L_8?authuser=0&hl=en&rclk=1,"Centres, Islamabad"
122,srbbusinesscenter_33.728734_73.074918,SRB Business Center,"SRB Business Center
3.9(23)
Business center · SRB Plaza, Behind Total Petrol Pump,F-6 Markaz, Islamabad،, Agha Khan Rd
Open ⋅ Closes 6 PM · +92 51 8435200",Business center,Open,33.7287337,73.0749181,https://www.google.com/maps/place/SRB+Business+Center/data=!4m7!3m6!1s0x38dfbf77726b1395:0xb83048eaec903607!8m2!3d33.7287337!4d73.0749181!16s%2Fg%2F1hdzpbgkl!19sChIJlRNrcne_3zgRBzaQ7OpIMLg?authuser=0&hl=en&rclk=1,"Centres, Islamabad"
123,islamabadpakistan_33.720500_73.040528,Islamabad Pakistan,"Islamabad Pakistan
No reviews
Education center · P2CR+56R",Education center,,33.7204997,73.0405277,https://www.google.com/maps/place/Islamabad+Pakistan/data=!4m7!3m6!1s0x38dfbff305dfe241:0xb4850a7801b61b4f!8m2!3d33.7204997!4d73.0405277!16s%2Fg%2F11kskystd_!19sChIJQeLfBfO_3zgRTxu2AXgKhbQ?authuser=0&hl=en&rclk=1,"Centres, Islamabad"
124,audiologycentre_33.711955_73.061028,Audiology Centre,"Audiology Centre
5.0(1)
P366+QCJ, Junaid Plaza, Jinnah Ave, Block H, Blue Area
Open now","P366+QCJ, Junaid Plaza, Jinnah Ave, Block H, Blue Area",Open now,33.711955,73.0610278,https://www.google.com/maps/place/Audiology+Centre/data=!4m7!3m6!1s0x38dfbfbcd7a3fccd:0xd580bb2386f5699b!8m2!3d33.711955!4d73.0610278!16s%2Fg%2F12mkzjxr1!19sChIJzfyj17y_3zgRm2n1hiO7gNU?authuser=0&hl=en&rclk=1,"Centres, Islamabad"
125,panasonicsaleservice_33.687389_73.034175,Panasonic sale service center Islamabad Pakistan,"Panasonic sale service center Islamabad Pakistan
4.7(12)
Telecommunications service provider · 04 mezzanine floor, Umar Plaza, Jinnah Avenue
Open ⋅ Closes 8 PM · +92 336 0055530",Telecommunications service provider,Open,33.6873894,73.0341747,https://www.google.com/maps/place/Panasonic+sale+service+center+Islamabad+Pakistan/data=!4m7!3m6!1s0x38dfbfd6f265e6cb:0x9ce19ae2da3b8eac!8m2!3d33.6873894!4d73.0341747!16s%2Fg%2F11tjsfg5c5!19sChIJy-Zl8ta_3zgRrI472uKa4Zw?authuser=0&hl=en&rclk=1,"Centres, Islamabad"
126,islamabadpolicepubli_33.729071_73.077492,Islamabad Police Public Facilitation Center,"Islamabad Police Public Facilitation Center
No reviews
Federal police ·  · P3HG+MX4 Jamia Masjid, Agha Khan Rd
Open ⋅ Closes 8 PM ⋅ Reopens 9 PM · +92 51 9201522",Federal police,Open,33.7290706,73.0774924,https://www.google.com/maps/place/Islamabad+Police+Public+Facilitation+Center/data=!4m7!3m6!1s0x38dfbf955fb2d787:0x6e3387db235c6ecf!8m2!3d33.7290706!4d73.0774924!16s%2Fg%2F11h_47_8m3!19sChIJh9eyX5W_3zgRz25cI9uHM24?authuser=0&hl=en&rclk=1,"Centres, Islamabad"
127,saniosspaoriginalsin_33.720940_73.056393,Sanio's Spa Original Since 2015,"Sanio's Spa Original Since 2015
4.1(176)
Massage spa ·  · Jinnah Super Market, near hill-view hotel
Open ⋅ Closes 11 PM · +92 348 1985595",Massage spa,Open,33.7209402,73.0563926,https://www.google.com/maps/place/Sanio%27s+Spa+Original+Since+2015/data=!4m7!3m6!1s0x38dfbfeff33951c9:0xfc14e0df1d9c8cfc!8m2!3d33.7209402!4d73.0563926!16s%2Fg%2F11gjxkzgq4!19sChIJyVE58--_3zgR_IycHd_gFPw?authuser=0&hl=en&rclk=1,"Centres, Islamabad"
128,thairosemassagecente_33.703963_72.980170,Thai Rose Massage center & Spa In Islamabad,"Thai Rose Massage center & Spa In Islamabad
4.6(84)
Massage spa · near optp
Open 24 hours · +92 318 4284984",Massage spa,Open 24 hours,33.7039634,72.9801705,https://www.google.com/maps/place/Thai+Rose+Massage+center+%26+Spa+In+Islamabad/data=!4m7!3m6!1s0x38dfbd0a2c62e41b:0x62b7d3bab546bcfa!8m2!3d33.7039634!4d72.9801705!16s%2Fg%2F11t7t739lf!19sChIJG-RiLAq93zgR-rxGtbrTt2I?authuser=0&hl=en&rclk=1,"Centres, Islamabad"
129,jazzexperiencecentre_33.715201_73.067094,Jazz Experience Centre,"Jazz Experience Centre
4.2(671)
Mobile network operator ·  · P388+3RQ
Open ⋅ Closes 5:30 PM · +92 300 0333643",Mobile network operator,Open,33.7152011,73.0670941,https://www.google.com/maps/place/Jazz+Experience+Centre/data=!4m7!3m6!1s0x38dfbfea15429bcf:0x9ce6f00eb08f5852!8m2!3d33.7152011!4d73.0670941!16s%2Fg%2F11h07fl19b!19sChIJz5tCFeq_3zgRUliPsA7w5pw?authuser=0&hl=en&rclk=1,"Centres, Islamabad"
130,markcommunications_33.724697_73.085924,Mark Communications,"Mark Communications
4.1(10)
Call center · Basement 4 and 5 usaid plaza block A blue area islamabad
+92 331 7333008",Call center,,33.7246969,73.0859243,https://www.google.com/maps/place/Mark+Communications/data=!4m7!3m6!1s0x38dfc07f7bb861c7:0xfae1167b3ff5d5dc!8m2!3d33.7246969!4d73.0859243!16s%2Fg%2F11dzt5zz77!19sChIJx2G4e3_A3zgR3NX1P3sW4fo?authuser=0&hl=en&rclk=1,"Centres, Islamabad"
131,soulfulspaandmassage_33.703975_72.978636,Soulful Spa And Massage Center Islamabad,"Soulful Spa And Massage Center Islamabad
5.0(8)
Massage spa · near to HBL
Open 24 hours · +92 341 1598165",Massage spa,Open 24 hours,33.7039751,72.9786361,https://www.google.com/maps/place/Soulful+Spa+And+Massage+Center+Islamabad/data=!4m7!3m6!1s0x38dfbd58dc14ee4d:0xb8278646073350ea!8m2!3d33.7039751!4d72.9786361!16s%2Fg%2F11sstq3m61!19sChIJTe4U3Fi93zgR6lAzB0aGJ7g?authuser=0&hl=en&rclk=1,"Centres, Islamabad"
132,spanishclub_33.719375_73.055423,Spanish Club,"Spanish Club
4.2(123)
Massage spa ·  · ASK Mall, Suit No. 2, 2nd Floor
Open ⋅ Closes 11 PM · +92 300 5777852",Massage spa,Open,33.7193755,73.0554233,https://www.google.com/maps/place/Spanish+Club/data=!4m7!3m6!1s0x38dfbf83c2f67deb:0xcbcfd6ef6382d123!8m2!3d33.7193755!4d73.0554233!16s%2Fg%2F11rfsfvtv2!19sChIJ6332woO_3zgRI9GCY-_Wz8s?authuser=0&hl=en&rclk=1,"Centres, Islamabad"
133,paramountleadingcomp_33.706171_73.067862,Paramount Leading Company Pvt Ltd,"Paramount Leading Company Pvt Ltd
4.2(29)
Call center · OFFICE 1 ,FLOOR 3RD, UTILITY STORE PLAZA
Open ⋅ Closes 7:30 PM · +92 348 2203231",Call center,Open,33.7061708,73.0678616,https://www.google.com/maps/place/Paramount+Leading+Company+Pvt+Ltd/data=!4m7!3m6!1s0x38dfbf00079eee1f:0xebc50f9e5abef328!8m2!3d33.7061708!4d73.0678616!16s%2Fg%2F11ln0jjn8c!19sChIJH-6eBwC_3zgRKPO-Wp4Pxes?authuser=0&hl=en&rclk=1,"Centres, Islamabad"
134,vivoservicecenterisl_33.716717_73.071127,vivo Service Center Islamabad,"vivo Service Center Islamabad
4.5(358)
Electronics company ·  · Plot No.92, Razia Sharif Plaza, A.K-Fazlul Haq Road
Open ⋅ Closes 6 PM · +92 51 2150238",Electronics company,Open,33.7167172,73.0711272,https://www.google.com/maps/place/vivo+Service+Center+Islamabad/data=!4m7!3m6!1s0x38dfbf9bcca6812b:0xf7b7f6997a8c073c!8m2!3d33.7167172!4d73.0711272!16s%2Fg%2F11hcnb7k22!19sChIJK4GmzJu_3zgRPAeMepn2t_c?authuser=0&hl=en&rclk=1,"Centres, Islamabad"
135,ledlcdtvsamsungservi_33.714595_73.066011,LED & LCD TV SAMSUNG SERVICE SERVICE CENTER umar plaza Jinnah avenue blue area Islamabad,"LED & LCD TV SAMSUNG SERVICE SERVICE CENTER umar plaza Jinnah avenue blue area Islamabad
3.8(467)
Electronics repair shop ·  · UMAR PLAZA office no 04 mezzanine floor, Jinnah Ave, opposite nicl tower, near TCS office upper daraz shop
Open ⋅ Closes 9 PM · +92 51 2344436",Electronics repair shop,Open,33.7145946,73.0660109,https://www.google.com/maps/place/LED+%26+LCD+TV+SAMSUNG+SERVICE+SERVICE+CENTER+umar+plaza+Jinnah+avenue+blue+area+Islamabad/data=!4m7!3m6!1s0x38dfbf983a465e13:0x1e0819a3e797add8!8m2!3d33.7145946!4d73.0660109!16s%2Fg%2F11cn94d268!19sChIJE15GOpi_3zgR2K2X56MZCB4?authuser=0&hl=en&rclk=1,"Centres, Islamabad"
136,njmassagespaislamaba_33.685497_73.031031,NJ Massage Spa Islamabad,"NJ Massage Spa Islamabad
4.6(160)
Massage spa · G9/1 Street 51
Open 24 hours · +92 333 3777276",Massage spa,Open 24 hours,33.6854972,73.0310309,https://www.google.com/maps/place/NJ+Massage+Spa+Islamabad/data=!4m7!3m6!1s0x38dfe968ad4c165b:0x425bc54d1b346367!8m2!3d33.6854972!4d73.0310309!16s%2Fg%2F11t043ffm1!19sChIJWxZMrWjp3zgRZ2M0G03FW0I?authuser=0&hl=en&rclk=1,"Centres, Islamabad"
137,truerestspaandmassag_33.699572_72.973340,True Rest Spa And Massage Center,"True Rest Spa And Massage Center
4.8(78)
Massage spa · E, 11/2 Markaz, near to KFC
Open 24 hours · +92 313 9326348",Massage spa,Open 24 hours,33.699572,72.9733398,https://www.google.com/maps/place/True+Rest+Spa+And+Massage+Center/data=!4m7!3m6!1s0x38dfbf1f1cd0f98d:0x83ec6818a1b9a810!8m2!3d33.699572!4d72.9733398!16s%2Fg%2F11kc3k9_38!19sChIJjfnQHB-_3zgREKi5oRho7IM?authuser=0&hl=en&rclk=1,"Centres, Islamabad"
138,touchstonecommunicat_33.733329_73.088655,Touchstone Communications,"Touchstone Communications
4.4(269)
BPO company ·  · Suite 212, Second Floor, Evacuee Trust Complex, Agha Khan Rd
+92 51 2821318",BPO company,,33.7333289,73.0886547,https://www.google.com/maps/place/Touchstone+Communications/data=!4m7!3m6!1s0x38dfc0821a892e3d:0x2589efb42789f34f!8m2!3d33.7333289!4d73.0886547!16s%2Fg%2F12ml2yrph!19sChIJPS6JGoLA3zgRT_OJJ7TviSU?authuser=0&hl=en&rclk=1,"Centres, Islamabad"
139,massagecenterbestmas_33.720326_73.055562,Massage Center ( Best Massage In Islamabad),"Massage Center ( Best Massage In Islamabad)
3.9(60)
Massage spa · Jinnah Super Market, Kings Arcade, near Safa Gold Mall
Open ⋅ Closes 11 PM · +92 51 2748539",Massage spa,Open,33.7203262,73.0555621,https://www.google.com/maps/place/Massage+Center+%28+Best+Massage+In+Islamabad%29/data=!4m7!3m6!1s0x38dfbf626b9d8627:0xb43955318a0d5df!8m2!3d33.7203262!4d73.0555621!16s%2Fg%2F11sb3n5spk!19sChIJJ4ada2K_3zgR39WgGFOVQws?authuser=0&hl=en&rclk=1,"Centres, Islamabad"
140,newislamabadmassagec_33.683706_72.986823,New Islamabad massage Center,"New Islamabad massage Center
4.8(711)
Spa ·  · Shop 22
Temporarily closed · +92 305 2939995",Spa,,33.6837064,72.9868225,https://www.google.com/maps/place/New+Islamabad+massage+Center/data=!4m7!3m6!1s0x38dfbf0395815de5:0xba9ff7c62287b6d5!8m2!3d33.6837064!4d72.9868225!16s%2Fg%2F11q84lh__m!19sChIJ5V2BlQO_3zgR1baHIsb3n7o?authuser=0&hl=en&rclk=1,"Centres, Islamabad"
141,hijamacentreislamaba_33.710165_73.057680,Hijama Centre Islamabad - Ladies,"Hijama Centre Islamabad - Ladies
No reviews
Alternative medicine practitioner · P365+337
Open ⋅ Closes 5 PM",Alternative medicine practitioner,Open,33.7101653,73.0576803,https://www.google.com/maps/place/Hijama+Centre+Islamabad+-+Ladies/data=!4m7!3m6!1s0x38dfbf2e9098f893:0xfa30970b70a1db8e!8m2!3d33.7101653!4d73.0576803!16s%2Fg%2F11h2pljms0!19sChIJk_iYkC6_3zgRjtuhcAuXMPo?authuser=0&hl=en&rclk=1,"Centres, Islamabad"
142,shaukatkhanumlaborat_33.709890_73.057920,Shaukat Khanum Laboratory Collection Centre,"Shaukat Khanum Laboratory Collection Centre
4.4(23)
Medical laboratory ·  · Royal Centre، 2، 106-West AKM Fazl-ul-Haq Rd
Open ⋅ Closes 11 PM · +92 51 2348276",Medical laboratory,Open,33.7098902,73.0579203,https://www.google.com/maps/place/Shaukat+Khanum+Laboratory+Collection+Centre/data=!4m7!3m6!1s0x38dfbfbb7b8aee43:0xbc61b49c2ab646af!8m2!3d33.7098902!4d73.0579203!16s%2Fg%2F11b5s2gwrt!19sChIJQ-6Ke7u_3zgRr0a2Kpy0Ybw?authuser=0&hl=en&rclk=1,"Centres, Islamabad"
143,relaxmassageandspain_33.697569_73.050055,Relax Massage and Spa in Islamabad,"Relax Massage and Spa in Islamabad
4.6(129)
Spa ·  · E11, 527
Open 24 hours · +92 319 4631768",Spa,Open 24 hours,33.6975689,73.0500554,https://www.google.com/maps/place/Relax+Massage+and+Spa+in+Islamabad/data=!4m7!3m6!1s0x38dfbdaab69b2fb3:0xb7f1ed9d4e2dfd63!8m2!3d33.6975689!4d73.0500554!16s%2Fg%2F11tg6z546q!19sChIJsy-btqq93zgRY_0tTp3t8bc?authuser=0&hl=en&rclk=1,"Centres, Islamabad"
144,renewdayspamassagece_33.668563_72.998381,Renew Day Spa & Massage Center G 11 Markaz,"Renew Day Spa & Massage Center G 11 Markaz
4.6(102)
Massage spa · G 11 Markaz Near To Al Ghaffar Shopping Mall G 11
Open 24 hours · +92 313 9321934",Massage spa,Open 24 hours,33.6685628,72.9983814,https://www.google.com/maps/place/Renew+Day+Spa+%26+Massage+Center+G+11+Markaz/data=!4m7!3m6!1s0x38dfed4adc375aff:0xa28d3a5ef5084eee!8m2!3d33.6685628!4d72.9983814!16s%2Fg%2F11scymdx_w!19sChIJ_1o33Ert3zgR7k4I9V46jaI?authuser=0&hl=en&rclk=1,"Centres, Islamabad"
145,flowerspacenterislam_33.695231_73.012855,Flower Spa Center Islamabad,"Flower Spa Center Islamabad
5.0(22)
Health spa · near J
Open 24 hours · +92 316 5672781",Health spa,Open 24 hours,33.6952308,73.0128546,https://www.google.com/maps/place/Flower+Spa+Center+Islamabad/data=!4m7!3m6!1s0x38dfbf074bb05b1d:0x3a007b5ac689c725!8m2!3d33.6952308!4d73.0128546!16s%2Fg%2F11ldnp57tt!19sChIJHVuwSwe_3zgRJceJxlp7ADo?authuser=0&hl=en&rclk=1,"Centres, Islamabad"
146,isscislamabadsecreta_33.729752_73.076427,ISSC Islamabad Secretarial Services Centre stamp paper Islamabad,"ISSC Islamabad Secretarial Services Centre stamp paper Islamabad
5.0(2)
Corporate office · Flat No. 7, Block E, Super market
Open ⋅ Closes 5:30 PM · +92 51 2270110",Corporate office,Open,33.7297524,73.0764272,https://www.google.com/maps/place/ISSC+Islamabad+Secretarial+Services+Centre+stamp+paper+Islamabad/data=!4m7!3m6!1s0x38dfbf776ae3ffff:0x5c2541dcd2edeb5f!8m2!3d33.7297524!4d73.0764272!16s%2Fg%2F11gdt9ymdq!19sChIJ___jane_3zgRX-vt0txBJVw?authuser=0&hl=en&rclk=1,"Centres, Islamabad"
147,taxicallcentre_33.719284_73.054605,Taxi Call Centre,"Taxi Call Centre
3.0(2)
Call center · Tower, 2nd & 3rd Floor, Emirates, M-13
Open 24 hours · +92 333 0606060",Call center,Open 24 hours,33.7192842,73.0546053,https://www.google.com/maps/place/Taxi+Call+Centre/data=!4m7!3m6!1s0x38dfbfb7cb0b5783:0xe2307e42e997d4c0!8m2!3d33.7192842!4d73.0546053!16s%2Fg%2F11smksz1l_!19sChIJg1cLy7e_3zgRwNSX6UJ-MOI?authuser=0&hl=en&rclk=1,"Centres, Islamabad"
148,hijamaislamabadcentr_33.720985_73.056359,Hijama Islamabad centre(cupping therapy),"Hijama Islamabad centre(cupping therapy)
4.3(3)
Health spa · P3C4+9GX
Closed ⋅ Opens 3 PM · +92 51 2652086",Health spa,Closed,33.7209852,73.0563593,https://www.google.com/maps/place/Hijama+Islamabad+centre%28cupping+therapy%29/data=!4m7!3m6!1s0x38dfbf575d483737:0x71fe9067a6302bc9!8m2!3d33.7209852!4d73.0563593!16s%2Fg%2F11n06nmv34!19sChIJNzdIXVe_3zgRySswpmeQ_nE?authuser=0&hl=en&rclk=1,"Centres, Islamabad"
149,nayablabsdiagnosticc_33.722455_73.082111,Nayab Labs & Diagnostic Centre,"Nayab Labs & Diagnostic Centre
4.7(25)
Medical laboratory ·  · P3CJ+XRQ, Street 30
Open ⋅ Closes 10 PM · +92 51 2348373",Medical laboratory,Open,33.7224546,73.0821115,https://www.google.com/maps/place/Nayab+Labs+%26+Diagnostic+Centre/data=!4m7!3m6!1s0x38dfbf81611e4d6d:0x777d79bef39c3fb9!8m2!3d33.7224546!4d73.0821115!16s%2Fg%2F1q62l_ysw!19sChIJbU0eYYG_3zgRuT-c8755fXc?authuser=0&hl=en&rclk=1,"Centres, Islamabad"
150,massagecentermoss_33.722927_73.059698,Massage Center - Moss,"Massage Center - Moss
4.3(128)
Spa and health club ·  · Block 13E
Open ⋅ Closes 11 PM · +92 305 9055512",Spa and health club,Open,33.7229274,73.059698,https://www.google.com/maps/place/Massage+Center+-+Moss/data=!4m7!3m6!1s0x38dfbf110054f92f:0xd7f18ed4d98dca43!8m2!3d33.7229274!4d73.059698!16s%2Fg%2F11hz2zwvdg!19sChIJL_lUABG_3zgRQ8qN2dSO8dc?authuser=0&hl=en&rclk=1,"Centres, Islamabad"
151,romathebestmassagece_33.701037_72.968437,Roma - The Best Massage Center,"Roma - The Best Massage Center
4.7(40)
Massage spa · Markaz
Open 24 hours · +92 304 8222506",Massage spa,Open 24 hours,33.701037,72.968437,https://www.google.com/maps/place/Roma+-+The+Best+Massage+Center/data=!4m7!3m6!1s0x38dfbd532b208dbb:0xcd20004f11330dc7!8m2!3d33.701037!4d72.968437!16s%2Fg%2F11v9yr_8c2!19sChIJu40gK1O93zgRxw0zEU8AIM0?authuser=0&hl=en&rclk=1,"Centres, Islamabad"
152,jafferjeesbeverlycen_33.720024_73.073914,Jafferjees - Beverly Centre Islamabad,"Jafferjees - Beverly Centre Islamabad
4.5(360)
Leather goods store · Shop # 10, Ground Floor, G 56
Open ⋅ Closes 11 PM · +92 51 2814032",Leather goods store,Open,33.7200241,73.0739135,https://www.google.com/maps/place/Jafferjees+-+Beverly+Centre+Islamabad/data=!4m7!3m6!1s0x38dfbf9c9d24dca9:0x58c9cee642cab021!8m2!3d33.7200241!4d73.0739135!16s%2Fg%2F11g6bmbtzt!19sChIJqdwknZy_3zgRIbDKQubOyVg?authuser=0&hl=en&rclk=1,"Centres, Islamabad"
153,spatheislamabade11an_33.703686_72.977502,Spa the Islamabad E 11 And Massage Center,"Spa the Islamabad E 11 And Massage Center
4.6(5)
Spa and health club
Open 24 hours · +92 315 9770388",Spa and health club,Open 24 hours,33.703686,72.9775025,https://www.google.com/maps/place/Spa+the+Islamabad+E+11+And+Massage+Center/data=!4m7!3m6!1s0x38dfbdc4736d2615:0x457539d43c1341c7!8m2!3d33.703686!4d72.9775025!16s%2Fg%2F11p65v4pw2!19sChIJFSZtc8S93zgRx0ETPNQ5dUU?authuser=0&hl=en&rclk=1,"Centres, Islamabad"
154,ptdctouristfacilitat_33.728411_73.075149,PTDC Tourist Facilitation Centre F6 Islamabad,"PTDC Tourist Facilitation Centre F6 Islamabad
4.2(61)
Tourist information center · P3HG+936
Open ⋅ Closes 4:30 PM · +92 51 9204027",Tourist information center,Open,33.7284114,73.0751491,https://www.google.com/maps/place/PTDC+Tourist+Facilitation+Centre+F6+Islamabad/data=!4m7!3m6!1s0x38dfbf7776c4d6b9:0x637b2df7b6b6b472!8m2!3d33.7284114!4d73.0751491!16s%2Fg%2F11csqswftx!19sChIJudbEdne_3zgRcrS2tvcte2M?authuser=0&hl=en&rclk=1,"Centres, Islamabad"
155,ghahearingaidscenter_33.709100_73.056207,GHA Hearing Aids Center Islamabad آلہ سماعت کا مرکز,"GHA Hearing Aids Center Islamabad آلہ سماعت کا مرکز
4.3(12)
Hearing aid store · Shop No 01 Ground floor, Gondal Plaza, 103 AKM Fazl-ul-Haq Rd
Open ⋅ Closes 9 PM · +92 333 0666887",Hearing aid store,Open,33.7091001,73.0562066,https://www.google.com/maps/place/GHA+Hearing+Aids+Center+Islamabad+%D8%A2%D9%84%DB%81+%D8%B3%D9%85%D8%A7%D8%B9%D8%AA+%DA%A9%D8%A7+%D9%85%D8%B1%DA%A9%D8%B2%E2%80%AD/data=!4m7!3m6!1s0x38dfbf14e3248acb:0x6a74d64f47448920!8m2!3d33.7091001!4d73.0562066!16s%2Fg%2F11j4s34fg_!19sChIJy4ok4xS_3zgRIIlER0_WdGo?authuser=0&hl=en&rclk=1,"Centres, Islamabad"
