Index,Place Id,Name,Address,Category,Status,Latitude,Longitude,Link,SearchKeyword
1,na_noloc,,,,,,,,"Dawakhan, Islamabad"
5,madinapansaranddawak_33.707951_73.089382,Madina Pansar And Dawakhana,,Herbal medicine store,Open,33.7079509,73.0893824,https://www.google.com/maps/place/Madina+Pansar+And+Dawakhana/data=!4m7!3m6!1s0x38dfc0750cbf05ff:0x283d903a12df4089!8m2!3d33.7079509!4d73.0893824!16s%2Fg%2F12mkw902y!19sChIJ_wW_DHXA3zgRiUDfEjqQPSg?authuser=0&hl=en&rclk=1,"Dawakhan, Islamabad"
37,hakeemgorbachansingh_33.692428_73.034464,Hakeem Gorbachan Singh Khalsa Dawakhana,"Hakeem Gorbachan Singh Khalsa Dawakhana
4.1(25)
Medical clinic · Plot 653 Street 6
Closed ⋅ Opens 12 PM Sat · +92 300 5932311",Medical clinic,Closed,33.6924282,73.0344637,https://www.google.com/maps/place/Hakeem+Gorbachan+Singh+Khalsa+Dawakhana/data=!4m7!3m6!1s0x38dfbf5803c1f461:0x668c51e267f1df5c!8m2!3d33.6924282!4d73.0344637!16s%2Fg%2F11hyfwdpgx!19sChIJYfTBA1i_3zgRXN_xZ-JRjGY?authuser=0&hl=en&rclk=1,"Dawakhan, Islamabad"
38,islamicherbaldawakha_33.648970_72.910058,Islamic Herbal Dawakhana & Herbal Store,"Islamic Herbal Dawakhana & Herbal Store
4.7(15)
Herbal medicine store · JWX6+H2M, Malik Israr Market, Fatehjang Rd
Open ⋅ Closes 9 PM · +92 312 5055224",Herbal medicine store,Open,33.6489697,72.9100582,https://www.google.com/maps/place/Islamic+Herbal+Dawakhana+%26+Herbal+Store/data=!4m7!3m6!1s0x38df97fac7f89eb9:0x9f065bac73bfae9d!8m2!3d33.6489697!4d72.9100582!16s%2Fg%2F12mkzkb93!19sChIJuZ74x_qX3zgRna6_c6xbBp8?authuser=0&hl=en&rclk=1,"Dawakhan, Islamabad"
39,madinatibenabvipansa_33.668341_72.998357,Madina Tib-e-Nabvi Pansar Ghar and Dawakhana,"Madina Tib-e-Nabvi Pansar Ghar and Dawakhana
5.0(19)
Herb shop · Shop No. 11 Ground Floor Al-Ghaffar Mall
Open ⋅ Closes 12 AM · +92 300 7200578",Herb shop,Open,33.6683413,72.9983572,https://www.google.com/maps/place/Madina+Tib-e-Nabvi+Pansar+Ghar+and+Dawakhana/data=!4m7!3m6!1s0x38df956ce30bd8c7:0x99990fe4dc260bab!8m2!3d33.6683413!4d72.9983572!16s%2Fg%2F11nmqmtdbx!19sChIJx9gL42yV3zgRqwsm3OQPmZk?authuser=0&hl=en&rclk=1,"Dawakhan, Islamabad"
40,wasifdawakhanahomeop_33.646034_73.035716,"Wasif Dawakhana,Homeo & Pansar Store","Wasif Dawakhana,Homeo & Pansar Store
4.5(10)
Herbal medicine store · Al-Imran Plaza, Korang Road
Open ⋅ Closes 10:30 PM · +92 300 5353617",Herbal medicine store,Open,33.6460336,73.0357158,"https://www.google.com/maps/place/Wasif+Dawakhana,Homeo+%26+Pansar+Store/data=!4m7!3m6!1s0x38df95a665ddbe41:0x77600a16d196cd8d!8m2!3d33.6460336!4d73.0357158!16s%2Fg%2F12mkw9p_r!19sChIJQb7dZaaV3zgRjc2W0RYKYHc?authuser=0&hl=en&rclk=1","Dawakhan, Islamabad"
41,kashmirpansarstoreda_33.667241_72.997680,Kashmir Pansar Store & Dawakhana(Herbs & Herbal Medicines)(G-11 Branch),"Kashmir Pansar Store & Dawakhana(Herbs & Herbal Medicines)(G-11 Branch)
5.0(5)
Herbal medicine store · Shop#7.Ground Floor,Capital Plaza, opp. Bank Of Punjab
Open ⋅ Closes 10 PM · +92 334 1516011",Herbal medicine store,Open,33.6672406,72.9976801,https://www.google.com/maps/place/Kashmir+Pansar+Store+%26+Dawakhana%28Herbs+%26+Herbal+Medicines%29%28G-11+Branch%29/data=!4m7!3m6!1s0x38dfbf89386c40ed:0x1161d2010c530d75!8m2!3d33.6672406!4d72.9976801!16s%2Fg%2F11rd4hdfjp!19sChIJ7UBsOIm_3zgRdQ1TDAHSYRE?authuser=0&hl=en&rclk=1,"Dawakhan, Islamabad"
42,tibbiunanidawakhana_33.625646_72.970353,Tibbi Unani Dawakhana,"Tibbi Unani Dawakhana
5.0(1)
Pharmacy · Gulshan Plaza, Golra Rd, Golra Mor, H-14
Open ⋅ Closes 8 PM · +92 345 5035930",Pharmacy,Open,33.6256458,72.9703533,https://www.google.com/maps/place/Tibbi+Unani+Dawakhana/data=!4m7!3m6!1s0x38df9660702c890f:0x4bbfa04edb9479a9!8m2!3d33.6256458!4d72.9703533!16s%2Fg%2F12mkz7q_8!19sChIJD4kscGCW3zgRqXmU206gv0s?authuser=0&hl=en&rclk=1,"Dawakhan, Islamabad"
43,islamabaddawakhana_33.638365_73.153157,Islamabad Dawakhana,"Islamabad Dawakhana
5.0(1)
Health consultant · J5Q3+87V, Malik Town Terlai
Open ⋅ Closes 8 PM · +92 343 6565551",Health consultant,Open,33.6383651,73.1531571,https://www.google.com/maps/place/Islamabad+Dawakhana/data=!4m7!3m6!1s0x38dfeb1ef418d361:0x2253bb0c83fa8c18!8m2!3d33.6383651!4d73.1531571!16s%2Fg%2F11h8ryj9y8!19sChIJYdMY9B7r3zgRGIz6gwy7UyI?authuser=0&hl=en&rclk=1,"Dawakhan, Islamabad"
44,hijamacenterubqarish_33.645345_73.176074,hijama center & ubqari shop (agency of Islamabad ) Anas dwakhana and hijama centre,"hijama center & ubqari shop (agency of Islamabad ) Anas dwakhana and hijama centre
4.1(417)
Herbal medicine store ·  · H K، Elahi plaza، Shop 1-2 first floor main، Main Lehtrar Rd
Open ⋅ Closes 8:30 AM Fri · +92 336 0195366",Herbal medicine store,Open,33.6453451,73.1760741,https://www.google.com/maps/place/hijama+center+%26+ubqari+shop+%28agency+of+Islamabad+%29+Anas+dwakhana+and+hijama+centre/data=!4m7!3m6!1s0x38df953bbcdff65f:0x2115ba5776b518bf!8m2!3d33.6453451!4d73.1760741!16s%2Fg%2F11c5j7j4mn!19sChIJX_bfvDuV3zgRvxi1dle6FSE?authuser=0&hl=en&rclk=1,"Dawakhan, Islamabad"
45,kashmirpansarstoreda_33.689860_73.031854,Kashmir Pansar Store & Dawakhana(Herbs & Herbal Medicines)(G-9 Markaz),"Kashmir Pansar Store & Dawakhana(Herbs & Herbal Medicines)(G-9 Markaz)
5.0(31)
Herbal medicine store ·  · karachi company، Shop # 5-6, Kalar Syedan plaza, Rohtas Rd
Open ⋅ Closes 9 PM · +92 51 2250217",Herbal medicine store,Open,33.6898604,73.031854,https://www.google.com/maps/place/Kashmir+Pansar+Store+%26+Dawakhana%28Herbs+%26+Herbal+Medicines%29%28G-9+Markaz%29/data=!4m7!3m6!1s0x38dfbe30557ac387:0x6621e841666636ab!8m2!3d33.6898604!4d73.031854!16s%2Fg%2F1tdlsnj5!19sChIJh8N6VTC-3zgRqzZmZkHoIWY?authuser=0&hl=en&rclk=1,"Dawakhan, Islamabad"
46,mohammadidawakhanapa_33.689246_73.033163,Mohammadi Dawakhana & Pansar Store,"Mohammadi Dawakhana & Pansar Store
4.8(4)
Herbal medicine store · Shop #06/07 block F20, Karchi Company, Islam Plaza
+92 51 2250720",Herbal medicine store,,33.6892458,73.0331628,https://www.google.com/maps/place/Mohammadi+Dawakhana+%26+Pansar+Store/data=!4m7!3m6!1s0x38dfbe3198c01faf:0xf727d44af221d0db!8m2!3d33.6892458!4d73.0331628!16s%2Fg%2F12mkzhyhs!19sChIJrx_AmDG-3zgR29Ah8krUJ_c?authuser=0&hl=en&rclk=1,"Dawakhan, Islamabad"
47,almashoorhamdardunan_33.738335_73.188185,Al-Mashoor Hamdard Unani Dawakhana & Pinsar Store,"Al-Mashoor Hamdard Unani Dawakhana & Pinsar Store
4.7(19)
Grocery store ·  · P5QQ+87M, Simly Rd, Barakahu, Islamabad, ICT
+92 333 5225069",Grocery store,,33.7383349,73.1881845,https://www.google.com/maps/place/Al-Mashoor+Hamdard+Unani+Dawakhana+%26+Pinsar+Store/data=!4m7!3m6!1s0x38dfc22c7f9d2557:0xdf28bbf74c130028!8m2!3d33.7383349!4d73.1881845!16s%2Fg%2F11xlqtnx_!19sChIJVyWdfyzC3zgRKAATTPe7KN8?authuser=0&hl=en&rclk=1,"Dawakhan, Islamabad"
48,alasardawakhanaandpa_33.659911_72.908568,Al Asar Dawakhana And pansar Store,"Al Asar Dawakhana And pansar Store
5.0(1)
Pharmacy ·  · Johar Rd
Open 24 hours · +92 312 5999403",Pharmacy,Open 24 hours,33.6599108,72.9085682,https://www.google.com/maps/place/Al+Asar+Dawakhana+And+pansar+Store/data=!4m7!3m6!1s0x38dfbd1479e9d2f5:0x784457ac5658b5aa!8m2!3d33.6599108!4d72.9085682!16s%2Fg%2F11jll1vkv0!19sChIJ9dLpeRS93zgRqrVYVqxXRHg?authuser=0&hl=en&rclk=1,"Dawakhan, Islamabad"
49,haiderdawakhana_33.696481_72.937000,Haider Dawakhana ( حیدر دواخانہ),"Haider Dawakhana ( حیدر دواخانہ)
3.7(3)
Herbal medicine store · Fazal, Main Shah Allah Ditta Road, chok
Open ⋅ Closes 9:30 PM · +92 301 8608047",Herbal medicine store,Open,33.6964813,72.9370004,https://www.google.com/maps/place/Haider+Dawakhana+%28+%D8%AD%DB%8C%D8%AF%D8%B1+%D8%AF%D9%88%D8%A7%D8%AE%D8%A7%D9%86%DB%81%29%E2%80%AD/data=!4m7!3m6!1s0x38dfbd94834e54dd:0xfbd58b44e2188bcd!8m2!3d33.6964813!4d72.9370004!16s%2Fg%2F11trdgbvf8!19sChIJ3VROg5S93zgRzYsY4kSL1fs?authuser=0&hl=en&rclk=1,"Dawakhan, Islamabad"
50,abdulrafaydawakhanaa_33.645046_73.177334,عبدالرافع دواخانہ پنسار سٹور/Abdulrafay dawakhana and pansar store lehtrar road alipur islamabad,"عبدالرافع دواخانہ پنسار سٹور/Abdulrafay dawakhana and pansar store lehtrar road alipur islamabad
5.0(10)
Pharmacy · J5WG+2W8, Lehtrar Rd
Open ⋅ Closes 8 PM · +92 300 5441535",Pharmacy,Open,33.645046,73.1773336,https://www.google.com/maps/place/%D8%B9%D8%A8%D8%AF%D8%A7%D9%84%D8%B1%D8%A7%D9%81%D8%B9+%D8%AF%D9%88%D8%A7%D8%AE%D8%A7%D9%86%DB%81+%D9%BE%D9%86%D8%B3%D8%A7%D8%B1+%D8%B3%D9%B9%D9%88%D8%B1%2FAbdulrafay+dawakhana+and+pansar+store+lehtrar+road+alipur+islamabad%E2%80%AD/data=!4m7!3m6!1s0x38dfebbae38c0791:0x4e7f36eb1904dddf!8m2!3d33.645046!4d73.1773336!16s%2Fg%2F11jwk3b9td!19sChIJkQeM47rr3zgR390EGes2f04?authuser=0&hl=en&rclk=1,"Dawakhan, Islamabad"
51,qureshidawakhanapans_33.561515_73.018148,Qureshi Dawakhana & Pansar Store,"Qureshi Dawakhana & Pansar Store
4.7(38)
Herbal medicine store
Open ⋅ Closes 11 PM · +92 301 3003005",Herbal medicine store,Open,33.5615146,73.0181478,https://www.google.com/maps/place/Qureshi+Dawakhana+%26+Pansar+Store/data=!4m7!3m6!1s0x38df9560e44eab23:0x8996b0ae73e7a604!8m2!3d33.5615146!4d73.0181478!16s%2Fg%2F11j0j7358c!19sChIJI6tO5GCV3zgRBKbnc66wlok?authuser=0&hl=en&rclk=1,"Dawakhan, Islamabad"
52,zamzamtibbidawakhana_33.690207_73.031325,ZAM ZAM TIBBI DAWAKHANA & PANSAR STORE,"ZAM ZAM TIBBI DAWAKHANA & PANSAR STORE
5.0(2)
Herbalist · near Awami Trade Center
Closed ⋅ Opens 5 PM · +92 333 5220815",Herbalist,Closed,33.6902066,73.0313254,https://www.google.com/maps/place/ZAM+ZAM+TIBBI+DAWAKHANA+%26+PANSAR+STORE/data=!4m7!3m6!1s0x38dfbd161a5af639:0xd088234dd5414c2f!8m2!3d33.6902066!4d73.0313254!16s%2Fg%2F11sd_9vh4n!19sChIJOfZaGha93zgRL0xB1U0jiNA?authuser=0&hl=en&rclk=1,"Dawakhan, Islamabad"
53,muhammadidawakhanapa_33.625970_73.124074,Muhammadi Dawakhana & Pansar Store,"Muhammadi Dawakhana & Pansar Store
No reviews
Herbal medicine store · gate#2, shop#2, Ghori Rd
Open ⋅ Closes 9 PM · +92 321 5072803",Herbal medicine store,Open,33.6259704,73.1240743,https://www.google.com/maps/place/Muhammadi+Dawakhana+%26+Pansar+Store/data=!4m7!3m6!1s0x38dfeb81d97c3185:0x6dc76d51457d066d!8m2!3d33.6259704!4d73.1240743!16s%2Fg%2F11h6vg8dmd!19sChIJhTF82YHr3zgRbQZ9RVFtx20?authuser=0&hl=en&rclk=1,"Dawakhan, Islamabad"
54,madnidawakhana_33.738350_73.186834,Madni dawakhana,"Madni dawakhana
5.0(3)
Pharmacy · P5QP+8PP
Open ⋅ Closes 9 PM · +92 300 5101894",Pharmacy,Open,33.7383496,73.1868344,https://www.google.com/maps/place/Madni+dawakhana/data=!4m7!3m6!1s0x38dfc37e834743af:0x8bf6a39fd0d0aeea!8m2!3d33.7383496!4d73.1868344!16s%2Fg%2F11h8t_3rl7!19sChIJr0NHg37D3zgR6q7Q0J-j9os?authuser=0&hl=en&rclk=1,"Dawakhan, Islamabad"
55,dawakhanahakeemsarda_33.690225_73.032675,Dawakhana Hakeem Sardar Ji,"Dawakhana Hakeem Sardar Ji
4.0(2)
Medical clinic · Zakaria Plaza, Mangla Rd, G-9 Markaz, G-9
+92 300 8885322",Medical clinic,,33.6902254,73.0326746,https://www.google.com/maps/place/Dawakhana+Hakeem+Sardar+Ji/data=!4m7!3m6!1s0x38dfbe3111cf42af:0x715512f74577e4df!8m2!3d33.6902254!4d73.0326746!16s%2Fg%2F12mkzl6k9!19sChIJr0LPETG-3zgR3-R3RfcSVXE?authuser=0&hl=en&rclk=1,"Dawakhan, Islamabad"
56,alkhairdawakhanaandp_33.675963_73.013756,Al Khair Dawakhana And Pansar Store,"Al Khair Dawakhana And Pansar Store
1.0(1)
Alternative medicine practitioner · M2G7+9GJ
Open ⋅ Closes 10:30 PM · +92 302 7786735",Alternative medicine practitioner,Open,33.6759628,73.0137561,https://www.google.com/maps/place/Al+Khair+Dawakhana+And+Pansar+Store/data=!4m7!3m6!1s0x38dfbf07751d707d:0x1469ff4be17f1fd9!8m2!3d33.6759628!4d73.0137561!16s%2Fg%2F11jslpzjns!19sChIJfXAddQe_3zgR2R9_4Uv_aRQ?authuser=0&hl=en&rclk=1,"Dawakhan, Islamabad"
57,sadiqdawakhana_33.672725_72.996596,Sadiq DawaKhana,"Sadiq DawaKhana
4.8(8)
Pharmacy · PHA flats block 12 -C Flat no 2 ground flour, Street 97
Closed ⋅ Opens 11 AM Sat · +92 321 7745553",Pharmacy,Closed,33.672725,72.9965956,https://www.google.com/maps/place/Sadiq+DawaKhana/data=!4m7!3m6!1s0x38df95f8c9a335c1:0xf2f00876c8f92188!8m2!3d33.672725!4d72.9965956!16s%2Fg%2F11gfh0gt7x!19sChIJwTWjyfiV3zgRiCH5yHYI8PI?authuser=0&hl=en&rclk=1,"Dawakhan, Islamabad"
58,hamdarddawakhanamari_33.598635_73.061016,Hamdard Dawakhana Marir Hassan Chowk Rawalpindi,"Hamdard Dawakhana Marir Hassan Chowk Rawalpindi
4.5(180)
Herbal medicine store · H3X6+FC2 MARRIR CHOWK, Murree Rd
Open ⋅ Closes 7 PM · +92 51 5130273",Herbal medicine store,Open,33.5986354,73.0610161,https://www.google.com/maps/place/Hamdard+Dawakhana+Marir+Hassan+Chowk+Rawalpindi/data=!4m7!3m6!1s0x38df9498daa0f313:0x7c752139ed78ccf9!8m2!3d33.5986354!4d73.0610161!16s%2Fg%2F1tfk2tb0!19sChIJE_Og2piU3zgR-cx47TkhdXw?authuser=0&hl=en&rclk=1,"Dawakhan, Islamabad"
59,behrajadeddawakhana_33.640740_72.901867,Behra Jaded Dawakhana,"Behra Jaded Dawakhana
4.0(4)
Pharmacy · JWR2+7PX, Fateh Jang Rd, Tarnol, Islamabad, ICT
Open ⋅ Closes 6 PM",Pharmacy,Open,33.6407404,72.9018668,https://www.google.com/maps/place/Behra+Jaded+Dawakhana/data=!4m7!3m6!1s0x38df97f42cfb3645:0x885f75880968825c!8m2!3d33.6407404!4d72.9018668!16s%2Fg%2F11yznm053!19sChIJRTb7LPSX3zgRXIJoCYh1X4g?authuser=0&hl=en&rclk=1,"Dawakhan, Islamabad"
60,hafizdawakhanapansar_33.675203_73.015042,Hafiz Dawakhana & Pansar store,"Hafiz Dawakhana & Pansar store
5.0(3)
Herbal medicine store · Bella Road
+92 310 5580102",Herbal medicine store,,33.6752027,73.0150423,https://www.google.com/maps/place/Hafiz+Dawakhana+%26+Pansar+store/data=!4m7!3m6!1s0x38dfbf7fe9c928ed:0x99bb56b201477d1f!8m2!3d33.6752027!4d73.0150423!16s%2Fg%2F11fjstt6qj!19sChIJ7SjJ6X-_3zgRH31HAbJWu5k?authuser=0&hl=en&rclk=1,"Dawakhan, Islamabad"
61,alnoordawakhanahakee_33.627221_73.110556,Al-Noor Dawakhana (Hakeem Shaahbaz Ali Rana ),"Al-Noor Dawakhana (Hakeem Shaahbaz Ali Rana )
4.9(37)
Herbalist · J4G6+W7C Bridge, House # 255, St # 8, Dr. Abdul Qadeer Khan Road
Open ⋅ Closes 4 PM ⋅ Reopens 7 PM · +92 51 4471146",Herbalist,Open,33.6272215,73.1105555,https://www.google.com/maps/place/Al-Noor+Dawakhana+%28Hakeem+Shaahbaz+Ali+Rana+%29/data=!4m7!3m6!1s0x38dfeb3de2bebbfd:0xdfb2dd41495bce0d!8m2!3d33.6272215!4d73.1105555!16s%2Fg%2F11hcdwtp5z!19sChIJ_bu-4j3r3zgRDc5bSUHdst8?authuser=0&hl=en&rclk=1,"Dawakhan, Islamabad"
62,ghausiadawakhana_33.635622_73.132896,Ghausia Dawakhana,"Ghausia Dawakhana
5.0(1)
Pharmacy · J4PM+65R Ghausia Dawakhana",Pharmacy,,33.6356218,73.1328961,https://www.google.com/maps/place/Ghausia+Dawakhana/data=!4m7!3m6!1s0x38dfeb007d86e18f:0xfba7123a0fa61a0e!8m2!3d33.6356218!4d73.1328961!16s%2Fg%2F11y86zlhcb!19sChIJj-GGfQDr3zgRDhqmDzoSp_s?authuser=0&hl=en&rclk=1,"Dawakhan, Islamabad"
63,khalsadawakhana_33.668118_72.998562,Khalsa Dawakhana,"Khalsa Dawakhana
5.0(2)
Pharmacy · MX9X+6CR
Open now",Pharmacy,Open now,33.6681184,72.9985618,https://www.google.com/maps/place/Khalsa+Dawakhana/data=!4m7!3m6!1s0x38df95942eb671a3:0x4214afd05bb9347b!8m2!3d33.6681184!4d72.9985618!16s%2Fg%2F11vc51mzh_!19sChIJo3G2LpSV3zgRezS5W9CvFEI?authuser=0&hl=en&rclk=1,"Dawakhan, Islamabad"
64,khalsaunanidawakhana_33.539683_73.111268,Khalsa unani Dawakhana (Pansar store),"Khalsa unani Dawakhana (Pansar store)
5.0(1)
Herbal medicine store · G4Q6+VGC, Link Rd
Open ⋅ Closes 7 PM · +92 333 9451170",Herbal medicine store,Open,33.5396828,73.1112684,https://www.google.com/maps/place/Khalsa+unani+Dawakhana+%28Pansar+store%29/data=!4m7!3m6!1s0x38dfed005cd7f661:0xa10ae98489761f97!8m2!3d33.5396828!4d73.1112684!16s%2Fg%2F11wbtj2hcy!19sChIJYfbXXADt3zgRlx92iYTpCqE?authuser=0&hl=en&rclk=1,"Dawakhan, Islamabad"
65,ameeremillatdawakhan_33.640938_73.165196,Ameer E Millat Dawakhana,"Ameer E Millat Dawakhana
5.0(1)
Pharmacy · J5R8+93G
Open now · +92 308 3993664",Pharmacy,Open now,33.6409385,73.1651962,https://www.google.com/maps/place/Ameer+E+Millat+Dawakhana/data=!4m7!3m6!1s0x38dfebcf5aaaaaab:0x6bcda9555c26d187!8m2!3d33.6409385!4d73.1651962!16s%2Fg%2F11hbnwjj6x!19sChIJq6qqWs_r3zgRh9EmXFWpzWs?authuser=0&hl=en&rclk=1,"Dawakhan, Islamabad"
66,waqaralidawakhana_33.645763_73.180665,Waqar Ali Dawakhana,"Waqar Ali Dawakhana
5.0(1)
Medical clinic · Jagiot Rd",Medical clinic,,33.645763,73.1806648,https://www.google.com/maps/place/Waqar+Ali+Dawakhana/data=!4m7!3m6!1s0x38dfeb2bcd61cd0d:0x8da44e9dc0ed5e44!8m2!3d33.645763!4d73.1806648!16s%2Fg%2F11jv6z1kl7!19sChIJDc1hzSvr3zgRRF7twJ1OpI0?authuser=0&hl=en&rclk=1,"Dawakhan, Islamabad"
67,tariqdawakhana_33.674457_72.850891,Tariq Dawakhana,"Tariq Dawakhana
4.7(6)
Hospital · MVF2+Q9J sang jani
Open now · +92 333 5105469",Hospital,Open now,33.6744568,72.8508909,https://www.google.com/maps/place/Tariq+Dawakhana/data=!4m7!3m6!1s0x38dfa34e57150efd:0x19195eee070b9f01!8m2!3d33.6744568!4d72.8508909!16s%2Fg%2F11h6cs38qg!19sChIJ_Q4VV06j3zgRAZ8LB-5eGRk?authuser=0&hl=en&rclk=1,"Dawakhan, Islamabad"
68,pasbandawakhanajhang_33.622616_72.945779,Pasban dawakhana jhangi syedan,"Pasban dawakhana jhangi syedan
2.0(1)
Herbal medicine store · JWFW+27H, Jhangi Syedan Rd
Open ⋅ Closes 9 PM · +92 310 9044366",Herbal medicine store,Open,33.6226161,72.9457792,https://www.google.com/maps/place/Pasban+dawakhana+jhangi+syedan/data=!4m7!3m6!1s0x38df970024fd0419:0x1ff380d031b7ec6d!8m2!3d33.6226161!4d72.9457792!16s%2Fg%2F11wp07shjb!19sChIJGQT9JACX3zgRbey3MdCA8x8?authuser=0&hl=en&rclk=1,"Dawakhan, Islamabad"
69,dawakhanahakeemazmat_33.687662_73.032272,Dawakhana Hakeem Azmat,"Dawakhana Hakeem Azmat
No reviews
Herbalist · Bewal Plaza, near mezan bank
Open ⋅ Closes 10 PM · +92 300 9508473",Herbalist,Open,33.6876622,73.0322723,https://www.google.com/maps/place/Dawakhana+Hakeem+Azmat/data=!4m7!3m6!1s0x38dfbe30e1724105:0x39b09b9c314663af!8m2!3d33.6876622!4d73.0322723!16s%2Fg%2F12mkz9hv6!19sChIJBUFy4TC-3zgRr2NGMZybsDk?authuser=0&hl=en&rclk=1,"Dawakhan, Islamabad"
70,alhikmatdawakhana_33.667811_72.997349,Al-Hikmat Dawakhana,"Al-Hikmat Dawakhana
4.0(1)
Alternative medicine practitioner · MX9W+4WH
+92 306 5523070",Alternative medicine practitioner,,33.6678111,72.9973494,https://www.google.com/maps/place/Al-Hikmat+Dawakhana/data=!4m7!3m6!1s0x38df9590ad60ab4d:0xcee81fc54b5a67a0!8m2!3d33.6678111!4d72.9973494!16s%2Fg%2F11f6604k8j!19sChIJTatgrZCV3zgRoGdaS8Uf6M4?authuser=0&hl=en&rclk=1,"Dawakhan, Islamabad"
71,faizeaamdawakhana_33.649166_72.909182,Faiz-e-Aam Dawakhana,"Faiz-e-Aam Dawakhana
4.0(1)
Pharmacy · JWX5+MM7, Hashim Khan Market Fatehjang Rd
Open now · +92 317 5709070",Pharmacy,Open now,33.6491657,72.9091822,https://www.google.com/maps/place/Faiz-e-Aam+Dawakhana/data=!4m7!3m6!1s0x38df97fabf4678a5:0x5e23ccf13c3e6f42!8m2!3d33.6491657!4d72.9091822!16s%2Fg%2F11z6c0s0f!19sChIJpXhGv_qX3zgRQm8-PPHMI14?authuser=0&hl=en&rclk=1,"Dawakhan, Islamabad"
72,hamdardpansarstore_33.632265_72.923383,Hamdard Pansar Store,"Hamdard Pansar Store
4.5(6)
Store
Open ⋅ Closes 10 PM · +92 333 3254243",Store,Open,33.6322647,72.9233828,https://www.google.com/maps/place/Hamdard+Pansar+Store/data=!4m7!3m6!1s0x38df97bcc2897ad3:0x98fb0afe9145e6b2!8m2!3d33.6322647!4d72.9233828!16s%2Fg%2F11qnkjbvqj!19sChIJ03qJwryX3zgRsuZFkf4K-5g?authuser=0&hl=en&rclk=1,"Dawakhan, Islamabad"
73,muhammadidawakhana_33.712163_73.062341,Muhammadi Dawakhana,"Muhammadi Dawakhana
5.0(1)
Dry fruit store · Shop#04, Adeel Plaza, near Utility Store
Open ⋅ Closes 11 PM · +92 304 6665969",Dry fruit store,Open,33.7121634,73.0623411,https://www.google.com/maps/place/Muhammadi+Dawakhana/data=!4m7!3m6!1s0x38dfbf756e8f4b63:0xf4d8f2ea2cc99a20!8m2!3d33.7121634!4d73.0623411!16s%2Fg%2F11s0d8j6cr!19sChIJY0uPbnW_3zgRIJrJLOry2PQ?authuser=0&hl=en&rclk=1,"Dawakhan, Islamabad"
74,rabbanidawakhanapans_33.673894_72.948539,Rabbani Dawakhana & Pansar Store,"Rabbani Dawakhana & Pansar Store
5.0(1)
Pharmacy · Golra Rd, Station Mor, E-12",Pharmacy,,33.6738936,72.9485386,https://www.google.com/maps/place/Rabbani+Dawakhana+%26+Pansar+Store/data=!4m7!3m6!1s0x38dfbd82dc728f75:0xa13c3d5f89797686!8m2!3d33.6738936!4d72.9485386!16s%2Fg%2F12mkz_1ns!19sChIJdY9y3IK93zgRhnZ5iV89PKE?authuser=0&hl=en&rclk=1,"Dawakhan, Islamabad"
75,himaliadawakhana_33.707676_73.088224,Himalia Dawakhana,"Himalia Dawakhana
4.5(2)
Pharmacy · Bara Shopping Centre, Aabpara Market, St 44, G-6-1, G-6
Open now · +92 51 2831269",Pharmacy,Open now,33.7076764,73.088224,https://www.google.com/maps/place/Himalia+Dawakhana/data=!4m7!3m6!1s0x38dfc0757b08e617:0xb824b279e24ca3bd!8m2!3d33.7076764!4d73.088224!16s%2Fg%2F12mkzhydy!19sChIJF-YIe3XA3zgRvaNM4nmyJLg?authuser=0&hl=en&rclk=1,"Dawakhan, Islamabad"
76,khalsaanmolunanidawa_33.739144_73.182649,Khalsa Anmol Unani Dawakhana,"Khalsa Anmol Unani Dawakhana
5.0(1)
Herbalist · Raja Shahid Arcade, Simly Dam Road
Closed ⋅ Opens 10 AM Mon · +92 312 8182073",Herbalist,Closed,33.7391439,73.1826487,https://www.google.com/maps/place/Khalsa+Anmol+Unani+Dawakhana/data=!4m7!3m6!1s0x38dfc3004f535d25:0x18fc8b309e9139d8!8m2!3d33.7391439!4d73.1826487!16s%2Fg%2F11wv6w0ssw!19sChIJJV1TTwDD3zgR2DmRnjCL_Bg?authuser=0&hl=en&rclk=1,"Dawakhan, Islamabad"
77,sargodhawalarehmania_33.662723_73.082810,Sargodha wala rehmania dawakhana,"Sargodha wala rehmania dawakhana
5.0(6)
Hospital · M37M+34M Sargodha Wala Rehmania Dawakhana
Closed ⋅ Opens 4 PM · +92 51 4449283",Hospital,Closed,33.662723,73.0828099,https://www.google.com/maps/place/Sargodha+wala+rehmania+dawakhana/data=!4m7!3m6!1s0x38df955e04d718ef:0x559fda84eef6cd82!8m2!3d33.662723!4d73.0828099!16s%2Fg%2F11hdnvlxmg!19sChIJ7xjXBF6V3zgRgs327oTan1U?authuser=0&hl=en&rclk=1,"Dawakhan, Islamabad"
78,khalsaunanidawakhana_33.639077_73.111306,Khalsa unani dawakhana near umair bakery street no 3 islamabad,"Khalsa unani dawakhana near umair bakery street no 3 islamabad
No reviews
Hospital · J4Q6+JGM
Closed ⋅ Opens 12 AM Fri",Hospital,Closed,33.6390768,73.1113059,https://www.google.com/maps/place/Khalsa+unani+dawakhana+near+umair+bakery+street+no+3+islamabad/data=!4m7!3m6!1s0x38dfeb4df3f6d939:0xd2a701437e586b32!8m2!3d33.6390768!4d73.1113059!16s%2Fg%2F11j1n13pk5!19sChIJOdn2803r3zgRMmtYfkMBp9I?authuser=0&hl=en&rclk=1,"Dawakhan, Islamabad"
79,madinapansarstoredaw_33.568717_73.139041,Madina Pansar Store & Dawakhana,"Madina Pansar Store & Dawakhana
4.4(11)
Pharmacy · Double Road
Closes soon ⋅ 3 PM ⋅ Reopens 4 PM · +92 333 5492331",Pharmacy,Closes soon,33.5687172,73.139041,https://www.google.com/maps/place/Madina+Pansar+Store+%26+Dawakhana/data=!4m7!3m6!1s0x38dfec571e0b6137:0x8cde74640190d8ed!8m2!3d33.5687172!4d73.139041!16s%2Fg%2F11cmrwfj20!19sChIJN2ELHlfs3zgR7diQAWR03ow?authuser=0&hl=en&rclk=1,"Dawakhan, Islamabad"
80,khalsaunanidawakhana_33.636587_72.895084,Khalsa Unani Dawakhana,"Khalsa Unani Dawakhana
No reviews
Pharmacy · JVPW+J2P, Fatehjang Rd - GT Rd Link
Open now",Pharmacy,Open now,33.636587,72.8950844,https://www.google.com/maps/place/Khalsa+Unani+Dawakhana/data=!4m7!3m6!1s0x38df981f105a7bfb:0xabdcb871421cc2e1!8m2!3d33.636587!4d72.8950844!16s%2Fg%2F11xblb_wq!19sChIJ-3taEB-Y3zgR4cIcQnG43Ks?authuser=0&hl=en&rclk=1,"Dawakhan, Islamabad"
81,hafizdawakhanapansar_33.592805_73.008135,Hafiz Dawakhana Pansar Store and Hijama Center,"Hafiz Dawakhana Pansar Store and Hijama Center
5.0(159)
Herbal medicine store ·  · Misrial Rd
Open ⋅ Closes 9 PM · +92 333 9716016",Herbal medicine store,Open,33.5928053,73.008135,https://www.google.com/maps/place/Hafiz+Dawakhana+Pansar+Store+and+Hijama+Center/data=!4m7!3m6!1s0x38df958d1ae1d193:0x66494521b40e0a13!8m2!3d33.5928053!4d73.008135!16s%2Fg%2F11tfddxdd7!19sChIJk9HhGo2V3zgREwoOtCFFSWY?authuser=0&hl=en&rclk=1,"Dawakhan, Islamabad"
82,ubqarishoppwdislamab_33.566554_73.138049,UBQARI SHOP PWD ISLAMABAD (Home Delivery also Available ),"UBQARI SHOP PWD ISLAMABAD (Home Delivery also Available )
5.0(8)
Herbal medicine store · Shop No 13 Chaina Market Phase 2 Near Al-noor Chemist PWd Shop, Street Number 13, near Al-noor Chemist PW
Open ⋅ Closes 10 PM · +92 335 5605603",Herbal medicine store,Open,33.5665541,73.1380491,https://www.google.com/maps/place/UBQARI+SHOP+PWD+ISLAMABAD+%28Home+Delivery+also+Available+%29/data=!4m7!3m6!1s0x38dfbfd1477c7e19:0xb5291b916115e790!8m2!3d33.5665541!4d73.1380491!16s%2Fg%2F11f4qdfhvg!19sChIJGX58R9G_3zgRkOcVYZEbKbU?authuser=0&hl=en&rclk=1,"Dawakhan, Islamabad"
83,hakeembakhtiarkhanja_33.613943_73.059438,Hakeembakhtiarkhanjadoon,"Hakeembakhtiarkhanjadoon
4.1(28)
Alternative medicine practitioner · J375+HQG, Hakeem Ajmal Khan Rd, Hakim Muhammad Amjal Khan Rd
Open ⋅ Closes 7 PM · +92 345 9492028",Alternative medicine practitioner,Open,33.6139425,73.0594381,https://www.google.com/maps/place/Hakeembakhtiarkhanjadoon/data=!4m7!3m6!1s0x38df9494b401f1fb:0x3125d6dab82e2518!8m2!3d33.6139425!4d73.0594381!16s%2Fg%2F12mkzzpr1!19sChIJ-_EBtJSU3zgRGCUuuNrWJTE?authuser=0&hl=en&rclk=1,"Dawakhan, Islamabad"
84,adildawakhana_33.630325_73.120253,Adil Dawakhana,"Adil Dawakhana
5.0(1)
Pharmacy · J4JC+44C, Lehtrar Rd, Khanna Dak
Open now",Pharmacy,Open now,33.6303247,73.1202527,https://www.google.com/maps/place/Adil+Dawakhana/data=!4m7!3m6!1s0x38dfeb11a74cf271:0x8a32a4afa10e34c8!8m2!3d33.6303247!4d73.1202527!16s%2Fg%2F12mkz7s3s!19sChIJcfJMpxHr3zgRyDQOoa-kMoo?authuser=0&hl=en&rclk=1,"Dawakhan, Islamabad"
85,khalsaunanidawakhana_33.559336_73.085446,Khalsa Unani Dawakhana Rawalpindi,"Khalsa Unani Dawakhana Rawalpindi
4.9(15)
Alternative medicine practitioner · H35P+P5P, New Morgah Rd
Open now · +92 300 5932311",Alternative medicine practitioner,Open now,33.559336,73.0854463,https://www.google.com/maps/place/Khalsa+Unani+Dawakhana+Rawalpindi/data=!4m7!3m6!1s0x38df93f23fb7c42d:0x120a792f3ec3a83c!8m2!3d33.559336!4d73.0854463!16s%2Fg%2F11vf1gxcsx!19sChIJLcS3P_KT3zgRPKjDPi95ChI?authuser=0&hl=en&rclk=1,"Dawakhan, Islamabad"
86,adnandawakhana_33.495437_73.196122,Adnan Dawakhana,"Adnan Dawakhana
5.0(1)
Pharmacy · F5WW+5CH, Service Rd, Main Bazar, Rawat
Open now · +92 300 5483496",Pharmacy,Open now,33.495437,73.1961218,https://www.google.com/maps/place/Adnan+Dawakhana/data=!4m7!3m6!1s0x38dff191b1c38cad:0xd9c085c8a7ee16f9!8m2!3d33.495437!4d73.1961218!16s%2Fg%2F12mkwhmrz!19sChIJrYzDsZHx3zgR-Rbup8iFwNk?authuser=0&hl=en&rclk=1,"Dawakhan, Islamabad"
87,alasardawakhanapansa_33.697287_73.005482,Al Asar Dawakhana pansar store and hijama center,"Al Asar Dawakhana pansar store and hijama center
No reviews
Health and beauty shop · 17, City square Gate, B17 Street 1B
+92 312 5999403",Health and beauty shop,,33.6972866,73.0054823,https://www.google.com/maps/place/Al+Asar+Dawakhana+pansar+store+and+hijama+center/data=!4m7!3m6!1s0x38dfa3006f434deb:0x607d829d62e9c13e!8m2!3d33.6972866!4d73.0054823!16s%2Fg%2F11wtx1glj8!19sChIJ601DbwCj3zgRPsHpYp2CfWA?authuser=0&hl=en&rclk=1,"Dawakhan, Islamabad"
88,gondaldawakhanaandpa_33.551379_73.205624,Gondal Dawakhana and Pansar Store.,"Gondal Dawakhana and Pansar Store.
No reviews
Pharmacy · Kahuta Rd
Open ⋅ Closes 9 PM · +92 343 4902991",Pharmacy,Open,33.5513787,73.2056235,https://www.google.com/maps/place/Gondal+Dawakhana+and+Pansar+Store./data=!4m7!3m6!1s0x38dfefdb6d4c56ad:0x1212621f66fb3e8f!8m2!3d33.5513787!4d73.2056235!16s%2Fg%2F11rck474w5!19sChIJrVZMbdvv3zgRjz77Zh9iEhI?authuser=0&hl=en&rclk=1,"Dawakhan, Islamabad"
89,alshifadawakhanabhad_33.617433_72.906593,Al Shifa Dawakhana bhadana kalan,"Al Shifa Dawakhana bhadana kalan
No reviews
Alternative medicine practitioner · JW94+2M5, Street 10
Closed ⋅ Opens 4 PM · +92 315 2255878",Alternative medicine practitioner,Closed,33.6174333,72.9065925,https://www.google.com/maps/place/Al+Shifa+Dawakhana+bhadana+kalan/data=!4m7!3m6!1s0x38df9700074ad713:0x8876df3fdba30e6!8m2!3d33.6174333!4d72.9065925!16s%2Fg%2F11lyxj1pys!19sChIJE9dKBwCX3zgR5jC6_fNthwg?authuser=0&hl=en&rclk=1,"Dawakhan, Islamabad"
90,asimdawakhanapansars_33.663401_73.076608,Asim Dawakhana & Pansar Store,"Asim Dawakhana & Pansar Store
3.5(2)
Pharmacy · M37G+9J9 Pakeeza Market, Street 102",Pharmacy,,33.6634008,73.0766084,https://www.google.com/maps/place/Asim+Dawakhana+%26+Pansar+Store/data=!4m7!3m6!1s0x38df9548861360db:0x84c4e73f53548fe2!8m2!3d33.6634008!4d73.0766084!16s%2Fg%2F12mkw85q9!19sChIJ22AThkiV3zgR4o9UUz_nxIQ?authuser=0&hl=en&rclk=1,"Dawakhan, Islamabad"
91,rehmatdawakhanapansa_33.689783_73.033132,"Rehmat DawaKhana, Pansar & DryFruits","Rehmat DawaKhana, Pansar & DryFruits
5.0(2)
Dry fruit store · Shop #08 Bewal Market
Open ⋅ Closes 11:30 PM · +92 307 1218143",Dry fruit store,Open,33.6897835,73.033132,"https://www.google.com/maps/place/Rehmat+DawaKhana,+Pansar+%26+DryFruits/data=!4m7!3m6!1s0x38dfbffbaf55d15d:0x75c953ca8727797c!8m2!3d33.6897835!4d73.033132!16s%2Fg%2F11h6yx9vwp!19sChIJXdFVr_u_3zgRfHknh8pTyXU?authuser=0&hl=en&rclk=1","Dawakhan, Islamabad"
92,hafizdawakhana_33.730610_73.078677,Hafiz Dawakhana,"Hafiz Dawakhana
No reviews
Herbal medicine store · Super Market, F-6 Markaz, F-6
+92 300 5060037",Herbal medicine store,,33.7306098,73.0786767,https://www.google.com/maps/place/Hafiz+Dawakhana/data=!4m7!3m6!1s0x38dfbf799cd320a9:0x96ee54b37c857b02!8m2!3d33.7306098!4d73.0786767!16s%2Fg%2F12mkzjl3f!19sChIJqSDTnHm_3zgRAnuFfLNU7pY?authuser=0&hl=en&rclk=1,"Dawakhan, Islamabad"
93,sobaniyadawakhana_33.662689_72.990992,Sobaniya Dawakhana,"Sobaniya Dawakhana
No reviews
Medical Center · MX7R+39Q
Closed ⋅ Opens 10 PM",Medical Center,Closed,33.6626888,72.9909917,https://www.google.com/maps/place/Sobaniya+Dawakhana/data=!4m7!3m6!1s0x38df970024238595:0xf8310d33680c89d9!8m2!3d33.6626888!4d72.9909917!16s%2Fg%2F11whdfdh2b!19sChIJlYUjJACX3zgR2YkMaDMNMfg?authuser=0&hl=en&rclk=1,"Dawakhan, Islamabad"
94,jamildawakhanapansar_33.619582_72.981718,Jamil Dawakhana & Pansar Store,"Jamil Dawakhana & Pansar Store
4.2(13)
Pharmacy · JX9J+RMP, Main Peshawar Rd
Open ⋅ Closes 9 PM · +92 333 5369144",Pharmacy,Open,33.6195822,72.9817185,https://www.google.com/maps/place/Jamil+Dawakhana+%26+Pansar+Store/data=!4m7!3m6!1s0x38df9685ff21fc69:0xe49c2c1e06d29484!8m2!3d33.6195822!4d72.9817185!16s%2Fg%2F12mkz5vm6!19sChIJafwh_4WW3zgRhJTSBh4snOQ?authuser=0&hl=en&rclk=1,"Dawakhan, Islamabad"
95,mashhoordawakhana_33.601475_73.052693,Mashhoor Dawakhana,"Mashhoor Dawakhana
4.4(100)
Herbalist · J323+H3W, Saddar Bazar Rd, Saddar Bazar, Saddar
Open ⋅ Closes 11 PM · +92 51 5568818",Herbalist,Open,33.6014753,73.0526931,https://www.google.com/maps/place/Mashhoor+Dawakhana/data=!4m7!3m6!1s0x38df949ab60aca15:0xad0e5d2ac8e47c0f!8m2!3d33.6014753!4d73.0526931!16s%2Fg%2F12mkwhl3h!19sChIJFcoKtpqU3zgRD3zkyCpdDq0?authuser=0&hl=en&rclk=1,"Dawakhan, Islamabad"
96,rahmaniadawakhana_33.640616_72.968087,RAHMANIA DAWAKHANA رحمانیہ دوا خانہ,"RAHMANIA DAWAKHANA رحمانیہ دوا خانہ
No reviews
Medical clinic · Back of Sain Mirchu darbar, Plot # 2 St 1, adjacent to Srinagar Highway",Medical clinic,,33.640616,72.9680868,https://www.google.com/maps/place/RAHMANIA+DAWAKHANA+%D8%B1%D8%AD%D9%85%D8%A7%D9%86%DB%8C%DB%81+%D8%AF%D9%88%D8%A7+%D8%AE%D8%A7%D9%86%DB%81%E2%80%AD/data=!4m7!3m6!1s0x38df970048fe2761:0x4937dacc51dbb841!8m2!3d33.640616!4d72.9680868!16s%2Fg%2F11y688sg27!19sChIJYSf-SACX3zgRQbjbUczaN0k?authuser=0&hl=en&rclk=1,"Dawakhan, Islamabad"
97,hamdarddawakhana_33.616443_73.056181,Hamdard Dawakhana,"Hamdard Dawakhana
4.7(26)
Herbal medicine store ·  · Corner sooter Gali, Ghari Chowk U-1108 Sarafa Bazar Rd
Open ⋅ Closes 9 PM · +92 300 9848472",Herbal medicine store,Open,33.6164433,73.0561806,https://www.google.com/maps/place/Hamdard+Dawakhana/data=!4m7!3m6!1s0x38df94ecf73369a3:0x2543e51ec9ae47de!8m2!3d33.6164433!4d73.0561806!16s%2Fg%2F12mkw803b!19sChIJo2kz9-yU3zgR3keuyR7lQyU?authuser=0&hl=en&rclk=1,"Dawakhan, Islamabad"
98,mardanpansarghardawa_33.707865_73.089288,MARDAN PANSAR GHAR DAWAKHANA & DRY FRUIT,"MARDAN PANSAR GHAR DAWAKHANA & DRY FRUIT
5.0(7)
Herb shop · SHOP NO 4, KAMRAN SHIOPPING CENTRE
Open ⋅ Closes 9:30 PM · +92 300 2611549",Herb shop,Open,33.7078647,73.0892881,https://www.google.com/maps/place/MARDAN+PANSAR+GHAR+DAWAKHANA+%26+DRY+FRUIT/data=!4m7!3m6!1s0x38dfc1749c634051:0x53286a5c39de95f3!8m2!3d33.7078647!4d73.0892881!16s%2Fg%2F11s184j40k!19sChIJUUBjnHTB3zgR85XeOVxqKFM?authuser=0&hl=en&rclk=1,"Dawakhan, Islamabad"
99,alhakeemdawakhana_33.606695_73.009497,Al-Hakeem Dawakhana,"Al-Hakeem Dawakhana
5.0(1)
Herbal medicine store · First Floor shop، Muzaffar Plaza، 76 Misrial Rd
Open ⋅ Closes 10 PM · +92 313 0044233",Herbal medicine store,Open,33.6066949,73.0094966,https://www.google.com/maps/place/Al-Hakeem+Dawakhana/data=!4m7!3m6!1s0x38df9595e870ef43:0x2ce056e8111595ae!8m2!3d33.6066949!4d73.0094966!16s%2Fg%2F11v72lccr0!19sChIJQ-9w6JWV3zgRrpUVEehW4Cw?authuser=0&hl=en&rclk=1,"Dawakhan, Islamabad"
100,muhammadalidawakhana_33.706403_73.086772,Muhammad Ali Dawakhana,"Muhammad Ali Dawakhana
No reviews
Alternative medicine practitioner · P34P+HP6, Aabpara Market,, Khayaban-e-Suhrwardy Rd",Alternative medicine practitioner,,33.7064027,73.0867725,https://www.google.com/maps/place/Muhammad+Ali+Dawakhana/data=!4m7!3m6!1s0x38dfbf8abc425bcd:0xc3babb04d0e3098f!8m2!3d33.7064027!4d73.0867725!16s%2Fg%2F11bxfwtssb!19sChIJzVtCvIq_3zgRjwnj0AS7usM?authuser=0&hl=en&rclk=1,"Dawakhan, Islamabad"
101,rahmaniyadawakhana_33.661847_73.077386,Rahmaniya Dawakhana,"Rahmaniya Dawakhana
No reviews
Hospital · rahmaniya dawakhana, House no 113 sector i8-4 muhallah
Closed ⋅ Opens 10 AM Sat · +92 51 4449283",Hospital,Closed,33.6618474,73.0773857,https://www.google.com/maps/place/Rahmaniya+Dawakhana/data=!4m7!3m6!1s0x38df9598c53c64f7:0x98f881aeda43293e!8m2!3d33.6618474!4d73.0773857!16s%2Fg%2F11gxr_xtlp!19sChIJ92Q8xZiV3zgRPilD2q6B-Jg?authuser=0&hl=en&rclk=1,"Dawakhan, Islamabad"
102,qureshidawakhanahija_33.637228_73.042050,Qureshi Dawakhana & Hijama clinic,"Qureshi Dawakhana & Hijama clinic
5.0(1)
Herbal medicine store · Awan markeet Street 20, 2 Sector
Open ⋅ Closes 10 PM · +92 334 0255551",Herbal medicine store,Open,33.6372276,73.0420503,https://www.google.com/maps/place/Qureshi+Dawakhana+%26+Hijama+clinic/data=!4m7!3m6!1s0x38df95f22eed06a1:0x4c41209665e6a00d!8m2!3d33.6372276!4d73.0420503!16s%2Fg%2F11tfdp832s!19sChIJoQbtLvKV3zgRDaDmZZYgQUw?authuser=0&hl=en&rclk=1,"Dawakhan, Islamabad"
103,hamdardhomeoclinicme_33.633769_73.161436,Hamdard Homeo Clinic & Medical Store,"Hamdard Homeo Clinic & Medical Store
5.0(2)
Community health centre · J5M6+GH3, Near Bilal Masjid, Gohrra, Sardar St",Community health centre,,33.633769,73.1614363,https://www.google.com/maps/place/Hamdard+Homeo+Clinic+%26+Medical+Store/data=!4m7!3m6!1s0x38dfeb4046d21d27:0xcd9199b7faa5083e!8m2!3d33.633769!4d73.1614363!16s%2Fg%2F11jzd4cxd7!19sChIJJx3SRkDr3zgRPgil-reZkc0?authuser=0&hl=en&rclk=1,"Dawakhan, Islamabad"
104,khalsaunanidawakhana_33.692457_73.034390,Khalsa Unani Dawakhana,"Khalsa Unani Dawakhana
No reviews
Herbalist · Plot 653, Street 6",Herbalist,,33.6924567,73.0343903,https://www.google.com/maps/place/Khalsa+Unani+Dawakhana/data=!4m7!3m6!1s0x38dfbf006384951d:0xea2a2780b8fa7fa9!8m2!3d33.6924567!4d73.0343903!16s%2Fg%2F11y54f7qvk!19sChIJHZWEYwC_3zgRqX_6uIAnKuo?authuser=0&hl=en&rclk=1,"Dawakhan, Islamabad"
105,pakkashmirdawakhana_33.629723_73.076344,Pak Kashmir Dawakhana,"Pak Kashmir Dawakhana
5.0(1)
Herbal medicine store · Block, Satellite Town Rawalpindi Mohala Islam Nagar
Open 24 hours · +92 300 5104188",Herbal medicine store,Open 24 hours,33.6297226,73.0763436,https://www.google.com/maps/place/Pak+Kashmir+Dawakhana/data=!4m7!3m6!1s0x38df95ae96fe13b9:0x568ff57eedb158a4!8m2!3d33.6297226!4d73.0763436!16s%2Fg%2F11sds5mwv7!19sChIJuRP-lq6V3zgRpFix7X71j1Y?authuser=0&hl=en&rclk=1,"Dawakhan, Islamabad"
106,ehsandawakhana_33.651592_73.072203,Ehsan Dawakhana,"Ehsan Dawakhana
5.0(2)
Herbal medicine store · BS 04, Satti Plaza, near Mubarak Hotel
Open 24 hours · +92 321 8686863",Herbal medicine store,Open 24 hours,33.6515921,73.0722027,https://www.google.com/maps/place/Ehsan+Dawakhana/data=!4m7!3m6!1s0x38df95000893d579:0x627e1a53ebcc6caf!8m2!3d33.6515921!4d73.0722027!16s%2Fg%2F11vsq22b_9!19sChIJedWTCACV3zgRr2zM61MafmI?authuser=0&hl=en&rclk=1,"Dawakhan, Islamabad"
107,hamdarddawakhanapans_33.629310_73.041019,Hamdard Dawakhana & Pansar Store,"Hamdard Dawakhana & Pansar Store
3.7(3)
Herbal medicine store · J2HR+PCC, Road",Herbal medicine store,,33.6293098,73.041019,https://www.google.com/maps/place/Hamdard+Dawakhana+%26+Pansar+Store/data=!4m7!3m6!1s0x38df94ff5c7134b3:0x18dafedd98ded44d!8m2!3d33.6293098!4d73.041019!16s%2Fg%2F12mkw91xv!19sChIJszRxXP-U3zgRTdTemN3-2hg?authuser=0&hl=en&rclk=1,"Dawakhan, Islamabad"
108,madnidawakhana_33.688586_73.033014,Madni Dawakhana,"Madni Dawakhana
No reviews
Pharmacy · Nadir Plaza, G-9 Markaz, G-9
Open now",Pharmacy,Open now,33.688586,73.0330144,https://www.google.com/maps/place/Madni+Dawakhana/data=!4m7!3m6!1s0x38dfbe31bdd60c3b:0xfffe84f68149c39c!8m2!3d33.688586!4d73.0330144!16s%2Fg%2F12mkz60yj!19sChIJOwzWvTG-3zgRnMNJgfaE_v8?authuser=0&hl=en&rclk=1,"Dawakhan, Islamabad"
109,hadidawakhana_29.861464_64.289038,Hadi Dawakhana,"Hadi Dawakhana
No reviews
Medical clinic
Open ⋅ Closes 8 PM · +92 332 6022999",Medical clinic,Open,29.8614642,64.2890376,https://www.google.com/maps/place/Hadi+Dawakhana/data=!4m7!3m6!1s0x42e93880c3f47a9:0xf43ae80fc4b716ad!8m2!3d29.8614642!4d64.2890376!16s%2Fg%2F11svj4p5tj!19sChIJqUc_DIiTLgQRrRa3xA_oOvQ?authuser=0&hl=en&rclk=1,"Dawakhan, Islamabad"
110,ishtiaqdawakhana_33.618435_72.942908,Ishtiaq Dawakhana,"Ishtiaq Dawakhana
No reviews
Herbal medicine store · JW9V+95F
Closed ⋅ Opens 5 PM · +92 331 8209197",Herbal medicine store,Closed,33.6184354,72.9429081,https://www.google.com/maps/place/Ishtiaq+Dawakhana/data=!4m7!3m6!1s0x38df97001697ae91:0xcc308cf5dcb4f1d0!8m2!3d33.6184354!4d72.9429081!16s%2Fg%2F11lnl_v7z2!19sChIJka6XFgCX3zgR0PG03PWMMMw?authuser=0&hl=en&rclk=1,"Dawakhan, Islamabad"
111,jadeeddawakhanahajam_33.638976_73.094818,"Jadeed Dawakhana, Hajama center & Pansar Store","Jadeed Dawakhana, Hajama center & Pansar Store
5.0(1)
Alternative medicine practitioner · Kurri Rd, Haroon Chock, Mohammadi Colony, Dhok Ali Akbar Kurri, Road
Open ⋅ Closes 10 PM · +92 300 5140262",Alternative medicine practitioner,Open,33.6389757,73.0948178,"https://www.google.com/maps/place/Jadeed+Dawakhana,+Hajama+center+%26+Pansar+Store/data=!4m7!3m6!1s0x38dfeb299947acdf:0xa57f1d43115d88c2!8m2!3d33.6389757!4d73.0948178!16s%2Fg%2F12mkzj0dy!19sChIJ36xHmSnr3zgRwohdEUMdf6U?authuser=0&hl=en&rclk=1","Dawakhan, Islamabad"
112,firdousidawakhanasad_30.362957_68.996698,Firdousi Dawakhana saddar bazzar Rawalpindi near corner food,"Firdousi Dawakhana saddar bazzar Rawalpindi near corner food
4.9(7)
Pharmacy
+92 51 5794548",Pharmacy,,30.3629572,68.9966984,https://www.google.com/maps/place/Firdousi+Dawakhana+saddar+bazzar+Rawalpindi+near+corner+food/data=!4m7!3m6!1s0x38df949aca1f70df:0x8444587744648b1a!8m2!3d30.3629572!4d68.9966984!16s%2Fg%2F12mkwj6d7!19sChIJ33AfypqU3zgRGotkRHdYRIQ?authuser=0&hl=en&rclk=1,"Dawakhan, Islamabad"
113,alsayyeddawakhana_33.620303_72.980895,Al Sayyed Dawakhana,"Al Sayyed Dawakhana
5.0(3)
Pharmacy · JXCJ+49C, Naseerabad Rd
Open ⋅ Closes 8:30 PM · +92 333 5115386",Pharmacy,Open,33.6203032,72.9808949,https://www.google.com/maps/place/Al+Sayyed+Dawakhana/data=!4m7!3m6!1s0x38df9688bade657f:0x3eceef03e471a39b!8m2!3d33.6203032!4d72.9808949!16s%2Fg%2F12mkzkb7l!19sChIJf2XeuoiW3zgRm6Nx5APvzj4?authuser=0&hl=en&rclk=1,"Dawakhan, Islamabad"
114,faizunanidawakhana_33.642803_73.202150,Faiz Unani Dawakhana,"Faiz Unani Dawakhana
No reviews
Pharmacy · J6V2+4VC, Lehtrar Rd, Partal
Open now · +92 302 8155016",Pharmacy,Open now,33.6428028,73.2021497,https://www.google.com/maps/place/Faiz+Unani+Dawakhana/data=!4m7!3m6!1s0x38dfe96dad04873d:0x4b498f4ec3fa530c!8m2!3d33.6428028!4d73.2021497!16s%2Fg%2F12mkz7jyl!19sChIJPYcErW3p3zgRDFP6w06PSUs?authuser=0&hl=en&rclk=1,"Dawakhan, Islamabad"
115,sardargdawakhanapans_33.596012_73.004629,Sardar G dawakhana & pansar store,"Sardar G dawakhana & pansar store
5.0(1)
Alternative medicine practitioner · H2W3+CV2, Dhoke Syedian Rd
Open ⋅ Closes 8 PM · +92 312 5533430",Alternative medicine practitioner,Open,33.5960117,73.0046289,https://www.google.com/maps/place/Sardar+G+dawakhana+%26+pansar+store/data=!4m7!3m6!1s0x38df95a51a05b815:0xbee3619bf24a15b!8m2!3d33.5960117!4d73.0046289!16s%2Fg%2F11tk6mmgg8!19sChIJFbgFGqWV3zgRW6Ekvxk27gs?authuser=0&hl=en&rclk=1,"Dawakhan, Islamabad"
116,mardanpansarghardawa_33.644568_72.959371,Mardan pansarghar dawakhana dryfruit smc pvt ltd,"Mardan pansarghar dawakhana dryfruit smc pvt ltd
No reviews
Herb shop · Street 78
Open ⋅ Closes 10 PM · +92 300 2611549",Herb shop,Open,33.6445683,72.9593712,https://www.google.com/maps/place/Mardan+pansarghar+dawakhana+dryfruit+smc+pvt+ltd/data=!4m7!3m6!1s0x38df970053dff923:0xd6f44fce6a8bcb1b!8m2!3d33.6445683!4d72.9593712!16s%2Fg%2F11y3728kl4!19sChIJI_nfUwCX3zgRG8uLas5P9NY?authuser=0&hl=en&rclk=1,"Dawakhan, Islamabad"
117,jadeedchishtiadawakh_33.695201_73.012215,Jadeed Chishtia Dawakhana,"Jadeed Chishtia Dawakhana
No reviews
Pharmacy · Chaudhry Plaza, Office 1, 1st Floor, Sumbal Rd, F-10 Markaz, F-10
Open now · +92 51 2102013",Pharmacy,Open now,33.6952011,73.0122146,https://www.google.com/maps/place/Jadeed+Chishtia+Dawakhana/data=!4m7!3m6!1s0x38dfbe6b4969ed33:0xf59d97457c2adf92!8m2!3d33.6952011!4d73.0122146!16s%2Fg%2F12mkzl40d!19sChIJM-1pSWu-3zgRkt8qfEWXnfU?authuser=0&hl=en&rclk=1,"Dawakhan, Islamabad"
118,alsheikhdawakhanapan_33.611783_73.061633,Al-Sheikh Dawakhana & Pansar Store,"Al-Sheikh Dawakhana & Pansar Store
4.0(5)
Herbal medicine store · Shop G-673, Gordon College Rd, Naya Mohallah
Open ⋅ Closes 12 AM · +92 51 5762262",Herbal medicine store,Open,33.6117834,73.0616332,https://www.google.com/maps/place/Al-Sheikh+Dawakhana+%26+Pansar+Store/data=!4m7!3m6!1s0x38df9495aeb87e0d:0x9868c698d35f8081!8m2!3d33.6117834!4d73.0616332!16s%2Fg%2F12mkzjf9p!19sChIJDX64rpWU3zgRgYBf05jGaJg?authuser=0&hl=en&rclk=1,"Dawakhan, Islamabad"
119,luqmanhaiderdawakhan_33.595443_73.049503,Luqman Haider Dawakhana - Best Hakeem in Rawalpindi,"Luqman Haider Dawakhana - Best Hakeem in Rawalpindi
3.7(3)
Health consultant · Shop # 07, Murtaza Plaza 7-B, The Mall Opp State Life Building, Mall Rd
Open ⋅ Closes 11 PM · +92 312 6667222",Health consultant,Open,33.5954428,73.0495033,https://www.google.com/maps/place/Luqman+Haider+Dawakhana+-+Best+Hakeem+in+Rawalpindi/data=!4m7!3m6!1s0x38df95279735a11b:0xbe081a444aa281ef!8m2!3d33.5954428!4d73.0495033!16s%2Fg%2F11hdyjk2__!19sChIJG6E1lyeV3zgR74GiSkQaCL4?authuser=0&hl=en&rclk=1,"Dawakhan, Islamabad"
120,hadidawakhana_33.634555_73.089301,Hadi Dawakhana,"Hadi Dawakhana
3.7(3)
Hospital · Shop no 13، zakki shah plaza، near transformer chowk
Open ⋅ Closes 8 PM · +92 51 4472408",Hospital,Open,33.6345552,73.0893011,https://www.google.com/maps/place/Hadi+Dawakhana/data=!4m7!3m6!1s0x38dfeb2ca2d8071f:0x7027ac3bab23e9ac!8m2!3d33.6345552!4d73.0893011!16s%2Fg%2F11bxdz2vqq!19sChIJHwfYoizr3zgRrOkjqzusJ3A?authuser=0&hl=en&rclk=1,"Dawakhan, Islamabad"
121,mohammadiunanidawakh_33.605456_73.008751,Mohammadi Unani Dawakhana,"Mohammadi Unani Dawakhana
4.4(16)
Pharmacy · J245+5GJ, Misrial Rd
Open ⋅ Closes 5 PM · +92 300 9553435",Pharmacy,Open,33.6054562,73.0087509,https://www.google.com/maps/place/Mohammadi+Unani+Dawakhana/data=!4m7!3m6!1s0x38df94164ff29a29:0x4e08a2fc0ed6e93b!8m2!3d33.6054562!4d73.0087509!16s%2Fg%2F12mkzjhjs!19sChIJKZryTxaU3zgRO-nWDvyiCE4?authuser=0&hl=en&rclk=1,"Dawakhan, Islamabad"
122,alsheikhdawakhana_33.667982_72.998365,Al-Sheikh Dawakhana,"Al-Sheikh Dawakhana
No reviews
Pharmacy · Al-Jannat Arcade, G-11 Markaz, G-11
Open now",Pharmacy,Open now,33.6679816,72.9983651,https://www.google.com/maps/place/Al-Sheikh+Dawakhana/data=!4m7!3m6!1s0x38df95feda41bf7b:0x3338560b2c382dbc!8m2!3d33.6679816!4d72.9983651!16s%2Fg%2F12mkzlckm!19sChIJe79B2v6V3zgRvC04LAtWODM?authuser=0&hl=en&rclk=1,"Dawakhan, Islamabad"
123,chistiaadawakhana_33.651097_73.090346,Chistiaa Dawakhana,"Chistiaa Dawakhana
5.0(3)
Medical supply store · M32R+C4Q, Jinnah road , dhok kala khan
Open ⋅ Closes 9:30 PM · +92 344 5274014",Medical supply store,Open,33.6510972,73.0903461,https://www.google.com/maps/place/Chistiaa+Dawakhana/data=!4m7!3m6!1s0x38dfeb0fd31f9435:0x717d20ff1877b5c2!8m2!3d33.6510972!4d73.0903461!16s%2Fg%2F11ptqb0n_6!19sChIJNZQf0w_r3zgRwrV3GP8gfXE?authuser=0&hl=en&rclk=1,"Dawakhan, Islamabad"
124,bismillahdawakhana_33.666314_73.074106,Bismillah Dawakhana,"Bismillah Dawakhana
No reviews
Pharmacy · Executive Centre, Tipu Sultan Rd, I-8 Markaz, I-8
Open now",Pharmacy,Open now,33.6663138,73.0741063,https://www.google.com/maps/place/Bismillah+Dawakhana/data=!4m7!3m6!1s0x38df9545c485c273:0x90be3c56e815292!8m2!3d33.6663138!4d73.0741063!16s%2Fg%2F12mkz5nhb!19sChIJc8KFxEWV3zgRklKBbsXjCwk?authuser=0&hl=en&rclk=1,"Dawakhan, Islamabad"
125,babardawakhana_33.616885_73.045717,Babar Dawakhana,"Babar Dawakhana
3.0(3)
Herbal medicine store · Z-1405, Railway workshop Rd
Open ⋅ Closes 11 PM · +92 331 5451312",Herbal medicine store,Open,33.6168853,73.0457167,https://www.google.com/maps/place/Babar+Dawakhana/data=!4m7!3m6!1s0x38df94f439434d9d:0xba164035e8af2834!8m2!3d33.6168853!4d73.0457167!16s%2Fg%2F12mkw8rjz!19sChIJnU1DOfSU3zgRNCiv6DVAFro?authuser=0&hl=en&rclk=1,"Dawakhan, Islamabad"
126,taseerdawakhana_33.613281_73.063258,Taseer Dawakhana,"Taseer Dawakhana
3.3(20)
Health consultant ·  · Master Paints، Shop No: I-125 Attached, Iqbal Rd، near Committee Chowk
Open ⋅ Closes 8 PM · +92 332 1500549",Health consultant,Open,33.6132807,73.0632576,https://www.google.com/maps/place/Taseer+Dawakhana/data=!4m7!3m6!1s0x38df9495165d5dab:0xd8678c096378db4b!8m2!3d33.6132807!4d73.0632576!16s%2Fg%2F12mkzkdf1!19sChIJq11dFpWU3zgRS9t4YwmMZ9g?authuser=0&hl=en&rclk=1,"Dawakhan, Islamabad"
127,kaleemdawakhana_33.625958_73.029681,Kaleem Dawakhana,"Kaleem Dawakhana
4.6(11)
Reproductive health clinic ·  · Main bazar
Open ⋅ Closes 10 PM · +92 306 5736704",Reproductive health clinic,Open,33.6259582,73.0296815,https://www.google.com/maps/place/Kaleem+Dawakhana/data=!4m7!3m6!1s0x38df959e5d45a8f3:0xacc09fe5019a03ad!8m2!3d33.6259582!4d73.0296815!16s%2Fg%2F11h92d9q5t!19sChIJ86hFXZ6V3zgRrQOaAeWfwKw?authuser=0&hl=en&rclk=1,"Dawakhan, Islamabad"
128,delhidawakhana_33.621264_73.061157,Delhi Dawakhana,"Delhi Dawakhana
4.3(4)
Herbal medicine store · J3C6+GF3, Jamia Masjid Rd, Saidpuri Gate, Mohallah Shah Chan Chirgah
Open ⋅ Closes 10 PM · +92 303 5512318",Herbal medicine store,Open,33.6212644,73.0611566,https://www.google.com/maps/place/Delhi+Dawakhana/data=!4m7!3m6!1s0x38df94e975fc4d57:0x6e0911769a334ec9!8m2!3d33.6212644!4d73.0611566!16s%2Fg%2F12mkw78gx!19sChIJV038demU3zgRyU4zmnYRCW4?authuser=0&hl=en&rclk=1,"Dawakhan, Islamabad"
129,rehmaniadawakhana_33.616436_73.056737,Rehmania Dawakhana,"Rehmania Dawakhana
4.7(6)
Herbal medicine store · Sarafa Bazar Rd
Open ⋅ Closes 8 PM · +92 300 5103100",Herbal medicine store,Open,33.6164363,73.0567369,https://www.google.com/maps/place/Rehmania+Dawakhana/data=!4m7!3m6!1s0x38df94ecf39befb3:0x545df97f7523f4e!8m2!3d33.6164363!4d73.0567369!16s%2Fg%2F12mkz9msk!19sChIJs--b8-yU3zgRTj9S95ffRQU?authuser=0&hl=en&rclk=1,"Dawakhan, Islamabad"
130,baqaidawakhana_33.615283_73.057388,Baqai Dawakhana,"Baqai Dawakhana
5.0(5)
Health consultant · Talwaran Bazar Rd Talwaran Bazar
Open ⋅ Closes 9 PM · +92 321 5055745",Health consultant,Open,33.6152827,73.0573878,https://www.google.com/maps/place/Baqai+Dawakhana/data=!4m7!3m6!1s0x38df94ecbb3e6f9d:0xe9985c326f2004ad!8m2!3d33.6152827!4d73.0573878!16s%2Fg%2F12mkwb3db!19sChIJnW8-u-yU3zgRrQQgbzJcmOk?authuser=0&hl=en&rclk=1,"Dawakhan, Islamabad"
131,azadunanidawakhanaan_33.611744_73.061808,Azad Unani Dawakhana and Pansar Store,"Azad Unani Dawakhana and Pansar Store
4.7(7)
Herb shop · Shop No- E, 9 Gorden College Rd
Open ⋅ Closes 9 PM · +92 334 5556459",Herb shop,Open,33.6117435,73.0618076,https://www.google.com/maps/place/Azad+Unani+Dawakhana+and+Pansar+Store/data=!4m7!3m6!1s0x38df95a6f280f885:0x33b27199bcb4cb5!8m2!3d33.6117435!4d73.0618076!16s%2Fg%2F11h8jkwt6l!19sChIJhfiA8qaV3zgRtUzLmxknOwM?authuser=0&hl=en&rclk=1,"Dawakhan, Islamabad"
132,shahidunanidawakhana_33.614241_73.059360,Shahid Unani Dawakhana & Pansar Store,"Shahid Unani Dawakhana & Pansar Store
5.0(1)
Herbal medicine store · J375+MPX, Hakeem Ajmal Khan Rd, Bohar Bazar, Raja Bazar",Herbal medicine store,,33.6142412,73.0593603,https://www.google.com/maps/place/Shahid+Unani+Dawakhana+%26+Pansar+Store/data=!4m7!3m6!1s0x38df9494b6ae0a3f:0xffbd6af75fadf843!8m2!3d33.6142412!4d73.0593603!16s%2Fg%2F12mkw9nbl!19sChIJPwqutpSU3zgRQ_itX_dqvf8?authuser=0&hl=en&rclk=1,"Dawakhan, Islamabad"
133,mehariamuradiadawakh_33.496275_73.193237,Meharia Muradia Dawakhana,"Meharia Muradia Dawakhana
No reviews
Pharmacy · F5WV+G79, Jawa Rd, Rawat
Open now · +92 332 5034593",Pharmacy,Open now,33.4962754,73.1932371,https://www.google.com/maps/place/Meharia+Muradia+Dawakhana/data=!4m7!3m6!1s0x38dff18e19fe8ebd:0xb56eb83bd6595fea!8m2!3d33.4962754!4d73.1932371!16s%2Fg%2F12mkzc5vd!19sChIJvY7-GY7x3zgR6l9Z1ju4brU?authuser=0&hl=en&rclk=1,"Dawakhan, Islamabad"
134,sirajiadawakhana_33.608827_73.009652,Sirajia Dawakhana,"Sirajia Dawakhana
3.2(19)
Medical clinic · J255+GVJ, Peshawar Rd, Chour Harpal Chowk, Chour Harpal
+92 51 5471886",Medical clinic,,33.6088275,73.0096521,https://www.google.com/maps/place/Sirajia+Dawakhana/data=!4m7!3m6!1s0x38df943dea8fd4b3:0x29b442631fdbabe8!8m2!3d33.6088275!4d73.0096521!16s%2Fg%2F12mkw8pl2!19sChIJs9SP6j2U3zgR6KvbH2NCtCk?authuser=0&hl=en&rclk=1,"Dawakhan, Islamabad"
135,hayatdawakhana_33.651609_73.072240,Hayat Dawakhana,"Hayat Dawakhana
5.0(2)
Herbal medicine store · M32C+JVX, Panorama Shopping Center, Rawalpindi Stadium Rd
Open ⋅ Closes 8 PM · +92 304 1112020",Herbal medicine store,Open,33.6516085,73.0722398,https://www.google.com/maps/place/Hayat+Dawakhana/data=!4m7!3m6!1s0x38df9535169f45e1:0xc537c555df630205!8m2!3d33.6516085!4d73.0722398!16s%2Fg%2F11h6t_g41t!19sChIJ4UWfFjWV3zgRBQJj31XFN8U?authuser=0&hl=en&rclk=1,"Dawakhan, Islamabad"
136,makkahdawakhana_33.612918_73.060453,Makkah Dawakhana,"Makkah Dawakhana
5.0(1)
Herbal medicine store · Shop B-356, Bohar Bazar Chowk, Gordon Gorden College Rd
Open ⋅ Closes 6 PM · +92 51 5552023",Herbal medicine store,Open,33.612918,73.0604535,https://www.google.com/maps/place/Makkah+Dawakhana/data=!4m7!3m6!1s0x38df9494e8b96613:0xd2212c2b1fad5249!8m2!3d33.612918!4d73.0604535!16s%2Fg%2F12mkw9zs3!19sChIJE2a56JSU3zgRSVKtHyssIdI?authuser=0&hl=en&rclk=1,"Dawakhan, Islamabad"
137,tayyabdawakhanamainb_33.749229_72.808722,TAYYAB DAWAKHANA Main bazar Taxila,"TAYYAB DAWAKHANA Main bazar Taxila
5.0(15)
Health consultant · Main Bazar
Open ⋅ Closes 6 PM · +92 321 5015816",Health consultant,Open,33.7492295,72.8087217,https://www.google.com/maps/place/TAYYAB+DAWAKHANA+Main+bazar+Taxila/data=!4m7!3m6!1s0x38dfa41ee86888a9:0x758fda1334bf46fb!8m2!3d33.7492295!4d72.8087217!16s%2Fg%2F11gfgyqhwh!19sChIJqYho6B6k3zgR-0a_NBPaj3U?authuser=0&hl=en&rclk=1,"Dawakhan, Islamabad"
138,tayyabdawakhanapansa_33.629598_73.108460,Tayyab Dawakhana & Pansar Store,"Tayyab Dawakhana & Pansar Store
4.0(4)
Pharmacy · J4H5+R9P, Khanna Rd, Trolley Adda, Shakrial
Open ⋅ Closes 9:45 PM · +92 333 5735077",Pharmacy,Open,33.6295975,73.1084602,https://www.google.com/maps/place/Tayyab+Dawakhana+%26+Pansar+Store/data=!4m7!3m6!1s0x38dfeb3daab91baf:0xa9d296b36c07aa3d!8m2!3d33.6295975!4d73.1084602!16s%2Fg%2F12mkw8xt2!19sChIJrxu5qj3r3zgRPaoHbLOW0qk?authuser=0&hl=en&rclk=1,"Dawakhan, Islamabad"
139,alshifaunanidawakhan_33.662133_73.085660,Al-Shifa Unani Dawakhana,"Al-Shifa Unani Dawakhana
No reviews
Pharmacy · M36P+V73, Twin City Plaza, Murree Rd, Gulistan-e-Jinnah, Faizabad
Open now · +91 70061 84700",Pharmacy,Open now,33.6621326,73.0856597,https://www.google.com/maps/place/Al-Shifa+Unani+Dawakhana/data=!4m7!3m6!1s0x38df954a9b13a875:0x1ecb49b4b78e1ee9!8m2!3d33.6621326!4d73.0856597!16s%2Fg%2F12mkzc7xw!19sChIJdagTm0qV3zgR6R6Ot7RJyx4?authuser=0&hl=en&rclk=1,"Dawakhan, Islamabad"
140,faizeaamdawakhanaand_33.640585_73.096629,Faizeaam Dawakhana And Pharmacy,"Faizeaam Dawakhana And Pharmacy
4.6(5)
Pharmacy · Kk 467 Khana kak Kuri road
Open ⋅ Closes 11:50 PM · +92 333 5116760",Pharmacy,Open,33.6405846,73.0966286,https://www.google.com/maps/place/Faizeaam+Dawakhana+And+Pharmacy/data=!4m7!3m6!1s0x38dfeb28331f6ef5:0xe1fdbe6767549167!8m2!3d33.6405846!4d73.0966286!16s%2Fg%2F11cp20bpb7!19sChIJ9W4fMyjr3zgRZ5FUZ2e-_eE?authuser=0&hl=en&rclk=1,"Dawakhan, Islamabad"
141,madnidawakhana_33.614074_73.010431,Madni Dawakhana,"Madni Dawakhana
5.0(1)
Pharmacy · J276+J5F, Allahabad Rd
Open now · +92 332 5432570",Pharmacy,Open now,33.6140741,73.0104307,https://www.google.com/maps/place/Madni+Dawakhana/data=!4m7!3m6!1s0x38df943be68815b7:0x9c3195ea7b52fef7!8m2!3d33.6140741!4d73.0104307!16s%2Fg%2F12mkw9qdw!19sChIJtxWI5juU3zgR9_5Se-qVMZw?authuser=0&hl=en&rclk=1,"Dawakhan, Islamabad"
142,hafizdawakhanaandpan_33.600870_73.052580,Hafiz Dawakhana and pansar store,"Hafiz Dawakhana and pansar store
4.7(10)
Medical Center · Saddar Bazar Rd Saddar Bazar
Open ⋅ Closes 10 PM · +92 51 5566871",Medical Center,Open,33.60087,73.0525799,https://www.google.com/maps/place/Hafiz+Dawakhana+and+pansar+store/data=!4m7!3m6!1s0x38df949acbfa57c1:0x7d637beae1173636!8m2!3d33.60087!4d73.0525799!16s%2Fg%2F12mkw8257!19sChIJwVf6y5qU3zgRNjYX4ep7Y30?authuser=0&hl=en&rclk=1,"Dawakhan, Islamabad"
