Index,Place Id,Name,Address,Category,Status,Latitude,Longitude,Link,SearchKeyword
1,na_noloc,,,,,,,,"Emergency Room, Islamabad"
5,mainemergencypims_33.703708_73.051527,"Main Emergency, PIMS",,Hospital,Open 24 hours,33.7037084,73.0515267,"https://www.google.com/maps/place/Main+Emergency,+PIMS/data=!4m7!3m6!1s0x38dfbfb76e8e0f3d:0x77990a0e1289f1c5!8m2!3d33.7037084!4d73.0515267!16s%2Fg%2F11dzd1q0kw!19sChIJPQ-Obre_3zgRxfGJEg4KmXc?authuser=0&hl=en&rclk=1","Emergency Room, Islamabad"
37,accidentemergencythe_33.704435_73.054630,"Accident & Emergency, The Children's Hospital, PIMS, Islamabad.","Accident & Emergency, The Children's Hospital, PIMS, Islamabad.
3.1(9)
Emergency room ·  · 3 Ibn-e-Sina Rd
Open 24 hours · +92 51 90715517",Emergency room,Open 24 hours,33.7044347,73.0546304,"https://www.google.com/maps/place/Accident+%26+Emergency,+The+Children%27s+Hospital,+PIMS,+Islamabad./data=!4m7!3m6!1s0x38dfbfabb83bd1d9:0xd74ef4479ba541d3!8m2!3d33.7044347!4d73.0546304!16s%2Fg%2F11gy6nk64l!19sChIJ2dE7uKu_3zgR00Glm0f0Ttc?authuser=0&hl=en&rclk=1","Emergency Room, Islamabad"
38,pimshospitalislamaba_33.703334_73.052352,PIMS Hospital Islamabad,"PIMS Hospital Islamabad
3.9(818)
Government hospital ·  · Ibn-e-Sina Rd
Open 24 hours · +92 51 9261170",Government hospital,Open 24 hours,33.7033339,73.0523516,https://www.google.com/maps/place/PIMS+Hospital+Islamabad/data=!4m7!3m6!1s0x38df950787a46b87:0x38d56dc761e05e4f!8m2!3d33.7033339!4d73.0523516!16s%2Fg%2F11r6fwws34!19sChIJh2ukhweV3zgRT17gYcdt1Tg?authuser=0&hl=en&rclk=1,"Emergency Room, Islamabad"
39,advancedinternationa_33.696577_73.050456,Advanced International Hospital Islamabad,"Advanced International Hospital Islamabad
4.5(591)
Hospital ·  · 12-2G Markaz Rd
Open 24 hours · +92 51 111 786 005",Hospital,Open 24 hours,33.6965775,73.0504561,https://www.google.com/maps/place/Advanced+International+Hospital+Islamabad/data=!4m7!3m6!1s0x38dfbf8a6764276f:0xdbb21f59afe3a45b!8m2!3d33.6965775!4d73.0504561!16s%2Fg%2F11hnbz_9lk!19sChIJbydkZ4q_3zgRW6Tjr1kfsts?authuser=0&hl=en&rclk=1,"Emergency Room, Islamabad"
40,graceinternationalho_33.663460_72.887963,Grace International Hospital Islamabad,"Grace International Hospital Islamabad
2.8(46)
Emergency care service · 
Open 24 hours · +92 301 5710777",Emergency care service,Open 24 hours,33.6634596,72.8879628,https://www.google.com/maps/place/Grace+International+Hospital+Islamabad/data=!4m7!3m6!1s0x38dfa3e8224f80f1:0x89bea84f88237fda!8m2!3d33.6634596!4d72.8879628!16s%2Fg%2F11lg2nf5v3!19sChIJ8YBPIuij3zgR2n8jiE-ovok?authuser=0&hl=en&rclk=1,"Emergency Room, Islamabad"
41,shifainternationalho_33.675015_73.066009,Shifa International Hospitals Limited,"Shifa International Hospitals Limited
3.4(2,453)
Hospital ·  · 4 Pitras Bukhari Rd
Open 24 hours · +92 51 8464646",Hospital,Open 24 hours,33.6750148,73.0660089,https://www.google.com/maps/place/Shifa+International+Hospitals+Limited/data=!4m7!3m6!1s0x38df955e641b11dd:0xa273b768a51a9c54!8m2!3d33.6750148!4d73.0660089!16s%2Fm%2F03c3g4_!19sChIJ3REbZF6V3zgRVJwapWi3c6I?authuser=0&hl=en&rclk=1,"Emergency Room, Islamabad"
42,paecgeneralhospitali_33.652561_73.016503,"PAEC General Hospital,Islamabad","PAEC General Hospital,Islamabad
3.7(349)
Hospital ·  · PAEC GENERAL HOSPITAL
Open 24 hours · +92 51 92571716",Hospital,Open 24 hours,33.6525608,73.016503,"https://www.google.com/maps/place/PAEC+General+Hospital,Islamabad/data=!4m7!3m6!1s0x38df95c01daa1a0b:0x63574e8b75b77ed1!8m2!3d33.6525608!4d73.016503!16s%2Fg%2F1tmpc9k8!19sChIJCxqqHcCV3zgR0X63dYtOV2M?authuser=0&hl=en&rclk=1","Emergency Room, Islamabad"
43,emergencyunit_33.675270_73.067472,Emergency Unit,"Emergency Unit
No reviews
Emergency room ·  · 4 Pitras Bukhari Rd",Emergency room,,33.6752697,73.0674723,https://www.google.com/maps/place/Emergency+Unit/data=!4m7!3m6!1s0x38df95005785272d:0x4ab87483f1ddfe15!8m2!3d33.6752697!4d73.0674723!16s%2Fg%2F11vwpky099!19sChIJLSeFVwCV3zgRFf7d8YN0uEo?authuser=0&hl=en&rclk=1,"Emergency Room, Islamabad"
44,emergency_33.552231_73.095469,Emergency,"Emergency
3.0(1)
Emergency room ·  · H33W+34J
Open 24 hours · +92 51 5788150",Emergency room,Open 24 hours,33.552231,73.0954689,https://www.google.com/maps/place/Emergency/data=!4m7!3m6!1s0x38dfed0071cac645:0x8d50547581ad3e31!8m2!3d33.552231!4d73.0954689!16s%2Fg%2F11wwf436hj!19sChIJRcbKcQDt3zgRMT6tgXVUUI0?authuser=0&hl=en&rclk=1,"Emergency Room, Islamabad"
45,alimedicalcenteremer_33.710320_73.042077,Ali Medical Center Emergency,"Ali Medical Center Emergency
5.0(7)
Emergency care service ·  · P26R+4RG
Open 24 hours · +92 346 5221818",Emergency care service,Open 24 hours,33.7103198,73.042077,https://www.google.com/maps/place/Ali+Medical+Center+Emergency/data=!4m7!3m6!1s0x38dfbfad67828aa3:0xa3b2dfd6772ccbc6!8m2!3d33.7103198!4d73.042077!16s%2Fg%2F11f0x1ysrv!19sChIJo4qCZ62_3zgRxsssd9bfsqM?authuser=0&hl=en&rclk=1,"Emergency Room, Islamabad"
46,newemergencypims_33.704321_73.050585,New Emergency PIMS,"New Emergency PIMS
4.4(10)
Emergency care service ·  · P332+P6G
Open 24 hours",Emergency care service,Open 24 hours,33.7043214,73.0505848,https://www.google.com/maps/place/New+Emergency+PIMS/data=!4m7!3m6!1s0x38dfbfb73e3d4f93:0x94ef4b54eb32d95!8m2!3d33.7043214!4d73.0505848!16s%2Fg%2F11c2qrm_yz!19sChIJk089Pre_3zgRlS2zTrX0Tgk?authuser=0&hl=en&rclk=1,"Emergency Room, Islamabad"
47,pafhospitalislamabad_33.708229_73.015313,PAF Hospital Islamabad,"PAF Hospital Islamabad
3.7(690)
Hospital ·  · Main Margalla Rd
Open 24 hours · +92 51 9564000",Hospital,Open 24 hours,33.708229,73.015313,https://www.google.com/maps/place/PAF+Hospital+Islamabad/data=!4m7!3m6!1s0x38dfbf22bfada2c1:0xa4d9acbf9789555b!8m2!3d33.708229!4d73.015313!16s%2Fg%2F11gmgd5zhy!19sChIJwaKtvyK_3zgRW1WJl7-s2aQ?authuser=0&hl=en&rclk=1,"Emergency Room, Islamabad"
48,paechospitalemergenc_33.652656_73.016485,PAEC Hospital Emergency,"PAEC Hospital Emergency
4.0(1)
Emergency care physician ·  · 4",Emergency care physician,,33.6526555,73.0164853,https://www.google.com/maps/place/PAEC+Hospital+Emergency/data=!4m7!3m6!1s0x38df95d975a0704b:0x304e4a0ab18d72ac!8m2!3d33.6526555!4d73.0164853!16s%2Fg%2F11h9h0p12z!19sChIJS3CgddmV3zgRrHKNsQpKTjA?authuser=0&hl=en&rclk=1,"Emergency Room, Islamabad"
49,islamabadhealthservi_33.568875_73.200526,Islamabad Health Services Hospital,"Islamabad Health Services Hospital
4.6(99)
Emergency room ·  · D-23, Commercial Street 02, Block D Naval Anchorage, Islamabad Expressway Islamabad
Open 24 hours · +92 333 5767177",Emergency room,Open 24 hours,33.5688753,73.200526,https://www.google.com/maps/place/Islamabad+Health+Services+Hospital/data=!4m7!3m6!1s0x38dfef77a8d3ea13:0xc7a33b4eb65b3bcf!8m2!3d33.5688753!4d73.200526!16s%2Fg%2F11h0b8y3g2!19sChIJE-rTqHfv3zgRzztbtk47o8c?authuser=0&hl=en&rclk=1,"Emergency Room, Islamabad"
50,emergencydepartment_33.718183_73.034356,Emergency Department,"Emergency Department
No reviews
Emergency room ·  · 1",Emergency room,,33.7181832,73.0343564,https://www.google.com/maps/place/Emergency+Department/data=!4m7!3m6!1s0x38dfbf0020dacaaf:0x3d61666480f2af80!8m2!3d33.7181832!4d73.0343564!16s%2Fg%2F11vzvv6n8y!19sChIJr8raIAC_3zgRgK_ygGRmYT0?authuser=0&hl=en&rclk=1,"Emergency Room, Islamabad"
51,maroofinternationalh_33.697460_73.011651,Maroof International Hospital,"Maroof International Hospital
3.2(807)
General hospital ·  · Service Rd E, F-10 Markaz F 10/3 F-10, 04412
Open 24 hours · +92 51 111 644 911",General hospital,Open 24 hours,33.6974597,73.0116512,https://www.google.com/maps/place/Maroof+International+Hospital/data=!4m7!3m6!1s0x38dfbe6b77fc7279:0x855a61d1ef5e9def!8m2!3d33.6974597!4d73.0116512!16s%2Fg%2F1hdzv62pm!19sChIJeXL8d2u-3zgR751e79FhWoU?authuser=0&hl=en&rclk=1,"Emergency Room, Islamabad"
52,farooqhospitalislama_33.789927_73.278109,Farooq Hospital (Islamabad Branch),"Farooq Hospital (Islamabad Branch)
4.0(111)
Hospital ·  · Islamabad - Murree Expy
Open 24 hours · +92 51 2720213",Hospital,Open 24 hours,33.7899274,73.2781089,https://www.google.com/maps/place/Farooq+Hospital+%28Islamabad+Branch%29/data=!4m7!3m6!1s0x38dfdd18ed6fec63:0x3250b42890d9af82!8m2!3d33.7899274!4d73.2781089!16s%2Fg%2F11rhrmyq8k!19sChIJY-xv7Rjd3zgRgq_ZkCi0UDI?authuser=0&hl=en&rclk=1,"Emergency Room, Islamabad"
53,capitalinternational_33.649738_72.976560,Capital International Hospital (CIH),"Capital International Hospital (CIH)
4.4(214)
Hospital ·  · Street 3, Adjacent G-13/4 Park, Srinagar Highway, Service Rd
Open 24 hours · +92 315 3515555",Hospital,Open 24 hours,33.6497383,72.9765602,https://www.google.com/maps/place/Capital+International+Hospital+%28CIH%29/data=!4m7!3m6!1s0x38df97121bd4389d:0x4d0f61f6d63e994f!8m2!3d33.6497383!4d72.9765602!16s%2Fg%2F11gzq_k_vm!19sChIJnTjUGxKX3zgRT5k-1vZhD00?authuser=0&hl=en&rclk=1,"Emergency Room, Islamabad"
54,islamabadinternation_33.702019_72.967700,Islamabad International Hospital & Research Center (IIHRC),"Islamabad International Hospital & Research Center (IIHRC)
4.2(301)
Hospital ·  · 2 Main Double Rd
Open 24 hours · +92 51 2304941",Hospital,Open 24 hours,33.7020189,72.9676998,https://www.google.com/maps/place/Islamabad+International+Hospital+%26+Research+Center+%28IIHRC%29/data=!4m7!3m6!1s0x38dfbdb7b33ca017:0xc4f40d2ce1e0e985!8m2!3d33.7020189!4d72.9676998!16s%2Fg%2F11gf8hs6jv!19sChIJF6A8s7e93zgRheng4SwN9MQ?authuser=0&hl=en&rclk=1,"Emergency Room, Islamabad"
55,emergencyblock_33.652735_73.016497,Emergency Block,"Emergency Block
5.0(1)
Hospital department ·  · 4
Open 24 hours · +92 51 9257173",Hospital department,Open 24 hours,33.6527354,73.0164972,https://www.google.com/maps/place/Emergency+Block/data=!4m7!3m6!1s0x38df95eab1951115:0xa8ebe4ff0810f935!8m2!3d33.6527354!4d73.0164972!16s%2Fg%2F11c5_zlr89!19sChIJFRGVseqV3zgRNfkQCP_k66g?authuser=0&hl=en&rclk=1,"Emergency Room, Islamabad"
56,edhicontrolroom_33.706649_73.088782,EDHI Control Room,"EDHI Control Room
4.1(10)
Emergency room · Shuhada Masjid, 1
Open ⋅ Closes 12 AM · +92 51 2827844",Emergency room,Open,33.7066495,73.0887821,https://www.google.com/maps/place/EDHI+Control+Room/data=!4m7!3m6!1s0x38dfc075438f3ab7:0x11eeb829d8ca37d1!8m2!3d33.7066495!4d73.0887821!16s%2Fg%2F1q67q8xqc!19sChIJtzqPQ3XA3zgR0TfK2Cm47hE?authuser=0&hl=en&rclk=1,"Emergency Room, Islamabad"
57,southeasthospital_33.565746_73.130498,SouthEast Hospital,"SouthEast Hospital
3.8(264)
Hospital ·  · H48J+75X
Open 24 hours · +92 51 8314299",Hospital,Open 24 hours,33.5657456,73.1304975,https://www.google.com/maps/place/SouthEast+Hospital/data=!4m7!3m6!1s0x38dfecf947339fed:0xba1289cf5249fdc9!8m2!3d33.5657456!4d73.1304975!16s%2Fg%2F11c1tsmtlk!19sChIJ7Z8zR_ns3zgRyf1JUs-JEro?authuser=0&hl=en&rclk=1,"Emergency Room, Islamabad"
58,fedralgovernmentpoly_33.720817_73.081973,Fedral Government Polyclinic Hospital Islamabad,"Fedral Government Polyclinic Hospital Islamabad
4.2(37)
Hospital ·  · P3CJ+8QH
Open 24 hours · +92 51 9218308",Hospital,Open 24 hours,33.7208174,73.0819725,https://www.google.com/maps/place/Fedral+Government+Polyclinic+Hospital+Islamabad/data=!4m7!3m6!1s0x38dfbf86aae843f9:0x1849f0efff7d9bc0!8m2!3d33.7208174!4d73.0819725!16s%2Fg%2F11g8_0tvm7!19sChIJ-UPoqoa_3zgRwJt9_-_wSRg?authuser=0&hl=en&rclk=1,"Emergency Room, Islamabad"
59,imcemergency_33.648575_73.017720,IMC Emergency,"IMC Emergency
No reviews
Emergency room ·  · J2X8+PV4, 4 Faqir Aipee Road",Emergency room,,33.648575,73.0177204,https://www.google.com/maps/place/IMC+Emergency/data=!4m7!3m6!1s0x38df95004668a9e3:0xb8eef2919774406c!8m2!3d33.648575!4d73.0177204!16s%2Fg%2F11y41bqytw!19sChIJ46loRgCV3zgRbEB0l5Hy7rg?authuser=0&hl=en&rclk=1,"Emergency Room, Islamabad"
60,krlhospital_33.677743_73.031739,KRL Hospital,"KRL Hospital
3.8(446)
Hospital ·  · Muhammad Tufail Niazi Rd
Closes soon ⋅ 2:30 PM ⋅ Opens 8 AM Fri",Hospital,Closes soon,33.6777434,73.0317386,https://www.google.com/maps/place/KRL+Hospital/data=!4m7!3m6!1s0x38dfbe2852f2b6c7:0x679566e8e6890eb8!8m2!3d33.6777434!4d73.0317386!16s%2Fg%2F1tfrkqft!19sChIJx7byUii-3zgRuA6J5uhmlWc?authuser=0&hl=en&rclk=1,"Emergency Room, Islamabad"
61,zobiahospitalg9islam_33.677978_73.030205,Zobia Hospital G-9 Islamabad,"Zobia Hospital G-9 Islamabad
3.5(103)
Emergency care service ·  · Street 30
Open 24 hours · +92 51 2261130",Emergency care service,Open 24 hours,33.6779776,73.0302046,https://www.google.com/maps/place/Zobia+Hospital+G-9+Islamabad/data=!4m7!3m6!1s0x38dfbf80a2b451a5:0x316fd483f145e55d!8m2!3d33.6779776!4d73.0302046!16s%2Fg%2F11h336n5v0!19sChIJpVG0ooC_3zgRXeVF8YPUbzE?authuser=0&hl=en&rclk=1,"Emergency Room, Islamabad"
62,medicsihospital_33.551578_73.124169,Medicsi Hospital,"Medicsi Hospital
3.1(71)
Hospital ·  · Plaza, 4 59-61
Open 24 hours · +92 51 111 125 128",Hospital,Open 24 hours,33.5515779,73.1241695,https://www.google.com/maps/place/Medicsi+Hospital/data=!4m7!3m6!1s0x38dfed4481df704f:0x6053a5e41b7c7966!8m2!3d33.5515779!4d73.1241695!16s%2Fg%2F11k3jfgc2_!19sChIJT3DfgUTt3zgRZnl8G-SlU2A?authuser=0&hl=en&rclk=1,"Emergency Room, Islamabad"
63,islamabadmedicarehos_33.697719_72.970770,Islamabad Medicare Hospital,"Islamabad Medicare Hospital
3.3(30)
Private hospital ·  · 116 Street 88
Open 24 hours · +92 336 5048548",Private hospital,Open 24 hours,33.6977185,72.9707696,https://www.google.com/maps/place/Islamabad+Medicare+Hospital/data=!4m7!3m6!1s0x38dfbdc79a13fc59:0x5b947f3628dd06a0!8m2!3d33.6977185!4d72.9707696!16s%2Fg%2F11cjnnzk12!19sChIJWfwTmse93zgRoAbdKDZ_lFs?authuser=0&hl=en&rclk=1,"Emergency Room, Islamabad"
64,emergancymedicalcent_33.580095_72.869088,Emergancy Medical Center,"Emergancy Medical Center
3.3(3)
Hospital · Street 19
+92 300 5545542",Hospital,,33.5800946,72.8690884,https://www.google.com/maps/place/Emergancy+Medical+Center/data=!4m7!3m6!1s0x38df99917d1d8f6b:0x48481ba4a043781a!8m2!3d33.5800946!4d72.8690884!16s%2Fg%2F11g7z50859!19sChIJa48dfZGZ3zgRGnhDoKQbSEg?authuser=0&hl=en&rclk=1,"Emergency Room, Islamabad"
65,islamabadgeneralhosp_33.741519_73.183075,Islamabad General Hospital,"Islamabad General Hospital
4.3(40)
Hospital · ",Hospital,,33.7415187,73.183075,https://www.google.com/maps/place/Islamabad+General+Hospital/data=!4m7!3m6!1s0x38dfc3d5437f1845:0x3edab6924ba1dbff!8m2!3d33.7415187!4d73.183075!16s%2Fg%2F11xslmt6r!19sChIJRRh_Q9XD3zgR_9uhS5K22j4?authuser=0&hl=en&rclk=1,"Emergency Room, Islamabad"
66,saeedinternationalho_33.697467_73.051157,Saeed International Hospital G-8 Markaz Islamabad,"Saeed International Hospital G-8 Markaz Islamabad
No reviews
Hospital ·  · 12 D Markaz, near PSO Petrol Pump
Open 24 hours · +92 331 1110675",Hospital,Open 24 hours,33.6974672,73.0511568,https://www.google.com/maps/place/Saeed+International+Hospital+G-8+Markaz+Islamabad/data=!4m7!3m6!1s0x38dfbf077f243959:0xc76ec250e1b3076!8m2!3d33.6974672!4d73.0511568!16s%2Fg%2F11tsdk8w4m!19sChIJWTkkfwe_3zgRdjAbDiXsdgw?authuser=0&hl=en&rclk=1,"Emergency Room, Islamabad"
67,wapdadispensaryislam_33.706779_73.077730,WAPDA Dispensary Islamabad,"WAPDA Dispensary Islamabad
4.0(6)
Government hospital ·  · P34H+P39, Street 43
Closes soon ⋅ 3 PM ⋅ Opens 9 AM Fri",Government hospital,Closes soon,33.7067786,73.0777297,https://www.google.com/maps/place/WAPDA+Dispensary+Islamabad/data=!4m7!3m6!1s0x38dfbfb38cae89cd:0x2b22cf94c6435d49!8m2!3d33.7067786!4d73.0777297!16s%2Fg%2F11hdg4mb4s!19sChIJzYmujLO_3zgRSV1DxpTPIis?authuser=0&hl=en&rclk=1,"Emergency Room, Islamabad"
68,caremedicalcenter_33.698542_73.048703,Care+ Medical Center,"Care+ Medical Center
3.9(208)
Private hospital ·  · 20-C, M2XX+F95 Crescent Arcade
Open 24 hours · +92 51 111 111 097",Private hospital,Open 24 hours,33.6985419,73.0487032,https://www.google.com/maps/place/Care%2B+Medical+Center/data=!4m7!3m6!1s0x38dfbf4b32a7fb61:0xca3ac0299b9d7aa4!8m2!3d33.6985419!4d73.0487032!16s%2Fg%2F11g3y4qzr_!19sChIJYfunMku_3zgRpHqdmynAOso?authuser=0&hl=en&rclk=1,"Emergency Room, Islamabad"
69,islamabadspecialized_33.652723_73.071629,Islamabad specialized hospital...,"Islamabad specialized hospital...
4.6(150)
Hospital ·  · Main Double, Rawalpindi Stadium Rd
Open 24 hours · +92 51 8779111",Hospital,Open 24 hours,33.6527227,73.0716286,https://www.google.com/maps/place/Islamabad+specialized+hospital.../data=!4m7!3m6!1s0x38df95af2158e1c3:0xbcf787e80e5c86a4!8m2!3d33.6527227!4d73.0716286!16s%2Fg%2F11sq_hgzjk!19sChIJw-FYIa-V3zgRpIZcDuiH97w?authuser=0&hl=en&rclk=1,"Emergency Room, Islamabad"
70,islamabadmedicalands_33.716275_73.084751,Islamabad Medical and Surgical Hospital,"Islamabad Medical and Surgical Hospital
3.7(57)
Hospital ·  · Melody Market
Open 24 hours · +92 51 2603566",Hospital,Open 24 hours,33.7162751,73.0847509,https://www.google.com/maps/place/Islamabad+Medical+and+Surgical+Hospital/data=!4m7!3m6!1s0x38dfbf862d3909cb:0x867c7db711a27e7c!8m2!3d33.7162751!4d73.0847509!16s%2Fg%2F11dyqrrqkw!19sChIJywk5LYa_3zgRfH6iEbd9fIY?authuser=0&hl=en&rclk=1,"Emergency Room, Islamabad"
71,1122emergencycentre_33.646014_73.028819,1122 Emergency Centre,"1122 Emergency Centre
5.0(2)
Emergency care service ·  · J2WH+CG4
Open 24 hours",Emergency care service,Open 24 hours,33.6460139,73.028819,https://www.google.com/maps/place/1122+Emergency+Centre/data=!4m7!3m6!1s0x38df957b466da3eb:0xe98373d87c1eaa37!8m2!3d33.6460139!4d73.028819!16s%2Fg%2F11h8brdy2l!19sChIJ66NtRnuV3zgRN6oefNhzg-k?authuser=0&hl=en&rclk=1,"Emergency Room, Islamabad"
72,khatoonhospitalepiva_33.564058_73.127358,Khatoon Hospital & EPI Vaccination Center in PWD Islamabad,"Khatoon Hospital & EPI Vaccination Center in PWD Islamabad
4.3(97)
Hospital ·  · Plot #124 Main PWD Rd
Open 24 hours · +92 334 8430848",Hospital,Open 24 hours,33.5640584,73.1273575,https://www.google.com/maps/place/Khatoon+Hospital+%26+EPI+Vaccination+Center+in+PWD+Islamabad/data=!4m7!3m6!1s0x38dfecfc7456f80f:0xcd2ce32724b318d2!8m2!3d33.5640584!4d73.1273575!16s%2Fg%2F11g6wyvkr8!19sChIJD_hWdPzs3zgR0hizJCfjLM0?authuser=0&hl=en&rclk=1,"Emergency Room, Islamabad"
73,emergencycomplexpims_33.705136_73.052284,Emergency complex Pims (underconstruction),"Emergency complex Pims (underconstruction)
No reviews
Hospital ·  · P333+V24, Pims Rd",Hospital,,33.7051361,73.0522843,https://www.google.com/maps/place/Emergency+complex+Pims+%28underconstruction%29/data=!4m7!3m6!1s0x38dfbf0006aef2ab:0x22b3c90d9cea82d7!8m2!3d33.7051361!4d73.0522843!16s%2Fg%2F11y3lp_d1k!19sChIJq_KuBgC_3zgR14LqnA3JsyI?authuser=0&hl=en&rclk=1,"Emergency Room, Islamabad"
74,springnorthhospital_33.521813_73.088313,Spring North Hospital,"Spring North Hospital
4.7(206)
Hospital ·  · G3CQ+P8
Open 24 hours · +92 51 8733600",Hospital,Open 24 hours,33.5218125,73.0883125,https://www.google.com/maps/place/Spring+North+Hospital/data=!4m7!3m6!1s0x38dfedd2fdbf2ca1:0xed36b09002868903!8m2!3d33.5218125!4d73.0883125!16s%2Fg%2F11llvb9gqn!19sChIJoSy__dLt3zgRA4mGApCwNu0?authuser=0&hl=en&rclk=1,"Emergency Room, Islamabad"
75,hanifmedicalcomplexf_33.609167_72.865749,"Hanif Medical Complex - Faisal Town, Islamabad","Hanif Medical Complex - Faisal Town, Islamabad
4.8(208)
Hospital ·  · Plot 44, MR02, adjacent Tandoori Restaurant
Open 24 hours · +92 306 8487999",Hospital,Open 24 hours,33.6091671,72.8657494,"https://www.google.com/maps/place/Hanif+Medical+Complex+-+Faisal+Town,+Islamabad/data=!4m7!3m6!1s0x38df997275d079bd:0x9ed1a4a85f55ebed!8m2!3d33.6091671!4d72.8657494!16s%2Fg%2F11k3rthrtk!19sChIJvXnQdXKZ3zgR7etVX6ik0Z4?authuser=0&hl=en&rclk=1","Emergency Room, Islamabad"
76,healthinternationalh_33.632874_73.113133,Health International Hospital,"Health International Hospital
4.3(21)
Hospital ·  · J4M7+47R, Service Rd W
Open now · +92 51 2619271",Hospital,Open now,33.6328744,73.1131331,https://www.google.com/maps/place/Health+International+Hospital/data=!4m7!3m6!1s0x38dfeb079b2ba7b9:0xb35d9d61e21b67b4!8m2!3d33.6328744!4d73.1131331!16s%2Fg%2F11t_qkyd_m!19sChIJuacrmwfr3zgRtGcb4mGdXbM?authuser=0&hl=en&rclk=1,"Emergency Room, Islamabad"
77,socialsecurityemerge_33.645510_73.040906,"Social Security Emergency Centre I-10/4 , Islamabad","Social Security Emergency Centre I-10/4 , Islamabad
No reviews
Emergency care service · 1337 Street 89",Emergency care service,,33.64551,73.040906,"https://www.google.com/maps/place/Social+Security+Emergency+Centre+I-10%2F4+,+Islamabad/data=!4m7!3m6!1s0x38df95816883306b:0xf6a3c43f22dfbe6!8m2!3d33.64551!4d73.040906!16s%2Fg%2F11hx7ksp_w!19sChIJazCDaIGV3zgR5vst8kM8ag8?authuser=0&hl=en&rclk=1","Emergency Room, Islamabad"
78,pessisocialsecuritym_33.602555_73.031832,"PESSI Social Security Medical Center I-10/4, Islamabad","PESSI Social Security Medical Center I-10/4, Islamabad
No reviews
Emergency care service · 291-A Main Peshawar Rd",Emergency care service,,33.6025548,73.0318322,"https://www.google.com/maps/place/PESSI+Social+Security+Medical+Center+I-10%2F4,+Islamabad/data=!4m7!3m6!1s0x38df95a03e65ed93:0x6f1d18cea8635877!8m2!3d33.6025548!4d73.0318322!16s%2Fg%2F11lf_7kpt4!19sChIJk-1lPqCV3zgRd1hjqM4YHW8?authuser=0&hl=en&rclk=1","Emergency Room, Islamabad"
79,holyfamilyhospitalwa_33.640441_73.059183,Holy Family Hospital Walk In Patients (Emergency) Gate,"Holy Family Hospital Walk In Patients (Emergency) Gate
4.1(7)
Hospital department ·  · J3R5+5MF
Open now · +92 340 5990718",Hospital department,Open now,33.6404408,73.0591829,https://www.google.com/maps/place/Holy+Family+Hospital+Walk+In+Patients+%28Emergency%29+Gate/data=!4m7!3m6!1s0x38df956a6a5fd2d5:0xc0a930938e0491e!8m2!3d33.6404408!4d73.0591829!16s%2Fg%2F11tsdw9c_r!19sChIJ1dJfamqV3zgRHkngOAmTCgw?authuser=0&hl=en&rclk=1,"Emergency Room, Islamabad"
80,islamabadmedicalcomp_33.649271_73.017190,Islamabad Medical Complex (IMC),"Islamabad Medical Complex (IMC)
3.7(158)
Hospital ·  · J2X8+PV4, Faqir Aipee Road
Open 24 hours · +92 51 906 725 102",Hospital,Open 24 hours,33.6492715,73.0171903,https://www.google.com/maps/place/Islamabad+Medical+Complex+%28IMC%29/data=!4m7!3m6!1s0x38df95bf7f63ca19:0x6d31923341485537!8m2!3d33.6492715!4d73.0171903!16s%2Fg%2F12mkz7vh9!19sChIJGcpjf7-V3zgRN1VIQTOSMW0?authuser=0&hl=en&rclk=1,"Emergency Room, Islamabad"
81,zodiachospital_33.688219_73.035142,Zodiac Hospital,"Zodiac Hospital
No reviews
Emergency care service ·  · M2QP+73J",Emergency care service,,33.6882189,73.0351424,https://www.google.com/maps/place/Zodiac+Hospital/data=!4m7!3m6!1s0x38dfbf2df48b575d:0x8f23e5f40c51380!8m2!3d33.6882189!4d73.0351424!16s%2Fg%2F11s8_hd0s6!19sChIJXVeL9C2_3zgRgBPFQF8-8gg?authuser=0&hl=en&rclk=1,"Emergency Room, Islamabad"
82,opdthechildrenhospit_33.704581_73.055678,"OPD, The Children Hospital, PIMS, Islamabad","OPD, The Children Hospital, PIMS, Islamabad
4.2(21)
Hospital ·  · P334+R7M
Closed ⋅ Opens 8 AM Fri",Hospital,Closed,33.7045808,73.0556783,"https://www.google.com/maps/place/OPD,+The+Children+Hospital,+PIMS,+Islamabad/data=!4m7!3m6!1s0x38dfbfb90eb68165:0x8573293afa436f7f!8m2!3d33.7045808!4d73.0556783!16s%2Fg%2F11clv_52fc!19sChIJZYG2Drm_3zgRf29D-jopc4U?authuser=0&hl=en&rclk=1","Emergency Room, Islamabad"
83,resq999_30.362957_68.996698,ResQ999,"ResQ999
5.0(4)
Emergency care service
Open 24 hours · +92 341 0010999",Emergency care service,Open 24 hours,30.3629572,68.9966984,https://www.google.com/maps/place/ResQ999/data=!4m7!3m6!1s0x48c6233628c0244d:0xb237c1f71ba07a12!8m2!3d30.3629572!4d68.9966984!16s%2Fg%2F11lzw24mnz!19sChIJTSTAKDYjxkgREnqgG_fBN7I?authuser=0&hl=en&rclk=1,"Emergency Room, Islamabad"
84,premiumdiagnosticand_33.703519_73.051454,Premium Diagnostic and Clinics,"Premium Diagnostic and Clinics
4.2(2,549)
Medical school ·  · Ibn-e-Sina Rd
Open 24 hours · +92 51 9261170",Medical school,Open 24 hours,33.7035185,73.0514542,https://www.google.com/maps/place/Premium+Diagnostic+and+Clinics/data=!4m7!3m6!1s0x38dfbfb826dae131:0xba5e1cbcad4376fe!8m2!3d33.7035185!4d73.0514542!16zL20vMGQyeGNw!19sChIJMeHaJri_3zgR_nZDrbwcXro?authuser=0&hl=en&rclk=1,"Emergency Room, Islamabad"
85,masimsinternationalh_33.656494_73.093407,Masims International Hospital Islamabad,"Masims International Hospital Islamabad
5.0(2)
Hospital ·  · M34V+H9V, Sohan Rd, Sohan, Islamabad
Open 24 hours",Hospital,Open 24 hours,33.656494,73.0934072,https://www.google.com/maps/place/Masims+International+Hospital+Islamabad/data=!4m7!3m6!1s0x38dfeb97eadfacfb:0xaad48d49aa0c6f1e!8m2!3d33.656494!4d73.0934072!16s%2Fg%2F11f9fqnl13!19sChIJ-6zf6pfr3zgRHm8MqkmN1Ko?authuser=0&hl=en&rclk=1,"Emergency Room, Islamabad"
86,alfatimaclinicislama_33.716399_73.084738,"Al fatima Clinic, islamabad","Al fatima Clinic, islamabad
3.7(26)
Medical Center ·  · Ground Floor, Melody Market, Islamabad Medical and Surgical Centre
Open 24 hours · +92 336 2824124",Medical Center,Open 24 hours,33.7163989,73.0847375,"https://www.google.com/maps/place/Al+fatima+Clinic,+islamabad/data=!4m7!3m6!1s0x38dfbf7c8641b7cf:0x1713a8999cc921b!8m2!3d33.7163989!4d73.0847375!16s%2Fg%2F11sjrnmzyv!19sChIJz7dBhny_3zgRG5LMmYk6cQE?authuser=0&hl=en&rclk=1","Emergency Room, Islamabad"
87,mentalhealthcarehosp_33.618842_73.126497,"Mental Health Care Hospital, Islamabad","Mental Health Care Hospital, Islamabad
5.0(2)
Hospital ·  · J49G+GHQ, Main market road
+92 300 8346269",Hospital,,33.6188418,73.1264971,"https://www.google.com/maps/place/Mental+Health+Care+Hospital,+Islamabad/data=!4m7!3m6!1s0x38dfebee9e4c2345:0x35d32b26a3c63451!8m2!3d33.6188418!4d73.1264971!16s%2Fg%2F11fnqc96rf!19sChIJRSNMnu7r3zgRUTTGoyYr0zU?authuser=0&hl=en&rclk=1","Emergency Room, Islamabad"
88,medcarehospitalislam_33.709608_72.920388,Medcare Hospital Islamabad,"Medcare Hospital Islamabad
No reviews
Hospital ·  · near Saver Cash and Carry
+92 51 2218350",Hospital,,33.7096077,72.9203881,https://www.google.com/maps/place/Medcare+Hospital+Islamabad/data=!4m7!3m6!1s0x38dfed58874116e1:0xa70f32c9c22a00de!8m2!3d33.7096077!4d72.9203881!16s%2Fg%2F11rmsyqnn7!19sChIJ4RZBh1jt3zgR3gAqwskyD6c?authuser=0&hl=en&rclk=1,"Emergency Room, Islamabad"
89,bahriainternationalh_33.492063_73.100188,Bahria International Hospital,"Bahria International Hospital
3.3(565)
Emergency room ·  · F4R2+R3V، Bahria Safari Villas, Umer Avenue
Open 24 hours · +92 51 5705790",Emergency room,Open 24 hours,33.4920625,73.1001875,https://www.google.com/maps/place/Bahria+International+Hospital/data=!4m7!3m6!1s0x38dff2b8321b97ab:0xedce5173f0fa4687!8m2!3d33.4920625!4d73.1001875!16s%2Fg%2F11gwn9xtgt!19sChIJq5cbMrjy3zgRh0b68HNRzu0?authuser=0&hl=en&rclk=1,"Emergency Room, Islamabad"
90,lilycarehomepatientc_33.715287_73.063448,Lilycare Home Patient Care Services Islamabad,"Lilycare Home Patient Care Services Islamabad
5.0(43)
Home health care service ·  · 61-A Jinnah Ave
Open 24 hours · +92 321 1190356",Home health care service,Open 24 hours,33.7152872,73.0634478,https://www.google.com/maps/place/Lilycare+Home+Patient+Care+Services+Islamabad/data=!4m7!3m6!1s0xa1fb52ad23559b1b:0x6121a654b491b063!8m2!3d33.7152872!4d73.0634478!16s%2Fg%2F11td0t8nhg!19sChIJG5tVI61S-6ERY7CRtFSmIWE?authuser=0&hl=en&rclk=1,"Emergency Room, Islamabad"
91,instituteofregenerat_33.515771_73.167394,Institute of Regenerative Medicine (IRM Hospital),"Institute of Regenerative Medicine (IRM Hospital)
4.4(120)
Medical Center ·  · Institute of Regenerative Medicine 397 Kortana, GT Rd, opposite Gate 4
Open 24 hours · +92 51 3757635",Medical Center,Open 24 hours,33.5157711,73.1673939,https://www.google.com/maps/place/Institute+of+Regenerative+Medicine+%28IRM+Hospital%29/data=!4m7!3m6!1s0x38dff374f326913b:0x78cee8166e11606f!8m2!3d33.5157711!4d73.1673939!16s%2Fg%2F11mvlqkhdg!19sChIJO5Em83Tz3zgRb2ARbhbozng?authuser=0&hl=en&rclk=1,"Emergency Room, Islamabad"
92,homenursingpatientsc_33.716945_73.064870,Home Nursing Patients Care Services Islamabad & Rawalpindi,"Home Nursing Patients Care Services Islamabad & Rawalpindi
5.0(11)
Nursing home · H8/1
Open 24 hours · +92 305 7882422",Nursing home,Open 24 hours,33.716945,73.0648701,https://www.google.com/maps/place/Home+Nursing+Patients+Care+Services+Islamabad+%26+Rawalpindi/data=!4m7!3m6!1s0x861d40cda8af5049:0x6e54048f7f6208d6!8m2!3d33.716945!4d73.0648701!16s%2Fg%2F11w3rbgg31!19sChIJSVCvqM1AHYYR1ghif48EVG4?authuser=0&hl=en&rclk=1,"Emergency Room, Islamabad"
93,socialsecurityemerge_33.509321_73.183302,"Social Security Emergency Centre Redco , Rawalpindi","Social Security Emergency Centre Redco , Rawalpindi
No reviews
Emergency care service ·  · G55M+P8F, Bhangril Bus Stop",Emergency care service,,33.5093206,73.1833024,"https://www.google.com/maps/place/Social+Security+Emergency+Centre+Redco+,+Rawalpindi/data=!4m7!3m6!1s0x38dff149bd99d80d:0xf54b09fa890fcf1b!8m2!3d33.5093206!4d73.1833024!16s%2Fg%2F11hx7jkjz8!19sChIJDdiZvUnx3zgRG88PifoJS_U?authuser=0&hl=en&rclk=1","Emergency Room, Islamabad"
94,islamabadpharmapharm_33.707936_73.038066,Islamabad Pharma Pharmacy and Healthcare Centre,"Islamabad Pharma Pharmacy and Healthcare Centre
4.0(5)
Hospital · 12 Street 44
Open 24 hours · +92 332 9407614",Hospital,Open 24 hours,33.7079356,73.0380657,https://www.google.com/maps/place/Islamabad+Pharma+Pharmacy+and+Healthcare+Centre/data=!4m7!3m6!1s0x38dfa3da25b7a01b:0xe49f711cb29ad9dc!8m2!3d33.7079356!4d73.0380657!16s%2Fg%2F11qn10y2p_!19sChIJG6C3Jdqj3zgR3Nmashxxn-Q?authuser=0&hl=en&rclk=1,"Emergency Room, Islamabad"
95,edhihomeh8_33.672922_73.063694,Edhi Home H-8,"Edhi Home H-8
4.6(248)
Emergency care service ·  · M3F7+5F8, adjacent to CDA office I
Open 24 hours · +92 51 4939267",Emergency care service,Open 24 hours,33.672922,73.0636938,https://www.google.com/maps/place/Edhi+Home+H-8/data=!4m7!3m6!1s0x38df95f54b54d3e9:0x833c35ae35175079!8m2!3d33.672922!4d73.0636938!16s%2Fg%2F1q6bkb35j!19sChIJ6dNUS_WV3zgReVAXNa41PIM?authuser=0&hl=en&rclk=1,"Emergency Room, Islamabad"
96,uhealthinternational_33.516079_73.166957,UHealth International Hospital,"UHealth International Hospital
3.9(132)
Hospital ·  · Uhealth International Hospital, Main GT Rd, opposite Gate # 4
Temporarily closed",Hospital,,33.516079,73.1669572,https://www.google.com/maps/place/UHealth+International+Hospital/data=!4m7!3m6!1s0x38dff3654b841a31:0x712b5816fff3f588!8m2!3d33.516079!4d73.1669572!16s%2Fg%2F11lkf3w_fq!19sChIJMRqES2Xz3zgRiPXz_xZYK3E?authuser=0&hl=en&rclk=1,"Emergency Room, Islamabad"
