Index,Place Id,Name,Address,Category,Status,Latitude,Longitude,Link,SearchKeyword
1,na_noloc,,,,,,,,"Medical, Islamabad"
5,azizmedicalcenter_33.730722_73.080296,Aziz Medical Center,,Hospital,Open,33.7307216,73.080296,https://www.google.com/maps/place/Aziz+Medical+Center/data=!4m7!3m6!1s0x38dfbf796636527d:0x78946fe33d68e6b6!8m2!3d33.7307216!4d73.080296!16s%2Fg%2F1wtbs84p!19sChIJfVI2Znm_3zgRtuZoPeNvlHg?authuser=0&hl=en&rclk=1,"Medical, Islamabad"
37,alimedicalcentre_33.710413_73.042016,Ali Medical Centre,"Ali Medical Centre
3.4(730)
Private hospital ·  · P26Q+JWM, Kohistan Rd
Open 24 hours · +92 51 8090200",Private hospital,Open 24 hours,33.7104129,73.0420161,https://www.google.com/maps/place/Ali+Medical+Centre/data=!4m7!3m6!1s0x38dfbfad680bca0d:0x8035f4aacf56cf3d!8m2!3d33.7104129!4d73.0420161!16s%2Fg%2F1tgw88nw!19sChIJDcoLaK2_3zgRPc9Wz6r0NYA?authuser=0&hl=en&rclk=1,"Medical, Islamabad"
38,premiumdiagnosticand_33.703519_73.051454,Premium Diagnostic and Clinics,"Premium Diagnostic and Clinics
4.2(2,549)
Medical school ·  · Ibn-e-Sina Rd
Open 24 hours · +92 51 9261170",Medical school,Open 24 hours,33.7035185,73.0514542,https://www.google.com/maps/place/Premium+Diagnostic+and+Clinics/data=!4m7!3m6!1s0x38dfbfb826dae131:0xba5e1cbcad4376fe!8m2!3d33.7035185!4d73.0514542!16zL20vMGQyeGNw!19sChIJMeHaJri_3zgR_nZDrbwcXro?authuser=0&hl=en&rclk=1,"Medical, Islamabad"
39,smartmedicaldiagnost_33.698436_73.048823,Smart Medical & Diagnostics Centre ( SMDC),"Smart Medical & Diagnostics Centre ( SMDC)
5.0(415)
Medical Center ·  · Crescent Arcade, opp. Motorway Expess
Open ⋅ Closes 10 PM · +92 51 2340383",Medical Center,Open,33.6984362,73.0488229,https://www.google.com/maps/place/Smart+Medical+%26+Diagnostics+Centre+%28+SMDC%29/data=!4m7!3m6!1s0x38dfbf2235ed90a7:0x1fa908fbadbd9842!8m2!3d33.6984362!4d73.0488229!16s%2Fg%2F11jpd2vqlr!19sChIJp5DtNSK_3zgRQpi9rfsIqR8?authuser=0&hl=en&rclk=1,"Medical, Islamabad"
40,islamabadmedicaldent_33.755508_73.210015,Islamabad Medical & Dental College (IMDC),"Islamabad Medical & Dental College (IMDC)
4.3(273)
Medical school ·  · Q645+2XP Wadi-ul-Ilm، Main Murree Rd
Closes soon ⋅ 3 PM ⋅ Opens 8 AM Fri · +92 51 111 464 632",Medical school,Closes soon,33.7555075,73.2100146,https://www.google.com/maps/place/Islamabad+Medical+%26+Dental+College+%28IMDC%29/data=!4m7!3m6!1s0x38dfc3b9d90b56bd:0xd1ec92ee965afe65!8m2!3d33.7555075!4d73.2100146!16s%2Fm%2F0fpjbwg!19sChIJvVYL2bnD3zgRZf5alu6S7NE?authuser=0&hl=en&rclk=1,"Medical, Islamabad"
41,islamabadmedicalcomp_33.649271_73.017190,Islamabad Medical Complex (IMC),"Islamabad Medical Complex (IMC)
3.7(158)
Hospital ·  · J2X8+PV4, Faqir Aipee Road
Open 24 hours · +92 51 906 725 102",Hospital,Open 24 hours,33.6492715,73.0171903,https://www.google.com/maps/place/Islamabad+Medical+Complex+%28IMC%29/data=!4m7!3m6!1s0x38df95bf7f63ca19:0x6d31923341485537!8m2!3d33.6492715!4d73.0171903!16s%2Fg%2F12mkz7vh9!19sChIJGcpjf7-V3zgRN1VIQTOSMW0?authuser=0&hl=en&rclk=1,"Medical, Islamabad"
42,hanifmedicalcomplexf_33.609167_72.865749,"Hanif Medical Complex - Faisal Town, Islamabad","Hanif Medical Complex - Faisal Town, Islamabad
4.8(208)
Hospital ·  · Plot 44, MR02, adjacent Tandoori Restaurant
Open 24 hours · +92 306 8487999",Hospital,Open 24 hours,33.6091671,72.8657494,"https://www.google.com/maps/place/Hanif+Medical+Complex+-+Faisal+Town,+Islamabad/data=!4m7!3m6!1s0x38df997275d079bd:0x9ed1a4a85f55ebed!8m2!3d33.6091671!4d72.8657494!16s%2Fg%2F11k3rthrtk!19sChIJvXnQdXKZ3zgR7etVX6ik0Z4?authuser=0&hl=en&rclk=1","Medical, Islamabad"
43,gulbergmedicalcenter_33.597849_73.142213,Gulberg Medical Center,"Gulberg Medical Center
4.2(171)
Hospital ·  · Plot 30, Street 2, Service Road, Expressway, near Imtiaz Super Store
Open 24 hours · +92 300 8545942",Hospital,Open 24 hours,33.5978486,73.1422128,https://www.google.com/maps/place/Gulberg+Medical+Center/data=!4m7!3m6!1s0x38dfed5a7f50614f:0x681f431d7c656eaa!8m2!3d33.5978486!4d73.1422128!16s%2Fg%2F11j37g75vk!19sChIJT2FQf1rt3zgRqm5lfB1DH2g?authuser=0&hl=en&rclk=1,"Medical, Islamabad"
44,caremedicalcenter_33.698542_73.048703,Care+ Medical Center,"Care+ Medical Center
3.9(208)
Private hospital ·  · 20-C, M2XX+F95 Crescent Arcade
Open 24 hours · +92 51 111 111 097",Private hospital,Open 24 hours,33.6985419,73.0487032,https://www.google.com/maps/place/Care%2B+Medical+Center/data=!4m7!3m6!1s0x38dfbf4b32a7fb61:0xca3ac0299b9d7aa4!8m2!3d33.6985419!4d73.0487032!16s%2Fg%2F11g3y4qzr_!19sChIJYfunMku_3zgRpHqdmynAOso?authuser=0&hl=en&rclk=1,"Medical, Islamabad"
45,pimshospitalislamaba_33.703334_73.052352,PIMS Hospital Islamabad,"PIMS Hospital Islamabad
3.9(818)
Government hospital ·  · Ibn-e-Sina Rd
Open 24 hours · +92 51 9261170",Government hospital,Open 24 hours,33.7033339,73.0523516,https://www.google.com/maps/place/PIMS+Hospital+Islamabad/data=!4m7!3m6!1s0x38df950787a46b87:0x38d56dc761e05e4f!8m2!3d33.7033339!4d73.0523516!16s%2Fg%2F11r6fwws34!19sChIJh2ukhweV3zgRT17gYcdt1Tg?authuser=0&hl=en&rclk=1,"Medical, Islamabad"
46,tabibimedicalcentre_33.692288_73.030280,Tabibi Medical Centre,"Tabibi Medical Centre
4.8(77)
Hospital ·  · Stree# 5, Jahangir Market
Open 24 hours · +92 51 2324344",Hospital,Open 24 hours,33.6922879,73.0302795,https://www.google.com/maps/place/Tabibi+Medical+Centre/data=!4m7!3m6!1s0x38dfbfee5aca6f49:0x96d49ed063951d5!8m2!3d33.6922879!4d73.0302795!16s%2Fg%2F11m29ljvl1!19sChIJSW_KWu6_3zgR1VE5Bu1JbQk?authuser=0&hl=en&rclk=1,"Medical, Islamabad"
47,gracemedicalcentregm_33.668862_73.076560,Grace Medical Centre (GMC),"Grace Medical Centre (GMC)
3.9(29)
Hospital ·  · Mir Chakar Khan Rd
Open 24 hours · +92 51 6139746",Hospital,Open 24 hours,33.6688622,73.0765597,https://www.google.com/maps/place/Grace+Medical+Centre+%28GMC%29/data=!4m7!3m6!1s0x38df956da6844795:0xc0832ee101e7b8ac!8m2!3d33.6688622!4d73.0765597!16s%2Fg%2F11s5yqjc8w!19sChIJlUeEpm2V3zgRrLjnAeEug8A?authuser=0&hl=en&rclk=1,"Medical, Islamabad"
48,islamabadmedicalcent_33.687118_73.032261,Islamabad Medical Centre,"Islamabad Medical Centre
4.6(9)
Doctor · ICT, Rohtas Rd, G9 markaz
Open ⋅ Closes 9 PM · +92 51 2256966",Doctor,Open,33.6871184,73.0322605,https://www.google.com/maps/place/Islamabad+Medical+Centre/data=!4m7!3m6!1s0x38dfbe311dc56119:0x5d4fe7011e598db1!8m2!3d33.6871184!4d73.0322605!16s%2Fg%2F11xc8c18r!19sChIJGWHFHTG-3zgRsY1ZHgHnT10?authuser=0&hl=en&rclk=1,"Medical, Islamabad"
49,hmdiagnosticsandclin_33.698479_73.048750,HM Diagnostics and Clinics,"HM Diagnostics and Clinics
4.8(213)
Medical clinic · Basement shop no. 11 & 12 Crescent Arcade, Road
Open ⋅ Closes 10 PM · +92 321 5199295",Medical clinic,Open,33.6984794,73.0487497,https://www.google.com/maps/place/HM+Diagnostics+and+Clinics/data=!4m7!3m6!1s0x38dfbfd2f102e0f9:0x3e7c6653ba9236fd!8m2!3d33.6984794!4d73.0487497!16s%2Fg%2F11jx6jbvnp!19sChIJ-eAC8dK_3zgR_TaSulNmfD4?authuser=0&hl=en&rclk=1,"Medical, Islamabad"
50,islamabadmedicalands_33.716275_73.084751,Islamabad Medical and Surgical Hospital,"Islamabad Medical and Surgical Hospital
3.7(57)
Hospital ·  · Melody Market
Open 24 hours · +92 51 2603566",Hospital,Open 24 hours,33.7162751,73.0847509,https://www.google.com/maps/place/Islamabad+Medical+and+Surgical+Hospital/data=!4m7!3m6!1s0x38dfbf862d3909cb:0x867c7db711a27e7c!8m2!3d33.7162751!4d73.0847509!16s%2Fg%2F11dyqrrqkw!19sChIJywk5LYa_3zgRfH6iEbd9fIY?authuser=0&hl=en&rclk=1,"Medical, Islamabad"
51,alihospital_33.680692_73.035455,Ali Hospital,"Ali Hospital
3.8(90)
Hospital ·  · M2JP+75G, Street 17
Open 24 hours · +92 51 2255073",Hospital,Open 24 hours,33.6806918,73.0354553,https://www.google.com/maps/place/Ali+Hospital/data=!4m7!3m6!1s0x38df9513543203fb:0x1dd64dab1015462f!8m2!3d33.6806918!4d73.0354553!16s%2Fg%2F11h9sz11f_!19sChIJ-wMyVBOV3zgRL0YVEKtN1h0?authuser=0&hl=en&rclk=1,"Medical, Islamabad"
52,muhammadmedicalcompl_33.698344_73.047654,Muhammad Medical Complex (MMC),"Muhammad Medical Complex (MMC)
4.8(63)
Hospital ·  · Sultan Mansion, near Tandoori restaurant
Open 24 hours · +92 51 2340508",Hospital,Open 24 hours,33.6983441,73.0476544,https://www.google.com/maps/place/Muhammad+Medical+Complex+%28MMC%29/data=!4m7!3m6!1s0x38dfbf003255bf69:0x2058c9dd6f65cfaa!8m2!3d33.6983441!4d73.0476544!16s%2Fg%2F11y84k8rz5!19sChIJab9VMgC_3zgRqs9lb93JWCA?authuser=0&hl=en&rclk=1,"Medical, Islamabad"
53,advancedinternationa_33.696577_73.050456,Advanced International Hospital Islamabad,"Advanced International Hospital Islamabad
4.5(591)
Hospital ·  · 12-2G Markaz Rd
Open 24 hours · +92 51 111 786 005",Hospital,Open 24 hours,33.6965775,73.0504561,https://www.google.com/maps/place/Advanced+International+Hospital+Islamabad/data=!4m7!3m6!1s0x38dfbf8a6764276f:0xdbb21f59afe3a45b!8m2!3d33.6965775!4d73.0504561!16s%2Fg%2F11hnbz_9lk!19sChIJbydkZ4q_3zgRW6Tjr1kfsts?authuser=0&hl=en&rclk=1,"Medical, Islamabad"
54,drajmalosmanfatimacl_33.688607_73.013056,Dr. Ajmal Osman | Fatima Clinic F-10 | Top/Best (No.1) Specialist of Islamabad & Rawalpindi,"Dr. Ajmal Osman | Fatima Clinic F-10 | Top/Best (No.1) Specialist of Islamabad & Rawalpindi
4.8(184)
Hospital ·  · House 93 Street 44
Open ⋅ Closes 12 AM · +92 323 6833333",Hospital,Open,33.6886072,73.013056,https://www.google.com/maps/place/Dr.+Ajmal+Osman+%7C+Fatima+Clinic+F-10+%7C+Top%2FBest+%28No.1%29+Specialist+of+Islamabad+%26+Rawalpindi/data=!4m7!3m6!1s0x38dfbe1693dca1a1:0x4d05249fbcd133d5!8m2!3d33.6886072!4d73.013056!16s%2Fg%2F11fxx64hvf!19sChIJoaHckxa-3zgR1TPRvJ8kBU0?authuser=0&hl=en&rclk=1,"Medical, Islamabad"
55,alayamedicalcenter_33.645061_72.963564,Alaya Medical Center,"Alaya Medical Center
4.8(56)
Hospital ·  · Street 108
Open 24 hours · +92 51 8482540",Hospital,Open 24 hours,33.6450612,72.963564,https://www.google.com/maps/place/Alaya+Medical+Center/data=!4m7!3m6!1s0x38df97002b757ac3:0xf4ba8fad20a0ec6e!8m2!3d33.6450612!4d72.963564!16s%2Fg%2F11vsfmgmj2!19sChIJw3p1KwCX3zgRbuygIK2PuvQ?authuser=0&hl=en&rclk=1,"Medical, Islamabad"
56,alsafiyamedicaldiagn_33.697891_73.049130,AL SAFIYA Medical & Diagnostic Center,"AL SAFIYA Medical & Diagnostic Center
4.9(21)
Medical Center ·  · Executive complex plaza, Markaz, near Bank AL Habib
Open ⋅ Closes 11 PM · +92 51 2340111",Medical Center,Open,33.6978907,73.0491304,https://www.google.com/maps/place/AL+SAFIYA+Medical+%26+Diagnostic+Center/data=!4m7!3m6!1s0x38dfbfc85069c3c7:0xa399ff1cab7b1823!8m2!3d33.6978907!4d73.0491304!16s%2Fg%2F11gcfxjzcs!19sChIJx8NpUMi_3zgRIxh7qxz_maM?authuser=0&hl=en&rclk=1,"Medical, Islamabad"
57,shifamedicalcenter_33.673540_73.020375,Shifa Medical Center,"Shifa Medical Center
2.7(77)
Hospital ·  · 3rd Rd
Open ⋅ Closes 11 PM · +92 51 8469000",Hospital,Open,33.6735397,73.0203752,https://www.google.com/maps/place/Shifa+Medical+Center/data=!4m7!3m6!1s0x38df958a6d156e65:0x9bc9952b6bf7f2e4!8m2!3d33.6735397!4d73.0203752!16s%2Fg%2F11c2qg7bdr!19sChIJZW4VbYqV3zgR5PL3ayuVyZs?authuser=0&hl=en&rclk=1,"Medical, Islamabad"
58,ogdclmedicalcentre_33.712874_73.037630,OGDCL Medical Centre,"OGDCL Medical Centre
4.3(64)
Medical Center ·  · Park Rd, F-8 Markaz, F-8, Islamabad, ICT
Open ⋅ Closes 4:45 PM · +92 51 9258152",Medical Center,Open,33.7128737,73.0376303,https://www.google.com/maps/place/OGDCL+Medical+Centre/data=!4m7!3m6!1s0x38dfbe53091c5bc9:0x4e91d75d67507739!8m2!3d33.7128737!4d73.0376303!16s%2Fg%2F1ttdwtvr!19sChIJyVscCVO-3zgROXdQZ13XkU4?authuser=0&hl=en&rclk=1,"Medical, Islamabad"
59,pafhospitalislamabad_33.708229_73.015313,PAF Hospital Islamabad,"PAF Hospital Islamabad
3.7(690)
Hospital ·  · Main Margalla Rd
Open 24 hours · +92 51 9564000",Hospital,Open 24 hours,33.708229,73.015313,https://www.google.com/maps/place/PAF+Hospital+Islamabad/data=!4m7!3m6!1s0x38dfbf22bfada2c1:0xa4d9acbf9789555b!8m2!3d33.708229!4d73.015313!16s%2Fg%2F11gmgd5zhy!19sChIJwaKtvyK_3zgRW1WJl7-s2aQ?authuser=0&hl=en&rclk=1,"Medical, Islamabad"
60,graceinternationalho_33.663460_72.887963,Grace International Hospital Islamabad,"Grace International Hospital Islamabad
2.8(46)
Hospital · 
Open 24 hours · +92 301 5710777",Hospital,Open 24 hours,33.6634596,72.8879628,https://www.google.com/maps/place/Grace+International+Hospital+Islamabad/data=!4m7!3m6!1s0x38dfa3e8224f80f1:0x89bea84f88237fda!8m2!3d33.6634596!4d72.8879628!16s%2Fg%2F11lg2nf5v3!19sChIJ8YBPIuij3zgR2n8jiE-ovok?authuser=0&hl=en&rclk=1,"Medical, Islamabad"
61,islamabadmedicalcent_33.624176_73.149064,Islamabad Medical Centre (IMC),"Islamabad Medical Centre (IMC)
4.8(6)
Medical Center · J4FX+MJG
Open 24 hours · +92 334 4440614",Medical Center,Open 24 hours,33.6241763,73.1490642,https://www.google.com/maps/place/Islamabad+Medical+Centre+%28IMC%29/data=!4m7!3m6!1s0x38dfeb0072e86699:0x9ed9a420f347b290!8m2!3d33.6241763!4d73.1490642!16s%2Fg%2F11wqv6mpqx!19sChIJmWbocgDr3zgRkLJH8yCk2Z4?authuser=0&hl=en&rclk=1,"Medical, Islamabad"
62,zainabmedicalcentrea_33.697046_73.050798,Zainab Medical Centre and Lab,"Zainab Medical Centre and Lab
5.0(7)
Hospital · Plot No, 1st Floor, Medicine Plaza, 12-F Hanna Rd
Open ⋅ Closes 10 PM · +92 347 7527486",Hospital,Open,33.6970462,73.0507984,https://www.google.com/maps/place/Zainab+Medical+Centre+and+Lab/data=!4m7!3m6!1s0x38dfbff0e3d0bb49:0xeaeffe7877565449!8m2!3d33.6970462!4d73.0507984!16s%2Fg%2F11tj36p_0s!19sChIJSbvQ4_C_3zgRSVRWd3j-7-o?authuser=0&hl=en&rclk=1,"Medical, Islamabad"
63,kausarmedicalcenter_33.667649_72.998938,Kausar Medical Center,"Kausar Medical Center
5.0(4)
Medical Center · Ground Floor, Raja Haq Nawaz Plaza
Open ⋅ Closes 11 PM · +92 51 6162828",Medical Center,Open,33.6676494,72.9989377,https://www.google.com/maps/place/Kausar+Medical+Center/data=!4m7!3m6!1s0x38df950028b7a61d:0x647151d8a1373c69!8m2!3d33.6676494!4d72.9989377!16s%2Fg%2F11lzndldtm!19sChIJHaa3KACV3zgRaTw3odhRcWQ?authuser=0&hl=en&rclk=1,"Medical, Islamabad"
64,islamabadhealthservi_33.568875_73.200526,Islamabad Health Services Hospital,"Islamabad Health Services Hospital
4.6(99)
Hospital ·  · D-23, Commercial Street 02, Block D Naval Anchorage, Islamabad Expressway Islamabad
Open 24 hours · +92 333 5767177",Hospital,Open 24 hours,33.5688753,73.200526,https://www.google.com/maps/place/Islamabad+Health+Services+Hospital/data=!4m7!3m6!1s0x38dfef77a8d3ea13:0xc7a33b4eb65b3bcf!8m2!3d33.5688753!4d73.200526!16s%2Fg%2F11h0b8y3g2!19sChIJE-rTqHfv3zgRzztbtk47o8c?authuser=0&hl=en&rclk=1,"Medical, Islamabad"
65,multimedicalcentre_33.685271_72.826074,Multi Medical Centre,"Multi Medical Centre
3.9(56)
Hospital ·  · Multi Hospital, near MPCHS Site office
Open 24 hours · +92 51 5443628",Hospital,Open 24 hours,33.6852715,72.8260742,https://www.google.com/maps/place/Multi+Medical+Centre/data=!4m7!3m6!1s0x38dfa235c5388e15:0x8d93227f932c1781!8m2!3d33.6852715!4d72.8260742!16s%2Fg%2F11f10g_81v!19sChIJFY44xTWi3zgRgRcsk38ik40?authuser=0&hl=en&rclk=1,"Medical, Islamabad"
66,gamcamedicalslipcent_33.667656_73.006961,Gamca Medical Slip Center G-11,"Gamca Medical Slip Center G-11
4.3(33)
Medical Center ·  · Street 118
Open 24 hours · +92 337 9216737",Medical Center,Open 24 hours,33.6676555,73.006961,https://www.google.com/maps/place/Gamca+Medical+Slip+Center+G-11/data=!4m7!3m6!1s0x38df95e9608fc4b9:0xe21b42286eea7252!8m2!3d33.6676555!4d73.006961!16s%2Fg%2F11fnp6vdq2!19sChIJucSPYOmV3zgRUnLqbihCG-I?authuser=0&hl=en&rclk=1,"Medical, Islamabad"
67,medicalcentrequaidea_33.750272_73.135849,Medical Centre Quaid e Azam university islamabad,"Medical Centre Quaid e Azam university islamabad
5.0(1)
Medical Center · Quaid e Azam University Islamabad, Medical Centre
+92 319 6598565",Medical Center,,33.7502716,73.1358493,https://www.google.com/maps/place/Medical+Centre+Quaid+e+Azam+university+islamabad/data=!4m7!3m6!1s0x38dfc1005f0edc55:0x931abc6ec5895330!8m2!3d33.7502716!4d73.1358493!16s%2Fg%2F11vk9t241v!19sChIJVdwOXwDB3zgRMFOJxW68GpM?authuser=0&hl=en&rclk=1,"Medical, Islamabad"
68,islamabadinternation_33.702019_72.967700,Islamabad International Hospital & Research Center (IIHRC),"Islamabad International Hospital & Research Center (IIHRC)
4.2(301)
Hospital ·  · 2 Main Double Rd
Open 24 hours · +92 51 2304941",Hospital,Open 24 hours,33.7020189,72.9676998,https://www.google.com/maps/place/Islamabad+International+Hospital+%26+Research+Center+%28IIHRC%29/data=!4m7!3m6!1s0x38dfbdb7b33ca017:0xc4f40d2ce1e0e985!8m2!3d33.7020189!4d72.9676998!16s%2Fg%2F11gf8hs6jv!19sChIJF6A8s7e93zgRheng4SwN9MQ?authuser=0&hl=en&rclk=1,"Medical, Islamabad"
69,shifamedicalcenterfo_33.676046_73.067008,Shifa Medical Center for GCC,"Shifa Medical Center for GCC
2.3(20)
Medical diagnostic imaging center ·  · M3G8+CR6, Pitras Bukhari Rd
Open 24 hours · +92 51 3584162",Medical diagnostic imaging center,Open 24 hours,33.6760459,73.0670077,https://www.google.com/maps/place/Shifa+Medical+Center+for+GCC/data=!4m7!3m6!1s0x38df953e349ffd39:0x5e8eb31338eb66f3!8m2!3d33.6760459!4d73.0670077!16s%2Fg%2F11j4ttkhz5!19sChIJOf2fND6V3zgR82brOBOzjl4?authuser=0&hl=en&rclk=1,"Medical, Islamabad"
70,avicennaclinic_33.710497_73.038990,Avicenna Clinic,"Avicenna Clinic
5.0(4)
Medical clinic ·  · Khasif Plaza, Parking, offJohar Road
Open ⋅ Closes 11 PM · +92 51 8448474",Medical clinic,Open,33.7104968,73.03899,https://www.google.com/maps/place/Avicenna+Clinic/data=!4m7!3m6!1s0x38dfbfae8c8e2981:0xabae6ce0c269947!8m2!3d33.7104968!4d73.03899!16s%2Fg%2F11fn242f7y!19sChIJgSmOjK6_3zgRR5kmDM7mugo?authuser=0&hl=en&rclk=1,"Medical, Islamabad"
71,ayeshamedicalcenter_33.670191_72.985973,Ayesha Medical Center,"Ayesha Medical Center
4.4(20)
Medical Center · House # 957 Service Rd W
Open ⋅ Closes 11 PM · +92 345 5703585",Medical Center,Open,33.6701912,72.9859725,https://www.google.com/maps/place/Ayesha+Medical+Center/data=!4m7!3m6!1s0x38df97d86e55bc95:0xaed8902b349726ca!8m2!3d33.6701912!4d72.9859725!16s%2Fg%2F11h7f8jvnm!19sChIJlbxVbtiX3zgRyiaXNCuQ2K4?authuser=0&hl=en&rclk=1,"Medical, Islamabad"
72,aleesmedicalcenter_33.632684_72.921466,Alees Medical Center,"Alees Medical Center
4.2(28)
Medical Center ·  · 233 Main Road No.1
+92 341 5061201",Medical Center,,33.6326841,72.9214664,https://www.google.com/maps/place/Alees+Medical+Center/data=!4m7!3m6!1s0x38df973941d642d7:0x6b670bcf8fc0e2b3!8m2!3d33.6326841!4d72.9214664!16s%2Fg%2F11rkh_nczw!19sChIJ10LWQTmX3zgRs-LAj88LZ2s?authuser=0&hl=en&rclk=1,"Medical, Islamabad"
73,alimedicalhospitalbe_33.614032_72.970525,Ali Medical Hospital - Best Medical Centre Near Golra More I-14 Islamabad,"Ali Medical Hospital - Best Medical Centre Near Golra More I-14 Islamabad
5.0(10)
Medical Center · House Number 1345-C, Street 69
Open 24 hours · +92 327 0484908",Medical Center,Open 24 hours,33.6140324,72.9705249,https://www.google.com/maps/place/Ali+Medical+Hospital+-+Best+Medical+Centre+Near+Golra+More+I-14+Islamabad/data=!4m7!3m6!1s0x38df9783ab255af1:0xc7b47235674271d3!8m2!3d33.6140324!4d72.9705249!16s%2Fg%2F11vcvl_tlx!19sChIJ8Volq4OX3zgR03FCZzVytMc?authuser=0&hl=en&rclk=1,"Medical, Islamabad"
74,clinicamedicalcomple_33.634062_72.987688,"Clinica Medical Complex (CMC), NUST Service Road (West) H-13, Islamabad","Clinica Medical Complex (CMC), NUST Service Road (West) H-13, Islamabad
5.0(6)
Hospital ·  · JXMQ+J3 Clinica Medical Complex, NUST Service Rd
Opens soon ⋅ 3 PM · +92 331 7000412",Hospital,Opens soon,33.6340625,72.9876875,"https://www.google.com/maps/place/Clinica+Medical+Complex+%28CMC%29,+NUST+Service+Road+%28West%29+H-13,+Islamabad/data=!4m7!3m6!1s0x38df97007006180b:0x5b9447b6b97e58ef!8m2!3d33.6340625!4d72.9876875!16s%2Fg%2F11w3rtzrxg!19sChIJCxgGcACX3zgR71h-ubZHlFs?authuser=0&hl=en&rclk=1","Medical, Islamabad"
75,mumtazmedicaldentalc_33.515987_73.170956,Mumtaz Medical & Dental Complex,"Mumtaz Medical & Dental Complex
4.7(76)
Hospital ·  · Lavender Street, Commercial Business Avenue, St 26A
Open 24 hours · +92 337 8636844",Hospital,Open 24 hours,33.5159871,73.170956,https://www.google.com/maps/place/Mumtaz+Medical+%26+Dental+Complex/data=!4m7!3m6!1s0x38dff359bc4ac5b3:0x3287a24696be93ab!8m2!3d33.5159871!4d73.170956!16s%2Fg%2F11trgyrgkl!19sChIJs8VKvFnz3zgRq5O-lkaihzI?authuser=0&hl=en&rclk=1,"Medical, Islamabad"
76,shahidakhaliqhospita_33.692240_73.057561,Shahida Khaliq Hospital,"Shahida Khaliq Hospital
4.6(269)
Private hospital ·  · Plot No 14, Street No 22, 17-4 Street 22
Open 24 hours · +92 51 2331908",Private hospital,Open 24 hours,33.6922398,73.0575614,https://www.google.com/maps/place/Shahida+Khaliq+Hospital/data=!4m7!3m6!1s0x38dfbfe86d1359ad:0x565822eeafed1115!8m2!3d33.6922398!4d73.0575614!16s%2Fg%2F11sh5jzyx9!19sChIJrVkTbei_3zgRFRHtr-4iWFY?authuser=0&hl=en&rclk=1,"Medical, Islamabad"
77,humamedicalcomplex_33.680518_73.154699,Huma Medical Complex,"Huma Medical Complex
4.0(23)
Hospital ·  · Jinnah Avenue, road Neomull
Open 24 hours · +92 335 0586179",Hospital,Open 24 hours,33.6805175,73.1546989,https://www.google.com/maps/place/Huma+Medical+Complex/data=!4m7!3m6!1s0x38dfeb98d96099d1:0xbb26d2bc45758753!8m2!3d33.6805175!4d73.1546989!16s%2Fg%2F11sn3s51dj!19sChIJ0Zlg2Zjr3zgRU4d1RbzSJrs?authuser=0&hl=en&rclk=1,"Medical, Islamabad"
78,alfatimaclinicislama_33.716399_73.084738,"Al fatima Clinic, islamabad","Al fatima Clinic, islamabad
3.7(26)
Medical Center ·  · Ground Floor, Melody Market, Islamabad Medical and Surgical Centre
Open 24 hours · +92 336 2824124",Medical Center,Open 24 hours,33.7163989,73.0847375,"https://www.google.com/maps/place/Al+fatima+Clinic,+islamabad/data=!4m7!3m6!1s0x38dfbf7c8641b7cf:0x1713a8999cc921b!8m2!3d33.7163989!4d73.0847375!16s%2Fg%2F11sjrnmzyv!19sChIJz7dBhny_3zgRG5LMmYk6cQE?authuser=0&hl=en&rclk=1","Medical, Islamabad"
79,alnafeesmedicalcolle_33.655383_73.205558,Al Nafees Medical College And Hospital,"Al Nafees Medical College And Hospital
3.9(131)
Private hospital ·  · Phase I Rd، near isra university islamabad
Open 24 hours · +92 51 8439901",Private hospital,Open 24 hours,33.6553826,73.2055582,https://www.google.com/maps/place/Al+Nafees+Medical+College+And+Hospital/data=!4m7!3m6!1s0x38dfe97538630969:0x6941a70864610193!8m2!3d33.6553826!4d73.2055582!16s%2Fg%2F11h0tf9gv!19sChIJaQljOHXp3zgRkwFhZAinQWk?authuser=0&hl=en&rclk=1,"Medical, Islamabad"
80,rawalinstituteofheal_33.632441_73.122416,Rawal Institute of Health Sciences,"Rawal Institute of Health Sciences
4.1(856)
Medical school ·  · Almehrban Road, Madina Town, Lehtrar Rd
Open 24 hours · +92 51 2617381",Medical school,Open 24 hours,33.6324412,73.1224157,https://www.google.com/maps/place/Rawal+Institute+of+Health+Sciences/data=!4m7!3m6!1s0x38dfeb103acb523b:0x83428a0541285c4e!8m2!3d33.6324412!4d73.1224157!16s%2Fg%2F1hdzydn2n!19sChIJO1LLOhDr3zgRTlwoQQWKQoM?authuser=0&hl=en&rclk=1,"Medical, Islamabad"
81,irummedicalcomplex_33.644860_73.170575,Irum Medical Complex,"Irum Medical Complex
4.4(19)
Hospital ·  · J5VC+W79
Open 24 hours · +92 321 5050954",Hospital,Open 24 hours,33.6448595,73.1705751,https://www.google.com/maps/place/Irum+Medical+Complex/data=!4m7!3m6!1s0x38dfebafc756fbc3:0x9bc96ddc95549e74!8m2!3d33.6448595!4d73.1705751!16s%2Fg%2F11gh9p0pkc!19sChIJw_tWx6_r3zgRdJ5UldxtyZs?authuser=0&hl=en&rclk=1,"Medical, Islamabad"
82,riphahinternationalh_33.538162_73.185958,Riphah International Hospital,"Riphah International Hospital
3.5(146)
Hospital ·  · Opp Gate 7, DHA Phase2, near kaakpul, Islamabad Expy
Open 24 hours · +92 51 4486062",Hospital,Open 24 hours,33.5381622,73.1859579,https://www.google.com/maps/place/Riphah+International+Hospital/data=!4m7!3m6!1s0x38dfee0913bb1621:0xfa29a1cc535f02f2!8m2!3d33.5381622!4d73.1859579!16s%2Fg%2F11b7f9110s!19sChIJIRa7Ewnu3zgR8gJfU8yhKfo?authuser=0&hl=en&rclk=1,"Medical, Islamabad"
83,cdamedicalcenter_33.687928_73.034407,CDA Medical Center,"CDA Medical Center
4.0(41)
Hospital ·  · M2QM+4QP Niazi Express, Mangla Rd، near Niazi Bus stop
Open ⋅ Closes 8 PM · +92 51 9330223",Hospital,Open,33.6879277,73.034407,https://www.google.com/maps/place/CDA+Medical+Center/data=!4m7!3m6!1s0x38dfbf1e5ddebda9:0x7d553df06e8b57b6!8m2!3d33.6879277!4d73.034407!16s%2Fg%2F11gydlm98q!19sChIJqb3eXR6_3zgRtleLbvA9VX0?authuser=0&hl=en&rclk=1,"Medical, Islamabad"
84,rahmaniamedicalcente_33.638889_73.130166,Rahmania Medical Center,"Rahmania Medical Center
4.6(11)
Medical Center · J4QJ+H33, Ahmed Plaza St
Open 24 hours · +92 340 1900591",Medical Center,Open 24 hours,33.6388894,73.1301659,https://www.google.com/maps/place/Rahmania+Medical+Center/data=!4m7!3m6!1s0x38dfeb007533dc33:0xa1f1f7371e1f1c54!8m2!3d33.6388894!4d73.1301659!16s%2Fg%2F11ybz6f6l7!19sChIJM9wzdQDr3zgRVBwfHjf38aE?authuser=0&hl=en&rclk=1,"Medical, Islamabad"
85,alammedicalcenter_33.654133_72.876921,Alam Medical Center,"Alam Medical Center
5.0(1)
Medical Center · 9 Street 27
Open ⋅ Closes 10 PM · +92 335 9843832",Medical Center,Open,33.6541327,72.8769212,https://www.google.com/maps/place/Alam+Medical+Center/data=!4m7!3m6!1s0x38dfa370b22ad1af:0xf690c96de6448da3!8m2!3d33.6541327!4d72.8769212!16s%2Fg%2F11vhx5fmhw!19sChIJr9EqsnCj3zgRo41E5m3JkPY?authuser=0&hl=en&rclk=1,"Medical, Islamabad"
86,naqaishmedicare_33.666657_73.076139,Naqaish Medicare,"Naqaish Medicare
4.6(170)
Hospital ·  · Pakland Business Center
Open 24 hours · +92 304 2252555",Hospital,Open 24 hours,33.6666574,73.0761395,https://www.google.com/maps/place/Naqaish+Medicare/data=!4m7!3m6!1s0x38df9566e99b3abd:0xb0ad90d97b709256!8m2!3d33.6666574!4d73.0761395!16s%2Fg%2F11fq88qchw!19sChIJvTqb6WaV3zgRVpJwe9mQrbA?authuser=0&hl=en&rclk=1,"Medical, Islamabad"
87,ndcmedicalcentre_33.655291_73.037019,NDC Medical Centre,"NDC Medical Centre
4.4(19)
Hospital ·  · 59-E Street 7
Open now · +92 51 4431752",Hospital,Open now,33.6552913,73.0370185,https://www.google.com/maps/place/NDC+Medical+Centre/data=!4m7!3m6!1s0x38df959f7b0abbf7:0x1258c4d092d2a9fb!8m2!3d33.6552913!4d73.0370185!16s%2Fg%2F11c51w2pnw!19sChIJ97sKe5-V3zgR-6nSktDEWBI?authuser=0&hl=en&rclk=1,"Medical, Islamabad"
88,medicalcenterbahriae_33.692488_73.219187,Medical Center Bahria Enclave,"Medical Center Bahria Enclave
3.0(12)
Medical Center ·  · M6R9+XMV Park, Urban Blvd, near Sector A
Open 24 hours · +92 51 2721044",Medical Center,Open 24 hours,33.6924882,73.2191868,https://www.google.com/maps/place/Medical+Center+Bahria+Enclave/data=!4m7!3m6!1s0x38dfe9ccc070bbdd:0xd9a8278c334cfa64!8m2!3d33.6924882!4d73.2191868!16s%2Fg%2F11hzj0qxfb!19sChIJ3btwwMzp3zgRZPpMM4wnqNk?authuser=0&hl=en&rclk=1,"Medical, Islamabad"
89,zobiahospitalg9islam_33.677978_73.030205,Zobia Hospital G-9 Islamabad,"Zobia Hospital G-9 Islamabad
3.5(103)
Hospital ·  · Street 30
Open 24 hours · +92 51 2261130",Hospital,Open 24 hours,33.6779776,73.0302046,https://www.google.com/maps/place/Zobia+Hospital+G-9+Islamabad/data=!4m7!3m6!1s0x38dfbf80a2b451a5:0x316fd483f145e55d!8m2!3d33.6779776!4d73.0302046!16s%2Fg%2F11h336n5v0!19sChIJpVG0ooC_3zgRXeVF8YPUbzE?authuser=0&hl=en&rclk=1,"Medical, Islamabad"
90,sarwarmedicalcomplex_33.639229_72.969360,Sarwar Medical Complex,"Sarwar Medical Complex
4.9(28)
Hospital ·  · Main Khayam Town Rd
Open 24 hours · +92 347 9207778",Hospital,Open 24 hours,33.6392291,72.9693603,https://www.google.com/maps/place/Sarwar+Medical+Complex/data=!4m7!3m6!1s0x38df974b8980a657:0x699be9dcd6e13825!8m2!3d33.6392291!4d72.9693603!16s%2Fg%2F11s8jyfbdw!19sChIJV6aAiUuX3zgRJTjh1tzpm2k?authuser=0&hl=en&rclk=1,"Medical, Islamabad"
91,arifmedicalcomplex_33.571090_73.176308,Arif Medical Complex,"Arif Medical Complex
3.6(30)
Hospital ·  · 21 Iqbal Avenue
Open 24 hours · +92 51 5148373",Hospital,Open 24 hours,33.5710902,73.1763076,https://www.google.com/maps/place/Arif+Medical+Complex/data=!4m7!3m6!1s0x38dfed4b9b541601:0x4386744dccb6d4d2!8m2!3d33.5710902!4d73.1763076!16s%2Fg%2F11f72y2s91!19sChIJARZUm0vt3zgR0tS2zE10hkM?authuser=0&hl=en&rclk=1,"Medical, Islamabad"
92,islamabadspecialized_33.652723_73.071629,Islamabad specialized hospital...,"Islamabad specialized hospital...
4.6(150)
Hospital ·  · Main Double, Rawalpindi Stadium Rd
Open 24 hours · +92 51 8779111",Hospital,Open 24 hours,33.6527227,73.0716286,https://www.google.com/maps/place/Islamabad+specialized+hospital.../data=!4m7!3m6!1s0x38df95af2158e1c3:0xbcf787e80e5c86a4!8m2!3d33.6527227!4d73.0716286!16s%2Fg%2F11sq_hgzjk!19sChIJw-FYIa-V3zgRpIZcDuiH97w?authuser=0&hl=en&rclk=1,"Medical, Islamabad"
93,generalpracticehospi_33.692211_73.025038,General Practice Hospital,"General Practice Hospital
4.9(150)
Hospital ·  · Pakland Tower, 2 New
Open 24 hours · +92 334 7474701",Hospital,Open 24 hours,33.6922109,73.0250382,https://www.google.com/maps/place/General+Practice+Hospital/data=!4m7!3m6!1s0x38dfbf4da7176c71:0xe1512c7b11c15eef!8m2!3d33.6922109!4d73.0250382!16s%2Fg%2F11rl9kp0yv!19sChIJcWwXp02_3zgR717BEXssUeE?authuser=0&hl=en&rclk=1,"Medical, Islamabad"
94,instituteofregenerat_33.515771_73.167394,Institute of Regenerative Medicine (IRM Hospital),"Institute of Regenerative Medicine (IRM Hospital)
4.4(120)
Medical Center ·  · Institute of Regenerative Medicine 397 Kortana, GT Rd, opposite Gate 4
Open 24 hours · +92 51 3757635",Medical Center,Open 24 hours,33.5157711,73.1673939,https://www.google.com/maps/place/Institute+of+Regenerative+Medicine+%28IRM+Hospital%29/data=!4m7!3m6!1s0x38dff374f326913b:0x78cee8166e11606f!8m2!3d33.5157711!4d73.1673939!16s%2Fg%2F11mvlqkhdg!19sChIJO5Em83Tz3zgRb2ARbhbozng?authuser=0&hl=en&rclk=1,"Medical, Islamabad"
95,1stdiagnosticsmedica_33.697950_73.048745,1st Diagnostics & Medical Center,"1st Diagnostics & Medical Center
5.0(1)
Medical Center ·  · Office 34 & 35, Ground Floor, Executive Plaza, G-8 Markaz
Open ⋅ Closes 12 AM · +92 51 8442806",Medical Center,Open,33.6979503,73.0487451,https://www.google.com/maps/place/1st+Diagnostics+%26+Medical+Center/data=!4m7!3m6!1s0xaa63a58809cca0d5:0xaa87f608219e3a85!8m2!3d33.6979503!4d73.0487451!16s%2Fg%2F11tsjtrsws!19sChIJ1aDMCYilY6oRhTqeIQj2h6o?authuser=0&hl=en&rclk=1,"Medical, Islamabad"
96,islamabadhealthclini_33.706321_73.067806,Islamabad Health Clinic,"Islamabad Health Clinic
5.0(2)
Medical Center · Islamabad Health Clinic G-7 Square Plaza Sitara Market, Markaz
Open 24 hours · +92 51 2606836",Medical Center,Open 24 hours,33.7063206,73.0678056,https://www.google.com/maps/place/Islamabad+Health+Clinic/data=!4m7!3m6!1s0x38dfbf8411f7e61d:0x5a85be4db87f80b!8m2!3d33.7063206!4d73.0678056!16s%2Fg%2F11vcxmdjyg!19sChIJHeb3EYS_3zgRC_iH2-RbqAU?authuser=0&hl=en&rclk=1,"Medical, Islamabad"
97,shaheenmedicalcomple_33.725483_73.184110,Shaheen medical complex,"Shaheen medical complex
4.7(6)
Hospital ·  · P5GM+5JG
Open 24 hours · +92 307 0613780",Hospital,Open 24 hours,33.7254827,73.1841104,https://www.google.com/maps/place/Shaheen+medical+complex/data=!4m7!3m6!1s0x38dfc314ed423a3f:0xfe23b6e731a21dd5!8m2!3d33.7254827!4d73.1841104!16s%2Fg%2F11tft1p6r4!19sChIJPzpC7RTD3zgR1R2iMee2I_4?authuser=0&hl=en&rclk=1,"Medical, Islamabad"
98,rrdiagnostics_33.681637_73.037128,RR Diagnostics,"RR Diagnostics
3.3(245)
Medical Center ·  · Plot 80 Street 54
Open ⋅ Closes 5 PM · +92 51 2808416",Medical Center,Open,33.6816369,73.0371282,https://www.google.com/maps/place/RR+Diagnostics/data=!4m7!3m6!1s0x38dfbfd79f7b56af:0x449ad6b1582fecd1!8m2!3d33.6816369!4d73.0371282!16s%2Fg%2F11t0p8xh8n!19sChIJr1Z7n9e_3zgR0ewvWLHWmkQ?authuser=0&hl=en&rclk=1,"Medical, Islamabad"
99,maroofinternationalh_33.697460_73.011651,Maroof International Hospital,"Maroof International Hospital
3.2(807)
General hospital ·  · Service Rd E, F-10 Markaz F 10/3 F-10, 04412
Open 24 hours · +92 51 111 644 911",General hospital,Open 24 hours,33.6974597,73.0116512,https://www.google.com/maps/place/Maroof+International+Hospital/data=!4m7!3m6!1s0x38dfbe6b77fc7279:0x855a61d1ef5e9def!8m2!3d33.6974597!4d73.0116512!16s%2Fg%2F1hdzv62pm!19sChIJeXL8d2u-3zgR751e79FhWoU?authuser=0&hl=en&rclk=1,"Medical, Islamabad"
100,azmatmedicalcenter_33.674177_72.948876,Azmat Medical Center عظمت میڈیکل سنٹر,"Azmat Medical Center عظمت میڈیکل سنٹر
5.0(8)
Hospital ·  · Station Mor, Golra Rd
Open ⋅ Closes 11 PM · +92 313 5889294",Hospital,Open,33.6741774,72.9488762,https://www.google.com/maps/place/Azmat+Medical+Center+%D8%B9%D8%B8%D9%85%D8%AA+%D9%85%DB%8C%DA%88%DB%8C%DA%A9%D9%84+%D8%B3%D9%86%D9%B9%D8%B1%E2%80%AD/data=!4m7!3m6!1s0x38df95960bfc051d:0x4ea7a9dbb8ca8028!8m2!3d33.6741774!4d72.9488762!16s%2Fg%2F11sfry34zq!19sChIJHQX8C5aV3zgRKIDKuNupp04?authuser=0&hl=en&rclk=1,"Medical, Islamabad"
101,islamabadmedicalstor_33.658437_73.059368,Islamabad Medical Store,"Islamabad Medical Store
4.4(5)
Medical Center · M355+9PH
Open ⋅ Closes 10 PM · +92 336 0906915",Medical Center,Open,33.6584369,73.0593678,https://www.google.com/maps/place/Islamabad+Medical+Store/data=!4m7!3m6!1s0x38df956b4955ef5f:0xd90ea335e36a0782!8m2!3d33.6584369!4d73.0593678!16s%2Fg%2F11xgwdprr!19sChIJX-9VSWuV3zgRggdq4zWjDtk?authuser=0&hl=en&rclk=1,"Medical, Islamabad"
102,alimedicalcenterexec_33.710234_73.042088,Ali Medical Center Executive Block,"Ali Medical Center Executive Block
No reviews
Hospital ·  · IBC-IV, Kaghan Rd
Open ⋅ Closes 5 PM · +92 51 8090200",Hospital,Open,33.7102343,73.042088,https://www.google.com/maps/place/Ali+Medical+Center+Executive+Block/data=!4m7!3m6!1s0x38dfbfc5644a1c6d:0x4601391bc5879ed3!8m2!3d33.7102343!4d73.042088!16s%2Fg%2F11jn2zhs8r!19sChIJbRxKZMW_3zgR056HxRs5AUY?authuser=0&hl=en&rclk=1,"Medical, Islamabad"
103,_33.636085_73.133422,اتمان میڈیکل اینڈ ہوم نرسنگ کیئر سنٹر,"اتمان میڈیکل اینڈ ہوم نرسنگ کیئر سنٹر
5.0(6)
Medical Center ·  · Street A-11
Open 24 hours · +92 306 8831094",Medical Center,Open 24 hours,33.6360847,73.1334217,https://www.google.com/maps/place/%D8%A7%D8%AA%D9%85%D8%A7%D9%86+%D9%85%DB%8C%DA%88%DB%8C%DA%A9%D9%84+%D8%A7%DB%8C%D9%86%DA%88+%DB%81%D9%88%D9%85+%D9%86%D8%B1%D8%B3%D9%86%DA%AF+%DA%A9%DB%8C%D8%A6%D8%B1+%D8%B3%D9%86%D9%B9%D8%B1%E2%80%AD/data=!4m7!3m6!1s0x38dfeb00757d893d:0x54cc71008bcafdbd!8m2!3d33.6360847!4d73.1334217!16s%2Fg%2F11vsbj0h2d!19sChIJPYl9dQDr3zgRvf3KiwBxzFQ?authuser=0&hl=en&rclk=1,"Medical, Islamabad"
104,citymedicalcentref17_33.631901_72.880701,City Medical Centre F-17,"City Medical Centre F-17
5.0(3)
Hospital · Ghousia Plaza, Main Markaz, near Allied Bank
Open ⋅ Closes 10 PM · +92 319 3626757",Hospital,Open,33.6319012,72.8807011,https://www.google.com/maps/place/City+Medical+Centre+F-17/data=!4m7!3m6!1s0x38dfedc97e48b289:0x9157b93f4196d817!8m2!3d33.6319012!4d72.8807011!16s%2Fg%2F11srxwh79c!19sChIJibJIfsnt3zgRF9iWQT-5V5E?authuser=0&hl=en&rclk=1,"Medical, Islamabad"
105,hashimmedicalandgyan_33.614536_73.133324,HASHIM MEDICAL AND GYANE CENTER,"HASHIM MEDICAL AND GYANE CENTER
3.7(38)
Hospital · J47M+R88
Open 24 hours · +92 51 2843455",Hospital,Open 24 hours,33.614536,73.1333242,https://www.google.com/maps/place/HASHIM+MEDICAL+AND+GYANE+CENTER/data=!4m7!3m6!1s0x38dfeb819c08d009:0xc55992d66538d05!8m2!3d33.614536!4d73.1333242!16s%2Fg%2F11fspzw81t!19sChIJCdAInIHr3zgRBY1TZi2ZVQw?authuser=0&hl=en&rclk=1,"Medical, Islamabad"
106,alrehmanmedicalcentr_33.540294_73.136002,AL REHMAN MEDICAL CENTRE,"AL REHMAN MEDICAL CENTRE
5.0(3)
Medical Center ·  · G4RP+4C6
Open 24 hours",Medical Center,Open 24 hours,33.540294,73.1360018,https://www.google.com/maps/place/AL+REHMAN+MEDICAL+CENTRE/data=!4m7!3m6!1s0x38dfed9795555555:0x6170e0c0b83a5346!8m2!3d33.540294!4d73.1360018!16s%2Fg%2F11dfq4hypl!19sChIJVVVVlZft3zgRRlM6uMDgcGE?authuser=0&hl=en&rclk=1,"Medical, Islamabad"
107,jinnahmedicalcomplex_33.738743_73.185818,Jinnah Medical Complex,"Jinnah Medical Complex
3.3(10)
Medical Center ·  · P5QP+F8W, Simly Dam Road
Open 24 hours · +92 51 2160579",Medical Center,Open 24 hours,33.738743,73.1858183,https://www.google.com/maps/place/Jinnah+Medical+Complex/data=!4m7!3m6!1s0x38dfc22b056ca099:0xe0a2036f13dcd7f0!8m2!3d33.738743!4d73.1858183!16s%2Fg%2F11fyzbfz7v!19sChIJmaBsBSvC3zgR8NfcE28DouA?authuser=0&hl=en&rclk=1,"Medical, Islamabad"
108,alsadiqfreemedicalce_33.688459_73.023230,Al Sadiq Free Medical Centre,"Al Sadiq Free Medical Centre
5.0(3)
Hospital
Closed ⋅ Opens 9 AM Fri · +92 321 9502222",Hospital,Closed,33.6884594,73.0232299,https://www.google.com/maps/place/Al+Sadiq+Free+Medical+Centre/data=!4m7!3m6!1s0x38dfbe3b83dd30f3:0xe614863ee5f4f22!8m2!3d33.6884594!4d73.0232299!16s%2Fg%2F11dz58dg42!19sChIJ8zDdgzu-3zgRIk9f7mNIYQ4?authuser=0&hl=en&rclk=1,"Medical, Islamabad"
109,tajmedicalcomplex_33.538734_73.119797,Taj Medical Complex,"Taj Medical Complex
4.4(10)
Hospital ·  · G4Q9+GVV Swan Camp Mohra Nagyal Taj Medical Complex
Open ⋅ Closes 2:30 AM · +92 51 4917171",Hospital,Open,33.5387343,73.1197971,https://www.google.com/maps/place/Taj+Medical+Complex/data=!4m7!3m6!1s0x38dfed1307555e13:0x8f5e4ee7b8a78fd9!8m2!3d33.5387343!4d73.1197971!16s%2Fg%2F11f3y2xm7r!19sChIJE15VBxPt3zgR2Y-nuOdOXo8?authuser=0&hl=en&rclk=1,"Medical, Islamabad"
110,shahmedicaldentalcen_33.644034_73.032026,Shah Medical & Dental Center,"Shah Medical & Dental Center
5.0(2)
Medical Center · Shop no. 12, Ahmad Plaza, Markaz
+92 333 5001175",Medical Center,,33.6440344,73.0320258,https://www.google.com/maps/place/Shah+Medical+%26+Dental+Center/data=!4m7!3m6!1s0x38df9500599cb079:0x7ce5802c077a7043!8m2!3d33.6440344!4d73.0320258!16s%2Fg%2F11vxcrz442!19sChIJebCcWQCV3zgRQ3B6ByyA5Xw?authuser=0&hl=en&rclk=1,"Medical, Islamabad"
111,alhadimedicalcentrep_33.575252_73.143473,Al Hadi Medical Centre Pakistan Town Islamabad,"Al Hadi Medical Centre Pakistan Town Islamabad
5.0(7)
Medical Center · 237 Central Rd PAKISTAN TOWN، 1
Open ⋅ Closes 10:30 PM · +92 344 9401138",Medical Center,Open,33.5752518,73.1434733,https://www.google.com/maps/place/Al+Hadi+Medical+Centre+Pakistan+Town+Islamabad/data=!4m7!3m6!1s0x38dfed688e6adaef:0x1ae81fb9b6c06a2e!8m2!3d33.5752518!4d73.1434733!16s%2Fg%2F11fkvwh2w1!19sChIJ79pqjmjt3zgRLmrAtrkf6Bo?authuser=0&hl=en&rclk=1,"Medical, Islamabad"
112,amedicalcenterdrmuha_33.689510_73.031698,"A Medical Center, Dr Muhammad Asif Younas","A Medical Center, Dr Muhammad Asif Younas
3.0(3)
Medical Center · Asad Plaza
+92 333 1540555",Medical Center,,33.6895104,73.0316978,"https://www.google.com/maps/place/A+Medical+Center,+Dr+Muhammad+Asif+Younas/data=!4m7!3m6!1s0x38dfbf4150350519:0x7952520ecdf223e!8m2!3d33.6895104!4d73.0316978!16s%2Fg%2F11qqv5ppkm!19sChIJGQU1UEG_3zgRPiLf7CAllQc?authuser=0&hl=en&rclk=1","Medical, Islamabad"
113,draftabmedicalclinic_33.672711_73.106522,Dr Aftab Medical clinic,"Dr Aftab Medical clinic
4.3(13)
Medical Center · 13 Street 16
+92 331 5330584",Medical Center,,33.672711,73.1065225,https://www.google.com/maps/place/Dr+Aftab+Medical+clinic/data=!4m7!3m6!1s0x38dfeb3400b851fd:0xaae457941c4f28f4!8m2!3d33.672711!4d73.1065225!16s%2Fg%2F11h_009214!19sChIJ_VG4ADTr3zgR9ChPHJRX5Ko?authuser=0&hl=en&rclk=1,"Medical, Islamabad"
114,islamabadmedicarehos_33.697719_72.970770,Islamabad Medicare Hospital,"Islamabad Medicare Hospital
3.3(30)
Private hospital ·  · 116 Street 88
Open 24 hours · +92 336 5048548",Private hospital,Open 24 hours,33.6977185,72.9707696,https://www.google.com/maps/place/Islamabad+Medicare+Hospital/data=!4m7!3m6!1s0x38dfbdc79a13fc59:0x5b947f3628dd06a0!8m2!3d33.6977185!4d72.9707696!16s%2Fg%2F11cjnnzk12!19sChIJWfwTmse93zgRoAbdKDZ_lFs?authuser=0&hl=en&rclk=1,"Medical, Islamabad"
115,ayaanmedicalcentre_33.640001_72.917220,Ayaan Medical Centre,"Ayaan Medical Centre
5.0(1)
Medical Center · Street 12
Open 24 hours · +92 322 5533413",Medical Center,Open 24 hours,33.6400015,72.9172197,https://www.google.com/maps/place/Ayaan+Medical+Centre/data=!4m7!3m6!1s0x38df97ed0fa44913:0x96a52183a69d5d7!8m2!3d33.6400015!4d72.9172197!16s%2Fg%2F11x2nk57xc!19sChIJE0mkD-2X3zgR19VpOhhSagk?authuser=0&hl=en&rclk=1,"Medical, Islamabad"
117,hoslamedicalcentre_33.664937_73.153163,Hosla Medical Centre,"Hosla Medical Centre
4.7(13)
Hospital ·  · Park Rd
Open ⋅ Closes 8 PM · +92 335 2321144",Hospital,Open,33.6649368,73.153163,https://www.google.com/maps/place/Hosla+Medical+Centre/data=!4m7!3m6!1s0x38dfbfa2c713530b:0xae27c32850d95679!8m2!3d33.6649368!4d73.153163!16s%2Fg%2F11f2vb3fdb!19sChIJC1MTx6K_3zgReVbZUCjDJ64?authuser=0&hl=en&rclk=1,"Medical, Islamabad"
118,alsafiamedicalcenter_33.639040_72.984004,AL Safia Medical Center Lab & Pharmacy,"AL Safia Medical Center Lab & Pharmacy
5.0(2)
Hospital · JXQM+JJ6, opposite NUST Gate 6, near Landmark 3 & KK Residences
+92 310 5111152",Hospital,,33.6390401,72.984004,https://www.google.com/maps/place/AL+Safia+Medical+Center+Lab+%26+Pharmacy/data=!4m7!3m6!1s0x38df9700513d3727:0x717fd02e65a5eab4!8m2!3d33.6390401!4d72.984004!16s%2Fg%2F11w_rrypbq!19sChIJJzc9UQCX3zgRtOqlZS7Qf3E?authuser=0&hl=en&rclk=1,"Medical, Islamabad"
119,spiremedicalrehabili_33.564428_73.126578,Spire Medical & Rehabilitation Center,"Spire Medical & Rehabilitation Center
5.0(10)
Medical Center ·  · 5
Open ⋅ Closes 9 PM · +92 330 2592597",Medical Center,Open,33.5644277,73.1265778,https://www.google.com/maps/place/Spire+Medical+%26+Rehabilitation+Center/data=!4m7!3m6!1s0x38dfed58f6848b0b:0x656c0a50acdd2174!8m2!3d33.5644277!4d73.1265778!16s%2Fg%2F11hdsmjwwp!19sChIJC4uE9ljt3zgRdCHdrFAKbGU?authuser=0&hl=en&rclk=1,"Medical, Islamabad"
120,sawanmedicalcenter_33.596438_72.832735,Sawan Medical Center,"Sawan Medical Center
5.0(1)
Medical Center · HRWM+H3H
Open ⋅ Closes 6 PM",Medical Center,Open,33.5964376,72.8327354,https://www.google.com/maps/place/Sawan+Medical+Center/data=!4m7!3m6!1s0x38df99b5af7c7db3:0xd93e4e7b1f8d4a95!8m2!3d33.5964376!4d72.8327354!16s%2Fg%2F11l71b3wrc!19sChIJs318r7WZ3zgRlUqNH3tOPtk?authuser=0&hl=en&rclk=1,"Medical, Islamabad"
121,talatmedicalcomplex_33.520016_73.161858,Talat Medical Complex,"Talat Medical Complex
4.8(4)
Hospital · Talat Medical Complex
Open ⋅ Closes 9 PM · +92 303 8000801",Hospital,Open,33.5200162,73.1618583,https://www.google.com/maps/place/Talat+Medical+Complex/data=!4m7!3m6!1s0x38dff3bcd410e865:0x4ab152d84b5c8aa7!8m2!3d33.5200162!4d73.1618583!16s%2Fg%2F11t53j9_xk!19sChIJZegQ1Lzz3zgRp4pcS9hSsUo?authuser=0&hl=en&rclk=1,"Medical, Islamabad"
122,medsolmedicallaborat_33.722495_73.082167,Medsol medical laboratory,"Medsol medical laboratory
5.0(7)
Medical Center · Office 10-11, Huma plaza, basement, opposite poly clinic hospital
Open 24 hours · +92 342 2214697",Medical Center,Open 24 hours,33.7224946,73.082167,https://www.google.com/maps/place/Medsol+medical+laboratory/data=!4m7!3m6!1s0x38dfbf9efa5072fd:0x7515797c6be9dcb6!8m2!3d33.7224946!4d73.082167!16s%2Fg%2F11svb3b2tk!19sChIJ_XJQ-p6_3zgRttzpa3x5FXU?authuser=0&hl=en&rclk=1,"Medical, Islamabad"
123,islamabadhomeo_33.668420_72.998312,Islamabad homeo,"Islamabad homeo
4.8(38)
Medical Center · Al Ghaffar Mall Shop#9 Ground floor
Open ⋅ Closes 10 PM · +92 300 5178485",Medical Center,Open,33.6684198,72.9983121,https://www.google.com/maps/place/Islamabad+homeo/data=!4m7!3m6!1s0x38df9564e8def301:0x305672d7fc754b1c!8m2!3d33.6684198!4d72.9983121!16s%2Fg%2F11q84lxh20!19sChIJAfPe6GSV3zgRHEt1_NdyVjA?authuser=0&hl=en&rclk=1,"Medical, Islamabad"
124,msparveenmedicalstor_33.648116_73.116020,Ms/Parveen Medical Store & Cosmetics,"Ms/Parveen Medical Store & Cosmetics
5.0(1)
Medical Center · chinchi stop pandoriya, Ashraf Town main market, Kiyani Rd
+92 314 5193034",Medical Center,,33.6481161,73.1160204,https://www.google.com/maps/place/Ms%2FParveen+Medical+Store+%26+Cosmetics/data=!4m7!3m6!1s0x38dfeb2c7df3f651:0x3aed2b34ecef13e2!8m2!3d33.6481161!4d73.1160204!16s%2Fg%2F11x221nhxv!19sChIJUfbzfSzr3zgR4hPv7DQr7To?authuser=0&hl=en&rclk=1,"Medical, Islamabad"
125,familymedicalcentre_33.614357_73.133673,Family Medical Centre,"Family Medical Centre
4.0(12)
Hospital ·  · Family Medical Centre, Ghori
Open 24 hours · +92 370 5052103",Hospital,Open 24 hours,33.6143573,73.1336726,https://www.google.com/maps/place/Family+Medical+Centre/data=!4m7!3m6!1s0x38dfeb8a74dbb06d:0xf150611c7c0a6cde!8m2!3d33.6143573!4d73.1336726!16s%2Fg%2F11txdp1ttf!19sChIJbbDbdIrr3zgR3mwKfBxhUPE?authuser=0&hl=en&rclk=1,"Medical, Islamabad"
126,dayyansfamilyskincli_33.647953_72.966851,Dayyan's Family & Skin clinic + Medical store,"Dayyan's Family & Skin clinic + Medical store
5.0(19)
Hospital · g13, 4 Street 122
Open 24 hours · +92 333 1638230",Hospital,Open 24 hours,33.6479529,72.9668506,https://www.google.com/maps/place/Dayyan%27s+Family+%26+Skin+clinic+%2B+Medical+store/data=!4m7!3m6!1s0x38df9772a439ff7f:0xe9cfe03b87ba51e5!8m2!3d33.6479529!4d72.9668506!16s%2Fg%2F11sb50kv8p!19sChIJf_85pHKX3zgR5VG6hzvgz-k?authuser=0&hl=en&rclk=1,"Medical, Islamabad"
127,medicalcenterg73_33.709482_73.068535,Medical Center G-7/3,"Medical Center G-7/3
3.7(3)
Hospital · P359+QCV, Unnamed Road",Hospital,,33.7094822,73.0685349,https://www.google.com/maps/place/Medical+Center+G-7%2F3/data=!4m7!3m6!1s0x38dfbf9236824c87:0x8519e6635278c806!8m2!3d33.7094822!4d73.0685349!16s%2Fg%2F11h2wc1fhn!19sChIJh0yCNpK_3zgRBsh4UmPmGYU?authuser=0&hl=en&rclk=1,"Medical, Islamabad"
128,advancedmedicareclin_33.643445_73.162700,Advanced Medicare Clinic,"Advanced Medicare Clinic
4.8(6)
Hospital ·  · Ground floor, Muhammad Khan Plaza, Lehtrar Rd, adjacent to IDC Tiramri Chowk
Open ⋅ Closes 10 PM · +92 325 9560050",Hospital,Open,33.6434445,73.1626998,https://www.google.com/maps/place/Advanced+Medicare+Clinic/data=!4m7!3m6!1s0x38dfeb6bf8d50007:0x68023730d873fab1!8m2!3d33.6434445!4d73.1626998!16s%2Fg%2F11jz3vrlm_!19sChIJBwDV-Gvr3zgRsfpz2DA3Amg?authuser=0&hl=en&rclk=1,"Medical, Islamabad"
129,nnmedicalcentrespeci_33.683823_72.837488,NN Medical Centre & Specialists Clinic,"NN Medical Centre & Specialists Clinic
4.9(7)
Medical Center · MRMP+GVM
Open ⋅ Closes 10:30 PM · +92 330 2844777",Medical Center,Open,33.6838233,72.837488,https://www.google.com/maps/place/NN+Medical+Centre+%26+Specialists+Clinic/data=!4m7!3m6!1s0x38dfa3002a14973b:0xc6c3e86c31dc8761!8m2!3d33.6838233!4d72.837488!16s%2Fg%2F11lcp5_k4v!19sChIJO5cUKgCj3zgRYYfcMWzow8Y?authuser=0&hl=en&rclk=1,"Medical, Islamabad"
130,capitalmedicaldental_33.696098_72.979828,Capital Medical & Dental Center Islamabad E11/4,"Capital Medical & Dental Center Islamabad E11/4
No reviews
Hospital · Khan Dera, Capital Medical Center Mohala Khannan
Open 24 hours · +92 316 9798992",Hospital,Open 24 hours,33.6960982,72.9798285,https://www.google.com/maps/place/Capital+Medical+%26+Dental+Center+Islamabad+E11%2F4/data=!4m7!3m6!1s0x38dfbde96b431bf9:0x41c1a5fb06821a68!8m2!3d33.6960982!4d72.9798285!16s%2Fg%2F11k56bfw95!19sChIJ-RtDa-m93zgRaBqCBvulwUE?authuser=0&hl=en&rclk=1,"Medical, Islamabad"
131,riphahmedicalcityrmc_33.613321_73.196958,Riphah Medical City (RMC),"Riphah Medical City (RMC)
5.0(2)
Hospital ·  · J57W+8QG",Hospital,,33.6133214,73.1969578,https://www.google.com/maps/place/Riphah+Medical+City+%28RMC%29/data=!4m7!3m6!1s0x38dfe9d998b8b8b9:0x44959b4590e06424!8m2!3d33.6133214!4d73.1969578!16s%2Fg%2F11frldj7z3!19sChIJubi4mNnp3zgRJGTgkEWblUQ?authuser=0&hl=en&rclk=1,"Medical, Islamabad"
132,smartclinichomepatie_33.632244_72.928900,"Smart Clinic , Home Patients Care , oxygen cylinder(آکسیجن سیلنڈر) & medical equipment","Smart Clinic , Home Patients Care , oxygen cylinder(آکسیجن سیلنڈر) & medical equipment
5.0(12)
Medical Center · shop#B-1, Khor German Plaza, 4, 4
Open 24 hours · +92 316 1716780",Medical Center,Open 24 hours,33.6322443,72.9289004,"https://www.google.com/maps/place/Smart+Clinic+,+Home+Patients+Care+,+oxygen+cylinder%28%D8%A2%DA%A9%D8%B3%DB%8C%D8%AC%D9%86+%D8%B3%DB%8C%D9%84%D9%86%DA%88%D8%B1%29+%26+medical+equipment%E2%80%AD/data=!4m7!3m6!1s0x38df9705f030270b:0xb3b55c08a586a231!8m2!3d33.6322443!4d72.9289004!16s%2Fg%2F11shdl4jxk!19sChIJCycw8AWX3zgRMaKGpQhctbM?authuser=0&hl=en&rclk=1","Medical, Islamabad"
133,doctorayazsaeedclini_33.690269_73.030859,Doctor Ayaz Saeed Clinic,"Doctor Ayaz Saeed Clinic
4.6(25)
Medical clinic · M2RJ+485
Open ⋅ Closes 8 PM · +92 51 2256966",Medical clinic,Open,33.6902686,73.030859,https://www.google.com/maps/place/Doctor+Ayaz+Saeed+Clinic/data=!4m7!3m6!1s0x38dfbe30ef4e3973:0xac4d213f32baa8e8!8m2!3d33.6902686!4d73.030859!16s%2Fg%2F11g7csg6xt!19sChIJczlO7zC-3zgR6Ki6Mj8hTaw?authuser=0&hl=en&rclk=1,"Medical, Islamabad"
134,drtaliyasclinic_33.689457_73.039991,Dr. Taliya's Clinic,"Dr. Taliya's Clinic
3.9(117)
Medical Center ·  · Street #66, Noor Plaza, Taqwa Market
Open 24 hours · +92 51 2260010",Medical Center,Open 24 hours,33.6894567,73.0399914,https://www.google.com/maps/place/Dr.+Taliya%27s+Clinic/data=!4m7!3m6!1s0x38dfbe32c93d4c9b:0x57e939cbc65699b5!8m2!3d33.6894567!4d73.0399914!16s%2Fg%2F11b5s2gj9_!19sChIJm0w9yTK-3zgRtZlWxss56Vc?authuser=0&hl=en&rclk=1,"Medical, Islamabad"
135,aayanhealthclinic_33.705295_73.068247,Aayan Health Clinic,"Aayan Health Clinic
4.6(19)
Medical clinic ·  · Sitara، Shop # 1-2, Kohsar Cinema Building. Sitara Market, Islamabad G-7 Markaz، Market
Open ⋅ Closes 11 PM · +92 51 2606816",Medical clinic,Open,33.7052947,73.0682471,https://www.google.com/maps/place/Aayan+Health+Clinic/data=!4m7!3m6!1s0x38dfbf94f6965785:0x4ac781ac8c060939!8m2!3d33.7052947!4d73.0682471!16s%2Fg%2F11c1ngy_97!19sChIJhVeW9pS_3zgROQkGjKyBx0o?authuser=0&hl=en&rclk=1,"Medical, Islamabad"
136,amanateyehospitalraw_33.587252_73.066364,Amanat Eye Hospital Rawalpindi,"Amanat Eye Hospital Rawalpindi
4.7(2,021)
Eye care center ·  · 10-D Mayo Road
Open ⋅ Closes 8 PM · +92 51 8439993",Eye care center,Open,33.5872518,73.0663637,https://www.google.com/maps/place/Amanat+Eye+Hospital+Rawalpindi/data=!4m7!3m6!1s0x38df935dc4333d53:0xa7d989ebc4727fe!8m2!3d33.5872518!4d73.0663637!16s%2Fg%2F1tf060yh!19sChIJUz0zxF2T3zgR_idHvJ6YfQo?authuser=0&hl=en&rclk=1,"Medical, Islamabad"
138,hashmimedicalicsicen_33.668506_72.999831,Hashmi Medical & ICSI Centre,"Hashmi Medical & ICSI Centre
4.3(116)
Private hospital · First Floor, Plaza Plot 29&30, above Save Mart
Open ⋅ Closes 9 PM · +92 51 8898918",Private hospital,Open,33.6685055,72.9998313,https://www.google.com/maps/place/Hashmi+Medical+%26+ICSI+Centre/data=!4m7!3m6!1s0x38df959e68abe3fd:0x766b1d89d0435612!8m2!3d33.6685055!4d72.9998313!16s%2Fg%2F11rw_q6ll_!19sChIJ_eOraJ6V3zgRElZD0Ikda3Y?authuser=0&hl=en&rclk=1,"Medical, Islamabad"
139,capitaldiagnosticcen_33.695118_73.051230,Capital Diagnostic Centre,"Capital Diagnostic Centre
3.4(115)
Diagnostic center ·  · Media Foundation Plaza
Open ⋅ Closes 12 AM · +92 51 8354601",Diagnostic center,Open,33.6951178,73.0512304,https://www.google.com/maps/place/Capital+Diagnostic+Centre/data=!4m7!3m6!1s0x38dfbfc8b68dcc6d:0x968ab590990cf04d!8m2!3d33.6951178!4d73.0512304!16s%2Fg%2F1q6jzg4kr!19sChIJbcyNtsi_3zgRTfAMmZC1ipY?authuser=0&hl=en&rclk=1,"Medical, Islamabad"
140,saeedinternationalho_33.697662_73.050815,"Saeed International Hospital Near PSO Petrol PumpG-8 Markaz, Islamabad","Saeed International Hospital Near PSO Petrol PumpG-8 Markaz, Islamabad
4.0(64)
Educational consultant ·  · Markaz Rd, near PSO Petrol pump
Open 24 hours · +92 331 1110675",Educational consultant,Open 24 hours,33.6976615,73.0508145,"https://www.google.com/maps/place/Saeed+International+Hospital+Near+PSO+Petrol+PumpG-8+Markaz,+Islamabad/data=!4m7!3m6!1s0x38dfbff80fba2cbf:0x908bdedff9ba4408!8m2!3d33.6976615!4d73.0508145!16s%2Fg%2F11rtthnytx!19sChIJvyy6D_i_3zgRCES6-d_ei5A?authuser=0&hl=en&rclk=1","Medical, Islamabad"
141,zakimedicalcomplex_33.622151_73.122146,Zaki medical complex,"Zaki medical complex
5.0(13)
Medical Center ·  · Street 1 khana east
Open ⋅ Closes 10 PM · +92 334 5200603",Medical Center,Open,33.622151,73.122146,https://www.google.com/maps/place/Zaki+medical+complex/data=!4m7!3m6!1s0x38dfeb32540ad695:0x1b3b447c452da24b!8m2!3d33.622151!4d73.122146!16s%2Fg%2F11rvbnww9m!19sChIJldYKVDLr3zgRS6ItRXxEOxs?authuser=0&hl=en&rclk=1,"Medical, Islamabad"
142,collegeofmedicaltech_33.702821_73.048677,"College of Medical Technology, PIMS Hospital.","College of Medical Technology, PIMS Hospital.
4.4(67)
Medical school ·  · P23X+7F8, 3
Open ⋅ Closes 5 PM · +92 51 9261191",Medical school,Open,33.7028207,73.0486767,"https://www.google.com/maps/place/College+of+Medical+Technology,+PIMS+Hospital./data=!4m7!3m6!1s0x38dfbfb6f82cd2cb:0x250154cbe5bf6636!8m2!3d33.7028207!4d73.0486767!16s%2Fg%2F11c6rh0q7z!19sChIJy9Is-La_3zgRNma_5ctUASU?authuser=0&hl=en&rclk=1","Medical, Islamabad"
143,saeedinternationalho_33.697388_73.051085,Saeed International Hospital G-8 Markaz Islamabad,"Saeed International Hospital G-8 Markaz Islamabad
5.0(4)
Hospital · Quest Medical Complex, G8 Markaz, near Faisal Bank
Open 24 hours · +92 332 5410055",Hospital,Open 24 hours,33.6973882,73.0510852,https://www.google.com/maps/place/Saeed+International+Hospital+G-8+Markaz+Islamabad/data=!4m7!3m6!1s0x38dfbf91801d9653:0xb8de360fc3e754!8m2!3d33.6973882!4d73.0510852!16s%2Fg%2F11ks0c_5fx!19sChIJU5YdgJG_3zgRVOfDDzbeuAA?authuser=0&hl=en&rclk=1,"Medical, Islamabad"
144,iffatmaternityhomeme_33.577187_73.173707,Iffat Maternity Home & Medical Centre,"Iffat Maternity Home & Medical Centre
4.3(3)
Medical Center ·  · H5GF+VFG A
Open ⋅ Closes 5 PM",Medical Center,Open,33.5771867,73.1737067,https://www.google.com/maps/place/Iffat+Maternity+Home+%26+Medical+Centre/data=!4m7!3m6!1s0x38dfedd1c4dab423:0x15a29b0a4a3fab0e!8m2!3d33.5771867!4d73.1737067!16s%2Fg%2F11tsmfvl8v!19sChIJI7TaxNHt3zgRDqs_SgqbohU?authuser=0&hl=en&rclk=1,"Medical, Islamabad"
145,drwajidmedicalcentre_33.638138_73.112795,DR. WAJID MEDICAL CENTRE & DIAGNOSTIC LAB,"DR. WAJID MEDICAL CENTRE & DIAGNOSTIC LAB
5.0(6)
Medical Center ·  · Zia Masjid, Near Highway Street 3
Open 24 hours · +92 325 6464567",Medical Center,Open 24 hours,33.6381381,73.1127954,https://www.google.com/maps/place/DR.+WAJID+MEDICAL+CENTRE+%26+DIAGNOSTIC+LAB/data=!4m7!3m6!1s0x38dfeb2acae8a271:0x3eef52ac3ad2d242!8m2!3d33.6381381!4d73.1127954!16s%2Fg%2F11tp1b6n6m!19sChIJcaLoyirr3zgRQtLSOqxS7z4?authuser=0&hl=en&rclk=1,"Medical, Islamabad"
146,healthcaremedicalcen_33.643112_73.161434,Healthcare Medical Center,"Healthcare Medical Center
4.4(9)
Hospital ·  · J5V6+6HV, Lehtrar Rd
Open now · +92 333 5159816",Hospital,Open now,33.6431124,73.1614338,https://www.google.com/maps/place/Healthcare+Medical+Center/data=!4m7!3m6!1s0x38dfebc94a9efddd:0x225a3aa8f81bf575!8m2!3d33.6431124!4d73.1614338!16s%2Fg%2F11c1q85kjg!19sChIJ3f2eSsnr3zgRdfUb-Kg6WiI?authuser=0&hl=en&rclk=1,"Medical, Islamabad"
147,wasifmedicaldentalcl_33.739286_73.182839,Wasif Medical & Dental Clinic,"Wasif Medical & Dental Clinic
4.3(18)
Medical Center ·  · Simly Rd, Barakahu
Open ⋅ Closes 10 PM · +92 315 6090906",Medical Center,Open,33.7392861,73.1828388,https://www.google.com/maps/place/Wasif+Medical+%26+Dental+Clinic/data=!4m7!3m6!1s0x38dfc22aa3afc2f9:0xf2ad4679870467d3!8m2!3d33.7392861!4d73.1828388!16s%2Fg%2F11x9wxyc8!19sChIJ-cKvoyrC3zgR02cEh3lGrfI?authuser=0&hl=en&rclk=1,"Medical, Islamabad"
148,nationalinstituteofr_33.695805_73.041512,National Institute of Rehabilitation Medicine (NIRM),"National Institute of Rehabilitation Medicine (NIRM)
4.2(244)
Government hospital ·  · 2 Street 9
Closed ⋅ Opens 8 AM Fri · +92 51 9262213",Government hospital,Closed,33.6958055,73.0415123,https://www.google.com/maps/place/National+Institute+of+Rehabilitation+Medicine+%28NIRM%29/data=!4m7!3m6!1s0x38dfbfcb2174c5f3:0x36de02b41a2e62d2!8m2!3d33.6958055!4d73.0415123!16s%2Fg%2F12mkz5mms!19sChIJ88V0Icu_3zgR0mIuGrQC3jY?authuser=0&hl=en&rclk=1,"Medical, Islamabad"
149,bmdcbiomedicaldiagno_33.642700_72.972034,BMDC (Bio-Medical &Diagnostic Center),"BMDC (Bio-Medical &Diagnostic Center)
3.5(8)
Medical Center · Azan Arcade, Main Khayaban-e-Faiz Rd
Open 24 hours · +92 300 8034376",Medical Center,Open 24 hours,33.6426999,72.9720338,https://www.google.com/maps/place/BMDC+%28Bio-Medical+%26Diagnostic+Center%29/data=!4m7!3m6!1s0x38df97966e6ee8eb:0x716d5b17ef6dd7eb!8m2!3d33.6426999!4d72.9720338!16s%2Fg%2F11s2lxj5d3!19sChIJ6-hubpaX3zgR69dt7xdbbXE?authuser=0&hl=en&rclk=1,"Medical, Islamabad"
150,socialmedicalcentre_33.540450_73.152120,Social Medical Centre,"Social Medical Centre
4.0(2)
Hospital ·  · G5R2+5RQ, Model Town E, Humak Town, Islamabad, ICT",Hospital,,33.5404504,73.1521197,https://www.google.com/maps/place/Social+Medical+Centre/data=!4m7!3m6!1s0x38dfed9602ff2f89:0x484bb1711d06630b!8m2!3d33.5404504!4d73.1521197!16s%2Fg%2F11xm04fhc!19sChIJiS__Apbt3zgRC2MGHXGxS0g?authuser=0&hl=en&rclk=1,"Medical, Islamabad"
151,gamcamedicalcentre_33.684420_73.047885,GAMCA medical centre,"GAMCA medical centre
5.0(2)
Medical Center · 
+92 325 8497972",Medical Center,,33.6844202,73.0478848,https://www.google.com/maps/place/GAMCA+medical+centre/data=!4m7!3m6!1s0x38dfbe3db50fb591:0x7c9afa9fe2b319b5!8m2!3d33.6844202!4d73.0478848!16s%2Fg%2F11sw3l1bjw!19sChIJkbUPtT2-3zgRtRmz4p_6mnw?authuser=0&hl=en&rclk=1,"Medical, Islamabad"
152,shifainternationalho_33.675015_73.066009,Shifa International Hospitals Limited,"Shifa International Hospitals Limited
3.4(2,453)
Hospital ·  · 4 Pitras Bukhari Rd
Open 24 hours · +92 51 8464646",Hospital,Open 24 hours,33.6750148,73.0660089,https://www.google.com/maps/place/Shifa+International+Hospitals+Limited/data=!4m7!3m6!1s0x38df955e641b11dd:0xa273b768a51a9c54!8m2!3d33.6750148!4d73.0660089!16s%2Fm%2F03c3g4_!19sChIJ3REbZF6V3zgRVJwapWi3c6I?authuser=0&hl=en&rclk=1,"Medical, Islamabad"
153,saadmedicalcenter_33.570972_73.145653,SAAD MEDICAL CENTER,"SAAD MEDICAL CENTER
5.0(4)
Medical Center · D, St 17
Open ⋅ Closes 11 PM · +92 345 4156841",Medical Center,Open,33.570972,73.1456531,https://www.google.com/maps/place/SAAD+MEDICAL+CENTER/data=!4m7!3m6!1s0x38dfedf7a96e431d:0xfb1411968879127d!8m2!3d33.570972!4d73.1456531!16s%2Fg%2F11sgw_9cty!19sChIJHUNuqfft3zgRfRJ5iJYRFPs?authuser=0&hl=en&rclk=1,"Medical, Islamabad"
154,alimedicaldiagnostic_33.710765_73.042172,Ali Medical Diagnostics,"Ali Medical Diagnostics
4.0(2)
Diagnostic center ·  · P26R+8V3
Open ⋅ Closes 11:30 PM · +92 51 8090356",Diagnostic center,Open,33.7107645,73.0421717,https://www.google.com/maps/place/Ali+Medical+Diagnostics/data=!4m7!3m6!1s0x38dfbfad69a89715:0x8addfe10873efd08!8m2!3d33.7107645!4d73.0421717!16s%2Fg%2F11cnd7h4s2!19sChIJFZeoaa2_3zgRCP0-hxD-3Yo?authuser=0&hl=en&rclk=1,"Medical, Islamabad"
155,saniamedicalcentre_33.654025_73.051016,Sania Medical Centre,"Sania Medical Centre
5.0(2)
Medical Center · Potohar Plaza, Warsak Rd, I-9 Markaz, I-9
+92 51 4440800",Medical Center,,33.6540253,73.0510156,https://www.google.com/maps/place/Sania+Medical+Centre/data=!4m7!3m6!1s0x38df950d9eff7795:0x45c11322ac2511a3!8m2!3d33.6540253!4d73.0510156!16s%2Fg%2F12mkzjlrk!19sChIJlXf_ng2V3zgRoxElrCITwUU?authuser=0&hl=en&rclk=1,"Medical, Islamabad"
156,syedmedicalcentre_33.734264_73.189972,Syed Medical Centre,"Syed Medical Centre
4.3(6)
Hospital ·  · street 6 Prince Rd
Open 24 hours · +92 51 8484675",Hospital,Open 24 hours,33.7342638,73.1899725,https://www.google.com/maps/place/Syed+Medical+Centre/data=!4m7!3m6!1s0x38dfc36562c61807:0x2d2a83582763244b!8m2!3d33.7342638!4d73.1899725!16s%2Fg%2F11ll8mh7yv!19sChIJBxjGYmXD3zgRSyRjJ1iDKi0?authuser=0&hl=en&rclk=1,"Medical, Islamabad"
157,makkahmedicalcenter_33.738698_73.182806,Makkah medical center,"Makkah medical center
5.0(5)
Hospital ·  · P5QM+F4V, Near barakahu police station, opposite malikabad main st, Simly Dam Road
Open ⋅ Closes 5 PM · +92 51 2160653",Hospital,Open,33.7386977,73.1828062,https://www.google.com/maps/place/Makkah+medical+center/data=!4m7!3m6!1s0x38dfc3144e53231b:0x312fdddec08c6c2d!8m2!3d33.7386977!4d73.1828062!16s%2Fg%2F11ksq30npf!19sChIJGyNTThTD3zgRLWyMwN7dLzE?authuser=0&hl=en&rclk=1,"Medical, Islamabad"
1,na_noloc,,,,,,,,"Medical, Islamabad"
5,islamabadelectronics_33.720607_73.077462,Islamabad Electronics,,Electronics store,Open,33.7206073,73.0774625,https://www.google.com/maps/place/Islamabad+Electronics/data=!4m7!3m6!1s0x38dfbf8ecf7c1d1b:0x88b0bb068f3f808d!8m2!3d33.7206073!4d73.0774625!16s%2Fg%2F11kmvf2_qn!19sChIJGx18z46_3zgRjYA_jwa7sIg?authuser=0&hl=en&rclk=1,"Medical, Islamabad"
37,gigamallislamabad_33.521111_73.158519,Giga Mall Islamabad.,"Giga Mall Islamabad.
4.5(46,534)
Shopping mall ·  · Main Grand Trunk Rd, Defense Housing Authority
Brand-name shopping, dining & movies
Open ⋅ Closes 11 PM · +92 51 8491040",Shopping mall,Open,33.5211113,73.1585192,https://www.google.com/maps/place/Giga+Mall+Islamabad./data=!4m7!3m6!1s0x38dfed736df2ee2b:0xd2c18a69157f1c54!8m2!3d33.5211113!4d73.1585192!16s%2Fg%2F1z44bhl9_!19sChIJK-7ybXPt3zgRVBx_FWmKwdI?authuser=0&hl=en&rclk=1,"Medical, Islamabad"
38,emporiumislamabad_33.698389_73.011404,Emporium Islamabad,"Emporium Islamabad
4.0(28)
Shopping mall ·  · 10A
Open ⋅ Closes 10 PM · +92 300 5172434",Shopping mall,Open,33.6983886,73.0114044,https://www.google.com/maps/place/Emporium+Islamabad/data=!4m7!3m6!1s0x38dfbf6b10ee3fc9:0x9a15f93293d24e0e!8m2!3d33.6983886!4d73.0114044!16s%2Fg%2F11t7s_xq6p!19sChIJyT_uEGu_3zgRDk7SkzL5FZo?authuser=0&hl=en&rclk=1,"Medical, Islamabad"
39,albalaghislamicstore_33.678189_73.016757,AlBalagh Islamic Store G10 Islamabad البلاغ جی ٹین اسلام آباد,"AlBalagh Islamic Store G10 Islamabad البلاغ جی ٹین اسلام آباد
4.3(314)
Religious goods store ·  · Shop18, Adnan Plaza Sawan Road, Markaz, near Post Office & Babri Masjid
Open ⋅ Closes 10 PM · +92 300 5511552",Religious goods store,Open,33.678189,73.0167574,https://www.google.com/maps/place/AlBalagh+Islamic+Store+G10+Islamabad+%D8%A7%D9%84%D8%A8%D9%84%D8%A7%D8%BA+%D8%AC%DB%8C+%D9%B9%DB%8C%D9%86+%D8%A7%D8%B3%D9%84%D8%A7%D9%85+%D8%A2%D8%A8%D8%A7%D8%AF%E2%80%AD/data=!4m7!3m6!1s0x38dfbe21dfe18365:0x8aae3b12ab78626b!8m2!3d33.678189!4d73.0167574!16s%2Fg%2F11clwn96v6!19sChIJZYPh3yG-3zgRa2J4qxI7roo?authuser=0&hl=en&rclk=1,"Medical, Islamabad"
40,themoimall_33.682369_72.990509,The MOI Mall,"The MOI Mall
4.2(437)
Shopping mall ·  · Plot no, 07 Hilal Rd
Open ⋅ Closes 11 PM · +92 331 0001086",Shopping mall,Open,33.6823685,72.9905094,https://www.google.com/maps/place/The+MOI+Mall/data=!4m7!3m6!1s0x38dfbde3aa2eb38d:0x4773b3d8251ee308!8m2!3d33.6823685!4d72.9905094!16s%2Fg%2F11bw3yp0k4!19sChIJjbMuquO93zgRCOMeJdizc0c?authuser=0&hl=en&rclk=1,"Medical, Islamabad"
41,metroislamabadstore_33.639918_73.026167,METRO Islamabad Store,"METRO Islamabad Store
4.3(13,790)
Grocery store ·  · Plot 1-A, Laila Rd, adjacent Railway Carriage Factory Road
Open ⋅ Closes 11 PM · +92 51 4020073",Grocery store,Open,33.6399179,73.0261665,https://www.google.com/maps/place/METRO+Islamabad+Store/data=!4m7!3m6!1s0x38df95b111b61cd7:0x2613048254d87137!8m2!3d33.6399179!4d73.0261665!16s%2Fg%2F11c51w48nq!19sChIJ1xy2EbGV3zgRN3HYVIIEEyY?authuser=0&hl=en&rclk=1,"Medical, Islamabad"
42,safagoldmall_33.720709_73.055502,Safa Gold Mall,"Safa Gold Mall
4.3(32,134)
Shopping mall ·  · Plot No، 5 College Rd
Mall with chain stores & a food court
Open ⋅ Closes 11 PM · +92 51 2656766",Shopping mall,Open,33.7207086,73.0555015,https://www.google.com/maps/place/Safa+Gold+Mall/data=!4m7!3m6!1s0x38dfbfa7067ea8d3:0x49a6054408b8b584!8m2!3d33.7207086!4d73.0555015!16s%2Fg%2F11byxfvf5h!19sChIJ06h-Bqe_3zgRhLW4CEQFpkk?authuser=0&hl=en&rclk=1,"Medical, Islamabad"
43,kayalislamabad_33.730551_73.079166,"Kayal, Islamabad","Kayal, Islamabad
4.4(36)
Women's clothing store · 1 Agha Khan Rd
Open ⋅ Closes 9 PM · +92 51 8440038",Women's clothing store,Open,33.7305509,73.079166,"https://www.google.com/maps/place/Kayal,+Islamabad/data=!4m7!3m6!1s0x38dfbf9c8548e4c3:0xf90d9963d10a67b8!8m2!3d33.7305509!4d73.079166!16s%2Fg%2F11b6bv1k9x!19sChIJw-RIhZy_3zgRuGcK0WOZDfk?authuser=0&hl=en&rclk=1","Medical, Islamabad"
44,oneshoptoysofficial_33.696505_73.012303,One Shop Toys Official,"One Shop Toys Official
3.9(630)
Toy store ·  · Shop No. 7 L, Ajaib Plaza, next to Faysal Bank
Open ⋅ Closes 11 PM · +92 51 2222955",Toy store,Open,33.6965049,73.0123028,https://www.google.com/maps/place/One+Shop+Toys+Official/data=!4m7!3m6!1s0x38dfbe6b6c3e17a3:0x83e469d7dfa37b78!8m2!3d33.6965049!4d73.0123028!16s%2Fg%2F12mkz5pkm!19sChIJoxc-bGu-3zgReHuj39dp5IM?authuser=0&hl=en&rclk=1,"Medical, Islamabad"
45,khasstoreislamabadpw_33.573082_73.148406,Khas Store Islamabad - PWD,"Khas Store Islamabad - PWD
4.0(154)
Clothing store · 24-D Main PWD Rd
Open ⋅ Closes 10 PM · +92 321 9434712",Clothing store,Open,33.5730819,73.1484061,https://www.google.com/maps/place/Khas+Store+Islamabad+-+PWD/data=!4m7!3m6!1s0x38dfec456641e99f:0x8b9a109b1d492802!8m2!3d33.5730819!4d73.1484061!16s%2Fg%2F11b75mh21v!19sChIJn-lBZkXs3zgRAihJHZsQmos?authuser=0&hl=en&rclk=1,"Medical, Islamabad"
46,labelsislamabad_33.721479_73.059061,Labels Islamabad,"Labels Islamabad
4.0(41)
Clothing store · 13Y,Chaudhary Plaza, Next to PSO Pump, Bhittai Road,F-7 Markaz, Islamabad
Open ⋅ Closes 9 PM · +92 51 8437941",Clothing store,Open,33.721479,73.059061,https://www.google.com/maps/place/Labels+Islamabad/data=!4m7!3m6!1s0x38dfbf75997704e1:0xeddc5db04e302df5!8m2!3d33.721479!4d73.059061!16s%2Fg%2F11b6gm9k2f!19sChIJ4QR3mXW_3zgR9S0wTrBd3O0?authuser=0&hl=en&rclk=1,"Medical, Islamabad"
47,lulusarstoreislamaba_33.731594_73.078884,Lulusar store Islamabad,"Lulusar store Islamabad
4.2(81)
Clothing store · School Rd, near shell pump
Open ⋅ Closes 10 PM · +92 305 2553434",Clothing store,Open,33.7315943,73.0788839,https://www.google.com/maps/place/Lulusar+store+Islamabad/data=!4m7!3m6!1s0x38dfbfa63ccf9823:0xc9e201b064f6e69b!8m2!3d33.7315943!4d73.0788839!16s%2Fg%2F11sghj5wpr!19sChIJI5jPPKa_3zgRm-b2ZLAB4sk?authuser=0&hl=en&rclk=1,"Medical, Islamabad"
48,libertyshoppingcentr_33.706556_73.086996,Liberty Shopping Centre,"Liberty Shopping Centre
4.1(308)
Shopping mall · 700 Khayaban-e-Suhrwardy Rd
Open ⋅ Closes 10 PM · +92 300 5327186",Shopping mall,Open,33.7065564,73.0869956,https://www.google.com/maps/place/Liberty+Shopping+Centre/data=!4m7!3m6!1s0x38dfc07570c3b2e1:0x31a99d0cdf4fff0!8m2!3d33.7065564!4d73.0869956!16s%2Fg%2F11xdmrlt1!19sChIJ4bLDcHXA3zgR8P_0zdCZGgM?authuser=0&hl=en&rclk=1,"Medical, Islamabad"
49,dxsportsfitnessshopi_33.668429_72.996849,DX Sports & Fitness Shop Islamabad,"DX Sports & Fitness Shop Islamabad
4.3(60)
Sports accessories wholesaler · 19B, Silver City Plaza, MARKAZ
Open ⋅ Closes 5:30 PM ⋅ Reopens 9 PM · +92 300 9508214",Sports accessories wholesaler,Open,33.6684286,72.9968488,https://www.google.com/maps/place/DX+Sports+%26+Fitness+Shop+Islamabad/data=!4m7!3m6!1s0x38df959572b7751b:0xd232cbb6022688d0!8m2!3d33.6684286!4d72.9968488!16s%2Fg%2F11h6m52lgp!19sChIJG3W3cpWV3zgR0IgmArbLMtI?authuser=0&hl=en&rclk=1,"Medical, Islamabad"
50,islamabadsuperstore_33.677277_72.985799,Islamabad Super Store,"Islamabad Super Store
4.3(35)
General store ·  · Ali Market, St 9, F-11-1, F-11, 3
Open ⋅ Closes 11 PM · +92 51 2214226",General store,Open,33.6772769,72.9857993,https://www.google.com/maps/place/Islamabad+Super+Store/data=!4m7!3m6!1s0x38dfbdfba1bbddcf:0x1e6a575e4a1cee1b!8m2!3d33.6772769!4d72.9857993!16s%2Fg%2F12mkzc55r!19sChIJz927ofu93zgRG-4cSl5Xah4?authuser=0&hl=en&rclk=1,"Medical, Islamabad"
51,nikeflagshipstoreisl_33.710761_73.058777,Nike Flagship Store Islamabad,"Nike Flagship Store Islamabad
4.0(428)
Shoe store · Shop# 3-4, Sardar Beagum Plaza, Jinnah Ave، near Domino's Pizza
Mainstay for athletic apparel & footwear
Open ⋅ Closes 10:30 AM Fri · +92 51 2347157",Shoe store,Open,33.7107614,73.0587774,https://www.google.com/maps/place/Nike+Flagship+Store+Islamabad/data=!4m7!3m6!1s0x38dfbfbcbdaf7dcb:0x3c68befa31414abd!8m2!3d33.7107614!4d73.0587774!16s%2Fg%2F1pp2vkqr6!19sChIJy32vvby_3zgRvUpBMfq-aDw?authuser=0&hl=en&rclk=1,"Medical, Islamabad"
52,gamestoreislamabad_33.720632_73.054862,Game Store Islamabad,"Game Store Islamabad
4.4(509)
Video game store · MCB Bank, Safa Gold Mall, King Arcade Plaza Mid Caltex Petrol Pump and safa gold mall College Road, MARKAZ
Open ⋅ Closes 11 PM · +92 336 2002640",Video game store,Open,33.7206323,73.0548624,https://www.google.com/maps/place/Game+Store+Islamabad/data=!4m7!3m6!1s0x38dfbfb61c6e95d5:0xd366e50b1cb02ea0!8m2!3d33.7206323!4d73.0548624!16s%2Fg%2F11fhtw_x50!19sChIJ1ZVuHLa_3zgRoC6wHAvlZtM?authuser=0&hl=en&rclk=1,"Medical, Islamabad"
53,samsungoutletislamab_33.711800_73.041135,Samsung Outlet Islamabad,"Samsung Outlet Islamabad
4.5(352)
Outlet store ·  · Ground floor, Royal Inn Plaza, Kohistan Rd
Open ⋅ Closes 10 PM · +92 333 5777792",Outlet store,Open,33.7117998,73.0411355,https://www.google.com/maps/place/Samsung+Outlet+Islamabad/data=!4m7!3m6!1s0x38dfbfad2fe47385:0xea2fcacb2778fb4f!8m2!3d33.7117998!4d73.0411355!16s%2Fg%2F11cs1wk148!19sChIJhXPkL62_3zgRT_t4J8vKL-o?authuser=0&hl=en&rclk=1,"Medical, Islamabad"
54,islamabadsportsshop_33.706487_73.086969,Islamabad Sports Shop,"Islamabad Sports Shop
4.8(45)
Sporting goods store · Shop # 32-G, Liberty Shoping Center, Abpara Market
Open ⋅ Closes 10 PM · +92 333 5363162",Sporting goods store,Open,33.7064868,73.0869688,https://www.google.com/maps/place/Islamabad+Sports+Shop/data=!4m7!3m6!1s0x38dfbff5c9cd105d:0x6c12671bc9bbf994!8m2!3d33.7064868!4d73.0869688!16s%2Fg%2F11t7t2fwxm!19sChIJXRDNyfW_3zgRlPm7yRtnEmw?authuser=0&hl=en&rclk=1,"Medical, Islamabad"
55,imagef10markazislama_33.696705_73.012612,Image - F-10 Markaz - Islamabad,"Image - F-10 Markaz - Islamabad
4.1(27)
Women's clothing store · Pak Plaza
Open ⋅ Closes 10 PM · +92 51 8739054",Women's clothing store,Open,33.696705,73.0126115,https://www.google.com/maps/place/Image+-+F-10+Markaz+-+Islamabad/data=!4m7!3m6!1s0x38dfbff083da6be3:0x221935261569e37f!8m2!3d33.696705!4d73.0126115!16s%2Fg%2F11q46l4tc8!19sChIJ42vag_C_3zgRf-NpFSY1GSI?authuser=0&hl=en&rclk=1,"Medical, Islamabad"
56,alsyedmobilesgadgets_33.666729_73.073557,Al Syed Mobiles & Gadgets i-8 Markaz Islamabad,"Al Syed Mobiles & Gadgets i-8 Markaz Islamabad
4.8(101)
Cell phone store
Open ⋅ Closes 11 PM · +92 333 5147779",Cell phone store,Open,33.6667293,73.0735574,https://www.google.com/maps/place/Al+Syed+Mobiles+%26+Gadgets+i-8+Markaz+Islamabad/data=!4m7!3m6!1s0x38df9545c9d0fd65:0x3fac5ff1652a7901!8m2!3d33.6667293!4d73.0735574!16s%2Fg%2F1tzlxb93!19sChIJZf3QyUWV3zgRAXkqZfFfrD8?authuser=0&hl=en&rclk=1,"Medical, Islamabad"
57,kamaliakhaddarislama_33.706402_73.088923,Kamalia Khaddar Islamabad,"Kamalia Khaddar Islamabad
4.6(85)
Clothing store · Al shuhda on, main Srinagar Hwy, behind masjid
Open ⋅ Closes 9 PM · +92 313 5143143",Clothing store,Open,33.7064016,73.0889232,https://www.google.com/maps/place/Kamalia+Khaddar+Islamabad/data=!4m7!3m6!1s0x38dfc18cb1580da3:0x60bba5fe75c06ed9!8m2!3d33.7064016!4d73.0889232!16s%2Fg%2F11jd9kdcp2!19sChIJow1YsYzB3zgR2W7Adf6lu2A?authuser=0&hl=en&rclk=1,"Medical, Islamabad"
58,zubaidasgracobabysho_33.683836_72.986746,"Zubaida's Graco Babyshop – F11 MARKAZ, ISLAMABAD","Zubaida's Graco Babyshop – F11 MARKAZ, ISLAMABAD
3.9(89)
Baby store · Besides Standard Chartered Bank, Savoy Arcade, Lower Ground, besides, Plot # 21 Hilal Rd
Open ⋅ Closes 10 PM · +92 345 0022348",Baby store,Open,33.6838361,72.9867457,"https://www.google.com/maps/place/Zubaida%27s+Graco+Babyshop+%E2%80%93+F11+MARKAZ,+ISLAMABAD/data=!4m7!3m6!1s0x38dfbde47a5f2205:0x8711403dd18c706d!8m2!3d33.6838361!4d72.9867457!16s%2Fg%2F11c5_q34q5!19sChIJBSJfeuS93zgRbXCM0T1AEYc?authuser=0&hl=en&rclk=1","Medical, Islamabad"
59,gamestopislamabadpsn_33.666739_73.075953,Game Stop Islamabad & PSN Gift Card Store,"Game Stop Islamabad & PSN Gift Card Store
4.8(12)
Shopping mall ·  · Pak Land Business Centre, Markaz
Open ⋅ Closes 10 PM · +92 305 6916224",Shopping mall,Open,33.6667391,73.0759528,https://www.google.com/maps/place/Game+Stop+Islamabad+%26+PSN+Gift+Card+Store/data=!4m7!3m6!1s0x38dfbfcf470931e1:0xbf9e4a3e298f495f!8m2!3d33.6667391!4d73.0759528!16s%2Fg%2F11ny23n9gh!19sChIJ4TEJR8-_3zgRX0mPKT5Knr8?authuser=0&hl=en&rclk=1,"Medical, Islamabad"
60,librajewellers_33.729736_73.076263,Libra Jewellers,"Libra Jewellers
4.7(32)
Jeweler · Islamabad Islamabad Islamabad Capital Territory
Open ⋅ Closes 8 PM · +92 300 9543653",Jeweler,Open,33.7297363,73.0762634,https://www.google.com/maps/place/Libra+Jewellers/data=!4m7!3m6!1s0x38dfbf79e6bf71c7:0x57708d779bd432ed!8m2!3d33.7297363!4d73.0762634!16s%2Fg%2F1tq4pglq!19sChIJx3G_5nm_3zgR7TLUm3eNcFc?authuser=0&hl=en&rclk=1,"Medical, Islamabad"
61,centaurusmall_33.707728_73.049792,Centaurus Mall,"Centaurus Mall
4.4(78,171)
Shopping mall ·  · 4 Jinnah Avenue
Sizable, contemporary shopping center
Open ⋅ Closes 11 PM · +92 51 8483040",Shopping mall,Open,33.7077281,73.0497919,https://www.google.com/maps/place/Centaurus+Mall/data=!4m7!3m6!1s0x38dfbfb0f4f77379:0xf8c50b8651f56d02!8m2!3d33.7077281!4d73.0497919!16s%2Fm%2F01xmgnl!19sChIJeXP39LC_3zgRAm31UYYLxfg?authuser=0&hl=en&rclk=1,"Medical, Islamabad"
62,mohsinsonsf7islamaba_33.722654_73.059578,Mohsin Sons F-7 Islamabad,"Mohsin Sons F-7 Islamabad
4.1(196)
Clothing store ·  · Ammar Centre, Jinnah Super Market
Open ⋅ Closes 10 PM · +92 51 2654122",Clothing store,Open,33.7226537,73.0595776,https://www.google.com/maps/place/Mohsin+Sons+F-7+Islamabad/data=!4m7!3m6!1s0x38dfbff139aaa01d:0xe63abab5ec106cb9!8m2!3d33.7226537!4d73.0595776!16s%2Fg%2F11szc_jsb5!19sChIJHaCqOfG_3zgRuWwQ7LW6OuY?authuser=0&hl=en&rclk=1,"Medical, Islamabad"
63,islamabadgeneralstor_33.683138_72.988114,Islamabad general store,"Islamabad general store
4.4(33)
Supermarket · shop no 5, trade centre
Open 24 hours · +92 51 2113030",Supermarket,Open 24 hours,33.6831375,72.9881144,https://www.google.com/maps/place/Islamabad+general+store/data=!4m7!3m6!1s0x38dfbda6323eabf3:0x6c81b88cdc383ed9!8m2!3d33.6831375!4d72.9881144!16s%2Fg%2F11t9g_4tt1!19sChIJ86s-Mqa93zgR2T443Iy4gWw?authuser=0&hl=en&rclk=1,"Medical, Islamabad"
64,minisoi8markazislama_33.667994_73.075806,Miniso I-8 Markaz Islamabad,"Miniso I-8 Markaz Islamabad
3.8(55)
Cosmetics store · Plot # 17,18
Open ⋅ Closes 11 PM · +92 343 5367536",Cosmetics store,Open,33.6679937,73.0758062,https://www.google.com/maps/place/Miniso+I-8+Markaz+Islamabad/data=!4m7!3m6!1s0x38df950fb78282a7:0xb9a7002a7c3d1f0!8m2!3d33.6679937!4d73.0758062!16s%2Fg%2F11fr6sy5_c!19sChIJp4KCtw-V3zgR8NHDpwJwmgs?authuser=0&hl=en&rclk=1,"Medical, Islamabad"
65,themobileshop_33.711665_73.061528,The Mobile Shop,"The Mobile Shop
4.2(328)
Cell phone store · Shop 7 Ittehad Center, Fazal e Haq Rd
Open ⋅ Closes 10 PM · +92 310 9111222",Cell phone store,Open,33.7116654,73.0615281,https://www.google.com/maps/place/The+Mobile+Shop/data=!4m7!3m6!1s0x38dfbfbd26c47619:0x685f5af16ef1c6e2!8m2!3d33.7116654!4d73.0615281!16s%2Fg%2F1q6j72jgg!19sChIJGXbEJr2_3zgR4sbxbvFaX2g?authuser=0&hl=en&rclk=1,"Medical, Islamabad"
66,saeedtradersislamaba_33.689256_73.033286,Saeed Traders Islamabad,"Saeed Traders Islamabad
4.0(95)
Store ·  · Adeel Plaza Shop#5, G 9 Markaz pso pump ki back side
Open ⋅ Closes 10:30 PM · +92 51 2284808",Store,Open,33.6892561,73.0332859,https://www.google.com/maps/place/Saeed+Traders+Islamabad/data=!4m7!3m6!1s0x38dfbf4a16ac754f:0x6a1b0c07b7518543!8m2!3d33.6892561!4d73.0332859!16s%2Fg%2F11fl08p78l!19sChIJT3WsFkq_3zgRQ4VRtwcMG2o?authuser=0&hl=en&rclk=1,"Medical, Islamabad"
67,laptopstorei9islamab_33.650864_73.050110,laptop store i9 Islamabad,"laptop store i9 Islamabad
4.9(53)
Computer store · 652 Street 22B
Open ⋅ Closes 10 PM · +92 331 5858063",Computer store,Open,33.650864,73.05011,https://www.google.com/maps/place/laptop+store+i9+Islamabad/data=!4m7!3m6!1s0x38df958dd08801fd:0xbcad811fba120525!8m2!3d33.650864!4d73.05011!16s%2Fg%2F11tdblkk2c!19sChIJ_QGI0I2V3zgRJQUSuh-Brbw?authuser=0&hl=en&rclk=1,"Medical, Islamabad"
68,f7markazjinnahsuperm_33.721219_73.057552,F-7 Markaz (Jinnah Super Market),"F-7 Markaz (Jinnah Super Market)
4.4(49,158)
Supermarket ·  · Opposite To Flower Market, College Rd
Open ⋅ Closes 1 AM · +92 317 5666179",Supermarket,Open,33.7212189,73.0575515,https://www.google.com/maps/place/F-7+Markaz+%28Jinnah+Super+Market%29/data=!4m7!3m6!1s0x38dfbfa76b72ff95:0x7f5e8a6820990b68!8m2!3d33.7212189!4d73.0575515!16s%2Fg%2F1q5bl4ywq!19sChIJlf9ya6e_3zgRaAuZIGiKXn8?authuser=0&hl=en&rclk=1,"Medical, Islamabad"
69,khaadi_33.698516_73.011431,Khaadi,"Khaadi
4.3(1,193)
Clothing store · 
Open ⋅ Closes 11 PM · +92 51 2809627",Clothing store,Open,33.698516,73.0114309,https://www.google.com/maps/place/Khaadi/data=!4m7!3m6!1s0x38dfbe152e29e0e9:0xbe11759c47145240!8m2!3d33.698516!4d73.0114309!16s%2Fg%2F1hhwbl5sq!19sChIJ6eApLhW-3zgRQFIUR5x1Eb4?authuser=0&hl=en&rclk=1,"Medical, Islamabad"
70,islamabadgiftshoppk_33.722466_73.058177,Islamabad Giftshop Pk,"Islamabad Giftshop Pk
5.0(165)
Gift shop · Flowers market, College Rd
Open 24 hours · +92 332 6362390",Gift shop,Open 24 hours,33.722466,73.058177,https://www.google.com/maps/place/Islamabad+Giftshop+Pk/data=!4m7!3m6!1s0x8aaea4846331ec8f:0x27892c14d58f65d!8m2!3d33.722466!4d73.058177!16s%2Fg%2F11w4lqk7nc!19sChIJj-wxY4SkrooRXfZYTcGSeAI?authuser=0&hl=en&rclk=1,"Medical, Islamabad"
71,topshopislamabad_33.532688_73.112062,Top shop islamabad,"Top shop islamabad
5.0(1)
Clothing store
Open ⋅ Closes 10 PM · +92 333 5297471",Clothing store,Open,33.5326875,73.1120625,https://www.google.com/maps/place/Top+shop+islamabad/data=!4m7!3m6!1s0x38dfedb25cf841db:0x8cd6d85fb88c90f5!8m2!3d33.5326875!4d73.1120625!16s%2Fg%2F11pz3k90m_!19sChIJ20H4XLLt3zgR9ZCMuF_Y1ow?authuser=0&hl=en&rclk=1,"Medical, Islamabad"
72,perfumesshopinislama_33.521200_73.158774,Perfumes Shop in Islamabad - Scents N Stories - GIGA Mall,"Perfumes Shop in Islamabad - Scents N Stories - GIGA Mall
4.4(123)
Perfume store · GIGA MAll, Main GT Rd
Open ⋅ Closes 11 PM · +92 51 8488052",Perfume store,Open,33.5212,73.1587741,https://www.google.com/maps/place/Perfumes+Shop+in+Islamabad+-+Scents+N+Stories+-+GIGA+Mall/data=!4m7!3m6!1s0x38dfedc09b6ef279:0x16659db66ee2bff1!8m2!3d33.5212!4d73.1587741!16s%2Fg%2F11k9fl888r!19sChIJefJum8Dt3zgR8b_ibradZRY?authuser=0&hl=en&rclk=1,"Medical, Islamabad"
73,artplanetislamabadha_33.721985_73.059108,Art Planet Islamabad (Handmade Rugs & Kilims).,"Art Planet Islamabad (Handmade Rugs & Kilims).
4.9(209)
Carpet store ·  · Shop# 11-12, Address of Art planet :, Block 13-J Markaz, next to Generations & Fish Shop, beside PSO PUMP
Open ⋅ Closes 10 PM · +92 51 2650701",Carpet store,Open,33.7219848,73.0591077,https://www.google.com/maps/place/Art+Planet+Islamabad+%28Handmade+Rugs+%26+Kilims%29./data=!4m7!3m6!1s0x38dfbfa0b9cca349:0xad5bb9999bd12491!8m2!3d33.7219848!4d73.0591077!16s%2Fg%2F11g8b57pql!19sChIJSaPMuaC_3zgRkSTRm5m5W60?authuser=0&hl=en&rclk=1,"Medical, Islamabad"
74,islamabadsanitarysto_33.687918_73.049329,Islamabad Sanitary Store,"Islamabad Sanitary Store
4.1(79)
Bathroom supply store · I&T Centre Plot 78,Shop#01, Street 14
Open ⋅ Closes 8 PM · +92 51 2252670",Bathroom supply store,Open,33.6879184,73.0493285,https://www.google.com/maps/place/Islamabad+Sanitary+Store/data=!4m7!3m6!1s0x38dfbfd1caafd235:0x133ced8a4b944820!8m2!3d33.6879184!4d73.0493285!16s%2Fg%2F12mkzjj8y!19sChIJNdKvytG_3zgRIEiUS4rtPBM?authuser=0&hl=en&rclk=1,"Medical, Islamabad"
75,scribblebooksschools_33.696377_73.011371,Scribble Books & School Supplies (Islamabad),"Scribble Books & School Supplies (Islamabad)
4.0(33)
Book store · Shop no.7, Capital trade center, near Rahat Bakery & Subway
Open ⋅ Closes 11 PM · +92 333 5417773",Book store,Open,33.6963774,73.0113711,https://www.google.com/maps/place/Scribble+Books+%26+School+Supplies+%28Islamabad%29/data=!4m7!3m6!1s0x38dfbfc12f64d2cd:0x28aeff9a2b1a5f6e!8m2!3d33.6963774!4d73.0113711!16s%2Fg%2F11h7fmjp7v!19sChIJzdJkL8G_3zgRbl8aK5r_rig?authuser=0&hl=en&rclk=1,"Medical, Islamabad"
1,na_noloc,,,,,,,,"Medical, Islamabad"
5,islamabadelectronics_33.720607_73.077462,Islamabad Electronics,,Electronics store,Open,33.7206073,73.0774625,https://www.google.com/maps/place/Islamabad+Electronics/data=!4m7!3m6!1s0x38dfbf8ecf7c1d1b:0x88b0bb068f3f808d!8m2!3d33.7206073!4d73.0774625!16s%2Fg%2F11kmvf2_qn!19sChIJGx18z46_3zgRjYA_jwa7sIg?authuser=0&hl=en&rclk=1,"Medical, Islamabad"
37,gigamallislamabad_33.521111_73.158519,Giga Mall Islamabad.,"Giga Mall Islamabad.
4.5(46,534)
Shopping mall ·  · Main Grand Trunk Rd, Defense Housing Authority
Brand-name shopping, dining & movies
Open ⋅ Closes 11 PM · +92 51 8491040",Shopping mall,Open,33.5211113,73.1585192,https://www.google.com/maps/place/Giga+Mall+Islamabad./data=!4m7!3m6!1s0x38dfed736df2ee2b:0xd2c18a69157f1c54!8m2!3d33.5211113!4d73.1585192!16s%2Fg%2F1z44bhl9_!19sChIJK-7ybXPt3zgRVBx_FWmKwdI?authuser=0&hl=en&rclk=1,"Medical, Islamabad"
38,emporiumislamabad_33.698389_73.011404,Emporium Islamabad,"Emporium Islamabad
4.0(28)
Shopping mall ·  · 10A
Open ⋅ Closes 10 PM · +92 300 5172434",Shopping mall,Open,33.6983886,73.0114044,https://www.google.com/maps/place/Emporium+Islamabad/data=!4m7!3m6!1s0x38dfbf6b10ee3fc9:0x9a15f93293d24e0e!8m2!3d33.6983886!4d73.0114044!16s%2Fg%2F11t7s_xq6p!19sChIJyT_uEGu_3zgRDk7SkzL5FZo?authuser=0&hl=en&rclk=1,"Medical, Islamabad"
39,albalaghislamicstore_33.678189_73.016757,AlBalagh Islamic Store G10 Islamabad البلاغ جی ٹین اسلام آباد,"AlBalagh Islamic Store G10 Islamabad البلاغ جی ٹین اسلام آباد
4.3(314)
Religious goods store ·  · Shop18, Adnan Plaza Sawan Road, Markaz, near Post Office & Babri Masjid
Open ⋅ Closes 10 PM · +92 300 5511552",Religious goods store,Open,33.678189,73.0167574,https://www.google.com/maps/place/AlBalagh+Islamic+Store+G10+Islamabad+%D8%A7%D9%84%D8%A8%D9%84%D8%A7%D8%BA+%D8%AC%DB%8C+%D9%B9%DB%8C%D9%86+%D8%A7%D8%B3%D9%84%D8%A7%D9%85+%D8%A2%D8%A8%D8%A7%D8%AF%E2%80%AD/data=!4m7!3m6!1s0x38dfbe21dfe18365:0x8aae3b12ab78626b!8m2!3d33.678189!4d73.0167574!16s%2Fg%2F11clwn96v6!19sChIJZYPh3yG-3zgRa2J4qxI7roo?authuser=0&hl=en&rclk=1,"Medical, Islamabad"
40,themoimall_33.682369_72.990509,The MOI Mall,"The MOI Mall
4.2(437)
Shopping mall ·  · Plot no, 07 Hilal Rd
Open ⋅ Closes 11 PM · +92 331 0001086",Shopping mall,Open,33.6823685,72.9905094,https://www.google.com/maps/place/The+MOI+Mall/data=!4m7!3m6!1s0x38dfbde3aa2eb38d:0x4773b3d8251ee308!8m2!3d33.6823685!4d72.9905094!16s%2Fg%2F11bw3yp0k4!19sChIJjbMuquO93zgRCOMeJdizc0c?authuser=0&hl=en&rclk=1,"Medical, Islamabad"
41,metroislamabadstore_33.639918_73.026167,METRO Islamabad Store,"METRO Islamabad Store
4.3(13,790)
Grocery store ·  · Plot 1-A, Laila Rd, adjacent Railway Carriage Factory Road
Open ⋅ Closes 11 PM · +92 51 4020073",Grocery store,Open,33.6399179,73.0261665,https://www.google.com/maps/place/METRO+Islamabad+Store/data=!4m7!3m6!1s0x38df95b111b61cd7:0x2613048254d87137!8m2!3d33.6399179!4d73.0261665!16s%2Fg%2F11c51w48nq!19sChIJ1xy2EbGV3zgRN3HYVIIEEyY?authuser=0&hl=en&rclk=1,"Medical, Islamabad"
42,safagoldmall_33.720709_73.055502,Safa Gold Mall,"Safa Gold Mall
4.3(32,134)
Shopping mall ·  · Plot No، 5 College Rd
Mall with chain stores & a food court
Open ⋅ Closes 11 PM · +92 51 2656766",Shopping mall,Open,33.7207086,73.0555015,https://www.google.com/maps/place/Safa+Gold+Mall/data=!4m7!3m6!1s0x38dfbfa7067ea8d3:0x49a6054408b8b584!8m2!3d33.7207086!4d73.0555015!16s%2Fg%2F11byxfvf5h!19sChIJ06h-Bqe_3zgRhLW4CEQFpkk?authuser=0&hl=en&rclk=1,"Medical, Islamabad"
43,kayalislamabad_33.730551_73.079166,"Kayal, Islamabad","Kayal, Islamabad
4.4(36)
Women's clothing store · 1 Agha Khan Rd
Open ⋅ Closes 9 PM · +92 51 8440038",Women's clothing store,Open,33.7305509,73.079166,"https://www.google.com/maps/place/Kayal,+Islamabad/data=!4m7!3m6!1s0x38dfbf9c8548e4c3:0xf90d9963d10a67b8!8m2!3d33.7305509!4d73.079166!16s%2Fg%2F11b6bv1k9x!19sChIJw-RIhZy_3zgRuGcK0WOZDfk?authuser=0&hl=en&rclk=1","Medical, Islamabad"
44,oneshoptoysofficial_33.696505_73.012303,One Shop Toys Official,"One Shop Toys Official
3.9(630)
Toy store ·  · Shop No. 7 L, Ajaib Plaza, next to Faysal Bank
Open ⋅ Closes 11 PM · +92 51 2222955",Toy store,Open,33.6965049,73.0123028,https://www.google.com/maps/place/One+Shop+Toys+Official/data=!4m7!3m6!1s0x38dfbe6b6c3e17a3:0x83e469d7dfa37b78!8m2!3d33.6965049!4d73.0123028!16s%2Fg%2F12mkz5pkm!19sChIJoxc-bGu-3zgReHuj39dp5IM?authuser=0&hl=en&rclk=1,"Medical, Islamabad"
45,khasstoreislamabadpw_33.573082_73.148406,Khas Store Islamabad - PWD,"Khas Store Islamabad - PWD
4.0(154)
Clothing store · 24-D Main PWD Rd
Open ⋅ Closes 10 PM · +92 321 9434712",Clothing store,Open,33.5730819,73.1484061,https://www.google.com/maps/place/Khas+Store+Islamabad+-+PWD/data=!4m7!3m6!1s0x38dfec456641e99f:0x8b9a109b1d492802!8m2!3d33.5730819!4d73.1484061!16s%2Fg%2F11b75mh21v!19sChIJn-lBZkXs3zgRAihJHZsQmos?authuser=0&hl=en&rclk=1,"Medical, Islamabad"
46,labelsislamabad_33.721479_73.059061,Labels Islamabad,"Labels Islamabad
4.0(41)
Clothing store · 13Y,Chaudhary Plaza, Next to PSO Pump, Bhittai Road,F-7 Markaz, Islamabad
Open ⋅ Closes 9 PM · +92 51 8437941",Clothing store,Open,33.721479,73.059061,https://www.google.com/maps/place/Labels+Islamabad/data=!4m7!3m6!1s0x38dfbf75997704e1:0xeddc5db04e302df5!8m2!3d33.721479!4d73.059061!16s%2Fg%2F11b6gm9k2f!19sChIJ4QR3mXW_3zgR9S0wTrBd3O0?authuser=0&hl=en&rclk=1,"Medical, Islamabad"
47,lulusarstoreislamaba_33.731594_73.078884,Lulusar store Islamabad,"Lulusar store Islamabad
4.2(81)
Clothing store · School Rd, near shell pump
Open ⋅ Closes 10 PM · +92 305 2553434",Clothing store,Open,33.7315943,73.0788839,https://www.google.com/maps/place/Lulusar+store+Islamabad/data=!4m7!3m6!1s0x38dfbfa63ccf9823:0xc9e201b064f6e69b!8m2!3d33.7315943!4d73.0788839!16s%2Fg%2F11sghj5wpr!19sChIJI5jPPKa_3zgRm-b2ZLAB4sk?authuser=0&hl=en&rclk=1,"Medical, Islamabad"
48,libertyshoppingcentr_33.706556_73.086996,Liberty Shopping Centre,"Liberty Shopping Centre
4.1(308)
Shopping mall · 700 Khayaban-e-Suhrwardy Rd
Open ⋅ Closes 10 PM · +92 300 5327186",Shopping mall,Open,33.7065564,73.0869956,https://www.google.com/maps/place/Liberty+Shopping+Centre/data=!4m7!3m6!1s0x38dfc07570c3b2e1:0x31a99d0cdf4fff0!8m2!3d33.7065564!4d73.0869956!16s%2Fg%2F11xdmrlt1!19sChIJ4bLDcHXA3zgR8P_0zdCZGgM?authuser=0&hl=en&rclk=1,"Medical, Islamabad"
49,dxsportsfitnessshopi_33.668429_72.996849,DX Sports & Fitness Shop Islamabad,"DX Sports & Fitness Shop Islamabad
4.3(60)
Sports accessories wholesaler · 19B, Silver City Plaza, MARKAZ
Open ⋅ Closes 5:30 PM ⋅ Reopens 9 PM · +92 300 9508214",Sports accessories wholesaler,Open,33.6684286,72.9968488,https://www.google.com/maps/place/DX+Sports+%26+Fitness+Shop+Islamabad/data=!4m7!3m6!1s0x38df959572b7751b:0xd232cbb6022688d0!8m2!3d33.6684286!4d72.9968488!16s%2Fg%2F11h6m52lgp!19sChIJG3W3cpWV3zgR0IgmArbLMtI?authuser=0&hl=en&rclk=1,"Medical, Islamabad"
50,islamabadsuperstore_33.677277_72.985799,Islamabad Super Store,"Islamabad Super Store
4.3(35)
General store ·  · Ali Market, St 9, F-11-1, F-11, 3
Open ⋅ Closes 11 PM · +92 51 2214226",General store,Open,33.6772769,72.9857993,https://www.google.com/maps/place/Islamabad+Super+Store/data=!4m7!3m6!1s0x38dfbdfba1bbddcf:0x1e6a575e4a1cee1b!8m2!3d33.6772769!4d72.9857993!16s%2Fg%2F12mkzc55r!19sChIJz927ofu93zgRG-4cSl5Xah4?authuser=0&hl=en&rclk=1,"Medical, Islamabad"
51,nikeflagshipstoreisl_33.710761_73.058777,Nike Flagship Store Islamabad,"Nike Flagship Store Islamabad
4.0(428)
Shoe store · Shop# 3-4, Sardar Beagum Plaza, Jinnah Ave، near Domino's Pizza
Mainstay for athletic apparel & footwear
Open ⋅ Closes 10:30 AM Fri · +92 51 2347157",Shoe store,Open,33.7107614,73.0587774,https://www.google.com/maps/place/Nike+Flagship+Store+Islamabad/data=!4m7!3m6!1s0x38dfbfbcbdaf7dcb:0x3c68befa31414abd!8m2!3d33.7107614!4d73.0587774!16s%2Fg%2F1pp2vkqr6!19sChIJy32vvby_3zgRvUpBMfq-aDw?authuser=0&hl=en&rclk=1,"Medical, Islamabad"
52,gamestoreislamabad_33.720632_73.054862,Game Store Islamabad,"Game Store Islamabad
4.4(509)
Video game store · MCB Bank, Safa Gold Mall, King Arcade Plaza Mid Caltex Petrol Pump and safa gold mall College Road, MARKAZ
Open ⋅ Closes 11 PM · +92 336 2002640",Video game store,Open,33.7206323,73.0548624,https://www.google.com/maps/place/Game+Store+Islamabad/data=!4m7!3m6!1s0x38dfbfb61c6e95d5:0xd366e50b1cb02ea0!8m2!3d33.7206323!4d73.0548624!16s%2Fg%2F11fhtw_x50!19sChIJ1ZVuHLa_3zgRoC6wHAvlZtM?authuser=0&hl=en&rclk=1,"Medical, Islamabad"
53,samsungoutletislamab_33.711800_73.041135,Samsung Outlet Islamabad,"Samsung Outlet Islamabad
4.5(352)
Outlet store ·  · Ground floor, Royal Inn Plaza, Kohistan Rd
Open ⋅ Closes 10 PM · +92 333 5777792",Outlet store,Open,33.7117998,73.0411355,https://www.google.com/maps/place/Samsung+Outlet+Islamabad/data=!4m7!3m6!1s0x38dfbfad2fe47385:0xea2fcacb2778fb4f!8m2!3d33.7117998!4d73.0411355!16s%2Fg%2F11cs1wk148!19sChIJhXPkL62_3zgRT_t4J8vKL-o?authuser=0&hl=en&rclk=1,"Medical, Islamabad"
54,islamabadsportsshop_33.706487_73.086969,Islamabad Sports Shop,"Islamabad Sports Shop
4.8(45)
Sporting goods store · Shop # 32-G, Liberty Shoping Center, Abpara Market
Open ⋅ Closes 10 PM · +92 333 5363162",Sporting goods store,Open,33.7064868,73.0869688,https://www.google.com/maps/place/Islamabad+Sports+Shop/data=!4m7!3m6!1s0x38dfbff5c9cd105d:0x6c12671bc9bbf994!8m2!3d33.7064868!4d73.0869688!16s%2Fg%2F11t7t2fwxm!19sChIJXRDNyfW_3zgRlPm7yRtnEmw?authuser=0&hl=en&rclk=1,"Medical, Islamabad"
55,imagef10markazislama_33.696705_73.012612,Image - F-10 Markaz - Islamabad,"Image - F-10 Markaz - Islamabad
4.1(27)
Women's clothing store · Pak Plaza
Open ⋅ Closes 10 PM · +92 51 8739054",Women's clothing store,Open,33.696705,73.0126115,https://www.google.com/maps/place/Image+-+F-10+Markaz+-+Islamabad/data=!4m7!3m6!1s0x38dfbff083da6be3:0x221935261569e37f!8m2!3d33.696705!4d73.0126115!16s%2Fg%2F11q46l4tc8!19sChIJ42vag_C_3zgRf-NpFSY1GSI?authuser=0&hl=en&rclk=1,"Medical, Islamabad"
56,alsyedmobilesgadgets_33.666729_73.073557,Al Syed Mobiles & Gadgets i-8 Markaz Islamabad,"Al Syed Mobiles & Gadgets i-8 Markaz Islamabad
4.8(101)
Cell phone store
Open ⋅ Closes 11 PM · +92 333 5147779",Cell phone store,Open,33.6667293,73.0735574,https://www.google.com/maps/place/Al+Syed+Mobiles+%26+Gadgets+i-8+Markaz+Islamabad/data=!4m7!3m6!1s0x38df9545c9d0fd65:0x3fac5ff1652a7901!8m2!3d33.6667293!4d73.0735574!16s%2Fg%2F1tzlxb93!19sChIJZf3QyUWV3zgRAXkqZfFfrD8?authuser=0&hl=en&rclk=1,"Medical, Islamabad"
57,kamaliakhaddarislama_33.706402_73.088923,Kamalia Khaddar Islamabad,"Kamalia Khaddar Islamabad
4.6(85)
Clothing store · Al shuhda on, main Srinagar Hwy, behind masjid
Open ⋅ Closes 9 PM · +92 313 5143143",Clothing store,Open,33.7064016,73.0889232,https://www.google.com/maps/place/Kamalia+Khaddar+Islamabad/data=!4m7!3m6!1s0x38dfc18cb1580da3:0x60bba5fe75c06ed9!8m2!3d33.7064016!4d73.0889232!16s%2Fg%2F11jd9kdcp2!19sChIJow1YsYzB3zgR2W7Adf6lu2A?authuser=0&hl=en&rclk=1,"Medical, Islamabad"
58,zubaidasgracobabysho_33.683836_72.986746,"Zubaida's Graco Babyshop – F11 MARKAZ, ISLAMABAD","Zubaida's Graco Babyshop – F11 MARKAZ, ISLAMABAD
3.9(89)
Baby store · Besides Standard Chartered Bank, Savoy Arcade, Lower Ground, besides, Plot # 21 Hilal Rd
Open ⋅ Closes 10 PM · +92 345 0022348",Baby store,Open,33.6838361,72.9867457,"https://www.google.com/maps/place/Zubaida%27s+Graco+Babyshop+%E2%80%93+F11+MARKAZ,+ISLAMABAD/data=!4m7!3m6!1s0x38dfbde47a5f2205:0x8711403dd18c706d!8m2!3d33.6838361!4d72.9867457!16s%2Fg%2F11c5_q34q5!19sChIJBSJfeuS93zgRbXCM0T1AEYc?authuser=0&hl=en&rclk=1","Medical, Islamabad"
59,gamestopislamabadpsn_33.666739_73.075953,Game Stop Islamabad & PSN Gift Card Store,"Game Stop Islamabad & PSN Gift Card Store
4.8(12)
Shopping mall ·  · Pak Land Business Centre, Markaz
Open ⋅ Closes 10 PM · +92 305 6916224",Shopping mall,Open,33.6667391,73.0759528,https://www.google.com/maps/place/Game+Stop+Islamabad+%26+PSN+Gift+Card+Store/data=!4m7!3m6!1s0x38dfbfcf470931e1:0xbf9e4a3e298f495f!8m2!3d33.6667391!4d73.0759528!16s%2Fg%2F11ny23n9gh!19sChIJ4TEJR8-_3zgRX0mPKT5Knr8?authuser=0&hl=en&rclk=1,"Medical, Islamabad"
60,librajewellers_33.729736_73.076263,Libra Jewellers,"Libra Jewellers
4.7(32)
Jeweler · Islamabad Islamabad Islamabad Capital Territory
Open ⋅ Closes 8 PM · +92 300 9543653",Jeweler,Open,33.7297363,73.0762634,https://www.google.com/maps/place/Libra+Jewellers/data=!4m7!3m6!1s0x38dfbf79e6bf71c7:0x57708d779bd432ed!8m2!3d33.7297363!4d73.0762634!16s%2Fg%2F1tq4pglq!19sChIJx3G_5nm_3zgR7TLUm3eNcFc?authuser=0&hl=en&rclk=1,"Medical, Islamabad"
61,centaurusmall_33.707728_73.049792,Centaurus Mall,"Centaurus Mall
4.4(78,171)
Shopping mall ·  · 4 Jinnah Avenue
Sizable, contemporary shopping center
Open ⋅ Closes 11 PM · +92 51 8483040",Shopping mall,Open,33.7077281,73.0497919,https://www.google.com/maps/place/Centaurus+Mall/data=!4m7!3m6!1s0x38dfbfb0f4f77379:0xf8c50b8651f56d02!8m2!3d33.7077281!4d73.0497919!16s%2Fm%2F01xmgnl!19sChIJeXP39LC_3zgRAm31UYYLxfg?authuser=0&hl=en&rclk=1,"Medical, Islamabad"
62,mohsinsonsf7islamaba_33.722654_73.059578,Mohsin Sons F-7 Islamabad,"Mohsin Sons F-7 Islamabad
4.1(196)
Clothing store ·  · Ammar Centre, Jinnah Super Market
Open ⋅ Closes 10 PM · +92 51 2654122",Clothing store,Open,33.7226537,73.0595776,https://www.google.com/maps/place/Mohsin+Sons+F-7+Islamabad/data=!4m7!3m6!1s0x38dfbff139aaa01d:0xe63abab5ec106cb9!8m2!3d33.7226537!4d73.0595776!16s%2Fg%2F11szc_jsb5!19sChIJHaCqOfG_3zgRuWwQ7LW6OuY?authuser=0&hl=en&rclk=1,"Medical, Islamabad"
63,islamabadgeneralstor_33.683138_72.988114,Islamabad general store,"Islamabad general store
4.4(33)
Supermarket · shop no 5, trade centre
Open 24 hours · +92 51 2113030",Supermarket,Open 24 hours,33.6831375,72.9881144,https://www.google.com/maps/place/Islamabad+general+store/data=!4m7!3m6!1s0x38dfbda6323eabf3:0x6c81b88cdc383ed9!8m2!3d33.6831375!4d72.9881144!16s%2Fg%2F11t9g_4tt1!19sChIJ86s-Mqa93zgR2T443Iy4gWw?authuser=0&hl=en&rclk=1,"Medical, Islamabad"
64,minisoi8markazislama_33.667994_73.075806,Miniso I-8 Markaz Islamabad,"Miniso I-8 Markaz Islamabad
3.8(55)
Cosmetics store · Plot # 17,18
Open ⋅ Closes 11 PM · +92 343 5367536",Cosmetics store,Open,33.6679937,73.0758062,https://www.google.com/maps/place/Miniso+I-8+Markaz+Islamabad/data=!4m7!3m6!1s0x38df950fb78282a7:0xb9a7002a7c3d1f0!8m2!3d33.6679937!4d73.0758062!16s%2Fg%2F11fr6sy5_c!19sChIJp4KCtw-V3zgR8NHDpwJwmgs?authuser=0&hl=en&rclk=1,"Medical, Islamabad"
65,themobileshop_33.711665_73.061528,The Mobile Shop,"The Mobile Shop
4.2(328)
Cell phone store · Shop 7 Ittehad Center, Fazal e Haq Rd
Open ⋅ Closes 10 PM · +92 310 9111222",Cell phone store,Open,33.7116654,73.0615281,https://www.google.com/maps/place/The+Mobile+Shop/data=!4m7!3m6!1s0x38dfbfbd26c47619:0x685f5af16ef1c6e2!8m2!3d33.7116654!4d73.0615281!16s%2Fg%2F1q6j72jgg!19sChIJGXbEJr2_3zgR4sbxbvFaX2g?authuser=0&hl=en&rclk=1,"Medical, Islamabad"
66,saeedtradersislamaba_33.689256_73.033286,Saeed Traders Islamabad,"Saeed Traders Islamabad
4.0(95)
Store ·  · Adeel Plaza Shop#5, G 9 Markaz pso pump ki back side
Open ⋅ Closes 10:30 PM · +92 51 2284808",Store,Open,33.6892561,73.0332859,https://www.google.com/maps/place/Saeed+Traders+Islamabad/data=!4m7!3m6!1s0x38dfbf4a16ac754f:0x6a1b0c07b7518543!8m2!3d33.6892561!4d73.0332859!16s%2Fg%2F11fl08p78l!19sChIJT3WsFkq_3zgRQ4VRtwcMG2o?authuser=0&hl=en&rclk=1,"Medical, Islamabad"
67,laptopstorei9islamab_33.650864_73.050110,laptop store i9 Islamabad,"laptop store i9 Islamabad
4.9(53)
Computer store · 652 Street 22B
Open ⋅ Closes 10 PM · +92 331 5858063",Computer store,Open,33.650864,73.05011,https://www.google.com/maps/place/laptop+store+i9+Islamabad/data=!4m7!3m6!1s0x38df958dd08801fd:0xbcad811fba120525!8m2!3d33.650864!4d73.05011!16s%2Fg%2F11tdblkk2c!19sChIJ_QGI0I2V3zgRJQUSuh-Brbw?authuser=0&hl=en&rclk=1,"Medical, Islamabad"
68,f7markazjinnahsuperm_33.721219_73.057552,F-7 Markaz (Jinnah Super Market),"F-7 Markaz (Jinnah Super Market)
4.4(49,158)
Supermarket ·  · Opposite To Flower Market, College Rd
Open ⋅ Closes 1 AM · +92 317 5666179",Supermarket,Open,33.7212189,73.0575515,https://www.google.com/maps/place/F-7+Markaz+%28Jinnah+Super+Market%29/data=!4m7!3m6!1s0x38dfbfa76b72ff95:0x7f5e8a6820990b68!8m2!3d33.7212189!4d73.0575515!16s%2Fg%2F1q5bl4ywq!19sChIJlf9ya6e_3zgRaAuZIGiKXn8?authuser=0&hl=en&rclk=1,"Medical, Islamabad"
69,khaadi_33.698516_73.011431,Khaadi,"Khaadi
4.3(1,193)
Clothing store · 
Open ⋅ Closes 11 PM · +92 51 2809627",Clothing store,Open,33.698516,73.0114309,https://www.google.com/maps/place/Khaadi/data=!4m7!3m6!1s0x38dfbe152e29e0e9:0xbe11759c47145240!8m2!3d33.698516!4d73.0114309!16s%2Fg%2F1hhwbl5sq!19sChIJ6eApLhW-3zgRQFIUR5x1Eb4?authuser=0&hl=en&rclk=1,"Medical, Islamabad"
70,islamabadgiftshoppk_33.722466_73.058177,Islamabad Giftshop Pk,"Islamabad Giftshop Pk
5.0(165)
Gift shop · Flowers market, College Rd
Open 24 hours · +92 332 6362390",Gift shop,Open 24 hours,33.722466,73.058177,https://www.google.com/maps/place/Islamabad+Giftshop+Pk/data=!4m7!3m6!1s0x8aaea4846331ec8f:0x27892c14d58f65d!8m2!3d33.722466!4d73.058177!16s%2Fg%2F11w4lqk7nc!19sChIJj-wxY4SkrooRXfZYTcGSeAI?authuser=0&hl=en&rclk=1,"Medical, Islamabad"
71,topshopislamabad_33.532688_73.112062,Top shop islamabad,"Top shop islamabad
5.0(1)
Clothing store
Open ⋅ Closes 10 PM · +92 333 5297471",Clothing store,Open,33.5326875,73.1120625,https://www.google.com/maps/place/Top+shop+islamabad/data=!4m7!3m6!1s0x38dfedb25cf841db:0x8cd6d85fb88c90f5!8m2!3d33.5326875!4d73.1120625!16s%2Fg%2F11pz3k90m_!19sChIJ20H4XLLt3zgR9ZCMuF_Y1ow?authuser=0&hl=en&rclk=1,"Medical, Islamabad"
72,perfumesshopinislama_33.521200_73.158774,Perfumes Shop in Islamabad - Scents N Stories - GIGA Mall,"Perfumes Shop in Islamabad - Scents N Stories - GIGA Mall
4.4(123)
Perfume store · GIGA MAll, Main GT Rd
Open ⋅ Closes 11 PM · +92 51 8488052",Perfume store,Open,33.5212,73.1587741,https://www.google.com/maps/place/Perfumes+Shop+in+Islamabad+-+Scents+N+Stories+-+GIGA+Mall/data=!4m7!3m6!1s0x38dfedc09b6ef279:0x16659db66ee2bff1!8m2!3d33.5212!4d73.1587741!16s%2Fg%2F11k9fl888r!19sChIJefJum8Dt3zgR8b_ibradZRY?authuser=0&hl=en&rclk=1,"Medical, Islamabad"
73,artplanetislamabadha_33.721985_73.059108,Art Planet Islamabad (Handmade Rugs & Kilims).,"Art Planet Islamabad (Handmade Rugs & Kilims).
4.9(209)
Carpet store ·  · Shop# 11-12, Address of Art planet :, Block 13-J Markaz, next to Generations & Fish Shop, beside PSO PUMP
Open ⋅ Closes 10 PM · +92 51 2650701",Carpet store,Open,33.7219848,73.0591077,https://www.google.com/maps/place/Art+Planet+Islamabad+%28Handmade+Rugs+%26+Kilims%29./data=!4m7!3m6!1s0x38dfbfa0b9cca349:0xad5bb9999bd12491!8m2!3d33.7219848!4d73.0591077!16s%2Fg%2F11g8b57pql!19sChIJSaPMuaC_3zgRkSTRm5m5W60?authuser=0&hl=en&rclk=1,"Medical, Islamabad"
74,islamabadsanitarysto_33.687918_73.049329,Islamabad Sanitary Store,"Islamabad Sanitary Store
4.1(79)
Bathroom supply store · I&T Centre Plot 78,Shop#01, Street 14
Open ⋅ Closes 8 PM · +92 51 2252670",Bathroom supply store,Open,33.6879184,73.0493285,https://www.google.com/maps/place/Islamabad+Sanitary+Store/data=!4m7!3m6!1s0x38dfbfd1caafd235:0x133ced8a4b944820!8m2!3d33.6879184!4d73.0493285!16s%2Fg%2F12mkzjj8y!19sChIJNdKvytG_3zgRIEiUS4rtPBM?authuser=0&hl=en&rclk=1,"Medical, Islamabad"
75,scribblebooksschools_33.696377_73.011371,Scribble Books & School Supplies (Islamabad),"Scribble Books & School Supplies (Islamabad)
4.0(33)
Book store · Shop no.7, Capital trade center, near Rahat Bakery & Subway
Open ⋅ Closes 11 PM · +92 333 5417773",Book store,Open,33.6963774,73.0113711,https://www.google.com/maps/place/Scribble+Books+%26+School+Supplies+%28Islamabad%29/data=!4m7!3m6!1s0x38dfbfc12f64d2cd:0x28aeff9a2b1a5f6e!8m2!3d33.6963774!4d73.0113711!16s%2Fg%2F11h7fmjp7v!19sChIJzdJkL8G_3zgRbl8aK5r_rig?authuser=0&hl=en&rclk=1,"Medical, Islamabad"
