Index,Place Id,Name,Address,Category,Status,Latitude,Longitude,Link,SearchKeyword
1,na_noloc,,,,,,,,"Medical Store, Islamabad"
5,dlightpharmacy_33.708688_73.055937,D-Light Pharmacy,,Pharmacy,Open 24 hours,33.7086875,73.0559375,https://www.google.com/maps/place/D-Light+Pharmacy/data=!4m7!3m6!1s0x38dfbfbba8ca80e1:0x73268a4d58e72ecc!8m2!3d33.7086875!4d73.0559375!16s%2Fg%2F11xhx58g4!19sChIJ4YDKqLu_3zgRzC7nWE2KJnM?authuser=0&hl=en&rclk=1,"Medical Store, Islamabad"
37,medicalstore_33.686748_73.139501,Medical Store,"Medical Store
1.8(5)
Medical supply store · M4PQ+MRR
Open 24 hours · +92 300 6169220",Medical supply store,Open 24 hours,33.6867484,73.139501,https://www.google.com/maps/place/Medical+Store/data=!4m7!3m6!1s0x38dfea7ebfb6cd3d:0xf4077dcae21e3ab7!8m2!3d33.6867484!4d73.139501!16s%2Fg%2F11c58rt9sw!19sChIJPc22v37q3zgRtzoe4sp9B_Q?authuser=0&hl=en&rclk=1,"Medical Store, Islamabad"
38,idealmedicalstore_33.625646_72.970345,Ideal Medical Store,"Ideal Medical Store
5.0(4)
Pharmacy · Shop no 2 gulshan plaza Golda mor islamabad H 14
Open ⋅ Closes 9:30 PM · +92 333 5391163",Pharmacy,Open,33.6256459,72.9703448,https://www.google.com/maps/place/Ideal+Medical+Store/data=!4m7!3m6!1s0x38df96607036fa47:0xbb370b924a3afe70!8m2!3d33.6256459!4d72.9703448!16s%2Fg%2F12mkw85x2!19sChIJR_o2cGCW3zgRcP46SpILN7s?authuser=0&hl=en&rclk=1,"Medical Store, Islamabad"
39,ameerpharmacy_33.699184_73.048760,Ameer Pharmacy,"Ameer Pharmacy
4.1(11)
Pharmacy · Al-Abbas Plaza
Open ⋅ Closes 12 AM · +92 51 2253329",Pharmacy,Open,33.6991843,73.0487602,https://www.google.com/maps/place/Ameer+Pharmacy/data=!4m7!3m6!1s0x38dfbfc8e36d49b5:0x77d909ac723fbf43!8m2!3d33.6991843!4d73.0487602!16s%2Fg%2F12mkwb59z!19sChIJtUlt48i_3zgRQ78_cqwJ2Xc?authuser=0&hl=en&rclk=1,"Medical Store, Islamabad"
40,dwatsonpharmacy_33.615468_73.138649,D.WATSON PHARMACY,"D.WATSON PHARMACY
3.9(151)
Pharmacy · Ghauri Town Phase 5-A, Plot 26,27 Zohaib Arcade
Open ⋅ Closes 1 AM · +92 51 2157564",Pharmacy,Open,33.6154682,73.1386485,https://www.google.com/maps/place/D.WATSON+PHARMACY/data=!4m7!3m6!1s0x38dfebb62483883d:0xb1a65ad42f50feac!8m2!3d33.6154682!4d73.1386485!16s%2Fg%2F11fp3vyj1x!19sChIJPYiDJLbr3zgRrP5QL9RaprE?authuser=0&hl=en&rclk=1,"Medical Store, Islamabad"
41,dwatsonchemistf6mark_33.729701_73.075424,D.WATSON CHEMIST F-6 MARKAZ,"D.WATSON CHEMIST F-6 MARKAZ
4.3(255)
Pharmacy ·  · P3HG+W53, School Rd
Open ⋅ Closes 1 AM · +92 51 8438111",Pharmacy,Open,33.7297008,73.0754236,https://www.google.com/maps/place/D.WATSON+CHEMIST+F-6+MARKAZ/data=!4m7!3m6!1s0x38dfbf775cc17be5:0xbe2ed3739e338621!8m2!3d33.7297008!4d73.0754236!16s%2Fg%2F1wcxbgb2!19sChIJ5XvBXHe_3zgRIYYznnPTLr4?authuser=0&hl=en&rclk=1,"Medical Store, Islamabad"
42,islamabadmedicalstor_33.658437_73.059368,Islamabad Medical Store,"Islamabad Medical Store
4.4(5)
Medical Center · M355+9PH
Open ⋅ Closes 10 PM · +92 336 0906915",Medical Center,Open,33.6584369,73.0593678,https://www.google.com/maps/place/Islamabad+Medical+Store/data=!4m7!3m6!1s0x38df956b4955ef5f:0xd90ea335e36a0782!8m2!3d33.6584369!4d73.0593678!16s%2Fg%2F11xgwdprr!19sChIJX-9VSWuV3zgRggdq4zWjDtk?authuser=0&hl=en&rclk=1,"Medical Store, Islamabad"
43,alkausardrugstore_33.729384_73.077039,Al-Kausar Drug Store,"Al-Kausar Drug Store
4.2(12)
Pharmacy · School Rd, F-6 Markaz, F-6
Open ⋅ Closes 10 PM · +92 51 8311550",Pharmacy,Open,33.729384,73.0770395,https://www.google.com/maps/place/Al-Kausar+Drug+Store/data=!4m7!3m6!1s0x38dfbf79c113c8e9:0x9864efa90d2f59cf!8m2!3d33.729384!4d73.0770395!16s%2Fg%2F12mkz8kq6!19sChIJ6cgTwXm_3zgRz1kvDanvZJg?authuser=0&hl=en&rclk=1,"Medical Store, Islamabad"
44,newgujjerkhanmedical_33.644984_73.175468,New gujjer Khan medical store Ali pur Islamabad,"New gujjer Khan medical store Ali pur Islamabad
4.8(5)
Pharmacy · pure, Ali Pur, Ali
Open 24 hours · +92 342 1945217",Pharmacy,Open 24 hours,33.6449836,73.1754683,https://www.google.com/maps/place/New+gujjer+Khan+medical+store+Ali+pur+Islamabad/data=!4m7!3m6!1s0x38dfebd6cfbb8783:0xd32650ff5a37ce9e!8m2!3d33.6449836!4d73.1754683!16s%2Fg%2F11r92y6h_!19sChIJg4e7z9br3zgRns43Wv9QJtM?authuser=0&hl=en&rclk=1,"Medical Store, Islamabad"
45,centralmedicalstore_33.664550_73.046570,Central Medical Store,"Central Medical Store
3.0(2)
Medical supply store
Open ⋅ Closes 5 PM · +92 51 9265150",Medical supply store,Open,33.66455,73.04657,https://www.google.com/maps/place/Central+Medical+Store/data=!4m7!3m6!1s0x38df9570d4fb33a1:0xd21395af85b05572!8m2!3d33.66455!4d73.04657!16s%2Fg%2F11x9d5d1n!19sChIJoTP71HCV3zgRclWwha-VE9I?authuser=0&hl=en&rclk=1,"Medical Store, Islamabad"
46,medicalstore_33.693013_73.059032,Medical Store,"Medical Store
3.8(16)
Pharmacy · Khumrial Centre, St 22, G-8-4, G-8
+92 317 3824809",Pharmacy,,33.6930126,73.0590319,https://www.google.com/maps/place/Medical+Store/data=!4m7!3m6!1s0x38dfbfc377699507:0x342e468cb3703140!8m2!3d33.6930126!4d73.0590319!16s%2Fg%2F12mkzc9mg!19sChIJB5Vpd8O_3zgRQDFws4xGLjQ?authuser=0&hl=en&rclk=1,"Medical Store, Islamabad"
47,pillzpharmacy_33.601410_73.157091,Pillz Pharmacy,"Pillz Pharmacy
4.8(35)
Pharmacy · Samama Gulberg
Open ⋅ Closes 3 AM · +92 315 7290000",Pharmacy,Open,33.6014102,73.157091,https://www.google.com/maps/place/Pillz+Pharmacy/data=!4m7!3m6!1s0x38dfed146492fc11:0xe475381c143568c0!8m2!3d33.6014102!4d73.157091!16s%2Fg%2F11qq4dcy3w!19sChIJEfySZBTt3zgRwGg1FBw4deQ?authuser=0&hl=en&rclk=1,"Medical Store, Islamabad"
48,malikmedicalstore_33.653398_73.061694,Malik Medical Store,"Malik Medical Store
4.0(7)
Pharmacy · M336+9M4 Chaudhary Market
Open ⋅ Closes 10 PM · +92 344 5566789",Pharmacy,Open,33.6533978,73.0616943,https://www.google.com/maps/place/Malik+Medical+Store/data=!4m7!3m6!1s0x38df9515d1082f47:0x54de55b3f838b5f6!8m2!3d33.6533978!4d73.0616943!16s%2Fg%2F11c1q43g5q!19sChIJRy8I0RWV3zgR9rU4-LNV3lQ?authuser=0&hl=en&rclk=1,"Medical Store, Islamabad"
49,malikmedicalstorehom_33.707977_73.089746,"Malik Medical Store. (Homeopathic, Allopathic And Unani Medicines)","Malik Medical Store. (Homeopathic, Allopathic And Unani Medicines)
4.8(28)
Pharmacy · Municipal Rd
Open ⋅ Closes 10 PM · +92 51 2206092",Pharmacy,Open,33.707977,73.0897463,"https://www.google.com/maps/place/Malik+Medical+Store.+%28Homeopathic,+Allopathic+And+Unani+Medicines%29/data=!4m7!3m6!1s0x38dfc0750b932d49:0x17744ef4ac16d77f!8m2!3d33.707977!4d73.0897463!16s%2Fg%2F119wnsyzp!19sChIJSS2TC3XA3zgRf9cWrPROdBc?authuser=0&hl=en&rclk=1","Medical Store, Islamabad"
50,msmedicalstore_33.640813_73.165073,MS Medical Store,"MS Medical Store
5.0(4)
Pharmacy · F21 St.no 21
Open ⋅ Closes 11 PM · +92 333 7255606",Pharmacy,Open,33.6408126,73.1650727,https://www.google.com/maps/place/MS+Medical+Store/data=!4m7!3m6!1s0x38dfeb97f85ae229:0x8971f719e47c00ce!8m2!3d33.6408126!4d73.1650727!16s%2Fg%2F11rxqjcmzr!19sChIJKeJa-Jfr3zgRzgB85Bn3cYk?authuser=0&hl=en&rclk=1,"Medical Store, Islamabad"
51,fcmedicalstoreislama_33.744287_73.112702,FC Medical Store Islamabad,"FC Medical Store Islamabad
5.0(1)
Pharmacy · Near Shrine of Hazrat Bari Imam Sarkar
Open ⋅ Closes 12 AM · +92 345 5607132",Pharmacy,Open,33.7442869,73.1127025,https://www.google.com/maps/place/FC+Medical+Store+Islamabad/data=!4m7!3m6!1s0x38dfc1dc44c577ef:0x2e8a38d7ba743a0e!8m2!3d33.7442869!4d73.1127025!16s%2Fg%2F11ry2pt_4h!19sChIJ73fFRNzB3zgRDjp0utc4ii4?authuser=0&hl=en&rclk=1,"Medical Store, Islamabad"
52,medixplusmedicalstor_33.565203_73.152189,Medix plus medical store and cosmetics,"Medix plus medical store and cosmetics
5.0(8)
Pharmacy ·  · Main Soan Ave, near shaheen refreshment
Open ⋅ Closes 11:50 PM · +92 315 5180002",Pharmacy,Open,33.565203,73.1521894,https://www.google.com/maps/place/Medix+plus+medical+store+and+cosmetics/data=!4m7!3m6!1s0x38dfec4c7c2f53a3:0xaf982fd1afb47fe5!8m2!3d33.565203!4d73.1521894!16s%2Fg%2F11ggnh01mz!19sChIJo1MvfEzs3zgR5X-0r9EvmK8?authuser=0&hl=en&rclk=1,"Medical Store, Islamabad"
53,waltonpharmacyi10_33.648287_73.040510,Walton Pharmacy I-10,"Walton Pharmacy I-10
4.6(71)
Pharmacy · 
Open ⋅ Closes 12:30 AM · +92 300 6862448",Pharmacy,Open,33.6482869,73.0405098,https://www.google.com/maps/place/Walton+Pharmacy+I-10/data=!4m7!3m6!1s0x38df95a7621d61c5:0x5cdb1feeec3135ff!8m2!3d33.6482869!4d73.0405098!16s%2Fg%2F12mkzhz1l!19sChIJxWEdYqeV3zgR_zUx7O4f21w?authuser=0&hl=en&rclk=1,"Medical Store, Islamabad"
54,sultanmedicalstore_33.629549_73.115992,Sultan Medical Store,"Sultan Medical Store
5.0(6)
Medical supply store · Lehtrar Road Khanna, Bridge
Open ⋅ Closes 10:30 PM · +92 303 2070072",Medical supply store,Open,33.6295493,73.1159916,https://www.google.com/maps/place/Sultan+Medical+Store/data=!4m7!3m6!1s0x38dfebc5f7b1c0d9:0xe8a93e2fac483415!8m2!3d33.6295493!4d73.1159916!16s%2Fg%2F11ny2c5rpq!19sChIJ2cCx98Xr3zgRFTRIrC8-qeg?authuser=0&hl=en&rclk=1,"Medical Store, Islamabad"
55,arsalanmedicalstorec_33.635480_72.936033,Arsalan Medical STORE & COSMETICS,"Arsalan Medical STORE & COSMETICS
4.7(9)
Pharmacy · Unnamed Road
Open ⋅ Closes 11 PM · +92 332 5570701",Pharmacy,Open,33.63548,72.9360333,https://www.google.com/maps/place/Arsalan+Medical+STORE+%26+COSMETICS/data=!4m7!3m6!1s0x38df972ad68bc763:0x5fa68990bccb7594!8m2!3d33.63548!4d72.9360333!16s%2Fg%2F11h02l5kyz!19sChIJY8eL1iqX3zgRlHXLvJCJpl8?authuser=0&hl=en&rclk=1,"Medical Store, Islamabad"
56,luckypharmacy_33.675827_73.013755,Lucky Pharmacy,"Lucky Pharmacy
4.3(32)
Pharmacy · M2G7+8GJ, Bela Rd
Open ⋅ Closes 12 AM · +92 51 6133233",Pharmacy,Open,33.6758272,73.013755,https://www.google.com/maps/place/Lucky+Pharmacy/data=!4m7!3m6!1s0x38dfbe1e55cc2629:0xbe48580bba230d4b!8m2!3d33.6758272!4d73.013755!16s%2Fg%2F1tjff6h0!19sChIJKSbMVR6-3zgRSw0jugtYSL4?authuser=0&hl=en&rclk=1,"Medical Store, Islamabad"
57,waheedchemistoptics_33.699121_73.048635,Waheed Chemist & Optics,"Waheed Chemist & Optics
4.3(113)
Pharmacy ·  · M2XX+JFR, Markaz Rd
Open ⋅ Closes 12 AM · +92 51 2260703",Pharmacy,Open,33.6991215,73.0486346,https://www.google.com/maps/place/Waheed+Chemist+%26+Optics/data=!4m7!3m6!1s0x38dfbfc9c4e9d999:0x4bc932adb5543879!8m2!3d33.6991215!4d73.0486346!16s%2Fg%2F1thf6ynt!19sChIJmdnpxMm_3zgReThUta0yyUs?authuser=0&hl=en&rclk=1,"Medical Store, Islamabad"
58,cspharmacy_33.656437_72.966824,CS Pharmacy®,"CS Pharmacy®
4.9(16)
Pharmacy · 3 Street 169
Open ⋅ Closes 12 AM · +92 311 5187836",Pharmacy,Open,33.6564371,72.9668244,https://www.google.com/maps/place/CS+Pharmacy%C2%AE/data=!4m7!3m6!1s0x38df95c47adff3c7:0xc5a64b7492a9250a!8m2!3d33.6564371!4d72.9668244!16s%2Fg%2F11sy031bw6!19sChIJx_PfesSV3zgRCiWpknRLpsU?authuser=0&hl=en&rclk=1,"Medical Store, Islamabad"
59,alrehmatpharmacy_33.571534_73.176391,Al Rehmat Pharmacy,"Al Rehmat Pharmacy
4.8(87)
Pharmacy · Liaquat Ave
Open ⋅ Closes 1 AM · +92 51 5964143",Pharmacy,Open,33.5715335,73.1763907,https://www.google.com/maps/place/Al+Rehmat+Pharmacy/data=!4m7!3m6!1s0x38dfed82750dcb3d:0x45406b3ce243d7f9!8m2!3d33.5715335!4d73.1763907!16s%2Fg%2F11sgqz0_d8!19sChIJPcsNdYLt3zgR-ddD4jxrQEU?authuser=0&hl=en&rclk=1,"Medical Store, Islamabad"
60,kazimmedicalstore_33.705061_73.067903,Kazim Medical Store,"Kazim Medical Store
4.8(4)
Pharmacy · AWLINKERS
Open ⋅ Closes 11 PM · +92 51 2204903",Pharmacy,Open,33.705061,73.067903,https://www.google.com/maps/place/Kazim+Medical+Store/data=!4m7!3m6!1s0x38dfbf94f74acd2f:0x8caf8d8e4ea5cc7a!8m2!3d33.705061!4d73.067903!16s%2Fg%2F11hbbzfk4m!19sChIJL81K95S_3zgResylTo6Nr4w?authuser=0&hl=en&rclk=1,"Medical Store, Islamabad"
61,akmedicalstore_33.661728_73.067089,Ak medical store,"Ak medical store
5.0(5)
Pharmacy · Food cateringندیم خان, Muhal Plaza، Street 15
Open ⋅ Closes 12 AM · +92 332 5576686",Pharmacy,Open,33.6617281,73.0670894,https://www.google.com/maps/place/Ak+medical+store/data=!4m7!3m6!1s0x38df9580c20d0ff7:0xd7cb996e7fec13ff!8m2!3d33.6617281!4d73.0670894!16s%2Fg%2F11ss8k7r12!19sChIJ9w8NwoCV3zgR_xPsf26Zy9c?authuser=0&hl=en&rclk=1,"Medical Store, Islamabad"
62,mahammedicalstore_33.648141_73.040269,Maham Medical Store,"Maham Medical Store
5.0(5)
Pharmacy · J2XR+742
Open ⋅ Closes 11 PM",Pharmacy,Open,33.6481406,73.0402686,https://www.google.com/maps/place/Maham+Medical+Store/data=!4m7!3m6!1s0x38df95a763c4bf31:0x37e5bd298b3954ab!8m2!3d33.6481406!4d73.0402686!16s%2Fg%2F11f0wkgssr!19sChIJMb_EY6eV3zgRq1Q5iym95Tc?authuser=0&hl=en&rclk=1,"Medical Store, Islamabad"
63,medxpharmacy_33.669184_73.073893,Med-X Pharmacy,"Med-X Pharmacy
4.6(45)
Pharmacy
Open ⋅ Closes 12 AM · +92 51 4864549",Pharmacy,Open,33.6691844,73.0738928,https://www.google.com/maps/place/Med-X+Pharmacy/data=!4m7!3m6!1s0x38df954516816441:0x560ae8b79c72d0c8!8m2!3d33.6691844!4d73.0738928!16s%2Fg%2F11g6r24b36!19sChIJQWSBFkWV3zgRyNBynLfoClY?authuser=0&hl=en&rclk=1,"Medical Store, Islamabad"
64,newaleespharmacy_33.632070_72.921556,New Alees Pharmacy,"New Alees Pharmacy
4.8(74)
Pharmacy ·  · Nomi Arcade Main Road Number 1, Markaz
Open ⋅ Closes 12 AM · +92 51 2328292",Pharmacy,Open,33.6320702,72.9215562,https://www.google.com/maps/place/New+Alees+Pharmacy/data=!4m7!3m6!1s0x38df979610de2cbd:0xbba8e8063ed353f0!8m2!3d33.6320702!4d72.9215562!16s%2Fg%2F11cs0sfh8m!19sChIJvSzeEJaX3zgR8FPTPgboqLs?authuser=0&hl=en&rclk=1,"Medical Store, Islamabad"
65,gardezimedicalstore_33.636739_73.132400,Gardezi Medical Store,"Gardezi Medical Store
3.8(4)
Pharmacy · J4PJ+MXR
Open ⋅ Closes 11 PM · +92 332 5168472",Pharmacy,Open,33.636739,73.1324002,https://www.google.com/maps/place/Gardezi+Medical+Store/data=!4m7!3m6!1s0x38dfeba7c59ee1dd:0x12e4dde62c72f7f0!8m2!3d33.636739!4d73.1324002!16s%2Fg%2F11qq9c9692!19sChIJ3eGexafr3zgR8PdyLObd5BI?authuser=0&hl=en&rclk=1,"Medical Store, Islamabad"
66,shaheenchemist_33.699194_73.048815,Shaheen Chemist,"Shaheen Chemist
4.1(89)
Pharmacy · Allah Dad Plaza, Markaz Rd
Open ⋅ Closes 1 AM · +92 51 2252215",Pharmacy,Open,33.6991939,73.0488153,https://www.google.com/maps/place/Shaheen+Chemist/data=!4m7!3m6!1s0x38dfbfc9d1ce94e1:0x549deca7538bcd9e!8m2!3d33.6991939!4d73.0488153!16s%2Fg%2F1tp06gtr!19sChIJ4ZTO0cm_3zgRns2LU6fsnVQ?authuser=0&hl=en&rclk=1,"Medical Store, Islamabad"
67,waqarmedicalstore_33.677553_73.024837,Waqar Medical Store,"Waqar Medical Store
3.8(6)
Pharmacy · M2HF+2WG Power Market, Street 69
Open ⋅ Closes 11 PM · +92 345 5120721",Pharmacy,Open,33.6775529,73.0248366,https://www.google.com/maps/place/Waqar+Medical+Store/data=!4m7!3m6!1s0x38dfbe26e36aaaab:0x647c6a0717b0a99d!8m2!3d33.6775529!4d73.0248366!16s%2Fg%2F11c5s5gt9j!19sChIJq6pq4ya-3zgRnamwFwdqfGQ?authuser=0&hl=en&rclk=1,"Medical Store, Islamabad"
68,bspharmacyg15_33.633556_72.923162,B&S Pharmacy G-15,"B&S Pharmacy G-15
4.6(13)
Pharmacy ·  · Lower Ground, Khyber, St 4
Open ⋅ Closes 11:45 PM · +92 51 2304627",Pharmacy,Open,33.6335556,72.9231621,https://www.google.com/maps/place/B%26S+Pharmacy+G-15/data=!4m7!3m6!1s0x38df97bdfe3f7655:0xf28a30662b22ed44!8m2!3d33.6335556!4d72.9231621!16s%2Fg%2F11df3p69q5!19sChIJVXY__r2X3zgRRO0iK2YwivI?authuser=0&hl=en&rclk=1,"Medical Store, Islamabad"
69,iqbalpharmacy_33.644048_72.958836,IQBAL PHARMACY,"IQBAL PHARMACY
4.5(39)
Pharmacy ·  · Shop no -4، iqbal Pharmacy, Friends Arcade, Street 87
Open ⋅ Closes 10 PM · +92 51 2306867",Pharmacy,Open,33.6440483,72.9588364,https://www.google.com/maps/place/IQBAL+PHARMACY/data=!4m7!3m6!1s0x38df97f2e162b997:0x641b2658f851a1fa!8m2!3d33.6440483!4d72.9588364!16s%2Fg%2F11b6jkhkw5!19sChIJl7li4fKX3zgR-qFR-FgmG2Q?authuser=0&hl=en&rclk=1,"Medical Store, Islamabad"
70,bismillahmedicalstor_33.686642_73.174202,Bismillah Medical Store. بسم الله میڈیکل سٹور,"Bismillah Medical Store. بسم الله میڈیکل سٹور
5.0(13)
Pharmacy · M5PF+MM4, Simly Dam Link Rd
Open ⋅ Closes 9 PM · +92 313 5692930",Pharmacy,Open,33.6866424,73.1742024,https://www.google.com/maps/place/Bismillah+Medical+Store.+%D8%A8%D8%B3%D9%85+%D8%A7%D9%84%D9%84%D9%87+%D9%85%DB%8C%DA%88%DB%8C%DA%A9%D9%84+%D8%B3%D9%B9%D9%88%D8%B1%E2%80%AD/data=!4m7!3m6!1s0x38dfeb002eccdacd:0xe1cb392b859c6e62!8m2!3d33.6866424!4d73.1742024!16s%2Fg%2F11vzgmj5lp!19sChIJzdrMLgDr3zgRYm6chSs5y-E?authuser=0&hl=en&rclk=1,"Medical Store, Islamabad"
71,nuskhapharmacy_33.570889_73.176375,Nuskha Pharmacy,"Nuskha Pharmacy
4.9(32)
Pharmacy · Shop#3, Al Murtaza Arcade
Open ⋅ Closes 11 PM",Pharmacy,Open,33.5708893,73.1763747,https://www.google.com/maps/place/Nuskha+Pharmacy/data=!4m7!3m6!1s0x38dfed81ba6b577f:0xe247ccda061689ae!8m2!3d33.5708893!4d73.1763747!16s%2Fg%2F11hm5y3_mv!19sChIJf1druoHt3zgRrokWBtrMR-I?authuser=0&hl=en&rclk=1,"Medical Store, Islamabad"
72,noormedicalstore_33.653453_73.050716,Noor Medical Store,"Noor Medical Store
5.0(2)
Pharmacy · Asim, Plaza Warsak Rd
Open ⋅ Closes 10 PM · +92 321 5091789",Pharmacy,Open,33.6534533,73.050716,https://www.google.com/maps/place/Noor+Medical+Store/data=!4m7!3m6!1s0x38df95092823a89f:0xf68a03eda0ae68d!8m2!3d33.6534533!4d73.050716!16s%2Fg%2F11k3xs31yt!19sChIJn6gjKAmV3zgRjeYK2j6gaA8?authuser=0&hl=en&rclk=1,"Medical Store, Islamabad"
73,denovomedicalstore_33.680334_73.022642,Denovo Medical Store,"Denovo Medical Store
4.3(16)
Pharmacy · M2JF+43J
Open ⋅ Closes 10 PM · +92 334 1107504",Pharmacy,Open,33.6803344,73.0226424,https://www.google.com/maps/place/Denovo+Medical+Store/data=!4m7!3m6!1s0x38dfbe23f9bb2729:0xa2f4933b10d733b5!8m2!3d33.6803344!4d73.0226424!16s%2Fg%2F11g6s83jp6!19sChIJKSe7-SO-3zgRtTPXEDuT9KI?authuser=0&hl=en&rclk=1,"Medical Store, Islamabad"
74,alsalehachemist_33.717340_73.083884,Al-Saleha Chemist,"Al-Saleha Chemist
4.4(48)
Pharmacy · Mir Trade Centre Municipal Rd Melody Market
Open ⋅ Closes 2 AM · +92 51 2206929",Pharmacy,Open,33.7173398,73.0838836,https://www.google.com/maps/place/Al-Saleha+Chemist/data=!4m7!3m6!1s0x38dfbf86478e504b:0x2ac5d879f889e640!8m2!3d33.7173398!4d73.0838836!16s%2Fg%2F12mk_3ds2!19sChIJS1COR4a_3zgRQOaJ-HnYxSo?authuser=0&hl=en&rclk=1,"Medical Store, Islamabad"
75,hellodoctormedstorep_33.696665_72.968956,Hello Doctor & Medstore Pharmacy,"Hello Doctor & Medstore Pharmacy
4.5(8)
Pharmacy · Usman square plot 41A
Open ⋅ Closes 9 PM · +92 340 5769622",Pharmacy,Open,33.6966648,72.9689561,https://www.google.com/maps/place/Hello+Doctor+%26+Medstore+Pharmacy/data=!4m7!3m6!1s0x38dfbd8d53c1b0f7:0x733e511cd6a3b2d0!8m2!3d33.6966648!4d72.9689561!16s%2Fg%2F11frsy8ng8!19sChIJ97DBU4293zgR0LKj1hxRPnM?authuser=0&hl=en&rclk=1,"Medical Store, Islamabad"
76,starmedicalstore_33.643223_73.041267,Star Medical Store,"Star Medical Store
4.5(2)
Pharmacy · J2VR+7GJ
Open ⋅ Closes 10:30 PM · +92 51 4447620",Pharmacy,Open,33.6432234,73.0412666,https://www.google.com/maps/place/Star+Medical+Store/data=!4m7!3m6!1s0x38df95505e6d4fc5:0x1554119e08ac4d02!8m2!3d33.6432234!4d73.0412666!16s%2Fg%2F11h1l0lnn0!19sChIJxU9tXlCV3zgRAk2sCJ4RVBU?authuser=0&hl=en&rclk=1,"Medical Store, Islamabad"
77,jansonspharmacy_33.699195_73.048790,Jan Sons Pharmacy,"Jan Sons Pharmacy
4.8(13)
Pharmacy ·  · Shop#5, Block#19 Allahdad Plaza
Open ⋅ Closes 11:30 PM · +92 51 8460951",Pharmacy,Open,33.6991951,73.0487896,https://www.google.com/maps/place/Jan+Sons+Pharmacy/data=!4m7!3m6!1s0x38dfbf1142179987:0x745bd2aa7a269aa9!8m2!3d33.6991951!4d73.0487896!16s%2Fg%2F11mwvv02_v!19sChIJh5kXQhG_3zgRqZomeqrSW3Q?authuser=0&hl=en&rclk=1,"Medical Store, Islamabad"
78,alrahmanmedicalstore_33.646887_73.102664,Al Rahman medical store,"Al Rahman medical store
5.0(2)
Pharmacy · J4W3+Q33
Open ⋅ Closes 5 PM",Pharmacy,Open,33.6468873,73.1026642,https://www.google.com/maps/place/Al+Rahman+medical+store/data=!4m7!3m6!1s0x38dfeb68d2d47641:0xed8370e8417b1204!8m2!3d33.6468873!4d73.1026642!16s%2Fg%2F11j5qg4dhz!19sChIJQXbU0mjr3zgRBBJ7Qehwg-0?authuser=0&hl=en&rclk=1,"Medical Store, Islamabad"
79,medxpharmacy_33.706145_73.086526,Med-X Pharmacy,"Med-X Pharmacy
4.3(23)
Pharmacy ·  · Shop No. 04,05,06,07, Plot, 15 Khayaban-e-Suhrwardy
Open ⋅ Closes 12 AM · +92 323 9195951",Pharmacy,Open,33.7061451,73.0865264,https://www.google.com/maps/place/Med-X+Pharmacy/data=!4m7!3m6!1s0x38dfbfea444f8481:0x5e17929a83db3b3f!8m2!3d33.7061451!4d73.0865264!16s%2Fg%2F11mv_2ms0n!19sChIJgYRPROq_3zgRPzvbg5qSF14?authuser=0&hl=en&rclk=1,"Medical Store, Islamabad"
80,haiderimedicalstore_33.637559_73.125357,Haideri medical store,"Haideri medical store
5.0(1)
Pharmacy · Sanam Rd
Open 24 hours · +92 324 5250742",Pharmacy,Open 24 hours,33.637559,73.1253567,https://www.google.com/maps/place/Haideri+medical+store/data=!4m7!3m6!1s0x38dfeb3a96b5adbb:0xe6ca8dc08fac1c7a!8m2!3d33.637559!4d73.1253567!16s%2Fg%2F11krks4bhz!19sChIJu621ljrr3zgRehysj8CNyuY?authuser=0&hl=en&rclk=1,"Medical Store, Islamabad"
81,amjadmedicalstore_33.619348_73.135809,Amjad Medical Store,"Amjad Medical Store
5.0(3)
Pharmacy · J49P+P8M, Street No. 26
Open ⋅ Closes 11:45 PM · +92 345 3822966",Pharmacy,Open,33.6193484,73.1358086,https://www.google.com/maps/place/Amjad+Medical+Store/data=!4m7!3m6!1s0x38dfebaa4381dba5:0x6bba323b02270fe5!8m2!3d33.6193484!4d73.1358086!16s%2Fg%2F11ffltpnz2!19sChIJpduBQ6rr3zgR5Q8nAjsyums?authuser=0&hl=en&rclk=1,"Medical Store, Islamabad"
82,hameedpharmacy_33.711203_73.037854,Hameed Pharmacy,"Hameed Pharmacy
3.7(19)
Pharmacy · Shehnaz Plaza, Plot, 14-Y Johar Rd
Open ⋅ Closes 11 PM · +92 51 8485644",Pharmacy,Open,33.7112032,73.0378542,https://www.google.com/maps/place/Hameed+Pharmacy/data=!4m7!3m6!1s0x38dfbe52f0b9d443:0xc0f1f99b408a0586!8m2!3d33.7112032!4d73.0378542!16s%2Fg%2F11zbqqcbp!19sChIJQ9S58FK-3zgRhgWKQJv58cA?authuser=0&hl=en&rclk=1,"Medical Store, Islamabad"
83,medmartpharmacy_33.631065_72.880172,Medmart Pharmacy,"Medmart Pharmacy
4.2(13)
Pharmacy · Friends Arcade, Plaza،F-17
Open ⋅ Closes 2 AM · +92 51 2161419",Pharmacy,Open,33.6310655,72.8801723,https://www.google.com/maps/place/Medmart+Pharmacy/data=!4m7!3m6!1s0x38df999483eb381d:0xa954bd429386be8b!8m2!3d33.6310655!4d72.8801723!16s%2Fg%2F11j96tmw_n!19sChIJHTjrg5SZ3zgRi76Gk0K9VKk?authuser=0&hl=en&rclk=1,"Medical Store, Islamabad"
84,alljannatmedicalstor_33.664235_72.898818,All Jannat Medical Store,"All Jannat Medical Store
4.2(10)
Pharmacy · MV7X+MGW, Sarai Kharbuza Road
Open ⋅ Closes 8:45 PM",Pharmacy,Open,33.664235,72.8988178,https://www.google.com/maps/place/All+Jannat+Medical+Store/data=!4m7!3m6!1s0x38dfbd01977225b9:0x9179e9efefc22130!8m2!3d33.664235!4d72.8988178!16s%2Fg%2F11h0cdbcqw!19sChIJuSVylwG93zgRMCHC7-_peZE?authuser=0&hl=en&rclk=1,"Medical Store, Islamabad"
85,khanmedicalstore_33.650324_73.201953,Khan Medical Store,"Khan Medical Store
5.0(9)
Pharmacy · M622+4QG khan clinic
Open ⋅ Closes 10 PM · +92 342 5230301",Pharmacy,Open,33.6503242,73.2019526,https://www.google.com/maps/place/Khan+Medical+Store/data=!4m7!3m6!1s0x38dfe9738f0560bb:0xb513052d9b84e379!8m2!3d33.6503242!4d73.2019526!16s%2Fg%2F11f5d4zjpx!19sChIJu2AFj3Pp3zgReeOEmy0FE7U?authuser=0&hl=en&rclk=1,"Medical Store, Islamabad"
86,adnanmedicalstore_33.690194_73.033291,Adnan Medical Store,"Adnan Medical Store
3.7(3)
Pharmacy · Adnan medical store
Open ⋅ Closes 11:15 PM · +92 306 1583298",Pharmacy,Open,33.6901938,73.0332912,https://www.google.com/maps/place/Adnan+Medical+Store/data=!4m7!3m6!1s0x38dfbe3172f27265:0x1797c85f67872ada!8m2!3d33.6901938!4d73.0332912!16s%2Fg%2F11f3xgflw1!19sChIJZXLycjG-3zgR2iqHZ1_Ilxc?authuser=0&hl=en&rclk=1,"Medical Store, Islamabad"
87,elixirpharmacy_33.686032_73.045185,Elixir Pharmacy,"Elixir Pharmacy
4.7(30)
Pharmacy · service road E, Street 55
Open ⋅ Closes 12:30 AM · +92 51 2852691",Pharmacy,Open,33.6860324,73.0451853,https://www.google.com/maps/place/Elixir+Pharmacy/data=!4m7!3m6!1s0x38dfbfd2353d8099:0x616b83ccc7d09960!8m2!3d33.6860324!4d73.0451853!16s%2Fg%2F12mkz9kkh!19sChIJmYA9NdK_3zgRYJnQx8yDa2E?authuser=0&hl=en&rclk=1,"Medical Store, Islamabad"
88,abbasimedicalstore_33.663472_73.076190,Abbasi Medical Store,"Abbasi Medical Store
5.0(2)
Pharmacy · M37G+9FP Pakeeza Market, Street 102
Open ⋅ Closes 11 PM · +92 321 5563315",Pharmacy,Open,33.6634723,73.0761898,https://www.google.com/maps/place/Abbasi+Medical+Store/data=!4m7!3m6!1s0x38df9548815e83d9:0xebd3fc450125fb12!8m2!3d33.6634723!4d73.0761898!16s%2Fg%2F12mkwhmgc!19sChIJ2YNegUiV3zgREvslAUX80-s?authuser=0&hl=en&rclk=1,"Medical Store, Islamabad"
89,truworthdrugsstore_33.716613_73.084234,Truworth Drugs Store,"Truworth Drugs Store
4.3(8)
Pharmacy · P38M+JMX Melody Market
Open ⋅ Closes 12 AM · +92 51 2825686",Pharmacy,Open,33.7166128,73.0842345,https://www.google.com/maps/place/Truworth+Drugs+Store/data=!4m7!3m6!1s0x38dfbf8630534533:0x8f7b3601a67b24b7!8m2!3d33.7166128!4d73.0842345!16s%2Fg%2F1260rjyb3!19sChIJM0VTMIa_3zgRtyR7pgE2e48?authuser=0&hl=en&rclk=1,"Medical Store, Islamabad"
90,qasimhomeopathicmedi_33.683999_73.041054,Qasim Homeopathic Medical Store,"Qasim Homeopathic Medical Store
3.6(8)
Pharmacy · Nishtar Market, Street 55
Open ⋅ Closes 11:30 PM · +92 300 7461667",Pharmacy,Open,33.6839995,73.0410541,https://www.google.com/maps/place/Qasim+Homeopathic+Medical+Store/data=!4m7!3m6!1s0x38dfbfd33894e30b:0xbc5a9b1fd85514e8!8m2!3d33.6839995!4d73.0410541!16s%2Fg%2F12mkz5m0h!19sChIJC-OUONO_3zgR6BRV2B-bWrw?authuser=0&hl=en&rclk=1,"Medical Store, Islamabad"
91,naeemmedicalstorebha_33.739688_73.179688,Naeem medical store Bharakhou Islamabad,"Naeem medical store Bharakhou Islamabad
4.7(3)
Homeopathic pharmacy · Murree Rd P5QH+VV5 Athal, Chowk
Open ⋅ Closes 9 PM · +92 331 5388003",Homeopathic pharmacy,Open,33.7396875,73.1796875,https://www.google.com/maps/place/Naeem+medical+store+Bharakhou+Islamabad/data=!4m7!3m6!1s0x38dfc1802ed97683:0xee3d2d51661ca197!8m2!3d33.7396875!4d73.1796875!16s%2Fg%2F12mkw8t0g!19sChIJg3bZLoDB3zgRl6EcZlEtPe4?authuser=0&hl=en&rclk=1,"Medical Store, Islamabad"
92,tmpharmacy_33.676061_73.014120,TM Pharmacy,"TM Pharmacy
4.6(13)
Pharmacy · Bela Rd
Open ⋅ Closes 12 AM · +92 322 4369794",Pharmacy,Open,33.6760611,73.0141201,https://www.google.com/maps/place/TM+Pharmacy/data=!4m7!3m6!1s0x38dfbe1fab03d88f:0x1d0176acb790f663!8m2!3d33.6760611!4d73.0141201!16s%2Fg%2F11d_8l_063!19sChIJj9gDqx--3zgRY_aQt6x2AR0?authuser=0&hl=en&rclk=1,"Medical Store, Islamabad"
93,accesspharmacy_33.667992_73.075569,Access Pharmacy,"Access Pharmacy
3.6(22)
Pharmacy · EOBI PLAZA
Open ⋅ Closes 3 AM · +92 333 5341516",Pharmacy,Open,33.6679917,73.0755688,https://www.google.com/maps/place/Access+Pharmacy/data=!4m7!3m6!1s0x38df95edf4a17003:0xcb59fc5738b60425!8m2!3d33.6679917!4d73.0755688!16s%2Fg%2F11hffw29c6!19sChIJA3Ch9O2V3zgRJQS2OFf8Wcs?authuser=0&hl=en&rclk=1,"Medical Store, Islamabad"
94,iqbalpharmacy_33.650326_72.971394,Iqbal Pharmacy,"Iqbal Pharmacy
5.0(12)
Pharmacy · Street no 149 Sector
Open ⋅ Closes 10 PM · +92 51 2154555",Pharmacy,Open,33.6503265,72.9713936,https://www.google.com/maps/place/Iqbal+Pharmacy/data=!4m7!3m6!1s0x38df97faed5f8db3:0x13642958d3149faf!8m2!3d33.6503265!4d72.9713936!16s%2Fg%2F11nybj3ft9!19sChIJs41f7fqX3zgRr58U01gpZBM?authuser=0&hl=en&rclk=1,"Medical Store, Islamabad"
95,islamabdpharmapharma_33.658479_72.856157,ISLAMABD PHARMA PHARMACY & HEALTH CARE CENTRE,"ISLAMABD PHARMA PHARMACY & HEALTH CARE CENTRE
4.7(15)
Pharmacy ·  · MV43+W6C, Markaz Rd
Open ⋅ Closes 12 AM · +92 51 2766660",Pharmacy,Open,33.6584786,72.8561569,https://www.google.com/maps/place/ISLAMABD+PHARMA+PHARMACY+%26+HEALTH+CARE+CENTRE/data=!4m7!3m6!1s0x38dfa3cc982ead61:0xb70a1fe013f72e7f!8m2!3d33.6584786!4d72.8561569!16s%2Fg%2F11qn6v1m3h!19sChIJYa0umMyj3zgRfy73E-AfCrc?authuser=0&hl=en&rclk=1,"Medical Store, Islamabad"
96,pakistanpharmacy_33.698845_73.048117,Pakistan Pharmacy,"Pakistan Pharmacy
4.0(50)
Pharmacy · M2XX+G6Q, Markaz Rd
Open 24 hours · +92 51 2340024",Pharmacy,Open 24 hours,33.6988446,73.0481168,https://www.google.com/maps/place/Pakistan+Pharmacy/data=!4m7!3m6!1s0x38dfbfc82d233bbf:0x39d93d1f9a4a5dd7!8m2!3d33.6988446!4d73.0481168!16s%2Fg%2F11clt0x6rw!19sChIJvzsjLci_3zgR111Kmh892Tk?authuser=0&hl=en&rclk=1,"Medical Store, Islamabad"
97,kashmirpharmacy_33.698987_73.048552,Kashmir Pharmacy,"Kashmir Pharmacy
3.4(13)
Pharmacy · Shop No. 2-B, Allah Dad Plaza
Open ⋅ Closes 12 AM",Pharmacy,Open,33.6989867,73.0485523,https://www.google.com/maps/place/Kashmir+Pharmacy/data=!4m7!3m6!1s0x38dfbf9c82035137:0xf2b6a4a86adcacdf!8m2!3d33.6989867!4d73.0485523!16s%2Fg%2F11nfw45qpq!19sChIJN1EDgpy_3zgR36zcaqiktvI?authuser=0&hl=en&rclk=1,"Medical Store, Islamabad"
98,medigreenmartpharmac_33.630772_72.879313,MediGreen Mart/Pharmacy,"MediGreen Mart/Pharmacy
4.7(14)
Pharmacy · Shop # 5, Victoria Heights, opposite Bilal Mosque
Open ⋅ Closes 10 PM · +92 334 5029475",Pharmacy,Open,33.6307721,72.8793128,https://www.google.com/maps/place/MediGreen+Mart%2FPharmacy/data=!4m7!3m6!1s0x38df983e43d76c6f:0xcd4d7fd92dfd8332!8m2!3d33.6307721!4d72.8793128!16s%2Fg%2F11c5sq92_s!19sChIJb2zXQz6Y3zgRMoP9Ldl_Tc0?authuser=0&hl=en&rclk=1,"Medical Store, Islamabad"
99,maxmedicos_33.519897_73.087527,Max Medicos,"Max Medicos
4.1(25)
Pharmacy · North Commercial D, Bahria Expy
Open ⋅ Closes 12 AM · +92 300 8108329",Pharmacy,Open,33.5198966,73.0875268,https://www.google.com/maps/place/Max+Medicos/data=!4m7!3m6!1s0x38df935c0b4efdc1:0xcf9da349e10033f8!8m2!3d33.5198966!4d73.0875268!16s%2Fg%2F11qsslp18f!19sChIJwf1OC1yT3zgR-DMA4Umjnc8?authuser=0&hl=en&rclk=1,"Medical Store, Islamabad"
100,alsalehpharmacy_33.686728_73.139446,Al-Saleh Pharmacy,"Al-Saleh Pharmacy
2.3(4)
Pharmacy · M4PQ+MQW
Open 24 hours · +92 51 2206929",Pharmacy,Open 24 hours,33.6867281,73.1394464,https://www.google.com/maps/place/Al-Saleh+Pharmacy/data=!4m7!3m6!1s0x38dfea7ebfcc37e5:0xa753d08b56fdff36!8m2!3d33.6867281!4d73.1394464!16s%2Fg%2F11c2mwdcnw!19sChIJ5TfMv37q3zgRNv_9VovQU6c?authuser=0&hl=en&rclk=1,"Medical Store, Islamabad"
101,maazmedicalstore_33.623091_72.934704,Maaz Medical Store,"Maaz Medical Store
4.3(3)
Pharmacy · Shop No 1, Ground Floor, Kazmain plaza, Grand Trunk Rd
Open ⋅ Closes 9 PM · +92 300 9833409",Pharmacy,Open,33.6230907,72.934704,https://www.google.com/maps/place/Maaz+Medical+Store/data=!4m7!3m6!1s0x38df97a591c24183:0x85285b75b28c8e9b!8m2!3d33.6230907!4d72.934704!16s%2Fg%2F11f3nk7jb5!19sChIJg0HCkaWX3zgRm46MsnVbKIU?authuser=0&hl=en&rclk=1,"Medical Store, Islamabad"
102,mmedicalstoreandclin_33.628767_73.155074,M.medical store and clinic,"M.medical store and clinic
4.0(6)
Pharmacy · 2nd Road
Open ⋅ Closes 9 PM · +92 345 9254218",Pharmacy,Open,33.6287666,73.1550743,https://www.google.com/maps/place/M.medical+store+and+clinic/data=!4m7!3m6!1s0x38dfeb22d01b90ab:0x99f0bf896d247453!8m2!3d33.6287666!4d73.1550743!16s%2Fg%2F11tx5bkf08!19sChIJq5Ab0CLr3zgRU3QkbYm_8Jk?authuser=0&hl=en&rclk=1,"Medical Store, Islamabad"
103,alnoorchemist_33.710495_73.039088,Al-Noor Chemist,"Al-Noor Chemist
4.7(21)
Pharmacy · Kashif Plaza, Shop 5, Block 4B, F-8 Markaz, F-8, Islamabad, ICT
Open ⋅ Closes 11 PM · +92 51 2260540",Pharmacy,Open,33.7104946,73.0390878,https://www.google.com/maps/place/Al-Noor+Chemist/data=!4m7!3m6!1s0x38dfbe52be050367:0x40e6e2f3ff1e8c17!8m2!3d33.7104946!4d73.0390878!16s%2Fg%2F11xnq96ms!19sChIJZwMFvlK-3zgRF4we__Pi5kA?authuser=0&hl=en&rclk=1,"Medical Store, Islamabad"
104,khalidpharmacy_33.684812_73.042937,KHALID PHARMACY,"KHALID PHARMACY
4.1(11)
Pharmacy
Open ⋅ Closes 2 AM · +92 51 2261212",Pharmacy,Open,33.6848125,73.0429375,https://www.google.com/maps/place/KHALID+PHARMACY/data=!4m7!3m6!1s0x38dfbfff3b14a8a5:0x5c7ad6a0c6a63c98!8m2!3d33.6848125!4d73.0429375!16s%2Fg%2F11fcmc3512!19sChIJpagUO_-_3zgRmDymxqDWelw?authuser=0&hl=en&rclk=1,"Medical Store, Islamabad"
105,ghousiamedicalstore_33.739102_73.182667,Ghousia medical store,"Ghousia medical store
5.0(2)
Pharmacy · Simly Dam Road
Open ⋅ Closes 9 PM",Pharmacy,Open,33.7391016,73.1826669,https://www.google.com/maps/place/Ghousia+medical+store/data=!4m7!3m6!1s0x38dfc3d0d56588e5:0xe8b4d927c50ac6e8!8m2!3d33.7391016!4d73.1826669!16s%2Fg%2F12mkw9p_1!19sChIJ5Yhl1dDD3zgR6MYKxSfZtOg?authuser=0&hl=en&rclk=1,"Medical Store, Islamabad"
106,aghamedicalstore_33.652630_73.053588,Agha Medical Store,"Agha Medical Store
4.4(11)
Pharmacy ·  · Shakil Square, Gali 4, I-9-1, I-9
Open now · +92 313 3123456",Pharmacy,Open now,33.6526298,73.0535879,https://www.google.com/maps/place/Agha+Medical+Store/data=!4m7!3m6!1s0x38df9512164d227b:0x8badc2a3f8fe01d!8m2!3d33.6526298!4d73.0535879!16s%2Fg%2F12mkwb0rz!19sChIJeyJNFhKV3zgRHeCPPyrcugg?authuser=0&hl=en&rclk=1,"Medical Store, Islamabad"
107,madinamedicalstore_33.642500_72.972715,Madina Medical Store,"Madina Medical Store
3.7(3)
Pharmacy · Khayaban-e Faiz Road
Open ⋅ Closes 5 PM",Pharmacy,Open,33.6424996,72.9727147,https://www.google.com/maps/place/Madina+Medical+Store/data=!4m7!3m6!1s0x38df9727ae9ee26b:0x8d42b8de7f3b51c7!8m2!3d33.6424996!4d72.9727147!16s%2Fg%2F11fm187rdl!19sChIJa-KerieX3zgRx1E7f964Qo0?authuser=0&hl=en&rclk=1,"Medical Store, Islamabad"
108,fourstarpharmacy_33.723182_73.082577,Four Star Pharmacy,"Four Star Pharmacy
4.1(9)
Pharmacy · Hajveri Plaza, Shop 3, 22/B, Jinnah Ave, Block B, Blue Area
Open ⋅ Closes 9 PM · +92 51 2604410",Pharmacy,Open,33.7231815,73.0825768,https://www.google.com/maps/place/Four+Star+Pharmacy/data=!4m7!3m6!1s0x38dfbf817a7b076d:0x415a39da4d35351e!8m2!3d33.7231815!4d73.0825768!16s%2Fg%2F12mkw9q1x!19sChIJbQd7eoG_3zgRHjU1Tdo5WkE?authuser=0&hl=en&rclk=1,"Medical Store, Islamabad"
109,mashallahmedicalstor_33.742313_73.183881,MashAllah Medical Store,"MashAllah Medical Store
5.0(1)
Pharmacy · P5RM+WHC
Open ⋅ Closes 10 PM · +92 300 5129349",Pharmacy,Open,33.7423131,73.1838809,https://www.google.com/maps/place/MashAllah+Medical+Store/data=!4m7!3m6!1s0x38dfc3994621927d:0xc17567db903df3a6!8m2!3d33.7423131!4d73.1838809!16s%2Fg%2F11g4f_d_q7!19sChIJfZIhRpnD3zgRpvM9kNtndcE?authuser=0&hl=en&rclk=1,"Medical Store, Islamabad"
110,barqpharmacy_33.653379_73.016353,BARQ PHARMACY,"BARQ PHARMACY
3.7(15)
Pharmacy · opposite PAEC General Hospital
Open ⋅ Closes 9 PM · +92 51 8912082",Pharmacy,Open,33.6533789,73.0163528,https://www.google.com/maps/place/BARQ+PHARMACY/data=!4m7!3m6!1s0x38df95d1b1880543:0x15a8311fae1353fe!8m2!3d33.6533789!4d73.0163528!16s%2Fg%2F11nwx7_yfv!19sChIJQwWIsdGV3zgR_lMTrh8xqBU?authuser=0&hl=en&rclk=1,"Medical Store, Islamabad"
111,gulpharmacyandcosmet_33.692962_72.975287,Gul Pharmacy And Cosmetics,"Gul Pharmacy And Cosmetics
5.0(1)
Medical supply store · MXVG+54M
Open 24 hours · +92 345 1930464",Medical supply store,Open 24 hours,33.6929615,72.9752875,https://www.google.com/maps/place/Gul+Pharmacy+And+Cosmetics/data=!4m7!3m6!1s0x38dfbd8917def959:0x977ee1d3e2a3b38b!8m2!3d33.6929615!4d72.9752875!16s%2Fg%2F11rvhfg76n!19sChIJWfneF4m93zgRi7Oj4tPhfpc?authuser=0&hl=en&rclk=1,"Medical Store, Islamabad"
112,attamedicalstore_33.616977_73.138610,Atta Medical Store,"Atta Medical Store
4.4(7)
Pharmacy · J48Q+QCX
Open ⋅ Closes 12 AM · +92 320 8544876",Pharmacy,Open,33.6169771,73.1386101,https://www.google.com/maps/place/Atta+Medical+Store/data=!4m7!3m6!1s0x38dfeb9cf0edf66f:0xa7adabe777ef6c0e!8m2!3d33.6169771!4d73.1386101!16s%2Fg%2F11gbp64112!19sChIJb_bt8Jzr3zgRDmzvd-errac?authuser=0&hl=en&rclk=1,"Medical Store, Islamabad"
113,noumanmedicalstore_33.674544_72.851258,Nouman Medical Store,"Nouman Medical Store
5.0(3)
Health and beauty shop ·  · main bazar
Open 24 hours · +92 334 0870241",Health and beauty shop,Open 24 hours,33.6745439,72.8512579,https://www.google.com/maps/place/Nouman+Medical+Store/data=!4m7!3m6!1s0x38dfa39680e7a8fd:0x43962bb849b19176!8m2!3d33.6745439!4d72.8512579!16s%2Fg%2F11rql75l_q!19sChIJ_ajngJaj3zgRdpGxSbgrlkM?authuser=0&hl=en&rclk=1,"Medical Store, Islamabad"
114,najeebpharmacyg134_33.650576_72.971680,Najeeb Pharmacy G-13/4,"Najeeb Pharmacy G-13/4
3.1(19)
Pharmacy · G, Punjab Market،, Street 138, G 13/4 Attique plaza, 13/4
Open 24 hours · +92 51 2154700",Pharmacy,Open 24 hours,33.6505764,72.9716796,https://www.google.com/maps/place/Najeeb+Pharmacy+G-13%2F4/data=!4m7!3m6!1s0x38df979d957a2937:0xd344abcd7ecc5815!8m2!3d33.6505764!4d72.9716796!16s%2Fg%2F11kj7106_1!19sChIJNyl6lZ2X3zgRFVjMfs2rRNM?authuser=0&hl=en&rclk=1,"Medical Store, Islamabad"
115,harismedicalstore_33.639275_72.900702,Haris Medical Store,"Haris Medical Store
4.0(1)
Pharmacy · Fatehjang Rd - GT Rd Link
Open ⋅ Closes 7:30 PM",Pharmacy,Open,33.6392747,72.9007019,https://www.google.com/maps/place/Haris+Medical+Store/data=!4m7!3m6!1s0x38df97f5bb8ff315:0xb827f29ca1e7ad7e!8m2!3d33.6392747!4d72.9007019!16s%2Fg%2F11xc0_ryv!19sChIJFfOPu_WX3zgRfq3noZzyJ7g?authuser=0&hl=en&rclk=1,"Medical Store, Islamabad"
116,newmedifairchemistme_33.690285_73.031483,New Medi Fair Chemist & Medical Store,"New Medi Fair Chemist & Medical Store
4.0(2)
Pharmacy · Chand Plaza, Rohtas Rd, G-9 Markaz, G-9
Open now · +92 51 2282586",Pharmacy,Open now,33.6902846,73.0314833,https://www.google.com/maps/place/New+Medi+Fair+Chemist+%26+Medical+Store/data=!4m7!3m6!1s0x38dfbe30e238ecd7:0xbbc45b3f974f61f6!8m2!3d33.6902846!4d73.0314833!16s%2Fg%2F12mkw8fgy!19sChIJ1-w44jC-3zgR9mFPlz9bxLs?authuser=0&hl=en&rclk=1,"Medical Store, Islamabad"
117,jahangirmedicalstore_33.722872_73.081989,Jahangir Medical Store,"Jahangir Medical Store
5.0(2)
Pharmacy · P3FJ+4QX, Ghausia Plaza, Jinnah Ave, Block C, Blue Area
Open now · +92 51 2270180",Pharmacy,Open now,33.7228719,73.0819889,https://www.google.com/maps/place/Jahangir+Medical+Store/data=!4m7!3m6!1s0x38dfbf8162dcbb19:0xace1aeac1c2c5cef!8m2!3d33.7228719!4d73.0819889!16s%2Fg%2F12mkz5pfv!19sChIJGbvcYoG_3zgR71wsHKyu4aw?authuser=0&hl=en&rclk=1,"Medical Store, Islamabad"
118,mustafamedicalstorea_33.668716_72.986105,Mustafa Medical Store and Cosmetics,"Mustafa Medical Store and Cosmetics
3.8(4)
Pharmacy · near Service Road W
Open 24 hours · +92 335 5315504",Pharmacy,Open 24 hours,33.668716,72.9861052,https://www.google.com/maps/place/Mustafa+Medical+Store+and+Cosmetics/data=!4m7!3m6!1s0x38df970ea46e5289:0x8fd744917510d748!8m2!3d33.668716!4d72.9861052!16s%2Fg%2F11hm7vtwzp!19sChIJiVJupA6X3zgRSNcQdZFE148?authuser=0&hl=en&rclk=1,"Medical Store, Islamabad"
119,arshadmedicalstore_33.673702_72.948361,Arshad Medical Store,"Arshad Medical Store
4.8(4)
Pharmacy · E-13",Pharmacy,,33.6737017,72.9483612,https://www.google.com/maps/place/Arshad+Medical+Store/data=!4m7!3m6!1s0x38dfbd82dd19c8e9:0x8e45382a04ce4260!8m2!3d33.6737017!4d72.9483612!16s%2Fg%2F1jkz7smjr!19sChIJ6cgZ3YK93zgRYELOBCo4RY4?authuser=0&hl=en&rclk=1,"Medical Store, Islamabad"
120,hareempharmacy_33.717914_73.073233,HAREEM PHARMACY,"HAREEM PHARMACY
4.2(9)
Pharmacy · Office no 7 3rd floor, Aaly Plaza, SHOP#3 7th Ave
Open ⋅ Closes 11 PM · +92 51 2342225",Pharmacy,Open,33.7179145,73.0732333,https://www.google.com/maps/place/HAREEM+PHARMACY/data=!4m7!3m6!1s0x38dfbfed22817f69:0x84e8ffadb92c40f5!8m2!3d33.7179145!4d73.0732333!16s%2Fg%2F11h6v0ljw6!19sChIJaX-BIu2_3zgR9UAsua3_6IQ?authuser=0&hl=en&rclk=1,"Medical Store, Islamabad"
121,medicalstore_33.643078_72.952425,Medical store,"Medical store
1.0(1)
Pharmacy · Mehr Arcade, Street 10
Open now",Pharmacy,Open now,33.6430779,72.952425,https://www.google.com/maps/place/Medical+store/data=!4m7!3m6!1s0x38df97f048ab008d:0x8dc5f5f268fc8dcd!8m2!3d33.6430779!4d72.952425!16s%2Fg%2F11hfx7txl2!19sChIJjQCrSPCX3zgRzY38aPL1xY0?authuser=0&hl=en&rclk=1,"Medical Store, Islamabad"
122,akrampharmacy_33.699131_73.048754,Akram Pharmacy,"Akram Pharmacy
3.7(10)
Pharmacy · M2XX+MG2, Markaz Rd
Open ⋅ Closes 12 AM · +92 51 2255515",Pharmacy,Open,33.6991308,73.0487539,https://www.google.com/maps/place/Akram+Pharmacy/data=!4m7!3m6!1s0x38dfbfc9cfff69cb:0x73a185c16b1c689e!8m2!3d33.6991308!4d73.0487539!16s%2Fg%2F1pp2wxvzl!19sChIJy2n_z8m_3zgRnmgca8GFoXM?authuser=0&hl=en&rclk=1,"Medical Store, Islamabad"
123,saifpharmacy_33.716254_73.084756,Saif Pharmacy,"Saif Pharmacy
4.6(11)
Pharmacy · Shop 13, Block, Melody Market, Mohammadia Plaza, 4 Municipal Rd
Open ⋅ Closes 12 AM · +92 51 2824550",Pharmacy,Open,33.7162539,73.0847562,https://www.google.com/maps/place/Saif+Pharmacy/data=!4m7!3m6!1s0x38dfbf87d3554575:0x9d4b969bd8e9c01a!8m2!3d33.7162539!4d73.0847562!16s%2Fg%2F12mkw809l!19sChIJdUVV04e_3zgRGsDp2JuWS50?authuser=0&hl=en&rclk=1,"Medical Store, Islamabad"
124,binhayyanpharmacy_33.711728_73.038265,Bin-Hayyan Pharmacy,"Bin-Hayyan Pharmacy
4.1(10)
Pharmacy · Shop # 4,5 Ground Floor Pacific Centre
Open 24 hours · +92 51 2744703",Pharmacy,Open 24 hours,33.7117284,73.0382654,https://www.google.com/maps/place/Bin-Hayyan+Pharmacy/data=!4m7!3m6!1s0x38dfbfc3113d58b7:0x32f34621a2f075f0!8m2!3d33.7117284!4d73.0382654!16s%2Fg%2F11pv637z6g!19sChIJt1g9EcO_3zgR8HXwoiFG8zI?authuser=0&hl=en&rclk=1,"Medical Store, Islamabad"
125,mahrmedicalstore_33.657041_73.096972,Mahr Medical Store,"Mahr Medical Store
5.0(3)
Pharmacy · skyways parking, Shop # 7, Zardad plaza, behind
Open ⋅ Closes 11:30 PM · +92 300 5304706",Pharmacy,Open,33.6570409,73.0969723,https://www.google.com/maps/place/Mahr+Medical+Store/data=!4m7!3m6!1s0x38dfeba31a3c9fb5:0xbb3eb39b4cbf1a8c!8m2!3d33.6570409!4d73.0969723!16s%2Fg%2F11h6yx9q_5!19sChIJtZ88GqPr3zgRjBq_TJuzPrs?authuser=0&hl=en&rclk=1,"Medical Store, Islamabad"
126,universalclinicherba_33.688695_73.031620,Universal Clinic Herbal & Homeo Medical Store,"Universal Clinic Herbal & Homeo Medical Store
3.0(3)
Pharmacy · Mumtaz Plaza, Rohtas Rd, G-9 Markaz, G-9
Open now",Pharmacy,Open now,33.6886947,73.0316204,https://www.google.com/maps/place/Universal+Clinic+Herbal+%26+Homeo+Medical+Store/data=!4m7!3m6!1s0x38dfbe31b2cb341b:0xc5adfe9fd0e31fbb!8m2!3d33.6886947!4d73.0316204!16s%2Fg%2F12mkzk5xf!19sChIJGzTLsjG-3zgRux_j0J_-rcU?authuser=0&hl=en&rclk=1,"Medical Store, Islamabad"
127,riteaidpharmacy_33.645053_72.963569,Rite Aid Pharmacy,"Rite Aid Pharmacy
4.7(31)
Pharmacy ·  · JXW7+2CG, Street 162
Open ⋅ Closes 12:30 AM · +92 370 1323084",Pharmacy,Open,33.6450527,72.9635692,https://www.google.com/maps/place/Rite+Aid+Pharmacy/data=!4m7!3m6!1s0x38df9638ada8b95f:0x6741133fc7dce4e!8m2!3d33.6450527!4d72.9635692!16s%2Fg%2F11c1p6gcd4!19sChIJX7morTiW3zgRTs59_DMRdAY?authuser=0&hl=en&rclk=1,"Medical Store, Islamabad"
128,alrazzaqpharmacyg131_33.645014_72.963596,AL-RAZZAQ PHARMACY G13/1 ISLAMABAD,"AL-RAZZAQ PHARMACY G13/1 ISLAMABAD
5.0(3)
Pharmacy · Rabica Centire
Open ⋅ Closes 3 AM · +92 330 5626653",Pharmacy,Open,33.6450136,72.9635961,https://www.google.com/maps/place/AL-RAZZAQ+PHARMACY+G13%2F1+ISLAMABAD/data=!4m7!3m6!1s0x38df973c4f11ab0b:0x2ce3623008fa3fa5!8m2!3d33.6450136!4d72.9635961!16s%2Fg%2F11l76rk_98!19sChIJC6sRTzyX3zgRpT_6CDBi4yw?authuser=0&hl=en&rclk=1,"Medical Store, Islamabad"
129,allatifpharmacy_33.530808_73.160573,Al Latif Pharmacy,"Al Latif Pharmacy
4.0(91)
Pharmacy · Plaza #29. Akhter Arcade, Jinnah Boulevard
Open ⋅ Closes 2 AM · +92 51 5418574",Pharmacy,Open,33.5308085,73.1605727,https://www.google.com/maps/place/Al+Latif+Pharmacy/data=!4m7!3m6!1s0x38dfedf47a226c2d:0x95be901a9c55c328!8m2!3d33.5308085!4d73.1605727!16s%2Fg%2F11j0h8t15f!19sChIJLWwievTt3zgRKMNVnBqQvpU?authuser=0&hl=en&rclk=1,"Medical Store, Islamabad"
130,dwatsonchemistbluear_33.708921_73.055395,D.WATSON CHEMIST BLUE AREA,"D.WATSON CHEMIST BLUE AREA
4.2(479)
Pharmacy ·  · KHYBER PLAZA, Street 30
Open ⋅ Closes 1 AM · +92 51 8444479",Pharmacy,Open,33.7089212,73.0553945,https://www.google.com/maps/place/D.WATSON+CHEMIST+BLUE+AREA/data=!4m7!3m6!1s0x38dfbfdef1cd8a4f:0xde203c5003893d3d!8m2!3d33.7089212!4d73.0553945!16s%2Fg%2F11sps_6svj!19sChIJT4rN8d6_3zgRPT2JA1A8IN4?authuser=0&hl=en&rclk=1,"Medical Store, Islamabad"
131,bestcarepharmacy_33.531848_73.114763,Best Care Pharmacy,"Best Care Pharmacy
4.7(39)
Pharmacy · Bahria Ave
Open ⋅ Closes 1 AM · +92 315 5341111",Pharmacy,Open,33.5318479,73.1147633,https://www.google.com/maps/place/Best+Care+Pharmacy/data=!4m7!3m6!1s0x38dfeddbfab05485:0x4958360e07106581!8m2!3d33.5318479!4d73.1147633!16s%2Fg%2F11scxb74nx!19sChIJhVSw-tvt3zgRgWUQBw42WEk?authuser=0&hl=en&rclk=1,"Medical Store, Islamabad"
132,hfpharmacyandcosmeti_33.648753_73.223004,HF Pharmacy and Cosmetics,"HF Pharmacy and Cosmetics
4.9(10)
Pharmacy · J6XF+G62, Thanda Pani, Lehtrar Rd
Open ⋅ Closes 11 PM · +92 331 5800752",Pharmacy,Open,33.6487531,73.2230044,https://www.google.com/maps/place/HF+Pharmacy+and+Cosmetics/data=!4m7!3m6!1s0x38dfe9cfaa7478c1:0xa28823d5ade8fe64!8m2!3d33.6487531!4d73.2230044!16s%2Fg%2F11h4kwkqq0!19sChIJwXh0qs_p3zgRZP7ordUjiKI?authuser=0&hl=en&rclk=1,"Medical Store, Islamabad"
133,gapharmacy_33.644205_73.164853,G.A Pharmacy,"G.A Pharmacy
5.0(6)
Pharmacy · J5V7+MWQ, Lehtrar Rd، near Tramri Chowk
Open ⋅ Closes 9 PM · +92 312 5002140",Pharmacy,Open,33.6442055,73.1648534,https://www.google.com/maps/place/G.A+Pharmacy/data=!4m7!3m6!1s0x38dfebcec9f659bb:0x3a8ce3cdce164133!8m2!3d33.6442055!4d73.1648534!16s%2Fg%2F11fy99m06n!19sChIJu1n2yc7r3zgRM0EWzs3jjDo?authuser=0&hl=en&rclk=1,"Medical Store, Islamabad"
134,khangmedicalstore_33.638791_73.110624,Khan g medical store,"Khan g medical store
4.0(2)
Pharmacy · Rajpooth chowk main bazar
Open ⋅ Closes 11:30 PM · +92 346 5490025",Pharmacy,Open,33.6387913,73.110624,https://www.google.com/maps/place/Khan+g+medical+store/data=!4m7!3m6!1s0x38dfeb0e71713047:0x7529ecfdffa2666b!8m2!3d33.6387913!4d73.110624!16s%2Fg%2F11sy426xvn!19sChIJRzBxcQ7r3zgRa2ai__3sKXU?authuser=0&hl=en&rclk=1,"Medical Store, Islamabad"
135,medicalstore_33.579656_73.143786,Medical Store,"Medical Store
3.4(5)
Pharmacy · H4HV+VG7
Open ⋅ Closes 11 PM",Pharmacy,Open,33.5796561,73.1437859,https://www.google.com/maps/place/Medical+Store/data=!4m7!3m6!1s0x38dfec5c57d37a1b:0x457e8ce5fbbf66ec!8m2!3d33.5796561!4d73.1437859!16s%2Fg%2F11g9qjwnc8!19sChIJG3rTV1zs3zgR7Ga_--WMfkU?authuser=0&hl=en&rclk=1,"Medical Store, Islamabad"
137,newfayyazmedicalstor_33.668275_72.892619,New Fayyaz Medical Store,"New Fayyaz Medical Store
No reviews
Pharmacy · MV9V+73J
Open ⋅ Closes 10 PM · +92 345 8353887",Pharmacy,Open,33.6682749,72.8926193,https://www.google.com/maps/place/New+Fayyaz+Medical+Store/data=!4m7!3m6!1s0x38dfa3d88f20dc7d:0xec58f7208a0008cb!8m2!3d33.6682749!4d72.8926193!16s%2Fg%2F11sjqkdkt7!19sChIJfdwgj9ij3zgRywgAiiD3WOw?authuser=0&hl=en&rclk=1,"Medical Store, Islamabad"
138,capitalmedicalstores_33.698974_73.049393,Capital Medical Store & Surgical,"Capital Medical Store & Surgical
5.0(1)
Pharmacy · Zeeshan Plaza, G-8 Markaz, G-8
Open now",Pharmacy,Open now,33.6989737,73.0493926,https://www.google.com/maps/place/Capital+Medical+Store+%26+Surgical/data=!4m7!3m6!1s0x38dfbfc834cd4393:0xaf75aa8e891e5306!8m2!3d33.6989737!4d73.0493926!16s%2Fg%2F12mkzcbw4!19sChIJk0PNNMi_3zgRBlMeiY6qda8?authuser=0&hl=en&rclk=1,"Medical Store, Islamabad"
139,irfanmedicalstore_33.637817_73.129919,Irfan medical store,"Irfan medical store
4.0(6)
Pharmacy · J4QH+4XF
Open now",Pharmacy,Open now,33.6378172,73.1299192,https://www.google.com/maps/place/Irfan+medical+store/data=!4m7!3m6!1s0x38dfeb06632203c1:0xd3494f5ae255c3b9!8m2!3d33.6378172!4d73.1299192!16s%2Fg%2F11hb5jnyd5!19sChIJwQMiYwbr3zgRucNV4lpPSdM?authuser=0&hl=en&rclk=1,"Medical Store, Islamabad"
140,msonspharmacycosmeti_33.569274_73.201178,M.Son's Pharmacy & Cosmetics,"M.Son's Pharmacy & Cosmetics
4.4(13)
Pharmacy · Haramain Plaza, Street 2
Open ⋅ Closes 1 AM · +92 323 9519846",Pharmacy,Open,33.5692736,73.2011778,https://www.google.com/maps/place/M.Son%27s+Pharmacy+%26+Cosmetics/data=!4m7!3m6!1s0x38dfef5234154ad3:0xb4ef681a2607bf10!8m2!3d33.5692736!4d73.2011778!16s%2Fg%2F11t4wt6278!19sChIJ00oVNFLv3zgREL8HJhpo77Q?authuser=0&hl=en&rclk=1,"Medical Store, Islamabad"
141,alsaboormedicalstore_33.606827_73.135688,AL SABOOR MEDICAL STORE,"AL SABOOR MEDICAL STORE
No reviews
Pharmacy · Koral Rd, Karol Tow, Sharifabad Rd
Open ⋅ Closes 12 AM · +92 315 5331977",Pharmacy,Open,33.6068267,73.1356883,https://www.google.com/maps/place/AL+SABOOR+MEDICAL+STORE/data=!4m7!3m6!1s0x38dfedaea551c0f1:0x8c44e10b1a29b055!8m2!3d33.6068267!4d73.1356883!16s%2Fg%2F11hrx9k24t!19sChIJ8cBRpa7t3zgRVbApGgvhRIw?authuser=0&hl=en&rclk=1,"Medical Store, Islamabad"
142,tahirpharmacy_33.686755_72.836336,Tahir Pharmacy,"Tahir Pharmacy
4.5(48)
Pharmacy · B17, Lower Ground, Ak hieghts, near Safa cafe, Mini Markaz
Open ⋅ Closes 12 AM · +92 322 8881025",Pharmacy,Open,33.6867549,72.8363361,https://www.google.com/maps/place/Tahir+Pharmacy/data=!4m7!3m6!1s0x38dfa362c046f3c1:0x68f3ed506b3659c3!8m2!3d33.6867549!4d72.8363361!16s%2Fg%2F11j1nh4946!19sChIJwfNGwGKj3zgRw1k2a1Dt82g?authuser=0&hl=en&rclk=1,"Medical Store, Islamabad"
143,mohsinmedicalstore_33.645384_72.964333,Mohsin Medical Store,"Mohsin Medical Store
5.0(1)
Pharmacy · Decent Arcade, Street 108
Open now",Pharmacy,Open now,33.6453838,72.9643328,https://www.google.com/maps/place/Mohsin+Medical+Store/data=!4m7!3m6!1s0x38df963f4fb69c8b:0x310c3ef96f6941c8!8m2!3d33.6453838!4d72.9643328!16s%2Fg%2F12mkz7t1k!19sChIJi5y2Tz-W3zgRyEFpb_k-DDE?authuser=0&hl=en&rclk=1,"Medical Store, Islamabad"
144,alaminpharmacy_33.668385_72.997243,Al-Amin pharmacy,"Al-Amin pharmacy
4.3(10)
Pharmacy · Shah Nawaz Plaza, Shop 4, Plot 11, Sachal Sarmast Rd, G-11 Markaz, G-11
Open ⋅ Closes 12 AM · +92 345 5106697",Pharmacy,Open,33.6683853,72.9972434,https://www.google.com/maps/place/Al-Amin+pharmacy/data=!4m7!3m6!1s0x38df95ff1b135e3f:0xc3e1750345a09710!8m2!3d33.6683853!4d72.9972434!16s%2Fg%2F1jkxntn5z!19sChIJP14TG_-V3zgREJegRQN14cM?authuser=0&hl=en&rclk=1,"Medical Store, Islamabad"
145,mpakistanpharmacy_33.575402_73.143579,M.Pakistan pharmacy,"M.Pakistan pharmacy
4.7(16)
Pharmacy · Shop # 4 ground floor, Hamza Plaza, Central Rd
Open ⋅ Closes 11:30 PM · +92 51 6126729",Pharmacy,Open,33.5754021,73.1435793,https://www.google.com/maps/place/M.Pakistan+pharmacy/data=!4m7!3m6!1s0x38dfec5ba6552e55:0x7eb78d1eccc335dc!8m2!3d33.5754021!4d73.1435793!16s%2Fg%2F11fxb88hfy!19sChIJVS5Vplvs3zgR3DXDzB6Nt34?authuser=0&hl=en&rclk=1,"Medical Store, Islamabad"
146,afridimedicalstore_33.646071_73.035558,Afridi Medical Store,"Afridi Medical Store
1.0(2)
Pharmacy · Shaheen Plaza, Shop A-3, Sohni Rd, I-10-1 Markaz, I-10
Open now · +92 51 4442752",Pharmacy,Open now,33.6460713,73.0355577,https://www.google.com/maps/place/Afridi+Medical+Store/data=!4m7!3m6!1s0x38df95a66442de45:0xac50bf5b7075df7a!8m2!3d33.6460713!4d73.0355577!16s%2Fg%2F1jkxm4jbt!19sChIJRd5CZKaV3zgRet91cFu_UKw?authuser=0&hl=en&rclk=1,"Medical Store, Islamabad"
147,shaheenchemisti8mark_33.667365_73.075329,Shaheen Chemist I-8 Markaz,"Shaheen Chemist I-8 Markaz
4.3(1,255)
Pharmacy ·  · Time Square Plaza
Open ⋅ Closes 1 AM · +92 51 4938118",Pharmacy,Open,33.6673652,73.0753292,https://www.google.com/maps/place/Shaheen+Chemist+I-8+Markaz/data=!4m7!3m6!1s0x38df95458e97813f:0xb5f0722222b74857!8m2!3d33.6673652!4d73.0753292!16s%2Fg%2F11bzrgc0_c!19sChIJP4GXjkWV3zgRV0i3IiJy8LU?authuser=0&hl=en&rclk=1,"Medical Store, Islamabad"
148,hashimmedicalstore_33.658322_73.059332,Hashim Medical Store,"Hashim Medical Store
3.0(3)
Medical Center · Najeeb plaza
Open ⋅ Closes 10 PM · +92 333 0943835",Medical Center,Open,33.6583224,73.0593325,https://www.google.com/maps/place/Hashim+Medical+Store/data=!4m7!3m6!1s0x38df956b4d3bdc55:0xe6835d4d49314dfc!8m2!3d33.6583224!4d73.0593325!16s%2Fg%2F11gf5rq314!19sChIJVdw7TWuV3zgR_E0xSU1dg-Y?authuser=0&hl=en&rclk=1,"Medical Store, Islamabad"
149,maroofpharmacy_33.697695_73.011966,Maroof Pharmacy,"Maroof Pharmacy
4.0(22)
Pharmacy ·  · M2X6+3QG
Open 24 hours · +92 330 5562211",Pharmacy,Open 24 hours,33.6976948,73.0119663,https://www.google.com/maps/place/Maroof+Pharmacy/data=!4m7!3m6!1s0x38dfbe6b9c5a62cb:0x89b72b1ef19008c4!8m2!3d33.6976948!4d73.0119663!16s%2Fg%2F11rvtj9qb!19sChIJy2JanGu-3zgRxAiQ8R4rt4k?authuser=0&hl=en&rclk=1,"Medical Store, Islamabad"
150,abbasimedicalstore_33.707724_73.089285,Abbasi Medical Store,"Abbasi Medical Store
5.0(1)
Pharmacy · Aabpara Market, Khayaban-e-Suhrwardy, G-6-1, G-6
Open now",Pharmacy,Open now,33.7077239,73.0892849,https://www.google.com/maps/place/Abbasi+Medical+Store/data=!4m7!3m6!1s0x38dfc0750d5c7be3:0x2ed3facb9eccfd61!8m2!3d33.7077239!4d73.0892849!16s%2Fg%2F12mkz8jm5!19sChIJ43tcDXXA3zgRYf3Mnsv60y4?authuser=0&hl=en&rclk=1,"Medical Store, Islamabad"
151,kmsmedicalstore_33.651731_73.202037,KMS Medical Store,"KMS Medical Store
No reviews
Pharmacy · M622+MRV
Open ⋅ Closes 11 PM",Pharmacy,Open,33.6517311,73.202037,https://www.google.com/maps/place/KMS+Medical+Store/data=!4m7!3m6!1s0x38dfe966c3b1ea2d:0x427009fd3b868f00!8m2!3d33.6517311!4d73.202037!16s%2Fg%2F11j83kvbp2!19sChIJLeqxw2bp3zgRAI-GO_0JcEI?authuser=0&hl=en&rclk=1,"Medical Store, Islamabad"
152,alkhalidmedicalstore_33.657564_73.058089,Al-Khalid Medical Store,"Al-Khalid Medical Store
5.0(1)
Pharmacy · Ashi Plaza, Warsak Rd, I-9 Markaz, I-9
Open now",Pharmacy,Open now,33.6575636,73.0580888,https://www.google.com/maps/place/Al-Khalid+Medical+Store/data=!4m7!3m6!1s0x38df951355f79f75:0xffac5764d36167c0!8m2!3d33.6575636!4d73.0580888!16s%2Fg%2F12mkw8rsr!19sChIJdZ_3VROV3zgRwGdh02RXrP8?authuser=0&hl=en&rclk=1,"Medical Store, Islamabad"
153,najeebpharmacye112_33.699954_72.972996,Najeeb pharmacy E-11/2,"Najeeb pharmacy E-11/2
4.2(111)
Pharmacy · Street 45 Khalid Bin Waleed Rd
Open 24 hours · +92 51 2318030",Pharmacy,Open 24 hours,33.699954,72.972996,https://www.google.com/maps/place/Najeeb+pharmacy+E-11%2F2/data=!4m7!3m6!1s0x38dfbd87d298706f:0x9e350756e7bd651!8m2!3d33.699954!4d72.972996!16s%2Fg%2F11jbhqr9pn!19sChIJb3CY0oe93zgRUdZ7bnVQ4wk?authuser=0&hl=en&rclk=1,"Medical Store, Islamabad"
154,medznmorewarehouseis_33.659028_73.047485,Medznmore Warehouse Islamabad,"Medznmore Warehouse Islamabad
5.0(4)
Pharmacy · Plot 68 Street 10
Open 24 hours",Pharmacy,Open 24 hours,33.659028,73.0474852,https://www.google.com/maps/place/Medznmore+Warehouse+Islamabad/data=!4m7!3m6!1s0x38df9569a3f552e3:0x6449053bbbf4fb3c!8m2!3d33.659028!4d73.0474852!16s%2Fg%2F11rq7r2k1s!19sChIJ41L1o2mV3zgRPPv0uzsFSWQ?authuser=0&hl=en&rclk=1,"Medical Store, Islamabad"
155,alwasaymedicalstore_33.742532_73.174133,Al-Wasay Medical Store,"Al-Wasay Medical Store
5.0(4)
Pharmacy · P5VF+2M6, Kiani Rd
Open ⋅ Closes 10:30 PM · +92 331 5686825",Pharmacy,Open,33.7425324,73.1741327,https://www.google.com/maps/place/Al-Wasay+Medical+Store/data=!4m7!3m6!1s0x38dfc100276e31bb:0xd6de9ada608eee4a!8m2!3d33.7425324!4d73.1741327!16s%2Fg%2F11wmty81bv!19sChIJuzFuJwDB3zgRSu6OYNqa3tY?authuser=0&hl=en&rclk=1,"Medical Store, Islamabad"
