Index,Place Id,Name,Address,Category,Status,Latitude,Longitude,Link,SearchKeyword
1,na_noloc,,,,,,,,"Homeo, Islamabad"
5,islamabadhomeopathic_33.643215_73.041351,Islamabad Homeopathic Clinic Dr Ata ur Rehman,,Homeopath,Open,33.6432155,73.0413513,https://www.google.com/maps/place/Islamabad+Homeopathic+Clinic+Dr+Ata+ur+Rehman/data=!4m7!3m6!1s0x38df95a28481ff05:0x4f837df7d5cfb850!8m2!3d33.6432155!4d73.0413513!16s%2Fg%2F11h6rrlxmj!19sChIJBf-BhKKV3zgRULjP1fd9g08?authuser=0&hl=en&rclk=1,"Homeo, Islamabad"
37,islamabadhomeo_33.668420_72.998312,Islamabad homeo,"Islamabad homeo
4.8(38)
Medical Center · Al Ghaffar Mall Shop#9 Ground floor
Open ⋅ Closes 10 PM · +92 300 5178485",Medical Center,Open,33.6684198,72.9983121,https://www.google.com/maps/place/Islamabad+homeo/data=!4m7!3m6!1s0x38df9564e8def301:0x305672d7fc754b1c!8m2!3d33.6684198!4d72.9983121!16s%2Fg%2F11q84lxh20!19sChIJAfPe6GSV3zgRHEt1_NdyVjA?authuser=0&hl=en&rclk=1,"Homeo, Islamabad"
38,homoeofamilyclinicdr_33.686088_73.045201,Homoeo Family Clinic (Dr Abdul Hameed),"Homoeo Family Clinic (Dr Abdul Hameed)
4.2(47)
Medical clinic ·  · Plot 3, Shop 1 & 2 Street 55, Peshawar Mor Interchange
Open ⋅ Closes 10 PM · +92 51 2282856",Medical clinic,Open,33.6860876,73.0452013,https://www.google.com/maps/place/Homoeo+Family+Clinic+%28Dr+Abdul+Hameed%29/data=!4m7!3m6!1s0x38dfbfd23521b437:0x7578fb4afe48b9c5!8m2!3d33.6860876!4d73.0452013!16s%2Fg%2F12mkzhz2h!19sChIJN7QhNdK_3zgRxblI_kr7eHU?authuser=0&hl=en&rclk=1,"Homeo, Islamabad"
39,hanifhomoeoclinichom_33.666817_73.074377,Hanif Homoeo Clinic(Homeopathic Dr Hanif Mughal),"Hanif Homoeo Clinic(Homeopathic Dr Hanif Mughal)
4.8(20)
Homeopath ·  · Dr Hanif Mughal,Vip plaza ,first floor office no First
Open ⋅ Closes 5 PM · +92 51 8735530",Homeopath,Open,33.6668172,73.0743768,https://www.google.com/maps/place/Hanif+Homoeo+Clinic%28Homeopathic+Dr+Hanif+Mughal%29/data=!4m7!3m6!1s0x38df9545efd36cbd:0xab014d2856b950c9!8m2!3d33.6668172!4d73.0743768!16s%2Fg%2F11bzs1zf60!19sChIJvWzT70WV3zgRyVC5VihNAas?authuser=0&hl=en&rclk=1,"Homeo, Islamabad"
40,alrehmanhomeopathicc_33.571557_73.145494,Al-Rehman Homeopathic Clinic & Store (Dr Muhammad Tahir Khan),"Al-Rehman Homeopathic Clinic & Store (Dr Muhammad Tahir Khan)
4.9(11)
Homeopath · 15 Central Rd, PWD Housing Society
Open ⋅ Closes 10 PM · +92 333 5605689",Homeopath,Open,33.5715572,73.1454942,https://www.google.com/maps/place/Al-Rehman+Homeopathic+Clinic+%26+Store+%28Dr+Muhammad+Tahir+Khan%29/data=!4m7!3m6!1s0x38dfede5fa89752f:0xc7107df6cb7c0cb5!8m2!3d33.5715572!4d73.1454942!16s%2Fg%2F11rwq6r731!19sChIJL3WJ-uXt3zgRtQx8y_Z9EMc?authuser=0&hl=en&rclk=1,"Homeo, Islamabad"
41,familyhomeomedicarec_33.535727_73.112971,Family Homeo Medicare Clinic,"Family Homeo Medicare Clinic
5.0(1)
Homeopath · Shop No Lg 12 Emirates Shoppers Paradise Mall Street 12 walayat complex Shop no Lg12 Bahria Town Phase 7
Open ⋅ Closes 9 PM · +92 300 9784951",Homeopath,Open,33.5357273,73.1129712,https://www.google.com/maps/place/Family+Homeo+Medicare+Clinic/data=!4m7!3m6!1s0x38dfed0f5ce54f2b:0x2a135af481d852bd!8m2!3d33.5357273!4d73.1129712!16s%2Fg%2F11fr5q3zmh!19sChIJK0_lXA_t3zgRvVLYgfRaEyo?authuser=0&hl=en&rclk=1,"Homeo, Islamabad"
42,holistichomeopathycl_33.518445_73.085898,Holistic Homeopathy Clinic,"Holistic Homeopathy Clinic
4.8(101)
Homeopath · Shop # 3, Ground Floor, Plaza no. 99, Spring North Commercial Business Bay, Phase 7, Bahria Town Phase 7
Closes soon ⋅ 3 PM ⋅ Opens 12 PM Sat · +92 333 5815853",Homeopath,Closes soon,33.5184448,73.0858976,https://www.google.com/maps/place/Holistic+Homeopathy+Clinic/data=!4m7!3m6!1s0x38dfedabbc41221d:0x385d0cdaaff7fe54!8m2!3d33.5184448!4d73.0858976!16s%2Fg%2F11sbfbd_hz!19sChIJHSJBvKvt3zgRVP73r9oMXTg?authuser=0&hl=en&rclk=1,"Homeo, Islamabad"
43,almustafahomeopathic_33.644029_72.975579,Al Mustafa Homeopathic Clinic,"Al Mustafa Homeopathic Clinic
4.7(7)
Homeopath ·  · Malik Haroon Street Opposite NUST University Gate # 2, Sector H-13, Sahara Kashmir Rd
Open ⋅ Closes 4 PM · +92 322 6304050",Homeopath,Open,33.6440289,72.9755788,https://www.google.com/maps/place/Al+Mustafa+Homeopathic+Clinic/data=!4m7!3m6!1s0x38dfbe2e3b3e924b:0x1822ac209e5b8d7c!8m2!3d33.6440289!4d72.9755788!16s%2Fg%2F11gbsns0lt!19sChIJS5I-Oy6-3zgRfI1bniCsIhg?authuser=0&hl=en&rclk=1,"Homeo, Islamabad"
44,iqbalhomeopathicclin_33.689265_73.032860,Iqbal Homeopathic Clinic & Store,"Iqbal Homeopathic Clinic & Store
3.9(36)
Homeopathic pharmacy · Doctor Plaza
Open ⋅ Closes 10 PM · +92 51 2255914",Homeopathic pharmacy,Open,33.6892648,73.0328595,https://www.google.com/maps/place/Iqbal+Homeopathic+Clinic+%26+Store/data=!4m7!3m6!1s0x38dfbe31a3cafaed:0x68461120b7c6eb86!8m2!3d33.6892648!4d73.0328595!16s%2Fg%2F12mkzjns0!19sChIJ7frKozG-3zgRhuvGtyARRmg?authuser=0&hl=en&rclk=1,"Homeo, Islamabad"
45,rahmanhomeopathiccli_33.682490_73.009145,Rahman Homeopathic Clinic,"Rahman Homeopathic Clinic
5.0(44)
Medical clinic · House # 440-F, Street 9
Closed ⋅ Opens 6 PM · +92 300 5588818",Medical clinic,Closed,33.6824903,73.0091446,https://www.google.com/maps/place/Rahman+Homeopathic+Clinic/data=!4m7!3m6!1s0x38dfbe36f60deaf1:0x18ceb018c8164386!8m2!3d33.6824903!4d73.0091446!16s%2Fg%2F11c5qmydcn!19sChIJ8eoN9ja-3zgRhkMWyBiwzhg?authuser=0&hl=en&rclk=1,"Homeo, Islamabad"
46,drsaeedafasihuddinsa_33.541592_73.107529,Dr Saeeda & Fasihuddin Sadi Homeopathic Clinic - Islamabad Branch,"Dr Saeeda & Fasihuddin Sadi Homeopathic Clinic - Islamabad Branch
4.9(197)
Homeopath · Shop 17, Ground Floor, Asian Business Centre, Bahria Expy
Closed ⋅ Opens 5 PM · +92 321 5199086",Homeopath,Closed,33.5415922,73.1075292,https://www.google.com/maps/place/Dr+Saeeda+%26+Fasihuddin+Sadi+Homeopathic+Clinic+-+Islamabad+Branch/data=!4m7!3m6!1s0x38dfed004b9d4337:0x5e546f86a7d297bc!8m2!3d33.5415922!4d73.1075292!16s%2Fg%2F11y76qby51!19sChIJN0OdSwDt3zgRvJfSp4ZvVF4?authuser=0&hl=en&rclk=1,"Homeo, Islamabad"
47,besthomeopathicclini_33.629422_73.115678,Best Homeopathic Clinic,"Best Homeopathic Clinic
4.0(46)
Medical Center ·  · Basement, Ameem Plaza, Khanna pull, Lehtrar Road Lehtrar, Road
Open ⋅ Closes 8 PM · +92 302 5082680",Medical Center,Open,33.6294221,73.115678,https://www.google.com/maps/place/Best+Homeopathic+Clinic/data=!4m7!3m6!1s0x38dfeb35203952cd:0x8ffb0df8fbb1af32!8m2!3d33.6294221!4d73.115678!16s%2Fg%2F11tj36cntn!19sChIJzVI5IDXr3zgRMq-x-_gN-48?authuser=0&hl=en&rclk=1,"Homeo, Islamabad"
48,shaheenhomeo_33.729627_73.075549,Shaheen Homeo,"Shaheen Homeo
4.5(12)
Homeopath · Block 13 School Rd
Open ⋅ Closes 12:50 AM · +92 51 2872841",Homeopath,Open,33.7296267,73.0755493,https://www.google.com/maps/place/Shaheen+Homeo/data=!4m7!3m6!1s0x38dfbf775dd0ba5d:0x1bdd6eee50822518!8m2!3d33.7296267!4d73.0755493!16s%2Fg%2F12mkw9r5v!19sChIJXbrQXXe_3zgRGCWCUO5u3Rs?authuser=0&hl=en&rclk=1,"Homeo, Islamabad"
49,awaishomeopathichosp_33.763428_73.221390,Awais Homeopathic Hospital Islamabad,"Awais Homeopathic Hospital Islamabad
4.5(27)
Homeopath ·  · شیل پمپ اویس ہسپتال، Murree Road,Baharkahu,Satra meel,Islamabad مری روڈ بھارکہو سترہ میل نزدہ
Open ⋅ Closes 6 PM · +92 51 2807124",Homeopath,Open,33.7634281,73.2213905,https://www.google.com/maps/place/Awais+Homeopathic+Hospital+Islamabad/data=!4m7!3m6!1s0x38dfc3a3a2db3aab:0xf9c165388a66f044!8m2!3d33.7634281!4d73.2213905!16s%2Fg%2F11gf2n31xp!19sChIJqzrboqPD3zgRRPBmijhlwfk?authuser=0&hl=en&rclk=1,"Homeo, Islamabad"
50,hashmihomoeohealthcl_33.613196_73.130525,HASHMI HOMOEO HEALTH CLINIC & STORE,"HASHMI HOMOEO HEALTH CLINIC & STORE
4.9(8)
Homeopathic pharmacy · Rd, Street 5-A
Open ⋅ Closes 8 PM · +92 334 5521721",Homeopathic pharmacy,Open,33.613196,73.1305247,https://www.google.com/maps/place/HASHMI+HOMOEO+HEALTH+CLINIC+%26+STORE/data=!4m7!3m6!1s0x38dfeb79dd70b8bf:0x410c2cc569b759d7!8m2!3d33.613196!4d73.1305247!16s%2Fg%2F11css0h7xq!19sChIJv7hw3Xnr3zgR11m3acUsDEE?authuser=0&hl=en&rclk=1,"Homeo, Islamabad"
51,besthomeofamilyclini_33.697259_73.051431,Best Homeo Family Clinic-Dr Noaman Saeed Khattak,"Best Homeo Family Clinic-Dr Noaman Saeed Khattak
No reviews
Homeopath · Markaz Rd
Open ⋅ Closes 6 PM · +92 334 8688933",Homeopath,Open,33.6972592,73.0514313,https://www.google.com/maps/place/Best+Homeo+Family+Clinic-Dr+Noaman+Saeed+Khattak/data=!4m7!3m6!1s0x38dfbf43105cb783:0x82c8fbecea5c77f4!8m2!3d33.6972592!4d73.0514313!16s%2Fg%2F11x2pz7j6x!19sChIJg7dcEEO_3zgR9Hdc6uz7yII?authuser=0&hl=en&rclk=1,"Homeo, Islamabad"
52,doctorshahlakhurram_33.679901_73.025373,Doctor Shahla Khurram,"Doctor Shahla Khurram
5.0(11)
Homeopath ·  · House 1018, Sector G-10/4 10th Avenue, Service Rd E
Closed ⋅ Opens 5 PM · +92 345 5083289",Homeopath,Closed,33.6799011,73.0253725,https://www.google.com/maps/place/Doctor+Shahla+Khurram/data=!4m7!3m6!1s0x38dfbfa23c33c1d7:0xd40d36b23d3eda9c!8m2!3d33.6799011!4d73.0253725!16s%2Fg%2F11h4f3m8pz!19sChIJ18EzPKK_3zgRnNo-PbI2DdQ?authuser=0&hl=en&rclk=1,"Homeo, Islamabad"
53,mehria11homeoclinicd_33.629474_72.881706,Mehria 11 Homeo Clinic Dr.ADNAN AZIZ,"Mehria 11 Homeo Clinic Dr.ADNAN AZIZ
3.5(12)
Homeopath · Mehria 11 Homeo Clinic Dr.ADNAN AZIZ, F-17 Main Rd
Open ⋅ Closes 5 PM · +92 303 6677222",Homeopath,Open,33.6294742,72.8817061,https://www.google.com/maps/place/Mehria+11+Homeo+Clinic+Dr.ADNAN+AZIZ/data=!4m7!3m6!1s0x38df99617ae47979:0x63e9f180c7d3d84c!8m2!3d33.6294742!4d72.8817061!16s%2Fg%2F11qm2g20gk!19sChIJeXnkemGZ3zgRTNjTx4Dx6WM?authuser=0&hl=en&rclk=1,"Homeo, Islamabad"
54,mariahomeoclinic_33.647228_73.048017,Maria Homeo Clinic,"Maria Homeo Clinic
5.0(1)
Homeopath · J2WX+V6R Javed Market, St 28
Open ⋅ Closes 3:30 PM · +92 300 9541422",Homeopath,Open,33.6472283,73.0480169,https://www.google.com/maps/place/Maria+Homeo+Clinic/data=!4m7!3m6!1s0x38df950f15aa0891:0xe57b7d42c05c88a0!8m2!3d33.6472283!4d73.0480169!16s%2Fg%2F12mkz5t16!19sChIJkQiqFQ-V3zgRoIhcwEJ9e-U?authuser=0&hl=en&rclk=1,"Homeo, Islamabad"
55,kazmihomeopathicclin_33.643711_73.165062,Kazmi Homeopathic Clinic,"Kazmi Homeopathic Clinic
5.0(12)
Homeopath · Shop# 2 Mughal Street Lane F-2 Awan Plaza Taramri, Chowk
Open ⋅ Closes 6 PM · +92 300 4877689",Homeopath,Open,33.6437113,73.1650618,https://www.google.com/maps/place/Kazmi+Homeopathic+Clinic/data=!4m7!3m6!1s0x38dfeb4d2a0c4d09:0x5ef9e8425449d840!8m2!3d33.6437113!4d73.1650618!16s%2Fg%2F11kpqw08d7!19sChIJCU0MKk3r3zgRQNhJVELo-V4?authuser=0&hl=en&rclk=1,"Homeo, Islamabad"
56,howalshafihomeopathi_33.641312_73.039221,"Howalshafi Homeopathic Clinic, Sr. H/Dr. Muhammad Khalid Zia Ramay, Sheikh Market St#15, I-10/1, Islamabad","Howalshafi Homeopathic Clinic, Sr. H/Dr. Muhammad Khalid Zia Ramay, Sheikh Market St#15, I-10/1, Islamabad
4.9(18)
Homeopath · Imam Shaikh Market, Street No. 15، near Abu ul Qasim Masjid
Closed ⋅ Opens 4:30 PM · +92 300 5124247",Homeopath,Closed,33.6413123,73.0392212,"https://www.google.com/maps/place/Howalshafi+Homeopathic+Clinic,+Sr.+H%2FDr.+Muhammad+Khalid+Zia+Ramay,+Sheikh+Market+St%2315,+I-10%2F1,+Islamabad/data=!4m7!3m6!1s0x38df95a9c78ad2a9:0x996ffd63951d7e43!8m2!3d33.6413123!4d73.0392212!16s%2Fg%2F11ddx9mh0z!19sChIJqdKKx6mV3zgRQ34dlWP9b5k?authuser=0&hl=en&rclk=1","Homeo, Islamabad"
57,khawajahomeopathiccl_33.665770_72.994697,Khawaja Homeopathic Clinic,"Khawaja Homeopathic Clinic
5.0(2)
Homeopath · House 735 St 8
Open ⋅ Closes 1 AM · +92 334 1108436",Homeopath,Open,33.6657699,72.9946966,https://www.google.com/maps/place/Khawaja+Homeopathic+Clinic/data=!4m7!3m6!1s0x38df95adbd73d7cf:0x4f363c04a4e63954!8m2!3d33.6657699!4d72.9946966!16s%2Fg%2F11p15m4k25!19sChIJz9dzva2V3zgRVDnmpAQ8Nk8?authuser=0&hl=en&rclk=1,"Homeo, Islamabad"
58,fazalhomeopathicclin_33.650258_73.032384,Fazal Homeopathic Clinic.Dr Muhammad Amjad,"Fazal Homeopathic Clinic.Dr Muhammad Amjad
5.0(9)
Homeopath · M22J+4X2 Rajput Market, Street 1
Open ⋅ Closes 9 PM · +92 303 5121364",Homeopath,Open,33.6502577,73.0323842,https://www.google.com/maps/place/Fazal+Homeopathic+Clinic.Dr+Muhammad+Amjad/data=!4m7!3m6!1s0x38df95a3a2cafd19:0x93d82caf2ed517d7!8m2!3d33.6502577!4d73.0323842!16s%2Fg%2F12mkw7533!19sChIJGf3KoqOV3zgR1xfVLq8s2JM?authuser=0&hl=en&rclk=1,"Homeo, Islamabad"
59,healfasthomeopathicc_33.631726_73.137460,Heal Fast Homeopathic Clinic,"Heal Fast Homeopathic Clinic
4.4(13)
Doctor · Hamza Arcade street#6, Main Ghouri Garden Main Rd
Open ⋅ Closes 9 PM · +92 311 1314999",Doctor,Open,33.6317263,73.1374601,https://www.google.com/maps/place/Heal+Fast+Homeopathic+Clinic/data=!4m7!3m6!1s0x38dfebdd01e70c87:0x7e561dec62e5a4e2!8m2!3d33.6317263!4d73.1374601!16s%2Fg%2F11h6t6pql5!19sChIJhwznAd3r3zgR4qTlYuwdVn4?authuser=0&hl=en&rclk=1,"Homeo, Islamabad"
60,zeeshanhomeopathic_33.567567_73.137921,Zeeshan Homeopathic,"Zeeshan Homeopathic
4.4(14)
Pharmacy ·  · H49Q+25F
+92 306 0055412",Pharmacy,,33.567567,73.1379209,https://www.google.com/maps/place/Zeeshan+Homeopathic/data=!4m7!3m6!1s0x38dfed9f8981c855:0x96d02c3ca885ed19!8m2!3d33.567567!4d73.1379209!16s%2Fg%2F11f66qn2xk!19sChIJVciBiZ_t3zgRGe2FqDws0JY?authuser=0&hl=en&rclk=1,"Homeo, Islamabad"
61,healnrevealwellnessc_33.681208_72.802037,Heal n Reveal Wellness Center,"Heal n Reveal Wellness Center
5.0(25)
Homeopath · State Tower
Opens soon ⋅ 2:30 PM · +92 300 7966747",Homeopath,Opens soon,33.6812079,72.8020375,https://www.google.com/maps/place/Heal+n+Reveal+Wellness+Center/data=!4m7!3m6!1s0x38dfa3fa0e1b89e9:0xc55b001147440006!8m2!3d33.6812079!4d72.8020375!16s%2Fg%2F11kkshz_dp!19sChIJ6YkbDvqj3zgRBgBERxEAW8U?authuser=0&hl=en&rclk=1,"Homeo, Islamabad"
62,shaheenhomeoclinicst_33.708778_73.055971,Shaheen Homeo Clinic & Store,"Shaheen Homeo Clinic & Store
3.6(5)
Medical clinic · United Plaza, Shop 2, Fazal-ul-Haq Road
Open ⋅ Closes 10 PM · +92 51 2347383",Medical clinic,Open,33.7087781,73.0559715,https://www.google.com/maps/place/Shaheen+Homeo+Clinic+%26+Store/data=!4m7!3m6!1s0x38dfbfbbaf53db3b:0x7d3806b9e40f7e10!8m2!3d33.7087781!4d73.0559715!16s%2Fg%2F12mkw9zp2!19sChIJO9tTr7u_3zgREH4P5LkGOH0?authuser=0&hl=en&rclk=1,"Homeo, Islamabad"
63,getwellhomeoclinic_33.637173_73.133168,Get Well Homeo Clinic,"Get Well Homeo Clinic
5.0(3)
Homeopath · St B11
Open ⋅ Closes 8 PM · +92 336 5073153",Homeopath,Open,33.6371733,73.1331682,https://www.google.com/maps/place/Get+Well+Homeo+Clinic/data=!4m7!3m6!1s0x38dfeb057aa45077:0x1e52a5d54fd3483f!8m2!3d33.6371733!4d73.1331682!16s%2Fg%2F11ndylhq0_!19sChIJd1CkegXr3zgRP0jTT9WlUh4?authuser=0&hl=en&rclk=1,"Homeo, Islamabad"
64,masoomhomeoclinicand_33.648201_73.039977,Masoom homeo clinic and store,"Masoom homeo clinic and store
5.0(7)
Homeopathic pharmacy · Shop# A-8, Bismillah plaza, Markaz, near Allied bank
Open ⋅ Closes 10 PM · +92 321 5530347",Homeopathic pharmacy,Open,33.6482012,73.0399771,https://www.google.com/maps/place/Masoom+homeo+clinic+and+store/data=!4m7!3m6!1s0x38df950010f63b95:0xaa90905a2c6d757d!8m2!3d33.6482012!4d73.0399771!16s%2Fg%2F11v_26mkrl!19sChIJlTv2EACV3zgRfXVtLFqQkKo?authuser=0&hl=en&rclk=1,"Homeo, Islamabad"
65,sherriffshomoeopathy_33.703342_72.979023,Sherriff's Homoeopathy Islamabad - Dr Ijaz Naseem,"Sherriff's Homoeopathy Islamabad - Dr Ijaz Naseem
5.0(6)
Homeopath · Sherriff's Homoeopathy E - 11/ 3 Markaz, St - 36, 51, Paris Arcade
Closed ⋅ Opens 6 PM · +92 51 2318080",Homeopath,Closed,33.703342,72.979023,https://www.google.com/maps/place/Sherriff%27s+Homoeopathy+Islamabad+-+Dr+Ijaz+Naseem/data=!4m7!3m6!1s0x38dfbd2729603245:0x2986a3bb316681f9!8m2!3d33.703342!4d72.979023!16s%2Fg%2F11f7dsq29d!19sChIJRTJgKSe93zgR-YFmMbujhik?authuser=0&hl=en&rclk=1,"Homeo, Islamabad"
66,hashmihomeoclinic_33.710564_73.039485,Hashmi Homeo Clinic,"Hashmi Homeo Clinic
3.6(25)
Medical clinic · Corner shop, Ground Floor, Kashif Plaza
Closed ⋅ Opens 5:30 PM · +92 51 2287444",Medical clinic,Closed,33.7105644,73.0394849,https://www.google.com/maps/place/Hashmi+Homeo+Clinic/data=!4m7!3m6!1s0x38dfbe52ba66d317:0x26169e8258f3be84!8m2!3d33.7105644!4d73.0394849!16s%2Fg%2F1td9nxgv!19sChIJF9NmulK-3zgRhL7zWIKeFiY?authuser=0&hl=en&rclk=1,"Homeo, Islamabad"
67,alsehathomeoclinic_33.708922_73.083643,Al-Sehat HomeoClinic,"Al-Sehat HomeoClinic
5.0(2)
Homeopath · 16 Street 48
Closed ⋅ Opens 3 PM · +92 333 5135151",Homeopath,Closed,33.708922,73.0836431,https://www.google.com/maps/place/Al-Sehat+HomeoClinic/data=!4m7!3m6!1s0x38dfbf8bc11a18f3:0xbd2603daa201d019!8m2!3d33.708922!4d73.0836431!16s%2Fg%2F11f31y3hhj!19sChIJ8xgawYu_3zgRGdABotoDJr0?authuser=0&hl=en&rclk=1,"Homeo, Islamabad"
68,arshadhomeopathiccli_33.628744_73.089885,Arshad Homeopathic Clinic,"Arshad Homeopathic Clinic
4.8(61)
Homeopath ·  · Building: B-II 306 Street # 9 Opposite Meezan Bank Adjacent to Faisal Schools (Boys Campus Haji Chowk Muslim
Closed ⋅ Opens 5 PM · +92 312 5122488",Homeopath,Closed,33.6287442,73.0898846,https://www.google.com/maps/place/Arshad+Homeopathic+Clinic/data=!4m7!3m6!1s0x38dfeb328e26925b:0xda3edb8bce8c15cd!8m2!3d33.6287442!4d73.0898846!16s%2Fg%2F11gbxfb3xn!19sChIJW5ImjjLr3zgRzRWMzovbPto?authuser=0&hl=en&rclk=1,"Homeo, Islamabad"
69,homeoclinic_33.674633_72.996394,Homeo Clinic,"Homeo Clinic
5.0(4)
Homeopath ·  · House 422c St 88A
Closed ⋅ Opens 5 PM · +92 345 6760110",Homeopath,Closed,33.6746327,72.9963942,https://www.google.com/maps/place/Homeo+Clinic/data=!4m7!3m6!1s0x38df95cd90441a61:0x8ca33b59b13b24c1!8m2!3d33.6746327!4d72.9963942!16s%2Fg%2F11j3pb8b5m!19sChIJYRpEkM2V3zgRwSQ7sVk7o4w?authuser=0&hl=en&rclk=1,"Homeo, Islamabad"
70,darulshifahomeoclini_33.642940_73.199915,Dar-ul-Shifa Homeo Clinic Lehtrar Road Islamabad,"Dar-ul-Shifa Homeo Clinic Lehtrar Road Islamabad
No reviews
Homeopath · Shop no 5,6, Chaudhary plaza, Japan Dam Rd
Open ⋅ Closes 4:30 PM · +92 333 5505417",Homeopath,Open,33.64294,73.1999148,https://www.google.com/maps/place/Dar-ul-Shifa+Homeo+Clinic+Lehtrar+Road+Islamabad/data=!4m7!3m6!1s0x38dfe97753a02feb:0x95f7e6168610d732!8m2!3d33.64294!4d73.1999148!16s%2Fg%2F11sv_mvs31!19sChIJ6y-gU3fp3zgRMtcQhhbm95U?authuser=0&hl=en&rclk=1,"Homeo, Islamabad"
71,homoeodoctorfarzanap_33.678497_73.008621,Homoeo Doctor Farzana Parvez Doctor Ishfaq Hussain clinic,"Homoeo Doctor Farzana Parvez Doctor Ishfaq Hussain clinic
5.0(9)
Homeopath · 171 Street 20
Closed ⋅ Opens 10 AM Fri · +92 345 9742270",Homeopath,Closed,33.6784975,73.0086209,https://www.google.com/maps/place/Homoeo+Doctor+Farzana+Parvez+Doctor+Ishfaq+Hussain+clinic/data=!4m7!3m6!1s0x38dfbf8c06135db9:0xf2e752814aa74bf!8m2!3d33.6784975!4d73.0086209!16s%2Fg%2F11k5bt8__0!19sChIJuV0TBoy_3zgRv3SqFCh1Lg8?authuser=0&hl=en&rclk=1,"Homeo, Islamabad"
72,rahimsonshomeopathic_33.636722_73.123165,Rahim & Sons Homeopathic,"Rahim & Sons Homeopathic
5.0(15)
Homeopathic pharmacy · Dr tariq House num 16 street 17 sanam chowk, Khanna Pul
Closed ⋅ Opens 6 AM Tue · +92 300 5044931",Homeopathic pharmacy,Closed,33.6367224,73.1231651,https://www.google.com/maps/place/Rahim+%26+Sons+Homeopathic/data=!4m7!3m6!1s0x38dfeb5ec1bf9633:0x1ec1eaff2795e4c5!8m2!3d33.6367224!4d73.1231651!16s%2Fg%2F11jb0hrtgh!19sChIJM5a_wV7r3zgRxeSVJ__qwR4?authuser=0&hl=en&rclk=1,"Homeo, Islamabad"
73,darulshifahomeoclini_33.713791_73.071944,Dar-ul-Shifa Homeo Clinic,"Dar-ul-Shifa Homeo Clinic
4.8(4)
Pharmacy · P37C+GQ8 Golden Market, Street 56
+92 333 5341275",Pharmacy,,33.7137908,73.071944,https://www.google.com/maps/place/Dar-ul-Shifa+Homeo+Clinic/data=!4m7!3m6!1s0x38dfbf909ea8ca67:0xc05a791900a39ae7!8m2!3d33.7137908!4d73.071944!16s%2Fg%2F12mkz5ygg!19sChIJZ8qonpC_3zgR55qjABl5WsA?authuser=0&hl=en&rclk=1,"Homeo, Islamabad"
74,homeopathicclinic_33.520037_73.089303,Homeopathic Clinic,"Homeopathic Clinic
5.0(2)
Homeopath · DHA Business Bay, behind Rasheed Sweets/ Gloria Jeans
Closes soon ⋅ 3 PM ⋅ Opens 10 AM Sat · +92 300 9705096",Homeopath,Closes soon,33.5200366,73.0893032,https://www.google.com/maps/place/Homeopathic+Clinic/data=!4m7!3m6!1s0x38dfed6a93bdb3d9:0xc9360229fbd73d7e!8m2!3d33.5200366!4d73.0893032!16s%2Fg%2F11f_c075vc!19sChIJ2bO9k2rt3zgRfj3X-ykCNsk?authuser=0&hl=en&rclk=1,"Homeo, Islamabad"
75,drshabbirhomeopathic_33.620412_72.943212,Dr. Shabbir Homeopathic Clinic,"Dr. Shabbir Homeopathic Clinic
4.5(2)
Homeopath
Open ⋅ Closes 10 PM · +92 321 5197619",Homeopath,Open,33.6204116,72.9432122,https://www.google.com/maps/place/Dr.+Shabbir+Homeopathic+Clinic/data=!4m7!3m6!1s0x38df97ab22baab4d:0x2ab32fceac5aa98f!8m2!3d33.6204116!4d72.9432122!16s%2Fg%2F11hdx9r3t7!19sChIJTau6IquX3zgRj6larM4vsyo?authuser=0&hl=en&rclk=1,"Homeo, Islamabad"
76,mahmoodhomoeopathicc_33.622470_73.143262,Mahmood Homoeopathic Clinic 36سالہ تجربہ کے حامل,"Mahmood Homoeopathic Clinic 36سالہ تجربہ کے حامل
5.0(4)
Homeopathic pharmacy · Basement Islamabad Diagnostic Center Ghouri Town 5 B Garden, Chowk
Open ⋅ Closes 11 PM · +92 304 0035053",Homeopathic pharmacy,Open,33.6224701,73.1432619,https://www.google.com/maps/place/Mahmood+Homoeopathic+Clinic+36%D8%B3%D8%A7%D9%84%DB%81+%D8%AA%D8%AC%D8%B1%D8%A8%DB%81+%DA%A9%DB%92+%D8%AD%D8%A7%D9%85%D9%84%E2%80%AD/data=!4m7!3m6!1s0x38dfed347e470afb:0x43f9d8fdcd59b080!8m2!3d33.6224701!4d73.1432619!16s%2Fg%2F11rw6mf3hc!19sChIJ-wpHfjTt3zgRgLBZzf3Y-UM?authuser=0&hl=en&rclk=1,"Homeo, Islamabad"
77,homeopathicclinic_33.707323_73.088485,Homeopathic Clinic,"Homeopathic Clinic
5.0(1)
Homeopath · 35-B,Liberty shopping center",Homeopath,,33.707323,73.0884853,https://www.google.com/maps/place/Homeopathic+Clinic/data=!4m7!3m6!1s0x38dfc1d981891191:0xd856564a863c9558!8m2!3d33.707323!4d73.0884853!16s%2Fg%2F11p5jywsj5!19sChIJkRGJgdnB3zgRWJU8hkpWVtg?authuser=0&hl=en&rclk=1,"Homeo, Islamabad"
78,hdrsyedfurqanahmed_33.711794_73.040642,H/Dr. Syed Furqan Ahmed,"H/Dr. Syed Furqan Ahmed
5.0(19)
Homeopath ·  · 5, Malik Plaza, Ground Floor
Closed ⋅ Opens 5 PM · +92 344 7780000",Homeopath,Closed,33.7117942,73.0406416,https://www.google.com/maps/place/H%2FDr.+Syed+Furqan+Ahmed/data=!4m7!3m6!1s0x38dfbfdd02f0c5c3:0xe26379783bf66036!8m2!3d33.7117942!4d73.0406416!16s%2Fg%2F11h7_r2y7v!19sChIJw8XwAt2_3zgRNmD2O3h5Y-I?authuser=0&hl=en&rclk=1,"Homeo, Islamabad"
79,homeopathicdrkashifi_33.618112_73.127972,Homeopathic Dr Kashif Iqbal,"Homeopathic Dr Kashif Iqbal
5.0(2)
Homeopath · Street 5
Closes soon ⋅ 3 PM ⋅ Reopens 5:30 PM · +92 333 8484460",Homeopath,Closes soon,33.618112,73.1279718,https://www.google.com/maps/place/Homeopathic+Dr+Kashif+Iqbal/data=!4m7!3m6!1s0x38dfebf4dbca827d:0x116cb07ba82e55b!8m2!3d33.618112!4d73.1279718!16s%2Fg%2F11h42sk65n!19sChIJfYLK2_Tr3zgRW-WCugfLFgE?authuser=0&hl=en&rclk=1,"Homeo, Islamabad"
80,mustahsanhomeoherbal_33.606470_73.139065,Mustahsan Homeo & Herbal Infertility Clinic,"Mustahsan Homeo & Herbal Infertility Clinic
5.0(3)
Homeopath ·  · Sharifabad Rd
Closed ⋅ Opens 5 PM · +92 300 5135360",Homeopath,Closed,33.6064699,73.1390646,https://www.google.com/maps/place/Mustahsan+Homeo+%26+Herbal+Infertility+Clinic/data=!4m7!3m6!1s0x38df95a92428562d:0x27a38d89bf0c6be7!8m2!3d33.6064699!4d73.1390646!16s%2Fg%2F11mv4wvzs9!19sChIJLVYoJKmV3zgR52sMv4mNoyc?authuser=0&hl=en&rclk=1,"Homeo, Islamabad"
81,drilyasnewlifehomeop_33.564436_73.126567,Dr. ILYAS | NewLife Homeopathic Clinic,"Dr. ILYAS | NewLife Homeopathic Clinic
5.0(9)
Homeopath · Shop 2, Al Qaim Plaza, Main PWD Rd
Open ⋅ Closes 10 PM · +92 333 5424350",Homeopath,Open,33.564436,73.1265674,https://www.google.com/maps/place/Dr.+ILYAS+%7C+NewLife+Homeopathic+Clinic/data=!4m7!3m6!1s0x38df9512404d4517:0x563d5b032723d84d!8m2!3d33.564436!4d73.1265674!16s%2Fg%2F11lrwld7kf!19sChIJF0VNQBKV3zgRTdgjJwNbPVY?authuser=0&hl=en&rclk=1,"Homeo, Islamabad"
82,drkhanzadahomeoclini_33.690054_73.033286,Dr.Khanzada Homeo Clinic,"Dr.Khanzada Homeo Clinic
No reviews
Homeopath · M2RM+28F
Closed ⋅ Opens 1 PM Mon · +92 344 2898508",Homeopath,Closed,33.6900538,73.0332861,https://www.google.com/maps/place/Dr.Khanzada+Homeo+Clinic/data=!4m7!3m6!1s0x38dfbe3178281d3b:0x83c06eb91d4749a2!8m2!3d33.6900538!4d73.0332861!16s%2Fg%2F11c5h2d7dk!19sChIJOx0oeDG-3zgRoklHHbluwIM?authuser=0&hl=en&rclk=1,"Homeo, Islamabad"
83,universalclinicherba_33.688695_73.031620,Universal Clinic Herbal & Homeo Medical Store,"Universal Clinic Herbal & Homeo Medical Store
3.0(3)
Pharmacy · Mumtaz Plaza, Rohtas Rd, G-9 Markaz, G-9
Open now",Pharmacy,Open now,33.6886947,73.0316204,https://www.google.com/maps/place/Universal+Clinic+Herbal+%26+Homeo+Medical+Store/data=!4m7!3m6!1s0x38dfbe31b2cb341b:0xc5adfe9fd0e31fbb!8m2!3d33.6886947!4d73.0316204!16s%2Fg%2F12mkzk5xf!19sChIJGzTLsjG-3zgRux_j0J_-rcU?authuser=0&hl=en&rclk=1,"Homeo, Islamabad"
84,saimhomeopathicclini_33.628039_73.112017,Saim Homeopathic Clinic - Infertility Dr.Waqar Bhutta,"Saim Homeopathic Clinic - Infertility Dr.Waqar Bhutta
4.6(25)
Homeopath ·  · J4H6+6R6, Service Rd
Open ⋅ Closes 7 PM · +92 321 5360656",Homeopath,Open,33.6280394,73.1120174,https://www.google.com/maps/place/Saim+Homeopathic+Clinic+-+Infertility+Dr.Waqar+Bhutta/data=!4m7!3m6!1s0x38dfeb25ec4e85b3:0xcad9aae71e036186!8m2!3d33.6280394!4d73.1120174!16s%2Fg%2F11n8432w73!19sChIJs4VO7CXr3zgRhmEDHueq2co?authuser=0&hl=en&rclk=1,"Homeo, Islamabad"
85,wasimhomeopathicdiag_33.724166_73.076489,Wasim Homeopathic Diagnostic Clinic,"Wasim Homeopathic Diagnostic Clinic
No reviews
Diagnostic center · House 53, 1 St 37
Closed ⋅ Opens 4:30 PM Fri · +92 333 5319944",Diagnostic center,Closed,33.7241663,73.0764892,https://www.google.com/maps/place/Wasim+Homeopathic+Diagnostic+Clinic/data=!4m7!3m6!1s0x38dfbfad482347fb:0xd5d92de2c84bbad1!8m2!3d33.7241663!4d73.0764892!16s%2Fg%2F11xv2pwx6!19sChIJ-0cjSK2_3zgR0bpLyOIt2dU?authuser=0&hl=en&rclk=1,"Homeo, Islamabad"
86,tehzeebhomeopathiccl_33.682747_73.038915,Tehzeeb Homeopathic Clinic,"Tehzeeb Homeopathic Clinic
5.0(1)
Alternative medicine practitioner · M2MQ+3HV, Nishtar Market, Street 55
+92 300 9700985",Alternative medicine practitioner,,33.6827467,73.0389153,https://www.google.com/maps/place/Tehzeeb+Homeopathic+Clinic/data=!4m7!3m6!1s0x38dfbfd33efeaa55:0x8330a72516d90a70!8m2!3d33.6827467!4d73.0389153!16s%2Fg%2F12mkzj_5m!19sChIJVar-PtO_3zgRcArZFiWnMIM?authuser=0&hl=en&rclk=1,"Homeo, Islamabad"
87,furryhomoeoclinic_33.713195_73.078495,Furry Homoeo Clinic,"Furry Homoeo Clinic
5.0(3)
Homeopathic pharmacy · House No 215-b, 2 Street 16
Closed ⋅ Opens 6 PM · +92 333 5152795",Homeopathic pharmacy,Closed,33.7131948,73.0784949,https://www.google.com/maps/place/Furry+Homoeo+Clinic/data=!4m7!3m6!1s0x38dfbf4fdd7e729b:0x6bb48247562d5c42!8m2!3d33.7131948!4d73.0784949!16s%2Fg%2F11qpw0n84n!19sChIJm3J-3U-_3zgRQlwtVkeCtGs?authuser=0&hl=en&rclk=1,"Homeo, Islamabad"
88,mubashirhomoeopathic_33.629800_72.927612,Mubashir Homoeopathic Clinic,"Mubashir Homoeopathic Clinic
5.0(4)
Homeopath · Shop 5, Eaton Center, Street 2
Closed ⋅ Opens 6 PM · +92 320 0852306",Homeopath,Closed,33.6297997,72.9276123,https://www.google.com/maps/place/Mubashir+Homoeopathic+Clinic/data=!4m7!3m6!1s0x38df97cceb72ff79:0x7d989435e2a55fd!8m2!3d33.6297997!4d72.9276123!16s%2Fg%2F11lwqptk8v!19sChIJef9y68yX3zgR_VUqXkOJ2Qc?authuser=0&hl=en&rclk=1,"Homeo, Islamabad"
89,nationalcouncilforho_33.604497_73.119018,National Council For Homoeopathy,"National Council For Homoeopathy
3.9(36)
Medical office ·  · Airport Link Road
Open ⋅ Closes 4 PM · +92 51 5409003",Medical office,Open,33.6044966,73.1190178,https://www.google.com/maps/place/National+Council+For+Homoeopathy/data=!4m7!3m6!1s0x38dfeb63b1391c11:0xd89e15ef5eadbda8!8m2!3d33.6044966!4d73.1190178!16s%2Fg%2F11b7k0lnfr!19sChIJERw5sWPr3zgRqL2tXu8Vntg?authuser=0&hl=en&rclk=1,"Homeo, Islamabad"
90,homoeopathicdrrehans_33.585306_73.101359,Homoeopathic Dr. Rehan's Family Clinic,"Homoeopathic Dr. Rehan's Family Clinic
4.8(40)
Homeopath ·  · Khayyaban e Tanveer، Street 3 Near Quba Masjid, Ayub Colony Street 3
Closed ⋅ Opens 5 PM · +92 301 5558815",Homeopath,Closed,33.5853056,73.1013589,https://www.google.com/maps/place/Homoeopathic+Dr.+Rehan%27s+Family+Clinic/data=!4m7!3m6!1s0x38df94f46d294b57:0x42c730de62cd75d3!8m2!3d33.5853056!4d73.1013589!16s%2Fg%2F11x9bbt18!19sChIJV0spbfSU3zgR03XNYt4wx0I?authuser=0&hl=en&rclk=1,"Homeo, Islamabad"
91,qazihomeopathicclini_33.625960_73.122127,Qazi Homeopathic Clinic,"Qazi Homeopathic Clinic
5.0(3)
Homeopath · J4GC+9VJ
Closed ⋅ Opens 3 PM · +92 333 5234520",Homeopath,Closed,33.6259604,73.1221274,https://www.google.com/maps/place/Qazi+Homeopathic+Clinic/data=!4m7!3m6!1s0x38dfebc7399c0021:0x2b16e01a99981a52!8m2!3d33.6259604!4d73.1221274!16s%2Fg%2F11t1h5hfcd!19sChIJIQCcOcfr3zgRUhqYmRrgFis?authuser=0&hl=en&rclk=1,"Homeo, Islamabad"
92,wasihomeoclinic_30.362957_68.996698,Wasi Homeo Clinic,"Wasi Homeo Clinic
4.6(13)
Alternative medicine practitioner
Open ⋅ Closes 8 PM · +92 333 5777559",Alternative medicine practitioner,Open,30.3629572,68.9966984,https://www.google.com/maps/place/Wasi+Homeo+Clinic/data=!4m7!3m6!1s0x38df94dfd35ee7a7:0x1f3d73d263f158e0!8m2!3d30.3629572!4d68.9966984!16s%2Fg%2F11gh3bvvp9!19sChIJp-de09-U3zgR4FjxY9JzPR8?authuser=0&hl=en&rclk=1,"Homeo, Islamabad"
93,qasimhomeopathicmedi_33.683999_73.041054,Qasim Homeopathic Medical Store,"Qasim Homeopathic Medical Store
3.6(8)
Pharmacy · Nishtar Market, Street 55
Open ⋅ Closes 11:30 PM · +92 300 7461667",Pharmacy,Open,33.6839995,73.0410541,https://www.google.com/maps/place/Qasim+Homeopathic+Medical+Store/data=!4m7!3m6!1s0x38dfbfd33894e30b:0xbc5a9b1fd85514e8!8m2!3d33.6839995!4d73.0410541!16s%2Fg%2F12mkz5m0h!19sChIJC-OUONO_3zgR6BRV2B-bWrw?authuser=0&hl=en&rclk=1,"Homeo, Islamabad"
94,alihomeopathicclinic_33.654882_73.081792,Ali Homeopathic Clinic,"Ali Homeopathic Clinic
4.1(211)
Homeopathic pharmacy · M33J+XP3, Murree Rd Ojri Kalan, Shamsabad
Open ⋅ Closes 3:30 PM · +92 51 49351111",Homeopathic pharmacy,Open,33.6548819,73.081792,https://www.google.com/maps/place/Ali+Homeopathic+Clinic/data=!4m7!3m6!1s0x38df953158630e6f:0xcdb880b5af15b6a!8m2!3d33.6548819!4d73.081792!16s%2Fg%2F12mkz7jrp!19sChIJbw5jWDGV3zgRalvxWguI2ww?authuser=0&hl=en&rclk=1,"Homeo, Islamabad"
95,shifahomeoclinic_33.688001_73.032971,Shifa Homeo Clinic,"Shifa Homeo Clinic
5.0(1)
Pharmacy · London Shopping Centre, Rohtas Rd, G-9 Markaz, G-9
Open now",Pharmacy,Open now,33.6880011,73.0329706,https://www.google.com/maps/place/Shifa+Homeo+Clinic/data=!4m7!3m6!1s0x38dfbe31c3f064a3:0x3a8c3b2c737bc796!8m2!3d33.6880011!4d73.0329706!16s%2Fg%2F12mkw84px!19sChIJo2TwwzG-3zgRlsd7cyw7jDo?authuser=0&hl=en&rclk=1,"Homeo, Islamabad"
97,alshaikhhomeoclinic_30.362957_68.996698,AL Shaikh Homeo Clinic,"AL Shaikh Homeo Clinic
5.0(3)
Homeopath
Closed ⋅ Opens 5 PM · +92 345 5250847",Homeopath,Closed,30.3629572,68.9966984,https://www.google.com/maps/place/AL+Shaikh+Homeo+Clinic/data=!4m7!3m6!1s0x38df95f70e2d175b:0x8e487ee56fff9248!8m2!3d30.3629572!4d68.9966984!16s%2Fg%2F11nx0ssdbl!19sChIJWxctDveV3zgRSJL_b-V-SI4?authuser=0&hl=en&rclk=1,"Homeo, Islamabad"
98,capitalhomeopathiccl_33.687211_72.984855,Capital Homeopathic Clinic,"Capital Homeopathic Clinic
3.7(3)
Homeopath · G-9, Doctors plaza, G-9 Markaz, House 343 Street 35, near petrol pump
Closed ⋅ Opens 6 PM · +92 300 8508002",Homeopath,Closed,33.6872109,72.9848553,https://www.google.com/maps/place/Capital+Homeopathic+Clinic/data=!4m7!3m6!1s0x38dfbe31a1690253:0xa8b3ee3f51b469b4!8m2!3d33.6872109!4d72.9848553!16s%2Fg%2F12mkw8cbz!19sChIJUwJpoTG-3zgRtGm0UT_us6g?authuser=0&hl=en&rclk=1,"Homeo, Islamabad"
99,homeopathicdrtariqkh_33.628892_73.048252,Homeopathic Dr. Tariq Khan | Best Homeopathic Doctor in Pakistan,"Homeopathic Dr. Tariq Khan | Best Homeopathic Doctor in Pakistan
4.6(103)
Homeopath ·  · Muhammadi Plaza, Muhammadi Chowk, Sector St. 3
Closed ⋅ Opens 5 PM · +92 300 8527939",Homeopath,Closed,33.6288917,73.048252,https://www.google.com/maps/place/Homeopathic+Dr.+Tariq+Khan+%7C+Best+Homeopathic+Doctor+in+Pakistan/data=!4m7!3m6!1s0x38df95c0fa22b481:0xed0c91d400f1adbe!8m2!3d33.6288917!4d73.048252!16s%2Fg%2F11f9dyd2b7!19sChIJgbQi-sCV3zgRvq3xANSRDO0?authuser=0&hl=en&rclk=1,"Homeo, Islamabad"
100,imamhomeoclinic_33.633034_73.127486,Imam Homeo Clinic,"Imam Homeo Clinic
5.0(7)
Homeopath · Lehtrar, RS Tower Sanam Chowk, Road
Closed ⋅ Opens 4 PM · +92 334 8203065",Homeopath,Closed,33.6330344,73.1274863,https://www.google.com/maps/place/Imam+Homeo+Clinic/data=!4m7!3m6!1s0x38dfeb77bfccf727:0xde6afdf7765c745c!8m2!3d33.6330344!4d73.1274863!16s%2Fg%2F11vt0vc88g!19sChIJJ_fMv3fr3zgRXHRcdvf9at4?authuser=0&hl=en&rclk=1,"Homeo, Islamabad"
101,harmainhomeostore_33.630651_72.879039,Harmain Homeo Store,"Harmain Homeo Store
5.0(1)
Homeopathic pharmacy · Shop # 9, Multi Center, Main Fateh Jang Road, near Tarnol
Open ⋅ Closes 5 PM · +92 303 9428806",Homeopathic pharmacy,Open,33.6306509,72.879039,https://www.google.com/maps/place/Harmain+Homeo+Store/data=!4m7!3m6!1s0x38df99852133caeb:0x1bf14fbd89df82e8!8m2!3d33.6306509!4d72.879039!16s%2Fg%2F11mqwl3kzn!19sChIJ68ozIYWZ3zgR6ILfib1P8Rs?authuser=0&hl=en&rclk=1,"Homeo, Islamabad"
102,peghamezindagihomeop_33.554693_73.162531,Pegham e Zindagi Homeopathic Clinic Dr. Arif Alvi,"Pegham e Zindagi Homeopathic Clinic Dr. Arif Alvi
5.0(9)
Homeopath · H, Shop#1 Pegham e Zindagi Homeopathic Clinic Malik Azhar Plaza Double Road opposite to Masjid Dar ut Touheed Soan Gardens, Block
Closed ⋅ Opens 5 PM · +92 333 5300344",Homeopath,Closed,33.5546932,73.162531,https://www.google.com/maps/place/Pegham+e+Zindagi+Homeopathic+Clinic+Dr.+Arif+Alvi/data=!4m7!3m6!1s0x38dfe95e43858271:0xd0bb5f80d6bbd60d!8m2!3d33.5546932!4d73.162531!16s%2Fg%2F11sf7xn65k!19sChIJcYKFQ17p3zgRDda71oBfu9A?authuser=0&hl=en&rclk=1,"Homeo, Islamabad"
103,aliyashomeopathicdia_33.655060_73.060546,Aliya's Homeopathic & Diagnosis Centre,"Aliya's Homeopathic & Diagnosis Centre
5.0(4)
Homeopath · HOUSE#263, Street 34F
Closed ⋅ Opens 3 PM · +92 321 9533908",Homeopath,Closed,33.6550596,73.0605462,https://www.google.com/maps/place/Aliya%27s+Homeopathic+%26+Diagnosis+Centre/data=!4m7!3m6!1s0x38df95589207baf3:0x7a9247cfeb514f5f!8m2!3d33.6550596!4d73.0605462!16s%2Fg%2F11sw6my819!19sChIJ87oHkliV3zgRX09R689Hkno?authuser=0&hl=en&rclk=1,"Homeo, Islamabad"
104,drmirfamilyhomoeopat_33.654682_72.854590,Dr Mir Family Homoeopathic Clinic,"Dr Mir Family Homoeopathic Clinic
3.0(1)
Homeopath · Flat #217, E-Block, Paradise apartments, Street# 40 Street 40
+92 333 6706505",Homeopath,,33.6546822,72.8545902,https://www.google.com/maps/place/Dr+Mir+Family+Homoeopathic+Clinic/data=!4m7!3m6!1s0x38df95368c2be3a9:0x81f3737b26733564!8m2!3d33.6546822!4d72.8545902!16s%2Fg%2F11n76kjm4f!19sChIJqeMrjDaV3zgRZDVzJntz84E?authuser=0&hl=en&rclk=1,"Homeo, Islamabad"
105,noorhomeoclinic_33.565539_73.152739,Noor Homeo Clinic,"Noor Homeo Clinic
3.7(3)
Homeopath",Homeopath,,33.5655387,73.1527388,https://www.google.com/maps/place/Noor+Homeo+Clinic/data=!4m7!3m6!1s0x38dfec4b872fd5db:0xa0b88490a17573eb!8m2!3d33.5655387!4d73.1527388!16s%2Fg%2F11c58nlsz1!19sChIJ29Uvh0vs3zgR63N1oZCEuKA?authuser=0&hl=en&rclk=1,"Homeo, Islamabad"
106,khokharhomeoclinic_33.686672_73.032918,Khokhar Homeo Clinic,"Khokhar Homeo Clinic
5.0(1)
Pharmacy · Posh Arcade, Room 137, Rohtas Rd, G-9 Markaz, G-9
Open now",Pharmacy,Open now,33.6866718,73.0329179,https://www.google.com/maps/place/Khokhar+Homeo+Clinic/data=!4m7!3m6!1s0x38dfbe2e2111e4af:0xdd6aecc32ede0e3c!8m2!3d33.6866718!4d73.0329179!16s%2Fg%2F12mkw9m8n!19sChIJr-QRIS6-3zgRPA7eLsPsat0?authuser=0&hl=en&rclk=1,"Homeo, Islamabad"
107,drtariqmehmoodhomeoc_33.641509_73.062992,Dr. Tariq Mehmood Homeo Clinic,"Dr. Tariq Mehmood Homeo Clinic
4.6(21)
Homeopath ·  · F, College Chowk, 765 Holy Family Rd
Closes soon ⋅ 3 PM ⋅ Reopens 7 PM · +92 51 4416565",Homeopath,Closes soon,33.6415085,73.062992,https://www.google.com/maps/place/Dr.+Tariq+Mehmood+Homeo+Clinic/data=!4m7!3m6!1s0x38df951f45ee5f2f:0xe5112e3640381d8c!8m2!3d33.6415085!4d73.062992!16s%2Fg%2F11hczxz9qb!19sChIJL1_uRR-V3zgRjB04QDYuEeU?authuser=0&hl=en&rclk=1,"Homeo, Islamabad"
108,drfaisaladeelrao_33.604757_73.144790,Dr. Faisal Adeel Rao,"Dr. Faisal Adeel Rao
4.9(54)
Homeopath · Emaan Street, GE-7
Closed ⋅ Opens 5 PM · +92 300 5546962",Homeopath,Closed,33.604757,73.1447895,https://www.google.com/maps/place/Dr.+Faisal+Adeel+Rao/data=!4m7!3m6!1s0x38dfed51c925dfe5:0xc9cddfe9e1554fff!8m2!3d33.604757!4d73.1447895!16s%2Fg%2F11j3vg96df!19sChIJ5d8lyVHt3zgR_09V4enfzck?authuser=0&hl=en&rclk=1,"Homeo, Islamabad"
109,healfasthomeopathicc_33.667134_73.076410,HealFast Homeopathic Clinic,"HealFast Homeopathic Clinic
5.0(2)
Homeopath · M38G+VH3, Interlace Rd",Homeopath,,33.6671342,73.0764097,https://www.google.com/maps/place/HealFast+Homeopathic+Clinic/data=!4m7!3m6!1s0x38df95005fd3df1f:0x9d9cc3a1af4186ba!8m2!3d33.6671342!4d73.0764097!16s%2Fg%2F11vk2nrwsm!19sChIJH9_TXwCV3zgRuoZBr6HDnJ0?authuser=0&hl=en&rclk=1,"Homeo, Islamabad"
110,drshamsihomeopathicc_33.661980_72.997532,Dr Shamsi Homeopathic Clinic,"Dr Shamsi Homeopathic Clinic
4.9(9)
Doctor · 487-514 St 8
+92 342 5031399",Doctor,,33.6619796,72.9975321,https://www.google.com/maps/place/Dr+Shamsi+Homeopathic+Clinic/data=!4m7!3m6!1s0x38df95124b01fa19:0x807242a95fa1e619!8m2!3d33.6619796!4d72.9975321!16s%2Fg%2F11h3wv0znk!19sChIJGfoBSxKV3zgRGeahX6lCcoA?authuser=0&hl=en&rclk=1,"Homeo, Islamabad"
111,iqbalhomeopathicclin_33.688696_72.830125,Iqbal Homeopathic Clinic And Store,"Iqbal Homeopathic Clinic And Store
3.5(8)
Homeopathic pharmacy · Shope number # 8 , Hazro Arcad
Open ⋅ Closes 10 PM · +92 51 5201965",Homeopathic pharmacy,Open,33.688696,72.8301246,https://www.google.com/maps/place/Iqbal+Homeopathic+Clinic+And+Store/data=!4m7!3m6!1s0x38dfa3eb44417835:0x9cbb89d0b11ded62!8m2!3d33.688696!4d72.8301246!16s%2Fg%2F11rqs71146!19sChIJNXhBROuj3zgRYu0dsdCJu5w?authuser=0&hl=en&rclk=1,"Homeo, Islamabad"
112,ziahomeoclinic_33.669896_73.104026,Zia Homeo Clinic,"Zia Homeo Clinic
No reviews
Homeopathic pharmacy · M493+XJ2, Street 3
Open ⋅ Closes 5 PM · +92 300 5103151",Homeopathic pharmacy,Open,33.6698963,73.1040256,https://www.google.com/maps/place/Zia+Homeo+Clinic/data=!4m7!3m6!1s0x38dfeabbe08b4119:0x37d082eaed580271!8m2!3d33.6698963!4d73.1040256!16s%2Fg%2F11c74zt3v_!19sChIJGUGL4Lvq3zgRcQJY7eqC0Dc?authuser=0&hl=en&rclk=1,"Homeo, Islamabad"
113,naturalmedicalresear_33.677188_73.016937,Natural Medical & Research Center,"Natural Medical & Research Center
4.9(7)
Homeopath · M2G8+VQF
Closed ⋅ Opens 4 PM · +92 320 5047967",Homeopath,Closed,33.6771875,73.0169375,https://www.google.com/maps/place/Natural+Medical+%26+Research+Center/data=!4m7!3m6!1s0x38dfbfd415b869c1:0xaa28bb74f6a34ba!8m2!3d33.6771875!4d73.0169375!16s%2Fg%2F11p3b9rlyr!19sChIJwWm4FdS_3zgRujRqT7eLogo?authuser=0&hl=en&rclk=1,"Homeo, Islamabad"
114,reliancehomeoclinich_33.551331_73.124893,Reliance Homeo Clinic | Homeopathic treatment | Best homeopathic consultant,"Reliance Homeo Clinic | Homeopathic treatment | Best homeopathic consultant
5.0(7)
Health consultant · Center, Phase 4 Bahria Town, Rawalpindi, Islamabad, Pakistan phase, 4 Civic
+92 341 3622524",Health consultant,,33.5513309,73.1248931,https://www.google.com/maps/place/Reliance+Homeo+Clinic+%7C+Homeopathic+treatment+%7C+Best+homeopathic+consultant/data=!4m7!3m6!1s0x38dfed9c48c121b3:0xaf10d4d1f19d921e!8m2!3d33.5513309!4d73.1248931!16s%2Fg%2F11s2n3jwn0!19sChIJsyHBSJzt3zgRHpKd8dHUEK8?authuser=0&hl=en&rclk=1,"Homeo, Islamabad"
115,sevendayhomeopathicc_33.644772_73.167307,Sevenday Homeopathic Clinic & Store,"Sevenday Homeopathic Clinic & Store
5.0(5)
Homeopath · tramri chowk, 1 u-turn, Lehtrar Rd
Closed ⋅ Opens 5 PM · +92 300 5238941",Homeopath,Closed,33.6447719,73.1673068,https://www.google.com/maps/place/Sevenday+Homeopathic+Clinic+%26+Store/data=!4m7!3m6!1s0x38dfe9e691c42fa1:0x5a4a8b907eac6500!8m2!3d33.6447719!4d73.1673068!16s%2Fg%2F11gxzqgrdd!19sChIJoS_Ekebp3zgRAGWsfpCLSlo?authuser=0&hl=en&rclk=1,"Homeo, Islamabad"
116,revivehomeopathiccli_33.690123_72.819929,Revive Homeopathic Clinic,"Revive Homeopathic Clinic
No reviews
Homeopath · Shop no 6, Bashir Arcade
Open ⋅ Closes 5:30 PM · +92 310 1100777",Homeopath,Open,33.6901228,72.819929,https://www.google.com/maps/place/Revive+Homeopathic+Clinic/data=!4m7!3m6!1s0x38dfa3004e34ba23:0xd88d7740553ac156!8m2!3d33.6901228!4d72.819929!16s%2Fg%2F11x22tc1g3!19sChIJI7o0TgCj3zgRVsE6VUB3jdg?authuser=0&hl=en&rclk=1,"Homeo, Islamabad"
117,hassanhomeopathiccli_33.640725_73.096845,Hassan Homeopathic Clinic & Store,"Hassan Homeopathic Clinic & Store
5.0(39)
Homeopath · J3RW+8P4
Closed ⋅ Opens 6 PM · +92 312 9536911",Homeopath,Closed,33.6407251,73.0968454,https://www.google.com/maps/place/Hassan+Homeopathic+Clinic+%26+Store/data=!4m7!3m6!1s0x38dfeb001ca4f711:0x340265ab95c33a7e!8m2!3d33.6407251!4d73.0968454!16s%2Fg%2F11wmnfp8hh!19sChIJEfekHADr3zgRfjrDlatlAjQ?authuser=0&hl=en&rclk=1,"Homeo, Islamabad"
118,hashmiwelfarehomeopa_33.573720_73.178690,Hashmi Welfare Homeopathic Clinic,"Hashmi Welfare Homeopathic Clinic
No reviews
Homeopath · H5FH+FFP
Open ⋅ Closes 1 AM",Homeopath,Open,33.5737199,73.1786904,https://www.google.com/maps/place/Hashmi+Welfare+Homeopathic+Clinic/data=!4m7!3m6!1s0x38dfed0006def75f:0xf016fb48bd178151!8m2!3d33.5737199!4d73.1786904!16s%2Fg%2F11y9972zg8!19sChIJX_feBgDt3zgRUYEXvUj7FvA?authuser=0&hl=en&rclk=1,"Homeo, Islamabad"
119,almalikhomeoclinic_33.647839_72.908275,Al-Malik Homeo Clinic,"Al-Malik Homeo Clinic
4.0(1)
Pharmacy · JWX5+48J, Haji Sher Ahmed Khan Sher Zat Plaza, Fatehjang Rd, Tarnol
Open now · +92 333 5594375",Pharmacy,Open now,33.6478388,72.9082749,https://www.google.com/maps/place/Al-Malik+Homeo+Clinic/data=!4m7!3m6!1s0x38df97fa8374799b:0xfa69f06c3cf9f283!8m2!3d33.6478388!4d72.9082749!16s%2Fg%2F12mkw88_3!19sChIJm3l0g_qX3zgRg_L5PGzwafo?authuser=0&hl=en&rclk=1,"Homeo, Islamabad"
120,hafizhomeoclinic_33.540256_73.142644,Hafiz Homeo Clinic,"Hafiz Homeo Clinic
4.3(3)
Doctor · House Number 293, Street Number 3
Closed ⋅ Opens 5:30 PM · +92 332 4490293",Doctor,Closed,33.5402558,73.1426436,https://www.google.com/maps/place/Hafiz+Homeo+Clinic/data=!4m7!3m6!1s0x38dfeda26c6e84bb:0x8ca7bdb4d1611ec!8m2!3d33.5402558!4d73.1426436!16s%2Fg%2F11g9rkp_9l!19sChIJu4RubKLt3zgR7BEWTdt7ygg?authuser=0&hl=en&rclk=1,"Homeo, Islamabad"
121,adilhomeoclinic_33.648784_72.896652,Adil Homeo Clinic,"Adil Homeo Clinic
No reviews
Alternative medicine practitioner · JVXW+7GC
Open ⋅ Closes 4 PM",Alternative medicine practitioner,Open,33.6487835,72.8966521,https://www.google.com/maps/place/Adil+Homeo+Clinic/data=!4m7!3m6!1s0x38df990029477b41:0x3d9d11244908c2d2!8m2!3d33.6487835!4d72.8966521!16s%2Fg%2F11yc0wrm1l!19sChIJQXtHKQCZ3zgR0sIISSQRnT0?authuser=0&hl=en&rclk=1,"Homeo, Islamabad"
122,qazihomeopathicwelfa_33.600248_73.202726,Qazi homeopathic welfare clinic,"Qazi homeopathic welfare clinic
No reviews
Homeopath · gala stop, Bhambar tarar road, azaan market Gulberge
Open ⋅ Closes 5 PM · +92 331 5778090",Homeopath,Open,33.6002475,73.2027263,https://www.google.com/maps/place/Qazi+homeopathic+welfare+clinic/data=!4m7!3m6!1s0x38dfeb5079ffc753:0xf66aa89a82b9c3e0!8m2!3d33.6002475!4d73.2027263!16s%2Fg%2F11j91yj9r7!19sChIJU8f_eVDr3zgR4MO5gpqoavY?authuser=0&hl=en&rclk=1,"Homeo, Islamabad"
123,alihomeopathicclinic_33.649871_73.204018,Ali Homeopathic Clinic,"Ali Homeopathic Clinic
5.0(1)
Medical clinic · J6X3+WJR، Unnamed Road
Closed ⋅ Opens 4 PM · +92 323 5376027",Medical clinic,Closed,33.6498713,73.2040184,https://www.google.com/maps/place/Ali+Homeopathic+Clinic/data=!4m7!3m6!1s0x38dfe9738ed89ca3:0xf763f239487be67c!8m2!3d33.6498713!4d73.2040184!16s%2Fg%2F11h9rc8w2y!19sChIJo5zYjnPp3zgRfOZ7SDnyY_c?authuser=0&hl=en&rclk=1,"Homeo, Islamabad"
124,alrazzaqhomoeopathic_33.624348_72.941769,Al Razzaq homoeopathic clinic,"Al Razzaq homoeopathic clinic
5.0(3)
Homeopathic pharmacy
Closed ⋅ Opens 5 PM · +92 333 5764864",Homeopathic pharmacy,Closed,33.6243483,72.9417687,https://www.google.com/maps/place/Al+Razzaq+homoeopathic+clinic/data=!4m7!3m6!1s0x38df97ab8c21930f:0xab375e1d6bf40b0e!8m2!3d33.6243483!4d72.9417687!16s%2Fg%2F11dxbdrjy_!19sChIJD5MhjKuX3zgRDgv0ax1eN6s?authuser=0&hl=en&rclk=1,"Homeo, Islamabad"
125,lifehomeoclinic_33.570903_73.137426,Life Homeo Clinic,"Life Homeo Clinic
2.7(6)
Fertility clinic
Closed ⋅ Opens 6 PM · +92 333 5104017",Fertility clinic,Closed,33.5709031,73.1374261,https://www.google.com/maps/place/Life+Homeo+Clinic/data=!4m7!3m6!1s0x38df9545c9bd83fb:0x321d9e22db2e6bcb!8m2!3d33.5709031!4d73.1374261!16s%2Fg%2F12mkzkgdr!19sChIJ-4O9yUWV3zgRy2su2yKeHTI?authuser=0&hl=en&rclk=1,"Homeo, Islamabad"
126,homeopathicclinic_33.659745_72.958718,Homeopathic Clinic,"Homeopathic Clinic
5.0(1)
Homeopathic pharmacy · Malik market main Golra road, F13, near lala g general store",Homeopathic pharmacy,,33.6597447,72.9587175,https://www.google.com/maps/place/Homeopathic+Clinic/data=!4m7!3m6!1s0x38df973f2f97ea41:0x4ee10e3611c9fbc3!8m2!3d33.6597447!4d72.9587175!16s%2Fg%2F11vd3lsy24!19sChIJQeqXLz-X3zgRw_vJETYO4U4?authuser=0&hl=en&rclk=1,"Homeo, Islamabad"
127,drahsanhomeopathic_30.362957_68.996698,Dr. Ahsan Homeopathic,"Dr. Ahsan Homeopathic
5.0(1)
Homeopathic pharmacy
Closed ⋅ Opens 3 PM · +92 332 0333824",Homeopathic pharmacy,Closed,30.3629572,68.9966984,https://www.google.com/maps/place/Dr.+Ahsan+Homeopathic/data=!4m7!3m6!1s0xa77b63174074345f:0x48e10f46fecd0c74!8m2!3d30.3629572!4d68.9966984!16s%2Fg%2F11vs3lf43f!19sChIJXzR0QBdje6cRdAzN_kYP4Ug?authuser=0&hl=en&rclk=1,"Homeo, Islamabad"
128,ajarhomeoclinic_33.678045_73.024687,Ajar Homeo Clinic,"Ajar Homeo Clinic
1.0(2)
Homeopath · Power Market, Street 69
Closed ⋅ Opens 6 PM · +92 321 5062901",Homeopath,Closed,33.6780446,73.0246866,https://www.google.com/maps/place/Ajar+Homeo+Clinic/data=!4m7!3m6!1s0x38dfbe26e4738c7f:0x1ec48eb7c45b27ca!8m2!3d33.6780446!4d73.0246866!16s%2Fg%2F11cfdmgc6!19sChIJf4xz5Ca-3zgRyidbxLeOxB4?authuser=0&hl=en&rclk=1,"Homeo, Islamabad"
129,sabeelhomeoclinic_33.635661_73.067502,Sabeel Homeo Clinic,"Sabeel Homeo Clinic
4.9(10)
Homeopath ·  · 551
Closed ⋅ Opens 5 PM · +92 300 5125394",Homeopath,Closed,33.6356614,73.0675022,https://www.google.com/maps/place/Sabeel+Homeo+Clinic/data=!4m7!3m6!1s0x38df950d6e7c2e17:0xc310185e9d6e4f2!8m2!3d33.6356614!4d73.0675022!16s%2Fg%2F11fhr7zbk1!19sChIJFy58bg2V3zgR8uTW6YUBMQw?authuser=0&hl=en&rclk=1,"Homeo, Islamabad"
130,sherriffshomoeopathy_33.639528_73.063613,Sherriff's Homoeopathy Rawalpindi - Dr Ijaz Naseem,"Sherriff's Homoeopathy Rawalpindi - Dr Ijaz Naseem
4.4(20)
Homeopath · D-1017 Saidpur Rd
Closed ⋅ Opens 10 AM Sat · +92 51 4426034",Homeopath,Closed,33.6395283,73.0636126,https://www.google.com/maps/place/Sherriff%27s+Homoeopathy+Rawalpindi+-+Dr+Ijaz+Naseem/data=!4m7!3m6!1s0x38df951f82986e05:0xd87140908f2a539d!8m2!3d33.6395283!4d73.0636126!16s%2Fg%2F11bwpyd_85!19sChIJBW6Ygh-V3zgRnVMqj5BAcdg?authuser=0&hl=en&rclk=1,"Homeo, Islamabad"
131,drzohanoorhomeopathi_33.636951_73.059792,Dr.Zoha Noor Homeopathic Family Clinic | Lady Dr Zoha Noor,"Dr.Zoha Noor Homeopathic Family Clinic | Lady Dr Zoha Noor
5.0(42)
Homeopath · Holy Family Rd
Open ⋅ Closes 9 PM · +92 317 1573305",Homeopath,Open,33.636951,73.0597916,https://www.google.com/maps/place/Dr.Zoha+Noor+Homeopathic+Family+Clinic+%7C+Lady+Dr+Zoha+Noor/data=!4m7!3m6!1s0x38df9557ff5ebe93:0x498e9f035ab1b825!8m2!3d33.636951!4d73.0597916!16s%2Fg%2F11v5_3kzl2!19sChIJk75e_1eV3zgRJbixWgOfjkk?authuser=0&hl=en&rclk=1,"Homeo, Islamabad"
132,ahmedhomeopathicclin_33.616485_73.138515,Ahmed Homeopathic Clinic Ghori Town,"Ahmed Homeopathic Clinic Ghori Town
No reviews
Homeopath · J48Q+HCR
Closed ⋅ Opens 4 PM · +92 300 9864931",Homeopath,Closed,33.616485,73.138515,https://www.google.com/maps/place/Ahmed+Homeopathic+Clinic+Ghori+Town/data=!4m7!3m6!1s0x38dfeb9ce5d9ea4f:0x75fd93c4c4203a28!8m2!3d33.616485!4d73.138515!16s%2Fg%2F11ddxbp2ll!19sChIJT-rZ5Zzr3zgRKDogxMST_XU?authuser=0&hl=en&rclk=1,"Homeo, Islamabad"
133,babaehomeopathydrham_33.673728_73.014900,Baba e Homeopathy Dr. Hamid National Homeo stores G 10 Islamabad,"Baba e Homeopathy Dr. Hamid National Homeo stores G 10 Islamabad
No reviews
Homeopathic pharmacy · Shop No.4, hill view plaza, Bela Rd
+92 341 8550334",Homeopathic pharmacy,,33.6737282,73.0149004,https://www.google.com/maps/place/Baba+e+Homeopathy+Dr.+Hamid+National+Homeo+stores+G+10+Islamabad/data=!4m7!3m6!1s0x38dfbf767dc60755:0x15f0b5593e0331a1!8m2!3d33.6737282!4d73.0149004!16s%2Fg%2F11y47ytwdc!19sChIJVQfGfXa_3zgRoTEDPlm18BU?authuser=0&hl=en&rclk=1,"Homeo, Islamabad"
134,ejazhomeoclinic_33.670586_73.063929,Ejaz Homeo Clinic,"Ejaz Homeo Clinic
No reviews
Homeopathic pharmacy · M3C7+6HM",Homeopathic pharmacy,,33.6705862,73.0639287,https://www.google.com/maps/place/Ejaz+Homeo+Clinic/data=!4m7!3m6!1s0x38df95e99b70868f:0x28073497f4297145!8m2!3d33.6705862!4d73.0639287!16s%2Fg%2F11j22k8brb!19sChIJj4Zwm-mV3zgRRXEp9Jc0Byg?authuser=0&hl=en&rclk=1,"Homeo, Islamabad"
135,naumanhomeoclinic_33.548499_73.053333,NAUMAN HOMEO CLINIC,"NAUMAN HOMEO CLINIC
5.0(1)
Homeopath · Plot 44, Ali Town Middle, Rawalpindi/Islamabad
Closed ⋅ Opens 8 AM Fri · +92 305 3552586",Homeopath,Closed,33.5484995,73.0533335,https://www.google.com/maps/place/NAUMAN+HOMEO+CLINIC/data=!4m7!3m6!1s0x38df9353b23b2fc7:0x6e11e11f018b04ba!8m2!3d33.5484995!4d73.0533335!16s%2Fg%2F11rpw8kdgq!19sChIJxy87slOT3zgRugSLAR_hEW4?authuser=0&hl=en&rclk=1,"Homeo, Islamabad"
138,usmanmurshadhomeopat_33.606535_73.016627,Usman Murshad Homeopathic Clinic.,"Usman Murshad Homeopathic Clinic.
4.9(24)
Homeopath · LANE NO 6, Main Peshawar Rd, near IDC LAB
Open ⋅ Closes 9 PM · +92 300 5207001",Homeopath,Open,33.6065346,73.0166271,https://www.google.com/maps/place/Usman+Murshad+Homeopathic+Clinic./data=!4m7!3m6!1s0x38df943cc7b02f1b:0xcc9c32d6d0c935e2!8m2!3d33.6065346!4d73.0166271!16s%2Fg%2F11xddmmvb!19sChIJGy-wxzyU3zgR4jXJ0NYynMw?authuser=0&hl=en&rclk=1,"Homeo, Islamabad"
139,shaafhomeopathicclin_33.524040_73.147260,Shaaf Homeopathic Clinic,"Shaaf Homeopathic Clinic
5.0(6)
Medical clinic · Al Ghugair Giga Plaza Gate no 2
Closed ⋅ Opens 4 PM Fri · +92 331 9646000",Medical clinic,Closed,33.5240398,73.1472604,https://www.google.com/maps/place/Shaaf+Homeopathic+Clinic/data=!4m7!3m6!1s0x38dfed88d373b4b7:0x3dab97242d842272!8m2!3d33.5240398!4d73.1472604!16s%2Fg%2F11f30r1p_6!19sChIJt7Rz04jt3zgRciKELSSXqz0?authuser=0&hl=en&rclk=1,"Homeo, Islamabad"
140,duahomeopathicclinic_33.713166_72.920773,Dua Homeopathic Clinic Shah Allah Ditta Islamabad (Pakistan),"Dua Homeopathic Clinic Shah Allah Ditta Islamabad (Pakistan)
No reviews
Homeopathic pharmacy · opposite Imam Bargah
Closed ⋅ Opens 10 AM Fri · +92 333 5517229",Homeopathic pharmacy,Closed,33.7131659,72.9207727,https://www.google.com/maps/place/Dua+Homeopathic+Clinic+Shah+Allah+Ditta+Islamabad+%28Pakistan%29/data=!4m7!3m6!1s0x38dfbdef8f0a8a5b:0x2174e9b7bfd0024!8m2!3d33.7131659!4d72.9207727!16s%2Fg%2F11sh0sn37t!19sChIJW4oKj--93zgRJAD9e5tOFwI?authuser=0&hl=en&rclk=1,"Homeo, Islamabad"
141,dransarihomeopathicc_33.582667_73.055457,Dr. Ansari Homeopathic Clinic,"Dr. Ansari Homeopathic Clinic
5.0(17)
Homeopath · H3M4+358, 244/32
Open ⋅ Closes 10:30 PM · +92 51 5564405",Homeopath,Open,33.5826668,73.0554566,https://www.google.com/maps/place/Dr.+Ansari+Homeopathic+Clinic/data=!4m7!3m6!1s0x38df93659f0c821f:0x3e515c6442516638!8m2!3d33.5826668!4d73.0554566!16s%2Fg%2F11c1n95zhd!19sChIJH4IMn2WT3zgROGZRQmRcUT4?authuser=0&hl=en&rclk=1,"Homeo, Islamabad"
142,tajhomeopathicfamily_33.590299_73.133364,Taj Homeopathic Family Clinic And Store,"Taj Homeopathic Family Clinic And Store
5.0(22)
Homeopath · Civic Center Airport Housing SocietyNext to Empire Mart
Open ⋅ Closes 10 PM · +92 333 5537596",Homeopath,Open,33.5902988,73.1333638,https://www.google.com/maps/place/Taj+Homeopathic+Family+Clinic+And+Store/data=!4m7!3m6!1s0x38dfec88487433f3:0xef9f893997711855!8m2!3d33.5902988!4d73.1333638!16s%2Fg%2F11f3jv5ttr!19sChIJ8zN0SIjs3zgRVRhxlzmJn-8?authuser=0&hl=en&rclk=1,"Homeo, Islamabad"
143,lifelinehomeostore_33.613402_73.131384,LifeLine Homeo Store,"LifeLine Homeo Store
4.0(1)
Homeopathic pharmacy · Malik Arcade, Main Road, St 7A
+92 339 8555360",Homeopathic pharmacy,,33.6134016,73.1313841,https://www.google.com/maps/place/LifeLine+Homeo+Store/data=!4m7!3m6!1s0x38dfebdb7d65292b:0xbf284ecb4ce5590c!8m2!3d33.6134016!4d73.1313841!16s%2Fg%2F11jkr100ll!19sChIJKyllfdvr3zgRDFnlTMtOKL8?authuser=0&hl=en&rclk=1,"Homeo, Islamabad"
144,alnoorhomeoandacupun_33.617073_72.995254,Al-Noor Homeo and Acupuncture Medical Center,"Al-Noor Homeo and Acupuncture Medical Center
5.0(5)
Hospital · Pir House, Pirwadhai moor Igp Sarvice road, 1 Street 1, opposite turbo CNG, near British Home
Closed ⋅ Opens 3 PM · +92 300 9151998",Hospital,Closed,33.6170727,72.9952544,https://www.google.com/maps/place/Al-Noor+Homeo+and+Acupuncture+Medical+Center/data=!4m7!3m6!1s0x38df97f63e3379f5:0xb9bb6bb8b0cc6fdf!8m2!3d33.6170727!4d72.9952544!16s%2Fg%2F11rj064ypk!19sChIJ9XkzPvaX3zgR32_MsLhru7k?authuser=0&hl=en&rclk=1,"Homeo, Islamabad"
145,tariqhomeoclinicthc_33.696769_72.979202,Tariq homeo Clinic (THC),"Tariq homeo Clinic (THC)
No reviews
Homeopath · Zahid market, Street 15",Homeopath,,33.696769,72.9792018,https://www.google.com/maps/place/Tariq+homeo+Clinic+%28THC%29/data=!4m7!3m6!1s0x38dfbd00213f8c65:0xf3e894e51aff4d90!8m2!3d33.696769!4d72.9792018!16s%2Fg%2F11v_7nktnq!19sChIJZYw_IQC93zgRkE3_GuWU6PM?authuser=0&hl=en&rclk=1,"Homeo, Islamabad"
146,sadrihealthservicesh_33.696520_73.011317,Sadri Health Services (Holistic Clinic),"Sadri Health Services (Holistic Clinic)
3.7(6)
Homeopath ·  · 13, 1st Floor, Capital Trade Center, Markaz
Open ⋅ Closes 10 PM · +92 333 6202688",Homeopath,Open,33.6965202,73.0113166,https://www.google.com/maps/place/Sadri+Health+Services+%28Holistic+Clinic%29/data=!4m7!3m6!1s0x38dfbe6b6344eca5:0x38e650a1eb6e544!8m2!3d33.6965202!4d73.0113166!16s%2Fg%2F12mkzj465!19sChIJpexEY2u-3zgRROW2HgpljgM?authuser=0&hl=en&rclk=1,"Homeo, Islamabad"
147,yousafhomeoclinic_33.641001_73.035523,Yousaf Homeo Clinic,"Yousaf Homeo Clinic
No reviews
Homeopath · J2RP+C62 ICT",Homeopath,,33.6410014,73.035523,https://www.google.com/maps/place/Yousaf+Homeo+Clinic/data=!4m7!3m6!1s0x38df951f6afa8a21:0x10c6dd33f2696db3!8m2!3d33.6410014!4d73.035523!16s%2Fg%2F11j4lnz1zt!19sChIJIYr6ah-V3zgRs21p8jPdxhA?authuser=0&hl=en&rclk=1,"Homeo, Islamabad"
148,hassanhomeoclinic_33.630020_72.939327,Hassan Homeo Clinic,"Hassan Homeo Clinic
No reviews
Homeopath · JWJQ+2P4, Motorway Service Rd
+92 51 4851164",Homeopath,,33.6300195,72.9393268,https://www.google.com/maps/place/Hassan+Homeo+Clinic/data=!4m7!3m6!1s0x38df97492a96aec5:0x63eefc50250b93f1!8m2!3d33.6300195!4d72.9393268!16s%2Fg%2F11kx730tlz!19sChIJxa6WKkmX3zgR8ZMLJVD87mM?authuser=0&hl=en&rclk=1,"Homeo, Islamabad"
149,binkhurramcliniccure_33.551233_73.122270,Bin Khurram Clinic Cure | Dr Usman Ahmed | Best Homeopathic Doctor In Rawalpindi Islamabad,"Bin Khurram Clinic Cure | Dr Usman Ahmed | Best Homeopathic Doctor In Rawalpindi Islamabad
5.0(4)
Homeopath · 1st Floor, 29-A Crescent Road
Closed ⋅ Opens 3 PM · +92 336 6662786",Homeopath,Closed,33.5512333,73.1222703,https://www.google.com/maps/place/Bin+Khurram+Clinic+Cure+%7C+Dr+Usman+Ahmed+%7C+Best+Homeopathic+Doctor+In+Rawalpindi+Islamabad/data=!4m7!3m6!1s0x38dfed7f0ccea543:0x6e94dcb2c6c73f09!8m2!3d33.5512333!4d73.1222703!16s%2Fg%2F11wy16h4nr!19sChIJQ6XODH_t3zgRCT_HxrLclG4?authuser=0&hl=en&rclk=1,"Homeo, Islamabad"
151,kamrahomeo_33.629420_73.109052,Kamra Homeo,"Kamra Homeo
5.0(1)
Homeopath · J4H5+QJ7
Open ⋅ Closes 5 PM · +92 51 4475759",Homeopath,Open,33.6294196,73.1090517,https://www.google.com/maps/place/Kamra+Homeo/data=!4m7!3m6!1s0x38dfeb3da8f4b643:0x8805476893c87ec5!8m2!3d33.6294196!4d73.1090517!16s%2Fg%2F12qhfs7xl!19sChIJQ7b0qD3r3zgRxX7Ik2hHBYg?authuser=0&hl=en&rclk=1,"Homeo, Islamabad"
152,salarhomeopathicclin_33.645284_73.174041,Salar Homeopathic Clinic,"Salar Homeopathic Clinic
5.0(2)
Doctor · Janjua Plaza, Main Lehtrar Rd
Open ⋅ Closes 9 PM · +92 331 5504890",Doctor,Open,33.6452836,73.1740407,https://www.google.com/maps/place/Salar+Homeopathic+Clinic/data=!4m7!3m6!1s0x38dfeb07f9eada77:0xdb4f4ca1c1319b54!8m2!3d33.6452836!4d73.1740407!16s%2Fg%2F11ltrs5lgx!19sChIJd9rq-Qfr3zgRVJsxwaFMT9s?authuser=0&hl=en&rclk=1,"Homeo, Islamabad"
153,aliclinichomoeo_33.491201_73.098820,Ali Clinic Homoeo,"Ali Clinic Homoeo
5.0(1)
Homeopath · Shop B-2, Plot 211, Source Tower, Commercial
Closed ⋅ Opens 4 PM · +92 332 5291938",Homeopath,Closed,33.4912012,73.0988204,https://www.google.com/maps/place/Ali+Clinic+Homoeo/data=!4m7!3m6!1s0x38dff37321f74ea7:0x5f4c34cfa78cc291!8m2!3d33.4912012!4d73.0988204!16s%2Fg%2F11t7tslmwp!19sChIJp073IXPz3zgRkcKMp880TF8?authuser=0&hl=en&rclk=1,"Homeo, Islamabad"
154,shahjeehouse_33.739300_73.115880,Shah Jee House,"Shah Jee House
No reviews
Homeopath · Mohalla Asplal Noorpur Shahan",Homeopath,,33.7393005,73.1158797,https://www.google.com/maps/place/Shah+Jee+House/data=!4m7!3m6!1s0x38dfc143e287a55b:0x77b1b9580144126a!8m2!3d33.7393005!4d73.1158797!16s%2Fg%2F11m65kmdqv!19sChIJW6WH4kPB3zgRahJEAVi5sXc?authuser=0&hl=en&rclk=1,"Homeo, Islamabad"
155,homenursingcarehomeo_33.636583_73.141493,Home Nursing Care Homeo Clinic,"Home Nursing Care Homeo Clinic
1.0(1)
Holistic medicine practitioner · J4PR+JHQ, Lehtrar Rd, Al-Badar Town, Tarlai Kalan
+92 51 5807017",Holistic medicine practitioner,,33.6365825,73.1414929,https://www.google.com/maps/place/Home+Nursing+Care+Homeo+Clinic/data=!4m7!3m6!1s0x38dfeba5fa28a547:0x337d115538952adc!8m2!3d33.6365825!4d73.1414929!16s%2Fg%2F12mkzcfz9!19sChIJR6Uo-qXr3zgR3CqVOFURfTM?authuser=0&hl=en&rclk=1,"Homeo, Islamabad"
