Index,Place Id,Name,Address,Category,Status,Latitude,Longitude,Link,SearchKeyword
1,na_noloc,,,,,,,,"Hospital, Islamabad"
5,amanateyehospitalraw_33.587252_73.066364,Amanat Eye Hospital Rawalpindi,,Eye care center,Open,33.5872518,73.0663637,https://www.google.com/maps/place/Amanat+Eye+Hospital+Rawalpindi/data=!4m7!3m6!1s0x38df935dc4333d53:0xa7d989ebc4727fe!8m2!3d33.5872518!4d73.0663637!16s%2Fg%2F1tf060yh!19sChIJUz0zxF2T3zgR_idHvJ6YfQo?authuser=0&hl=en&rclk=1,"Hospital, Islamabad"
37,advancedinternationa_33.696577_73.050456,Advanced International Hospital Islamabad,"Advanced International Hospital Islamabad
4.5(591)
Hospital ·  · 12-2G Markaz Rd
Open 24 hours · +92 51 111 786 005",Hospital,Open 24 hours,33.6965775,73.0504561,https://www.google.com/maps/place/Advanced+International+Hospital+Islamabad/data=!4m7!3m6!1s0x38dfbf8a6764276f:0xdbb21f59afe3a45b!8m2!3d33.6965775!4d73.0504561!16s%2Fg%2F11hnbz_9lk!19sChIJbydkZ4q_3zgRW6Tjr1kfsts?authuser=0&hl=en&rclk=1,"Hospital, Islamabad"
38,islamabadinternation_33.702019_72.967700,Islamabad International Hospital & Research Center (IIHRC),"Islamabad International Hospital & Research Center (IIHRC)
4.2(301)
Hospital ·  · 2 Main Double Rd
Open 24 hours · +92 51 2304941",Hospital,Open 24 hours,33.7020189,72.9676998,https://www.google.com/maps/place/Islamabad+International+Hospital+%26+Research+Center+%28IIHRC%29/data=!4m7!3m6!1s0x38dfbdb7b33ca017:0xc4f40d2ce1e0e985!8m2!3d33.7020189!4d72.9676998!16s%2Fg%2F11gf8hs6jv!19sChIJF6A8s7e93zgRheng4SwN9MQ?authuser=0&hl=en&rclk=1,"Hospital, Islamabad"
39,pimshospitalislamaba_33.703334_73.052352,PIMS Hospital Islamabad,"PIMS Hospital Islamabad
3.9(818)
Government hospital ·  · Ibn-e-Sina Rd
Open 24 hours · +92 51 9261170",Government hospital,Open 24 hours,33.7033339,73.0523516,https://www.google.com/maps/place/PIMS+Hospital+Islamabad/data=!4m7!3m6!1s0x38df950787a46b87:0x38d56dc761e05e4f!8m2!3d33.7033339!4d73.0523516!16s%2Fg%2F11r6fwws34!19sChIJh2ukhweV3zgRT17gYcdt1Tg?authuser=0&hl=en&rclk=1,"Hospital, Islamabad"
40,shifainternationalho_33.675015_73.066009,Shifa International Hospitals Limited,"Shifa International Hospitals Limited
3.4(2,453)
Hospital ·  · 4 Pitras Bukhari Rd
Open 24 hours · +92 51 8464646",Hospital,Open 24 hours,33.6750148,73.0660089,https://www.google.com/maps/place/Shifa+International+Hospitals+Limited/data=!4m7!3m6!1s0x38df955e641b11dd:0xa273b768a51a9c54!8m2!3d33.6750148!4d73.0660089!16s%2Fm%2F03c3g4_!19sChIJ3REbZF6V3zgRVJwapWi3c6I?authuser=0&hl=en&rclk=1,"Hospital, Islamabad"
41,maroofinternationalh_33.697460_73.011651,Maroof International Hospital,"Maroof International Hospital
3.2(807)
General hospital ·  · Service Rd E, F-10 Markaz F 10/3 F-10, 04412
Open 24 hours · +92 51 111 644 911",General hospital,Open 24 hours,33.6974597,73.0116512,https://www.google.com/maps/place/Maroof+International+Hospital/data=!4m7!3m6!1s0x38dfbe6b77fc7279:0x855a61d1ef5e9def!8m2!3d33.6974597!4d73.0116512!16s%2Fg%2F1hdzv62pm!19sChIJeXL8d2u-3zgR751e79FhWoU?authuser=0&hl=en&rclk=1,"Hospital, Islamabad"
42,pafhospitalislamabad_33.708229_73.015313,PAF Hospital Islamabad,"PAF Hospital Islamabad
3.7(690)
Hospital ·  · Main Margalla Rd
Open 24 hours · +92 51 9564000",Hospital,Open 24 hours,33.708229,73.015313,https://www.google.com/maps/place/PAF+Hospital+Islamabad/data=!4m7!3m6!1s0x38dfbf22bfada2c1:0xa4d9acbf9789555b!8m2!3d33.708229!4d73.015313!16s%2Fg%2F11gmgd5zhy!19sChIJwaKtvyK_3zgRW1WJl7-s2aQ?authuser=0&hl=en&rclk=1,"Hospital, Islamabad"
43,shahidakhaliqhospita_33.692240_73.057561,Shahida Khaliq Hospital,"Shahida Khaliq Hospital
4.6(269)
Private hospital ·  · Plot No 14, Street No 22, 17-4 Street 22
Open 24 hours · +92 51 2331908",Private hospital,Open 24 hours,33.6922398,73.0575614,https://www.google.com/maps/place/Shahida+Khaliq+Hospital/data=!4m7!3m6!1s0x38dfbfe86d1359ad:0x565822eeafed1115!8m2!3d33.6922398!4d73.0575614!16s%2Fg%2F11sh5jzyx9!19sChIJrVkTbei_3zgRFRHtr-4iWFY?authuser=0&hl=en&rclk=1,"Hospital, Islamabad"
44,riphahinternationalh_33.538162_73.185958,Riphah International Hospital,"Riphah International Hospital
3.5(146)
Hospital ·  · Opp Gate 7, DHA Phase2, near kaakpul, Islamabad Expy
Open 24 hours · +92 51 4486062",Hospital,Open 24 hours,33.5381622,73.1859579,https://www.google.com/maps/place/Riphah+International+Hospital/data=!4m7!3m6!1s0x38dfee0913bb1621:0xfa29a1cc535f02f2!8m2!3d33.5381622!4d73.1859579!16s%2Fg%2F11b7f9110s!19sChIJIRa7Ewnu3zgR8gJfU8yhKfo?authuser=0&hl=en&rclk=1,"Hospital, Islamabad"
45,capitalinternational_33.649738_72.976560,Capital International Hospital (CIH),"Capital International Hospital (CIH)
4.4(214)
Hospital ·  · Street 3, Adjacent G-13/4 Park, Srinagar Highway, Service Rd
Open 24 hours · +92 315 3515555",Hospital,Open 24 hours,33.6497383,72.9765602,https://www.google.com/maps/place/Capital+International+Hospital+%28CIH%29/data=!4m7!3m6!1s0x38df97121bd4389d:0x4d0f61f6d63e994f!8m2!3d33.6497383!4d72.9765602!16s%2Fg%2F11gzq_k_vm!19sChIJnTjUGxKX3zgRT5k-1vZhD00?authuser=0&hl=en&rclk=1,"Hospital, Islamabad"
46,premiumdiagnosticand_33.703519_73.051454,Premium Diagnostic and Clinics,"Premium Diagnostic and Clinics
4.2(2,549)
Doctor ·  · Ibn-e-Sina Rd
Open 24 hours · +92 51 9261170",Doctor,Open 24 hours,33.7035185,73.0514542,https://www.google.com/maps/place/Premium+Diagnostic+and+Clinics/data=!4m7!3m6!1s0x38dfbfb826dae131:0xba5e1cbcad4376fe!8m2!3d33.7035185!4d73.0514542!16zL20vMGQyeGNw!19sChIJMeHaJri_3zgR_nZDrbwcXro?authuser=0&hl=en&rclk=1,"Hospital, Islamabad"
47,quaideazaminternatio_33.624800_72.973246,Quaid-e-Azam International Hospital,"Quaid-e-Azam International Hospital
3.1(950)
Private hospital ·  · Main Peshawar Rd, near Golra Morr
Open 24 hours · +92 51 8449100",Private hospital,Open 24 hours,33.6248005,72.9732462,https://www.google.com/maps/place/Quaid-e-Azam+International+Hospital/data=!4m7!3m6!1s0x38df9661cfcea8cb:0x95f8f9fcd37941d9!8m2!3d33.6248005!4d72.9732462!16s%2Fg%2F1tlczk54!19sChIJy6jOz2GW3zgR2UF50_z5-JU?authuser=0&hl=en&rclk=1,"Hospital, Islamabad"
48,farooqhospitalislama_33.789927_73.278109,Farooq Hospital (Islamabad Branch),"Farooq Hospital (Islamabad Branch)
4.0(111)
Hospital ·  · Islamabad - Murree Expy
Open 24 hours · +92 51 2720213",Hospital,Open 24 hours,33.7899274,73.2781089,https://www.google.com/maps/place/Farooq+Hospital+%28Islamabad+Branch%29/data=!4m7!3m6!1s0x38dfdd18ed6fec63:0x3250b42890d9af82!8m2!3d33.7899274!4d73.2781089!16s%2Fg%2F11rhrmyq8k!19sChIJY-xv7Rjd3zgRgq_ZkCi0UDI?authuser=0&hl=en&rclk=1,"Hospital, Islamabad"
49,maxhealthhospital_33.697569_73.049161,Max Health Hospital,"Max Health Hospital
3.8(355)
General hospital ·  · 12-K Markaz Rd
Open 24 hours · +92 51 8094762",General hospital,Open 24 hours,33.6975693,73.0491612,https://www.google.com/maps/place/Max+Health+Hospital/data=!4m7!3m6!1s0x38dfbfc9ab6d46d5:0xf0f515eb876e3c03!8m2!3d33.6975693!4d73.0491612!16s%2Fg%2F11cjkd0f8b!19sChIJ1UZtq8m_3zgRAzxuh-sV9fA?authuser=0&hl=en&rclk=1,"Hospital, Islamabad"
50,kulsuminternationalh_33.718084_73.072795,Kulsum International Hospital,"Kulsum International Hospital
3.7(1,101)
Hospital ·  · Kulsum Plaza، 2020 Jinnah Ave
Open 24 hours · +92 51 8446666",Hospital,Open 24 hours,33.7180842,73.0727948,https://www.google.com/maps/place/Kulsum+International+Hospital/data=!4m7!3m6!1s0x38dfbf9b0adeb791:0xc2c5c863a0ed4ffb!8m2!3d33.7180842!4d73.0727948!16s%2Fg%2F1txc5dt3!19sChIJkbfeCpu_3zgR-0_toGPIxcI?authuser=0&hl=en&rclk=1,"Hospital, Islamabad"
51,alimedicalcentre_33.710413_73.042016,Ali Medical Centre,"Ali Medical Centre
3.4(730)
Private hospital ·  · P26Q+JWM, Kohistan Rd
Open 24 hours · +92 51 8090200",Private hospital,Open 24 hours,33.7104129,73.0420161,https://www.google.com/maps/place/Ali+Medical+Centre/data=!4m7!3m6!1s0x38dfbfad680bca0d:0x8035f4aacf56cf3d!8m2!3d33.7104129!4d73.0420161!16s%2Fg%2F1tgw88nw!19sChIJDcoLaK2_3zgRPc9Wz6r0NYA?authuser=0&hl=en&rclk=1,"Hospital, Islamabad"
52,paecgeneralhospitali_33.652561_73.016503,"PAEC General Hospital,Islamabad","PAEC General Hospital,Islamabad
3.7(349)
Hospital ·  · PAEC GENERAL HOSPITAL
Open 24 hours · +92 51 92571716",Hospital,Open 24 hours,33.6525608,73.016503,"https://www.google.com/maps/place/PAEC+General+Hospital,Islamabad/data=!4m7!3m6!1s0x38df95c01daa1a0b:0x63574e8b75b77ed1!8m2!3d33.6525608!4d73.016503!16s%2Fg%2F1tmpc9k8!19sChIJCxqqHcCV3zgR0X63dYtOV2M?authuser=0&hl=en&rclk=1","Hospital, Islamabad"
53,khatibainternational_33.566583_73.134783,Khatiba International Hospital,"Khatiba International Hospital
4.8(59)
Private hospital ·  · Plot No. 314 & 315, Street A-1, Main PWD Rd
Open 24 hours · +92 51 6128511",Private hospital,Open 24 hours,33.5665832,73.1347831,https://www.google.com/maps/place/Khatiba+International+Hospital/data=!4m7!3m6!1s0x38dfeda393d41bf5:0x244b982a6200f297!8m2!3d33.5665832!4d73.1347831!16s%2Fg%2F11v04xp07l!19sChIJ9RvUk6Pt3zgRl_IAYiqYSyQ?authuser=0&hl=en&rclk=1,"Hospital, Islamabad"
54,graceinternationalho_33.663460_72.887963,Grace International Hospital Islamabad,"Grace International Hospital Islamabad
2.8(46)
Hospital · 
Open 24 hours · +92 301 5710777",Hospital,Open 24 hours,33.6634596,72.8879628,https://www.google.com/maps/place/Grace+International+Hospital+Islamabad/data=!4m7!3m6!1s0x38dfa3e8224f80f1:0x89bea84f88237fda!8m2!3d33.6634596!4d72.8879628!16s%2Fg%2F11lg2nf5v3!19sChIJ8YBPIuij3zgR2n8jiE-ovok?authuser=0&hl=en&rclk=1,"Hospital, Islamabad"
55,familyhealthhospital_33.649380_73.046830,Family Health Hospital,"Family Health Hospital
3.5(157)
Hospital ·  · J2XW+QP4, St 30
Open 24 hours · +92 51 4446840",Hospital,Open 24 hours,33.64938,73.04683,https://www.google.com/maps/place/Family+Health+Hospital/data=!4m7!3m6!1s0x38df950ec9f30bd3:0xef6ddd02594d1da6!8m2!3d33.64938!4d73.04683!16s%2Fg%2F11x9bnkhh!19sChIJ0wvzyQ6V3zgRph1NWQLdbe8?authuser=0&hl=en&rclk=1,"Hospital, Islamabad"
1,na_noloc,,,,,,,,"Hospital, Islamabad"
5,advancedinternationa_33.696577_73.050456,Advanced International Hospital Islamabad,,Hospital,Open 24 hours,33.6965775,73.0504561,https://www.google.com/maps/place/Advanced+International+Hospital+Islamabad/data=!4m7!3m6!1s0x38dfbf8a6764276f:0xdbb21f59afe3a45b!8m2!3d33.6965775!4d73.0504561!16s%2Fg%2F11hnbz_9lk!19sChIJbydkZ4q_3zgRW6Tjr1kfsts?authuser=0&hl=en&rclk=1,"Hospital, Islamabad"
37,islamabadinternation_33.702019_72.967700,Islamabad International Hospital & Research Center (IIHRC),"Islamabad International Hospital & Research Center (IIHRC)
4.2(301)
Hospital ·  · 2 Main Double Rd
Open 24 hours · +92 51 2304941",Hospital,Open 24 hours,33.7020189,72.9676998,https://www.google.com/maps/place/Islamabad+International+Hospital+%26+Research+Center+%28IIHRC%29/data=!4m7!3m6!1s0x38dfbdb7b33ca017:0xc4f40d2ce1e0e985!8m2!3d33.7020189!4d72.9676998!16s%2Fg%2F11gf8hs6jv!19sChIJF6A8s7e93zgRheng4SwN9MQ?authuser=0&hl=en&rclk=1,"Hospital, Islamabad"
38,pimshospitalislamaba_33.703334_73.052352,PIMS Hospital Islamabad,"PIMS Hospital Islamabad
3.9(818)
Government hospital ·  · Ibn-e-Sina Rd
Open 24 hours · +92 51 9261170",Government hospital,Open 24 hours,33.7033339,73.0523516,https://www.google.com/maps/place/PIMS+Hospital+Islamabad/data=!4m7!3m6!1s0x38df950787a46b87:0x38d56dc761e05e4f!8m2!3d33.7033339!4d73.0523516!16s%2Fg%2F11r6fwws34!19sChIJh2ukhweV3zgRT17gYcdt1Tg?authuser=0&hl=en&rclk=1,"Hospital, Islamabad"
39,shifainternationalho_33.675015_73.066009,Shifa International Hospitals Limited,"Shifa International Hospitals Limited
3.4(2,453)
Hospital ·  · 4 Pitras Bukhari Rd
Open 24 hours · +92 51 8464646",Hospital,Open 24 hours,33.6750148,73.0660089,https://www.google.com/maps/place/Shifa+International+Hospitals+Limited/data=!4m7!3m6!1s0x38df955e641b11dd:0xa273b768a51a9c54!8m2!3d33.6750148!4d73.0660089!16s%2Fm%2F03c3g4_!19sChIJ3REbZF6V3zgRVJwapWi3c6I?authuser=0&hl=en&rclk=1,"Hospital, Islamabad"
40,maroofinternationalh_33.697460_73.011651,Maroof International Hospital,"Maroof International Hospital
3.2(807)
General hospital ·  · Service Rd E, F-10 Markaz F 10/3 F-10, 04412
Open 24 hours · +92 51 111 644 911",General hospital,Open 24 hours,33.6974597,73.0116512,https://www.google.com/maps/place/Maroof+International+Hospital/data=!4m7!3m6!1s0x38dfbe6b77fc7279:0x855a61d1ef5e9def!8m2!3d33.6974597!4d73.0116512!16s%2Fg%2F1hdzv62pm!19sChIJeXL8d2u-3zgR751e79FhWoU?authuser=0&hl=en&rclk=1,"Hospital, Islamabad"
41,pafhospitalislamabad_33.708229_73.015313,PAF Hospital Islamabad,"PAF Hospital Islamabad
3.7(690)
Hospital ·  · Main Margalla Rd
Open 24 hours · +92 51 9564000",Hospital,Open 24 hours,33.708229,73.015313,https://www.google.com/maps/place/PAF+Hospital+Islamabad/data=!4m7!3m6!1s0x38dfbf22bfada2c1:0xa4d9acbf9789555b!8m2!3d33.708229!4d73.015313!16s%2Fg%2F11gmgd5zhy!19sChIJwaKtvyK_3zgRW1WJl7-s2aQ?authuser=0&hl=en&rclk=1,"Hospital, Islamabad"
42,shahidakhaliqhospita_33.692240_73.057561,Shahida Khaliq Hospital,"Shahida Khaliq Hospital
4.6(269)
Private hospital ·  · Plot No 14, Street No 22, 17-4 Street 22
Open 24 hours · +92 51 2331908",Private hospital,Open 24 hours,33.6922398,73.0575614,https://www.google.com/maps/place/Shahida+Khaliq+Hospital/data=!4m7!3m6!1s0x38dfbfe86d1359ad:0x565822eeafed1115!8m2!3d33.6922398!4d73.0575614!16s%2Fg%2F11sh5jzyx9!19sChIJrVkTbei_3zgRFRHtr-4iWFY?authuser=0&hl=en&rclk=1,"Hospital, Islamabad"
43,capitalinternational_33.649738_72.976560,Capital International Hospital (CIH),"Capital International Hospital (CIH)
4.4(214)
Hospital ·  · Street 3, Adjacent G-13/4 Park, Srinagar Highway, Service Rd
Open 24 hours · +92 315 3515555",Hospital,Open 24 hours,33.6497383,72.9765602,https://www.google.com/maps/place/Capital+International+Hospital+%28CIH%29/data=!4m7!3m6!1s0x38df97121bd4389d:0x4d0f61f6d63e994f!8m2!3d33.6497383!4d72.9765602!16s%2Fg%2F11gzq_k_vm!19sChIJnTjUGxKX3zgRT5k-1vZhD00?authuser=0&hl=en&rclk=1,"Hospital, Islamabad"
44,premiumdiagnosticand_33.703519_73.051454,Premium Diagnostic and Clinics,"Premium Diagnostic and Clinics
4.2(2,549)
Doctor ·  · Ibn-e-Sina Rd
Open 24 hours · +92 51 9261170",Doctor,Open 24 hours,33.7035185,73.0514542,https://www.google.com/maps/place/Premium+Diagnostic+and+Clinics/data=!4m7!3m6!1s0x38dfbfb826dae131:0xba5e1cbcad4376fe!8m2!3d33.7035185!4d73.0514542!16zL20vMGQyeGNw!19sChIJMeHaJri_3zgR_nZDrbwcXro?authuser=0&hl=en&rclk=1,"Hospital, Islamabad"
45,quaideazaminternatio_33.624800_72.973246,Quaid-e-Azam International Hospital,"Quaid-e-Azam International Hospital
3.1(950)
Private hospital ·  · Main Peshawar Rd, near Golra Morr
Open 24 hours · +92 51 8449100",Private hospital,Open 24 hours,33.6248005,72.9732462,https://www.google.com/maps/place/Quaid-e-Azam+International+Hospital/data=!4m7!3m6!1s0x38df9661cfcea8cb:0x95f8f9fcd37941d9!8m2!3d33.6248005!4d72.9732462!16s%2Fg%2F1tlczk54!19sChIJy6jOz2GW3zgR2UF50_z5-JU?authuser=0&hl=en&rclk=1,"Hospital, Islamabad"
46,maxhealthhospital_33.697569_73.049161,Max Health Hospital,"Max Health Hospital
3.8(355)
General hospital ·  · 12-K Markaz Rd
Open 24 hours · +92 51 8094762",General hospital,Open 24 hours,33.6975693,73.0491612,https://www.google.com/maps/place/Max+Health+Hospital/data=!4m7!3m6!1s0x38dfbfc9ab6d46d5:0xf0f515eb876e3c03!8m2!3d33.6975693!4d73.0491612!16s%2Fg%2F11cjkd0f8b!19sChIJ1UZtq8m_3zgRAzxuh-sV9fA?authuser=0&hl=en&rclk=1,"Hospital, Islamabad"
47,kulsuminternationalh_33.718084_73.072795,Kulsum International Hospital,"Kulsum International Hospital
3.7(1,101)
Hospital ·  · Kulsum Plaza، 2020 Jinnah Ave
Open 24 hours · +92 51 8446666",Hospital,Open 24 hours,33.7180842,73.0727948,https://www.google.com/maps/place/Kulsum+International+Hospital/data=!4m7!3m6!1s0x38dfbf9b0adeb791:0xc2c5c863a0ed4ffb!8m2!3d33.7180842!4d73.0727948!16s%2Fg%2F1txc5dt3!19sChIJkbfeCpu_3zgR-0_toGPIxcI?authuser=0&hl=en&rclk=1,"Hospital, Islamabad"
48,alimedicalcentre_33.710413_73.042016,Ali Medical Centre,"Ali Medical Centre
3.4(730)
Private hospital ·  · P26Q+JWM, Kohistan Rd
Open 24 hours · +92 51 8090200",Private hospital,Open 24 hours,33.7104129,73.0420161,https://www.google.com/maps/place/Ali+Medical+Centre/data=!4m7!3m6!1s0x38dfbfad680bca0d:0x8035f4aacf56cf3d!8m2!3d33.7104129!4d73.0420161!16s%2Fg%2F1tgw88nw!19sChIJDcoLaK2_3zgRPc9Wz6r0NYA?authuser=0&hl=en&rclk=1,"Hospital, Islamabad"
49,paecgeneralhospitali_33.652561_73.016503,"PAEC General Hospital,Islamabad","PAEC General Hospital,Islamabad
3.7(349)
Hospital ·  · PAEC GENERAL HOSPITAL
Open 24 hours · +92 51 92571716",Hospital,Open 24 hours,33.6525608,73.016503,"https://www.google.com/maps/place/PAEC+General+Hospital,Islamabad/data=!4m7!3m6!1s0x38df95c01daa1a0b:0x63574e8b75b77ed1!8m2!3d33.6525608!4d73.016503!16s%2Fg%2F1tmpc9k8!19sChIJCxqqHcCV3zgR0X63dYtOV2M?authuser=0&hl=en&rclk=1","Hospital, Islamabad"
50,familyhealthhospital_33.649380_73.046830,Family Health Hospital,"Family Health Hospital
3.5(157)
Hospital ·  · J2XW+QP4, St 30
Open 24 hours · +92 51 4446840",Hospital,Open 24 hours,33.64938,73.04683,https://www.google.com/maps/place/Family+Health+Hospital/data=!4m7!3m6!1s0x38df950ec9f30bd3:0xef6ddd02594d1da6!8m2!3d33.64938!4d73.04683!16s%2Fg%2F11x9bnkhh!19sChIJ0wvzyQ6V3zgRph1NWQLdbe8?authuser=0&hl=en&rclk=1,"Hospital, Islamabad"
51,caremedicalcenter_33.698542_73.048703,Care+ Medical Center,"Care+ Medical Center
3.9(208)
Private hospital ·  · 20-C, M2XX+F95 Crescent Arcade
Open 24 hours · +92 51 111 111 097",Private hospital,Open 24 hours,33.6985419,73.0487032,https://www.google.com/maps/place/Care%2B+Medical+Center/data=!4m7!3m6!1s0x38dfbf4b32a7fb61:0xca3ac0299b9d7aa4!8m2!3d33.6985419!4d73.0487032!16s%2Fg%2F11g3y4qzr_!19sChIJYfunMku_3zgRpHqdmynAOso?authuser=0&hl=en&rclk=1,"Hospital, Islamabad"
52,zobiahospitalg9islam_33.677978_73.030205,Zobia Hospital G-9 Islamabad,"Zobia Hospital G-9 Islamabad
3.5(103)
Hospital ·  · Street 30
Open 24 hours · +92 51 2261130",Hospital,Open 24 hours,33.6779776,73.0302046,https://www.google.com/maps/place/Zobia+Hospital+G-9+Islamabad/data=!4m7!3m6!1s0x38dfbf80a2b451a5:0x316fd483f145e55d!8m2!3d33.6779776!4d73.0302046!16s%2Fg%2F11h336n5v0!19sChIJpVG0ooC_3zgRXeVF8YPUbzE?authuser=0&hl=en&rclk=1,"Hospital, Islamabad"
53,lifecareinternationa_33.676624_73.015368,Life Care International Hospital,"Life Care International Hospital
2.8(317)
Hospital ·  · M2G8+Q6G
Open 24 hours · +92 51 2355501",Hospital,Open 24 hours,33.6766236,73.0153676,https://www.google.com/maps/place/Life+Care+International+Hospital/data=!4m7!3m6!1s0x38dfbe1f0d2d6b37:0x8389e594522baac6!8m2!3d33.6766236!4d73.0153676!16s%2Fg%2F119v44ckb!19sChIJN2stDR--3zgRxqorUpTliYM?authuser=0&hl=en&rclk=1,"Hospital, Islamabad"
54,islamabadmedicalands_33.716275_73.084751,Islamabad Medical and Surgical Hospital,"Islamabad Medical and Surgical Hospital
3.7(57)
Hospital ·  · Melody Market
Open 24 hours · +92 51 2603566",Hospital,Open 24 hours,33.7162751,73.0847509,https://www.google.com/maps/place/Islamabad+Medical+and+Surgical+Hospital/data=!4m7!3m6!1s0x38dfbf862d3909cb:0x867c7db711a27e7c!8m2!3d33.7162751!4d73.0847509!16s%2Fg%2F11dyqrrqkw!19sChIJywk5LYa_3zgRfH6iEbd9fIY?authuser=0&hl=en&rclk=1,"Hospital, Islamabad"
55,fatimahospital_33.609116_73.131128,Fatima Hospital,"Fatima Hospital
4.2(83)
Hospital ·  · main Islamabad Expy
Open 24 hours · +92 332 5906961",Hospital,Open 24 hours,33.6091165,73.1311281,https://www.google.com/maps/place/Fatima+Hospital/data=!4m7!3m6!1s0x38dfebb28156d7ab:0x3c915f33f740d68!8m2!3d33.6091165!4d73.1311281!16s%2Fg%2F11rqj5xj46!19sChIJq9dWgbLr3zgRaA10P_MVyQM?authuser=0&hl=en&rclk=1,"Hospital, Islamabad"
57,islamabadhealthservi_33.568875_73.200526,Islamabad Health Services Hospital,"Islamabad Health Services Hospital
4.6(99)
Hospital ·  · D-23, Commercial Street 02, Block D Naval Anchorage, Islamabad Expressway Islamabad
Open 24 hours · +92 333 5767177",Hospital,Open 24 hours,33.5688753,73.200526,https://www.google.com/maps/place/Islamabad+Health+Services+Hospital/data=!4m7!3m6!1s0x38dfef77a8d3ea13:0xc7a33b4eb65b3bcf!8m2!3d33.5688753!4d73.200526!16s%2Fg%2F11h0b8y3g2!19sChIJE-rTqHfv3zgRzztbtk47o8c?authuser=0&hl=en&rclk=1,"Hospital, Islamabad"
58,islamabadspecialized_33.652723_73.071629,Islamabad specialized hospital...,"Islamabad specialized hospital...
4.6(150)
Hospital ·  · Main Double, Rawalpindi Stadium Rd
Open 24 hours · +92 51 8779111",Hospital,Open 24 hours,33.6527227,73.0716286,https://www.google.com/maps/place/Islamabad+specialized+hospital.../data=!4m7!3m6!1s0x38df95af2158e1c3:0xbcf787e80e5c86a4!8m2!3d33.6527227!4d73.0716286!16s%2Fg%2F11sq_hgzjk!19sChIJw-FYIa-V3zgRpIZcDuiH97w?authuser=0&hl=en&rclk=1,"Hospital, Islamabad"
59,abidhospital_33.722513_73.082228,Abid Hospital,"Abid Hospital
4.0(29)
Hospital ·  · 1st floor, Huma Plaza, Fazal e Haq Rd
Open 24 hours · +92 51 2604955",Hospital,Open 24 hours,33.7225132,73.0822276,https://www.google.com/maps/place/Abid+Hospital/data=!4m7!3m6!1s0x38dfbf9b4ebf674d:0x618cc6189224851!8m2!3d33.7225132!4d73.0822276!16s%2Fg%2F11c37knjxy!19sChIJTWe_Tpu_3zgRUUgiiWHMGAY?authuser=0&hl=en&rclk=1,"Hospital, Islamabad"
60,shaafiinternationalh_33.566112_73.129859,Shaafi International Hospital,"Shaafi International Hospital
3.8(531)
General hospital ·  · C-3 Doctor's Town، Main Main PWD Rd
Open 24 hours · +92 51 5170395",General hospital,Open 24 hours,33.5661116,73.1298586,https://www.google.com/maps/place/Shaafi+International+Hospital/data=!4m7!3m6!1s0x38dfecf968300eb3:0xb44a498ed59f5089!8m2!3d33.5661116!4d73.1298586!16s%2Fg%2F1pp2tjqff!19sChIJsw4waPns3zgRiVCf1Y5JSrQ?authuser=0&hl=en&rclk=1,"Hospital, Islamabad"
61,noorgeneralhospital_33.669007_73.000414,Noor General Hospital,"Noor General Hospital
4.8(240)
Hospital ·  · Ground floor، Al-Rehman Plaza، near Shaheen grocers & chemist
Open 24 hours · +92 51 2362315",Hospital,Open 24 hours,33.6690075,73.0004137,https://www.google.com/maps/place/Noor+General+Hospital/data=!4m7!3m6!1s0x38df95f8dfb39291:0x4ade70f69be40ed6!8m2!3d33.6690075!4d73.0004137!16s%2Fg%2F11c6yz0304!19sChIJkZKz3_iV3zgR1g7km_Zw3ko?authuser=0&hl=en&rclk=1,"Hospital, Islamabad"
62,pafhospitalislamabad_33.715625_73.017060,PAF Hospital Islamabad,"PAF Hospital Islamabad
3.9(70)
Hospital ·  · P288+7R3, Hospital Rd
Open 24 hours · +92 51 9567000",Hospital,Open 24 hours,33.7156253,73.0170599,https://www.google.com/maps/place/PAF+Hospital+Islamabad/data=!4m7!3m6!1s0x38dfbfd57bb06255:0xb4a4f054dc92f901!8m2!3d33.7156253!4d73.0170599!16s%2Fg%2F11h_679c05!19sChIJVWKwe9W_3zgRAfmS3FTwpLQ?authuser=0&hl=en&rclk=1,"Hospital, Islamabad"
63,rehmanhospital_33.692670_73.058429,Rehman Hospital,"Rehman Hospital
5.0(12)
Hospital ·  · Plot no 9, I&T Center
Open 24 hours · +92 51 2255599",Hospital,Open 24 hours,33.6926699,73.0584288,https://www.google.com/maps/place/Rehman+Hospital/data=!4m7!3m6!1s0x38dfbf9f8f497357:0x6a3eeb1ee9c8a820!8m2!3d33.6926699!4d73.0584288!16s%2Fg%2F11sds2c_0c!19sChIJV3NJj5-_3zgRIKjI6R7rPmo?authuser=0&hl=en&rclk=1,"Hospital, Islamabad"
64,azizmedicalcenter_33.730722_73.080296,Aziz Medical Center,"Aziz Medical Center
3.4(406)
Hospital ·  · 1 Street 16
Open ⋅ Closes 4:30 PM · +92 51 2873192",Hospital,Open,33.7307216,73.080296,https://www.google.com/maps/place/Aziz+Medical+Center/data=!4m7!3m6!1s0x38dfbf796636527d:0x78946fe33d68e6b6!8m2!3d33.7307216!4d73.080296!16s%2Fg%2F1wtbs84p!19sChIJfVI2Znm_3zgRtuZoPeNvlHg?authuser=0&hl=en&rclk=1,"Hospital, Islamabad"
65,shifamedicalcenter_33.673540_73.020375,Shifa Medical Center,"Shifa Medical Center
2.7(77)
Hospital ·  · 3rd Rd
Open ⋅ Closes 11 PM · +92 51 8469000",Hospital,Open,33.6735397,73.0203752,https://www.google.com/maps/place/Shifa+Medical+Center/data=!4m7!3m6!1s0x38df958a6d156e65:0x9bc9952b6bf7f2e4!8m2!3d33.6735397!4d73.0203752!16s%2Fg%2F11c2qg7bdr!19sChIJZW4VbYqV3zgR5PL3ayuVyZs?authuser=0&hl=en&rclk=1,"Hospital, Islamabad"
66,islamabadmedicarehos_33.697719_72.970770,Islamabad Medicare Hospital,"Islamabad Medicare Hospital
3.3(30)
Private hospital ·  · 116 Street 88
Open 24 hours · +92 336 5048548",Private hospital,Open 24 hours,33.6977185,72.9707696,https://www.google.com/maps/place/Islamabad+Medicare+Hospital/data=!4m7!3m6!1s0x38dfbdc79a13fc59:0x5b947f3628dd06a0!8m2!3d33.6977185!4d72.9707696!16s%2Fg%2F11cjnnzk12!19sChIJWfwTmse93zgRoAbdKDZ_lFs?authuser=0&hl=en&rclk=1,"Hospital, Islamabad"
67,naqaishmedicare_33.666657_73.076139,Naqaish Medicare,"Naqaish Medicare
4.6(170)
Hospital ·  · Pakland Business Center
Open 24 hours · +92 304 2252555",Hospital,Open 24 hours,33.6666574,73.0761395,https://www.google.com/maps/place/Naqaish+Medicare/data=!4m7!3m6!1s0x38df9566e99b3abd:0xb0ad90d97b709256!8m2!3d33.6666574!4d73.0761395!16s%2Fg%2F11fq88qchw!19sChIJvTqb6WaV3zgRVpJwe9mQrbA?authuser=0&hl=en&rclk=1,"Hospital, Islamabad"
68,medcityhospital_33.710423_73.040264,MedCity Hospital,"MedCity Hospital
4.5(208)
Hospital ·  · Kohistan Rd
Open 24 hours · +92 51 2817233",Hospital,Open 24 hours,33.7104228,73.0402643,https://www.google.com/maps/place/MedCity+Hospital/data=!4m7!3m6!1s0x38dfbffb3b723497:0x6443b4017e7bd74c!8m2!3d33.7104228!4d73.0402643!16s%2Fg%2F11hzrk3fwt!19sChIJlzRyO_u_3zgRTNd7fgG0Q2Q?authuser=0&hl=en&rclk=1,"Hospital, Islamabad"
69,islamabadmedicalcomp_33.649271_73.017190,Islamabad Medical Complex (IMC),"Islamabad Medical Complex (IMC)
3.7(158)
Hospital ·  · J2X8+PV4, Faqir Aipee Road
Open 24 hours · +92 51 906 725 102",Hospital,Open 24 hours,33.6492715,73.0171903,https://www.google.com/maps/place/Islamabad+Medical+Complex+%28IMC%29/data=!4m7!3m6!1s0x38df95bf7f63ca19:0x6d31923341485537!8m2!3d33.6492715!4d73.0171903!16s%2Fg%2F12mkz7vh9!19sChIJGcpjf7-V3zgRN1VIQTOSMW0?authuser=0&hl=en&rclk=1,"Hospital, Islamabad"
70,polyclinichospital_33.721359_73.082766,Polyclinic Hospital,"Polyclinic Hospital
3.8(348)
Government hospital ·  · 44 Luqman Hakeem Rd
Open 24 hours · +92 51 9218300",Government hospital,Open 24 hours,33.7213588,73.0827659,https://www.google.com/maps/place/Polyclinic+Hospital/data=!4m7!3m6!1s0x38dfbf814c2aadb1:0xb76ca4ce8b6083c9!8m2!3d33.7213588!4d73.0827659!16s%2Fg%2F11y0l80rt!19sChIJsa0qTIG_3zgRyYNgi86kbLc?authuser=0&hl=en&rclk=1,"Hospital, Islamabad"
71,sarfhospital_33.697407_73.010815,Sarf Hospital,"Sarf Hospital
4.4(79)
Hospital ·  · SARF Plaza, Plot 6E, F-10 Markaz, F-10
Open ⋅ Closes 9 PM · +92 313 5339589",Hospital,Open,33.6974072,73.0108147,https://www.google.com/maps/place/Sarf+Hospital/data=!4m7!3m6!1s0x38dfbe6b8080e00f:0xb02b9c9ff9cd8222!8m2!3d33.6974072!4d73.0108147!16s%2Fg%2F12mkz7lt5!19sChIJD-CAgGu-3zgRIoLN-Z-cK7A?authuser=0&hl=en&rclk=1,"Hospital, Islamabad"
72,elaajinternationalho_33.630242_73.114998,Elaaj International Hospital Islamabad,"Elaaj International Hospital Islamabad
3.9(14)
Hospital ·  · Main Service Rd E
Open 24 hours · +92 51 2619276",Hospital,Open 24 hours,33.6302424,73.1149982,https://www.google.com/maps/place/Elaaj+International+Hospital+Islamabad/data=!4m7!3m6!1s0x38dfeb001222e26d:0xd064f5b6d6e33d01!8m2!3d33.6302424!4d73.1149982!16s%2Fg%2F11y4nz0w3m!19sChIJbeIiEgDr3zgRAT3j1rb1ZNA?authuser=0&hl=en&rclk=1,"Hospital, Islamabad"
73,krlhospital_33.677743_73.031739,KRL Hospital,"KRL Hospital
3.8(446)
Hospital ·  · Muhammad Tufail Niazi Rd
Closes soon ⋅ 2:30 PM ⋅ Opens 8 AM Fri",Hospital,Closes soon,33.6777434,73.0317386,https://www.google.com/maps/place/KRL+Hospital/data=!4m7!3m6!1s0x38dfbe2852f2b6c7:0x679566e8e6890eb8!8m2!3d33.6777434!4d73.0317386!16s%2Fg%2F1tfrkqft!19sChIJx7byUii-3zgRuA6J5uhmlWc?authuser=0&hl=en&rclk=1,"Hospital, Islamabad"
74,rimshospitalinternat_33.712562_73.062062,RIMS HOSPITAL INTERNATIONAL,"RIMS HOSPITAL INTERNATIONAL
4.5(36)
Hospital ·  · P376+2R9, Block H, Blue
Open ⋅ Closes 9 PM · +92 51 2348007",Hospital,Open,33.7125625,73.0620625,https://www.google.com/maps/place/RIMS+HOSPITAL+INTERNATIONAL/data=!4m7!3m6!1s0x38dfbf59ef672fdd:0xadf98e210a95f749!8m2!3d33.7125625!4d73.0620625!16s%2Fg%2F11l5dpj5xt!19sChIJ3S9n71m_3zgRSfeVCiGO-a0?authuser=0&hl=en&rclk=1,"Hospital, Islamabad"
75,norihospitalaech_33.699436_73.053461,NORI Hospital (AECH),"NORI Hospital (AECH)
3.5(378)
Specialized hospital ·  · M3X3+P2V, Hanna Rd
Open ⋅ Closes 8 PM · +92 51 9260611",Specialized hospital,Open,33.6994362,73.0534608,https://www.google.com/maps/place/NORI+Hospital+%28AECH%29/data=!4m7!3m6!1s0x38dfbfc7a488475b:0x1cc4109d67a55729!8m2!3d33.6994362!4d73.0534608!16s%2Fg%2F1jkwpz6dy!19sChIJW0eIpMe_3zgRKVelZ50QxBw?authuser=0&hl=en&rclk=1,"Hospital, Islamabad"
76,islamabadgeneralhosp_33.741519_73.183075,Islamabad General Hospital,"Islamabad General Hospital
4.3(40)
Hospital · ",Hospital,,33.7415187,73.183075,https://www.google.com/maps/place/Islamabad+General+Hospital/data=!4m7!3m6!1s0x38dfc3d5437f1845:0x3edab6924ba1dbff!8m2!3d33.7415187!4d73.183075!16s%2Fg%2F11xslmt6r!19sChIJRRh_Q9XD3zgR_9uhS5K22j4?authuser=0&hl=en&rclk=1,"Hospital, Islamabad"
77,mainemergencypims_33.703708_73.051527,"Main Emergency, PIMS","Main Emergency, PIMS
4.5(28)
Hospital ·  · Ibn-e-Sina Rd
Open 24 hours · +92 51 9261170",Hospital,Open 24 hours,33.7037084,73.0515267,"https://www.google.com/maps/place/Main+Emergency,+PIMS/data=!4m7!3m6!1s0x38dfbfb76e8e0f3d:0x77990a0e1289f1c5!8m2!3d33.7037084!4d73.0515267!16s%2Fg%2F11dzd1q0kw!19sChIJPQ-Obre_3zgRxfGJEg4KmXc?authuser=0&hl=en&rclk=1","Hospital, Islamabad"
78,aljannathospital_33.615805_73.136945,ALJANNAT Hospital,"ALJANNAT Hospital
4.9(120)
Maternity hospital · 
Open ⋅ Closes 9 PM · +92 345 5744440",Maternity hospital,Open,33.6158052,73.1369448,https://www.google.com/maps/place/ALJANNAT+Hospital/data=!4m7!3m6!1s0x38dfebc618e13b2d:0x9aea4a41dfe6233d!8m2!3d33.6158052!4d73.1369448!16s%2Fg%2F11qbfm_4ll!19sChIJLTvhGMbr3zgRPSPm30FK6po?authuser=0&hl=en&rclk=1,"Hospital, Islamabad"
79,integratedhealthserv_33.696450_73.050915,Integrated Health Services (IHS),"Integrated Health Services (IHS)
4.6(66)
Hospital
Open 24 hours · +92 51 111 362 867",Hospital,Open 24 hours,33.6964496,73.0509147,https://www.google.com/maps/place/Integrated+Health+Services+%28IHS%29/data=!4m7!3m6!1s0x38dfbfc894e8029b:0xfa1b648aa4daf439!8m2!3d33.6964496!4d73.0509147!16s%2Fg%2F11dxq_v0jq!19sChIJmwLolMi_3zgROfTapIpkG_o?authuser=0&hl=en&rclk=1,"Hospital, Islamabad"
80,premiuminternational_33.697528_73.049786,Premium International Hospital,"Premium International Hospital
3.3(19)
Hospital ·  · M2XX+2W7
Open 24 hours · +92 334 5030664",Hospital,Open 24 hours,33.6975285,73.0497858,https://www.google.com/maps/place/Premium+International+Hospital/data=!4m7!3m6!1s0x38dfbf0042871d89:0x5093c3b08830bce4!8m2!3d33.6975285!4d73.0497858!16s%2Fg%2F11vklf7yd3!19sChIJiR2HQgC_3zgR5LwwiLDDk1A?authuser=0&hl=en&rclk=1,"Hospital, Islamabad"
81,medicsihospital_33.551578_73.124169,Medicsi Hospital,"Medicsi Hospital
3.1(71)
Hospital ·  · Plaza, 4 59-61
Open 24 hours · +92 51 111 125 128",Hospital,Open 24 hours,33.5515779,73.1241695,https://www.google.com/maps/place/Medicsi+Hospital/data=!4m7!3m6!1s0x38dfed4481df704f:0x6053a5e41b7c7966!8m2!3d33.5515779!4d73.1241695!16s%2Fg%2F11k3jfgc2_!19sChIJT3DfgUTt3zgRZnl8G-SlU2A?authuser=0&hl=en&rclk=1,"Hospital, Islamabad"
82,tabibimedicalcentre_33.692288_73.030280,Tabibi Medical Centre,"Tabibi Medical Centre
4.8(77)
Hospital ·  · Stree# 5, Jahangir Market
Open 24 hours · +92 51 2324344",Hospital,Open 24 hours,33.6922879,73.0302795,https://www.google.com/maps/place/Tabibi+Medical+Centre/data=!4m7!3m6!1s0x38dfbfee5aca6f49:0x96d49ed063951d5!8m2!3d33.6922879!4d73.0302795!16s%2Fg%2F11m29ljvl1!19sChIJSW_KWu6_3zgR1VE5Bu1JbQk?authuser=0&hl=en&rclk=1,"Hospital, Islamabad"
83,beewellinternational_33.710053_73.058383,BeeWell International Hospital,"BeeWell International Hospital
2.8(93)
Hospital ·  · 106 East AKM Fazl-ul-Haq Rd
Open now · +92 51 2120010",Hospital,Open now,33.710053,73.0583826,https://www.google.com/maps/place/BeeWell+International+Hospital/data=!4m7!3m6!1s0x38dfbfd1477c7e19:0x42a39a92025167!8m2!3d33.710053!4d73.0583826!16s%2Fg%2F11scfpnh0d!19sChIJGX58R9G_3zgRZ1ECkpqjQgA?authuser=0&hl=en&rclk=1,"Hospital, Islamabad"
84,inayateyehospital_33.699348_72.986497,Inayat Eye Hospital,"Inayat Eye Hospital
4.8(16)
Hospital · Block No, Inayat Eye Hospital, 2
Open ⋅ Closes 8 PM · +92 51 8770550",Hospital,Open,33.6993478,72.9864968,https://www.google.com/maps/place/Inayat+Eye+Hospital/data=!4m7!3m6!1s0x38dfbd4c9e87ede3:0xf5f4d016d078bd79!8m2!3d33.6993478!4d72.9864968!16s%2Fg%2F11l_2s_nr7!19sChIJ4-2Hnky93zgReb140BbQ9PU?authuser=0&hl=en&rclk=1,"Hospital, Islamabad"
85,ihschildrenfamilyhos_33.686170_73.005672,IHS Children & Family Hospital,"IHS Children & Family Hospital
3.7(114)
Hospital ·  · Plot No. 2, Khursheed Market, Street 30
Open 24 hours · +92 51 2298217",Hospital,Open 24 hours,33.6861698,73.0056721,https://www.google.com/maps/place/IHS+Children+%26+Family+Hospital/data=!4m7!3m6!1s0x38dfbe11d091703f:0x2824dc7523490bbc!8m2!3d33.6861698!4d73.0056721!16s%2Fg%2F1tf9lmvg!19sChIJP3CR0BG-3zgRvAtJI3XcJCg?authuser=0&hl=en&rclk=1,"Hospital, Islamabad"
86,pnshafeeznavalhospit_33.719812_73.034440,PNS Hafeez - Naval Hospital,"PNS Hafeez - Naval Hospital
4.0(168)
Hospital ·  · P29M+WQG
Open 24 hours · +92 51 20063120",Hospital,Open 24 hours,33.7198118,73.0344399,https://www.google.com/maps/place/PNS+Hafeez+-+Naval+Hospital/data=!4m7!3m6!1s0x38dfbef8aa3e8311:0x8ec54b24f8c8fd03!8m2!3d33.7198118!4d73.0344399!16s%2Fg%2F1tmbthdg!19sChIJEYM-qvi-3zgRA_3I-CRLxY4?authuser=0&hl=en&rclk=1,"Hospital, Islamabad"
87,cdahospital_33.716674_73.078971,CDA Hospital,"CDA Hospital
4.2(230)
Government hospital ·  · Street 31
Closed ⋅ Opens 8 AM Fri · +92 51 9221334",Government hospital,Closed,33.716674,73.0789708,https://www.google.com/maps/place/CDA+Hospital/data=!4m7!3m6!1s0x38dfbf85be78af81:0x778ceddcf1086451!8m2!3d33.716674!4d73.0789708!16s%2Fg%2F1thq3ny8!19sChIJga94voW_3zgRUWQI8dztjHc?authuser=0&hl=en&rclk=1,"Hospital, Islamabad"
88,idealinternationalho_33.536511_73.126098,Ideal International Hospital,"Ideal International Hospital
4.7(9)
Hospital ·  · Main GT Rd, opposite Al Ghani Plaza
Open 24 hours",Hospital,Open 24 hours,33.5365114,73.1260984,https://www.google.com/maps/place/Ideal+International+Hospital/data=!4m7!3m6!1s0x38dfed0e95bd25c5:0xfd72f463234fc9b0!8m2!3d33.5365114!4d73.1260984!16s%2Fg%2F11rpq4mpdf!19sChIJxSW9lQ7t3zgRsMlPI2P0cv0?authuser=0&hl=en&rclk=1,"Hospital, Islamabad"
89,drajmalosmanfatimacl_33.688607_73.013056,Dr. Ajmal Osman | Fatima Clinic F-10 | Top/Best (No.1) Specialist of Islamabad & Rawalpindi,"Dr. Ajmal Osman | Fatima Clinic F-10 | Top/Best (No.1) Specialist of Islamabad & Rawalpindi
4.8(184)
Hospital ·  · House 93 Street 44
Open ⋅ Closes 12 AM · +92 323 6833333",Hospital,Open,33.6886072,73.013056,https://www.google.com/maps/place/Dr.+Ajmal+Osman+%7C+Fatima+Clinic+F-10+%7C+Top%2FBest+%28No.1%29+Specialist+of+Islamabad+%26+Rawalpindi/data=!4m7!3m6!1s0x38dfbe1693dca1a1:0x4d05249fbcd133d5!8m2!3d33.6886072!4d73.013056!16s%2Fg%2F11fxx64hvf!19sChIJoaHckxa-3zgR1TPRvJ8kBU0?authuser=0&hl=en&rclk=1,"Hospital, Islamabad"
90,alihospital_33.680692_73.035455,Ali Hospital,"Ali Hospital
3.8(90)
Hospital ·  · M2JP+75G, Street 17
Open 24 hours · +92 51 2255073",Hospital,Open 24 hours,33.6806918,73.0354553,https://www.google.com/maps/place/Ali+Hospital/data=!4m7!3m6!1s0x38df9513543203fb:0x1dd64dab1015462f!8m2!3d33.6806918!4d73.0354553!16s%2Fg%2F11h9sz11f_!19sChIJ-wMyVBOV3zgRL0YVEKtN1h0?authuser=0&hl=en&rclk=1,"Hospital, Islamabad"
91,zimriorthopedichospi_33.691124_73.055368,Zimri Orthopedic Hospital,"Zimri Orthopedic Hospital
4.5(176)
Hospital ·  · Plot No 40, I & T Center, 4 Jhelum Rd
Open 24 hours · +92 51 8435932",Hospital,Open 24 hours,33.6911242,73.055368,https://www.google.com/maps/place/Zimri+Orthopedic+Hospital/data=!4m7!3m6!1s0x38dfbfc9c7b2dccb:0x453aa77e78ff63d1!8m2!3d33.6911242!4d73.055368!16s%2Fg%2F11s768rnn4!19sChIJy9yyx8m_3zgR0WP_eH6nOkU?authuser=0&hl=en&rclk=1,"Hospital, Islamabad"
92,fedralgovernmentpoly_33.720817_73.081973,Fedral Government Polyclinic Hospital Islamabad,"Fedral Government Polyclinic Hospital Islamabad
4.2(37)
Hospital ·  · P3CJ+8QH
Open 24 hours · +92 51 9218308",Hospital,Open 24 hours,33.7208174,73.0819725,https://www.google.com/maps/place/Fedral+Government+Polyclinic+Hospital+Islamabad/data=!4m7!3m6!1s0x38dfbf86aae843f9:0x1849f0efff7d9bc0!8m2!3d33.7208174!4d73.0819725!16s%2Fg%2F11g8_0tvm7!19sChIJ-UPoqoa_3zgRwJt9_-_wSRg?authuser=0&hl=en&rclk=1,"Hospital, Islamabad"
93,medicsiopd2jinnahsup_33.721294_73.059258,Medicsi OPD 2 Jinnah Super,"Medicsi OPD 2 Jinnah Super
3.2(111)
Maternity hospital ·  · Plot No, 134 Jinnah Super Market،, near PSO Pump
Open ⋅ Closes 6 PM · +92 51 111 111 128",Maternity hospital,Open,33.7212942,73.0592575,https://www.google.com/maps/place/Medicsi+OPD+2+Jinnah+Super/data=!4m7!3m6!1s0x38dfbfa70ddf02e9:0x6229cedab4dd18ae!8m2!3d33.7212942!4d73.0592575!16s%2Fg%2F1tdkw15v!19sChIJ6QLfDae_3zgRrhjdtNrOKWI?authuser=0&hl=en&rclk=1,"Hospital, Islamabad"
94,saeedinternationalho_33.697662_73.050815,"Saeed International Hospital Near PSO Petrol PumpG-8 Markaz, Islamabad","Saeed International Hospital Near PSO Petrol PumpG-8 Markaz, Islamabad
4.0(64)
Educational consultant ·  · Markaz Rd, near PSO Petrol pump
Open 24 hours · +92 331 1110675",Educational consultant,Open 24 hours,33.6976615,73.0508145,"https://www.google.com/maps/place/Saeed+International+Hospital+Near+PSO+Petrol+PumpG-8+Markaz,+Islamabad/data=!4m7!3m6!1s0x38dfbff80fba2cbf:0x908bdedff9ba4408!8m2!3d33.6976615!4d73.0508145!16s%2Fg%2F11rtthnytx!19sChIJvyy6D_i_3zgRCES6-d_ei5A?authuser=0&hl=en&rclk=1","Hospital, Islamabad"
95,shifainternationalho_33.675026_73.066069,Shifa International Hospital Gate 5,"Shifa International Hospital Gate 5
4.2(142)
Hospital department ·  · H-8, 4
Open now · +92 51 8463666",Hospital department,Open now,33.6750256,73.0660692,https://www.google.com/maps/place/Shifa+International+Hospital+Gate+5/data=!4m7!3m6!1s0x38df9557ecd41619:0xe64b7e365de56859!8m2!3d33.6750256!4d73.0660692!16s%2Fg%2F11jcmx04fj!19sChIJGRbU7FeV3zgRWWjlXTZ-S-Y?authuser=0&hl=en&rclk=1,"Hospital, Islamabad"
97,pakamericanhospital_33.624781_72.972531,Pak American Hospital,"Pak American Hospital
4.6(16)
Hospital ·  · Office 1B, First Floor, Jahangir Multiplex
Open ⋅ Closes 11 PM · +92 51 6124968",Hospital,Open,33.6247806,72.972531,https://www.google.com/maps/place/Pak+American+Hospital/data=!4m7!3m6!1s0x38df97a6ab908acb:0xe77998b3350de4de!8m2!3d33.6247806!4d72.972531!16s%2Fg%2F11l310zv39!19sChIJy4qQq6aX3zgR3uQNNbOYeec?authuser=0&hl=en&rclk=1,"Hospital, Islamabad"
98,clinicsanddiagnostic_33.645425_72.963305,Clinics and Diagnostics hospital,"Clinics and Diagnostics hospital
3.9(97)
Hospital ·  · Main Double Rd
Open 24 hours · +92 51 2306391",Hospital,Open 24 hours,33.6454253,72.963305,https://www.google.com/maps/place/Clinics+and+Diagnostics+hospital/data=!4m7!3m6!1s0x38df9639edcee4db:0xf40796e6238e65de!8m2!3d33.6454253!4d72.963305!16s%2Fg%2F11bbrm0fw2!19sChIJ2-TO7TmW3zgR3mWOI-aWB_Q?authuser=0&hl=en&rclk=1,"Hospital, Islamabad"
99,bilquismemorialhospi_33.692365_73.030502,Bilquis Memorial Hospital,"Bilquis Memorial Hospital
4.4(22)
Private hospital ·  · jehangir market
Closed ⋅ Opens 6 PM · +92 51 2252181",Private hospital,Closed,33.692365,73.030502,https://www.google.com/maps/place/Bilquis+Memorial+Hospital/data=!4m7!3m6!1s0x38dfbe37370af6bb:0xae07455b7fbff7b!8m2!3d33.692365!4d73.030502!16s%2Fg%2F11cryg0p6r!19sChIJu_YKNze-3zgRe__7t1V04Ao?authuser=0&hl=en&rclk=1,"Hospital, Islamabad"
100,generalpracticehospi_33.692211_73.025038,General Practice Hospital,"General Practice Hospital
4.9(150)
Hospital ·  · Pakland Tower, 2 New
Open 24 hours · +92 334 7474701",Hospital,Open 24 hours,33.6922109,73.0250382,https://www.google.com/maps/place/General+Practice+Hospital/data=!4m7!3m6!1s0x38dfbf4da7176c71:0xe1512c7b11c15eef!8m2!3d33.6922109!4d73.0250382!16s%2Fg%2F11rl9kp0yv!19sChIJcWwXp02_3zgR717BEXssUeE?authuser=0&hl=en&rclk=1,"Hospital, Islamabad"
101,healthinternationalh_33.632874_73.113133,Health International Hospital,"Health International Hospital
4.3(21)
Hospital ·  · J4M7+47R, Service Rd W
Open now · +92 51 2619271",Hospital,Open now,33.6328744,73.1131331,https://www.google.com/maps/place/Health+International+Hospital/data=!4m7!3m6!1s0x38dfeb079b2ba7b9:0xb35d9d61e21b67b4!8m2!3d33.6328744!4d73.1131331!16s%2Fg%2F11t_qkyd_m!19sChIJuacrmwfr3zgRtGcb4mGdXbM?authuser=0&hl=en&rclk=1,"Hospital, Islamabad"
102,medicsi_33.715287_73.063448,MEDICSi,"MEDICSi
3.3(205)
Hospital ·  · Saudi-Pak Towers، First floor, Low Rise، 61-A Jinnah Ave
Open 24 hours · +92 51 111 125 128",Hospital,Open 24 hours,33.7152872,73.0634478,https://www.google.com/maps/place/MEDICSi/data=!4m7!3m6!1s0x38dfbfa29a9387f9:0xfed9ddb53dd2a454!8m2!3d33.7152872!4d73.0634478!16s%2Fg%2F1tfrq91s!19sChIJ-YeTmqK_3zgRVKTSPbXd2f4?authuser=0&hl=en&rclk=1,"Hospital, Islamabad"
103,nationalinstituteofr_33.695805_73.041512,National Institute of Rehabilitation Medicine (NIRM),"National Institute of Rehabilitation Medicine (NIRM)
4.2(244)
Government hospital ·  · 2 Street 9
Closed ⋅ Opens 8 AM Fri · +92 51 9262213",Government hospital,Closed,33.6958055,73.0415123,https://www.google.com/maps/place/National+Institute+of+Rehabilitation+Medicine+%28NIRM%29/data=!4m7!3m6!1s0x38dfbfcb2174c5f3:0x36de02b41a2e62d2!8m2!3d33.6958055!4d73.0415123!16s%2Fg%2F12mkz5mms!19sChIJ88V0Icu_3zgR0mIuGrQC3jY?authuser=0&hl=en&rclk=1,"Hospital, Islamabad"
104,islamabadspecialists_33.711194_73.041715,Islamabad Specialists Clinic F8,"Islamabad Specialists Clinic F8
3.7(70)
Doctor ·  · Kiran Plaza، 13-B Kohistan Rd
Open ⋅ Closes 10 PM · +92 343 0000433",Doctor,Open,33.7111944,73.0417154,https://www.google.com/maps/place/Islamabad+Specialists+Clinic+F8/data=!4m7!3m6!1s0x38dfbfad4708d48d:0x941929274b3a9944!8m2!3d33.7111944!4d73.0417154!16s%2Fg%2F11xmdm97h!19sChIJjdQIR62_3zgRRJk6SycpGZQ?authuser=0&hl=en&rclk=1,"Hospital, Islamabad"
105,maternitycarehospita_33.708428_73.083336,"Maternity Care Hospital (MCH Centre), Aabpara, Polyclinic Hospital","Maternity Care Hospital (MCH Centre), Aabpara, Polyclinic Hospital
4.4(30)
Hospital ·  · 16 Street 48
+92 51 9214512",Hospital,,33.7084282,73.0833358,"https://www.google.com/maps/place/Maternity+Care+Hospital+%28MCH+Centre%29,+Aabpara,+Polyclinic+Hospital/data=!4m7!3m6!1s0x38dfbf8bc6f36b79:0x9984a7aeffb606d5!8m2!3d33.7084282!4d73.0833358!16s%2Fg%2F11bx1z4_4_!19sChIJeWvzxou_3zgR1Qa2_66nhJk?authuser=0&hl=en&rclk=1","Hospital, Islamabad"
106,federalgovernmentdis_33.711597_73.070602,Federal Government Dispensary - Civil Surgeon Dispensary G-7/3-4 Near Al-Habib Market,"Federal Government Dispensary - Civil Surgeon Dispensary G-7/3-4 Near Al-Habib Market
3.3(19)
Hospital ·  · P36C+J6Q
Closes soon ⋅ 2:30 PM ⋅ Opens 8:30 AM Fri · +92 51 9252470",Hospital,Closes soon,33.711597,73.0706021,https://www.google.com/maps/place/Federal+Government+Dispensary+-+Civil+Surgeon+Dispensary+G-7%2F3-4+Near+Al-Habib+Market/data=!4m7!3m6!1s0x38dfbf972f976319:0x7852c0b3e57fe9ea!8m2!3d33.711597!4d73.0706021!16s%2Fg%2F1v3hybx0!19sChIJGWOXL5e_3zgR6ul_5bPAUng?authuser=0&hl=en&rclk=1,"Hospital, Islamabad"
107,kalsoomgeneralhospit_33.644978_73.177345,Kalsoom general hospital,"Kalsoom general hospital
3.4(15)
Hospital ·  · J5VG+XWX, Lehtrar Rd
Open ⋅ Closes 9 PM · +92 331 5616374",Hospital,Open,33.644978,73.177345,https://www.google.com/maps/place/Kalsoom+general+hospital/data=!4m7!3m6!1s0x38dfeb03088c66f7:0xfdadcfed0db0b431!8m2!3d33.644978!4d73.177345!16s%2Fg%2F11q39_35xk!19sChIJ92aMCAPr3zgRMbSwDe3Prf0?authuser=0&hl=en&rclk=1,"Hospital, Islamabad"
108,cdamedicalcenter_33.687928_73.034407,CDA Medical Center,"CDA Medical Center
4.0(41)
Hospital ·  · M2QM+4QP Niazi Express, Mangla Rd، near Niazi Bus stop
Open ⋅ Closes 8 PM · +92 51 9330223",Hospital,Open,33.6879277,73.034407,https://www.google.com/maps/place/CDA+Medical+Center/data=!4m7!3m6!1s0x38dfbf1e5ddebda9:0x7d553df06e8b57b6!8m2!3d33.6879277!4d73.034407!16s%2Fg%2F11gydlm98q!19sChIJqb3eXR6_3zgRtleLbvA9VX0?authuser=0&hl=en&rclk=1,"Hospital, Islamabad"
109,medikshospital_33.699758_72.973916,Mediks hospital,"Mediks hospital
5.0(9)
Hospital ·  · MXXF+WH3
Open ⋅ Closes 8 PM",Hospital,Open,33.6997576,72.9739162,https://www.google.com/maps/place/Mediks+hospital/data=!4m7!3m6!1s0x38dfbdcb5e28f2df:0xbf8ad31152c2806d!8m2!3d33.6997576!4d72.9739162!16s%2Fg%2F11h1yvppc9!19sChIJ3_IoXsu93zgRbYDCUhHTir8?authuser=0&hl=en&rclk=1,"Hospital, Islamabad"
110,familyhospital_33.688999_72.975719,Family Hospital,"Family Hospital
4.3(7)
Hospital ·  · MXQG+H7X
Open 24 hours · +92 51 2111103",Hospital,Open 24 hours,33.6889992,72.975719,https://www.google.com/maps/place/Family+Hospital/data=!4m7!3m6!1s0x38dfbd853d346ab7:0xd5cbeafd56a2c75a!8m2!3d33.6889992!4d72.975719!16s%2Fg%2F11h60f1nq2!19sChIJt2o0PYW93zgRWseiVv3qy9U?authuser=0&hl=en&rclk=1,"Hospital, Islamabad"
111,smartmedicaldiagnost_33.698436_73.048823,Smart Medical & Diagnostics Centre ( SMDC),"Smart Medical & Diagnostics Centre ( SMDC)
5.0(415)
Medical Center ·  · Crescent Arcade, opp. Motorway Expess
Open ⋅ Closes 10 PM · +92 51 2340383",Medical Center,Open,33.6984362,73.0488229,https://www.google.com/maps/place/Smart+Medical+%26+Diagnostics+Centre+%28+SMDC%29/data=!4m7!3m6!1s0x38dfbf2235ed90a7:0x1fa908fbadbd9842!8m2!3d33.6984362!4d73.0488229!16s%2Fg%2F11jpd2vqlr!19sChIJp5DtNSK_3zgRQpi9rfsIqR8?authuser=0&hl=en&rclk=1,"Hospital, Islamabad"
112,alfatimaclinicislama_33.716399_73.084738,"Al fatima Clinic, islamabad","Al fatima Clinic, islamabad
3.7(26)
Medical Center ·  · Ground Floor, Melody Market, Islamabad Medical and Surgical Centre
Open 24 hours · +92 336 2824124",Medical Center,Open 24 hours,33.7163989,73.0847375,"https://www.google.com/maps/place/Al+fatima+Clinic,+islamabad/data=!4m7!3m6!1s0x38dfbf7c8641b7cf:0x1713a8999cc921b!8m2!3d33.7163989!4d73.0847375!16s%2Fg%2F11sjrnmzyv!19sChIJz7dBhny_3zgRG5LMmYk6cQE?authuser=0&hl=en&rclk=1","Hospital, Islamabad"
113,ogdclmedicalcentre_33.712874_73.037630,OGDCL Medical Centre,"OGDCL Medical Centre
4.3(64)
Medical Center ·  · Park Rd, F-8 Markaz, F-8, Islamabad, ICT
Open ⋅ Closes 4:45 PM · +92 51 9258152",Medical Center,Open,33.7128737,73.0376303,https://www.google.com/maps/place/OGDCL+Medical+Centre/data=!4m7!3m6!1s0x38dfbe53091c5bc9:0x4e91d75d67507739!8m2!3d33.7128737!4d73.0376303!16s%2Fg%2F1ttdwtvr!19sChIJyVscCVO-3zgROXdQZ13XkU4?authuser=0&hl=en&rclk=1,"Hospital, Islamabad"
114,shifageneralhospital_33.578017_73.147448,Shifa General Hospital,"Shifa General Hospital
3.4(5)
Hospital ·  · 172 Main Rd
Open 24 hours · +92 321 5050954",Hospital,Open 24 hours,33.5780173,73.1474477,https://www.google.com/maps/place/Shifa+General+Hospital/data=!4m7!3m6!1s0x38dfedfc4a3b73d7:0xe90dd1bef247d931!8m2!3d33.5780173!4d73.1474477!16s%2Fg%2F11kfbynkj4!19sChIJ13M7Svzt3zgRMdlH8r7RDek?authuser=0&hl=en&rclk=1,"Hospital, Islamabad"
115,socialsecuritydispen_33.650475_73.044225,Social Security Dispensary,"Social Security Dispensary
4.6(20)
Hospital ·  · M22V+5MQ, Sohni Road, Road, near Saeed Qureshi Park
Open ⋅ Closes 7 PM",Hospital,Open,33.6504748,73.0442251,https://www.google.com/maps/place/Social+Security+Dispensary/data=!4m7!3m6!1s0x38df9509e05542eb:0x3374791bad7acf1d!8m2!3d33.6504748!4d73.0442251!16s%2Fg%2F1tdbcsz1!19sChIJ60JV4AmV3zgRHc96rRt5dDM?authuser=0&hl=en&rclk=1,"Hospital, Islamabad"
116,mumtazmedicaldentalc_33.515987_73.170956,Mumtaz Medical & Dental Complex,"Mumtaz Medical & Dental Complex
4.7(76)
Hospital ·  · Lavender Street, Commercial Business Avenue, St 26A
Open 24 hours · +92 337 8636844",Hospital,Open 24 hours,33.5159871,73.170956,https://www.google.com/maps/place/Mumtaz+Medical+%26+Dental+Complex/data=!4m7!3m6!1s0x38dff359bc4ac5b3:0x3287a24696be93ab!8m2!3d33.5159871!4d73.170956!16s%2Fg%2F11trgyrgkl!19sChIJs8VKvFnz3zgRq5O-lkaihzI?authuser=0&hl=en&rclk=1,"Hospital, Islamabad"
117,alimedicalhospitalbe_33.614032_72.970525,Ali Medical Hospital - Best Medical Centre Near Golra More I-14 Islamabad,"Ali Medical Hospital - Best Medical Centre Near Golra More I-14 Islamabad
5.0(10)
Medical Center · House Number 1345-C, Street 69
Open 24 hours · +92 327 0484908",Medical Center,Open 24 hours,33.6140324,72.9705249,https://www.google.com/maps/place/Ali+Medical+Hospital+-+Best+Medical+Centre+Near+Golra+More+I-14+Islamabad/data=!4m7!3m6!1s0x38df9783ab255af1:0xc7b47235674271d3!8m2!3d33.6140324!4d72.9705249!16s%2Fg%2F11vcvl_tlx!19sChIJ8Volq4OX3zgR03FCZzVytMc?authuser=0&hl=en&rclk=1,"Hospital, Islamabad"
118,hanifdiabetescentrei_33.696784_73.051429,Hanif Diabetes Centre - Islamabad,"Hanif Diabetes Centre - Islamabad
4.8(75)
General hospital ·  · First Floor, Pakland Square, Office 5,6 and 7, above IDC MRI Facility
Open ⋅ Closes 9 PM · +92 309 8487999",General hospital,Open,33.6967835,73.0514286,https://www.google.com/maps/place/Hanif+Diabetes+Centre+-+Islamabad/data=!4m7!3m6!1s0x38df957009835fa3:0x7332d5fce5fd019d!8m2!3d33.6967835!4d73.0514286!16s%2Fg%2F11kqxjmzpb!19sChIJo1-DCXCV3zgRnQH95fzVMnM?authuser=0&hl=en&rclk=1,"Hospital, Islamabad"
119,dranwaarkianimaroofi_33.695385_73.012947,Dr Anwaar Kiani Maroof international hospital islamabad,"Dr Anwaar Kiani Maroof international hospital islamabad
5.0(1)
Doctor
Open ⋅ Closes 4:30 AM Fri · +92 300 0475577",Doctor,Open,33.6953852,73.0129467,https://www.google.com/maps/place/Dr+Anwaar+Kiani+Maroof+international+hospital+islamabad/data=!4m7!3m6!1s0x27191e6474cb9083:0xdda6655e30cc8f5e!8m2!3d33.6953852!4d73.0129467!16s%2Fg%2F11lnmsxnh7!19sChIJg5DLdGQeGScRXo_MMF5lpt0?authuser=0&hl=en&rclk=1,"Hospital, Islamabad"
120,wapdadispensaryislam_33.706779_73.077730,WAPDA Dispensary Islamabad,"WAPDA Dispensary Islamabad
4.0(6)
Government hospital ·  · P34H+P39, Street 43
Closes soon ⋅ 3 PM ⋅ Opens 9 AM Fri",Government hospital,Closes soon,33.7067786,73.0777297,https://www.google.com/maps/place/WAPDA+Dispensary+Islamabad/data=!4m7!3m6!1s0x38dfbfb38cae89cd:0x2b22cf94c6435d49!8m2!3d33.7067786!4d73.0777297!16s%2Fg%2F11hdg4mb4s!19sChIJzYmujLO_3zgRSV1DxpTPIis?authuser=0&hl=en&rclk=1,"Hospital, Islamabad"
121,dryassermasoodchildn_33.674264_73.065600,"Dr Yasser Masood , Child & Newborn Specialist Islamabad","Dr Yasser Masood , Child & Newborn Specialist Islamabad
4.8(139)
Pediatrician ·  · Shifa International Hospital, Pitras Bukhari Rd
Open ⋅ Closes 5 PM · +92 51 8463256",Pediatrician,Open,33.674264,73.0655997,"https://www.google.com/maps/place/Dr+Yasser+Masood+,+Child+%26+Newborn+Specialist+Islamabad/data=!4m7!3m6!1s0x38dfbf7bf1303ecf:0x8746b8e24d7e48c8!8m2!3d33.674264!4d73.0655997!16s%2Fg%2F11lgg4kqhh!19sChIJzz4w8Xu_3zgRyEh-TeK4Roc?authuser=0&hl=en&rclk=1","Hospital, Islamabad"
122,saeedinternationalho_33.697467_73.051157,Saeed International Hospital G-8 Markaz Islamabad,"Saeed International Hospital G-8 Markaz Islamabad
No reviews
Hospital ·  · 12 D Markaz, near PSO Petrol Pump
Open 24 hours · +92 331 1110675",Hospital,Open 24 hours,33.6974672,73.0511568,https://www.google.com/maps/place/Saeed+International+Hospital+G-8+Markaz+Islamabad/data=!4m7!3m6!1s0x38dfbf077f243959:0xc76ec250e1b3076!8m2!3d33.6974672!4d73.0511568!16s%2Fg%2F11tsdk8w4m!19sChIJWTkkfwe_3zgRdjAbDiXsdgw?authuser=0&hl=en&rclk=1,"Hospital, Islamabad"
123,drtaliyasclinic_33.689457_73.039991,Dr. Taliya's Clinic,"Dr. Taliya's Clinic
3.9(117)
Medical Center ·  · Street #66, Noor Plaza, Taqwa Market
Open 24 hours · +92 51 2260010",Medical Center,Open 24 hours,33.6894567,73.0399914,https://www.google.com/maps/place/Dr.+Taliya%27s+Clinic/data=!4m7!3m6!1s0x38dfbe32c93d4c9b:0x57e939cbc65699b5!8m2!3d33.6894567!4d73.0399914!16s%2Fg%2F11b5s2gj9_!19sChIJm0w9yTK-3zgRtZlWxss56Vc?authuser=0&hl=en&rclk=1,"Hospital, Islamabad"
124,alaininternationalsp_33.685997_73.020937,Al Ain International Specialist Eye Hospital,"Al Ain International Specialist Eye Hospital
3.7(44)
Hospital ·  · St 53
Open ⋅ Closes 9 PM · +92 300 5319353",Hospital,Open,33.6859974,73.0209368,https://www.google.com/maps/place/Al+Ain+International+Specialist+Eye+Hospital/data=!4m7!3m6!1s0x38dfbe3cc5adeaad:0xad451a540a51f622!8m2!3d33.6859974!4d73.0209368!16s%2Fg%2F1hhwsh5zr!19sChIJreqtxTy-3zgRIvZRClQaRa0?authuser=0&hl=en&rclk=1,"Hospital, Islamabad"
125,hashmimedicalicsicen_33.668506_72.999831,Hashmi Medical & ICSI Centre,"Hashmi Medical & ICSI Centre
4.3(116)
Private hospital · First Floor, Plaza Plot 29&30, above Save Mart
Open ⋅ Closes 9 PM · +92 51 8898918",Private hospital,Open,33.6685055,72.9998313,https://www.google.com/maps/place/Hashmi+Medical+%26+ICSI+Centre/data=!4m7!3m6!1s0x38df959e68abe3fd:0x766b1d89d0435612!8m2!3d33.6685055!4d72.9998313!16s%2Fg%2F11rw_q6ll_!19sChIJ_eOraJ6V3zgRElZD0Ikda3Y?authuser=0&hl=en&rclk=1,"Hospital, Islamabad"
126,opdthechildrenhospit_33.704581_73.055678,"OPD, The Children Hospital, PIMS, Islamabad","OPD, The Children Hospital, PIMS, Islamabad
4.2(21)
Hospital ·  · P334+R7M
Closed ⋅ Opens 8 AM Fri",Hospital,Closed,33.7045808,73.0556783,"https://www.google.com/maps/place/OPD,+The+Children+Hospital,+PIMS,+Islamabad/data=!4m7!3m6!1s0x38dfbfb90eb68165:0x8573293afa436f7f!8m2!3d33.7045808!4d73.0556783!16s%2Fg%2F11clv_52fc!19sChIJZYG2Drm_3zgRf29D-jopc4U?authuser=0&hl=en&rclk=1","Hospital, Islamabad"
127,alsafiyamedicaldiagn_33.697891_73.049130,AL SAFIYA Medical & Diagnostic Center,"AL SAFIYA Medical & Diagnostic Center
4.9(21)
Medical Center ·  · Executive complex plaza, Markaz, near Bank AL Habib
Open ⋅ Closes 11 PM · +92 51 2340111",Medical Center,Open,33.6978907,73.0491304,https://www.google.com/maps/place/AL+SAFIYA+Medical+%26+Diagnostic+Center/data=!4m7!3m6!1s0x38dfbfc85069c3c7:0xa399ff1cab7b1823!8m2!3d33.6978907!4d73.0491304!16s%2Fg%2F11gcfxjzcs!19sChIJx8NpUMi_3zgRIxh7qxz_maM?authuser=0&hl=en&rclk=1,"Hospital, Islamabad"
128,rimshospitalinternat_33.713192_73.063320,RIMS HOSPITAL INTERNATIONAL,"RIMS HOSPITAL INTERNATIONAL
No reviews
Hospital · jinnah, 68 E main jinnah Avenue, avenue
Open ⋅ Closes 8 AM Fri · +92 302 5823357",Hospital,Open,33.7131925,73.0633203,https://www.google.com/maps/place/RIMS+HOSPITAL+INTERNATIONAL/data=!4m7!3m6!1s0x38dfbf60abb7109f:0x54086e7f9d6f36bd!8m2!3d33.7131925!4d73.0633203!16s%2Fg%2F11ltrv8681!19sChIJnxC3q2C_3zgRvTZvnX9uCFQ?authuser=0&hl=en&rclk=1,"Hospital, Islamabad"
129,thediabetescentrecre_33.698521_73.048562,"The Diabetes Centre , Crescent Arcade, G-8 Markaz Clinic, Islamabad","The Diabetes Centre , Crescent Arcade, G-8 Markaz Clinic, Islamabad
3.7(18)
Hospital ·  · Crescent Arcade
Open ⋅ Closes 9 PM · +92 51 2266130",Hospital,Open,33.6985212,73.048562,"https://www.google.com/maps/place/The+Diabetes+Centre+,+Crescent+Arcade,+G-8+Markaz+Clinic,+Islamabad/data=!4m7!3m6!1s0x38dfbfa507e14ce1:0x85e66437780f31b4!8m2!3d33.6985212!4d73.048562!16s%2Fg%2F11lry96clf!19sChIJ4UzhB6W_3zgRtDEPeDdk5oU?authuser=0&hl=en&rclk=1","Hospital, Islamabad"
130,uhealthinternational_33.516079_73.166957,UHealth International Hospital,"UHealth International Hospital
3.9(132)
Hospital ·  · Uhealth International Hospital, Main GT Rd, opposite Gate # 4
Temporarily closed",Hospital,,33.516079,73.1669572,https://www.google.com/maps/place/UHealth+International+Hospital/data=!4m7!3m6!1s0x38dff3654b841a31:0x712b5816fff3f588!8m2!3d33.516079!4d73.1669572!16s%2Fg%2F11lkf3w_fq!19sChIJMRqES2Xz3zgRiPXz_xZYK3E?authuser=0&hl=en&rclk=1,"Hospital, Islamabad"
131,thehospital_33.691246_73.055300,The Hospital,"The Hospital
5.0(2)
Hospital · 40 Jhelum Rd
Open 24 hours",Hospital,Open 24 hours,33.6912465,73.0553001,https://www.google.com/maps/place/The+Hospital/data=!4m7!3m6!1s0x38dfbf007f7f20e5:0xb56812c26bb99259!8m2!3d33.6912465!4d73.0553001!16s%2Fg%2F11wh60r5pv!19sChIJ5SB_fwC_3zgRWZK5a8ISaLU?authuser=0&hl=en&rclk=1,"Hospital, Islamabad"
132,saeedinternationalho_33.697388_73.051085,Saeed International Hospital G-8 Markaz Islamabad,"Saeed International Hospital G-8 Markaz Islamabad
5.0(4)
Hospital · Quest Medical Complex, G8 Markaz, near Faisal Bank
Open 24 hours · +92 332 5410055",Hospital,Open 24 hours,33.6973882,73.0510852,https://www.google.com/maps/place/Saeed+International+Hospital+G-8+Markaz+Islamabad/data=!4m7!3m6!1s0x38dfbf91801d9653:0xb8de360fc3e754!8m2!3d33.6973882!4d73.0510852!16s%2Fg%2F11ks0c_5fx!19sChIJU5YdgJG_3zgRVOfDDzbeuAA?authuser=0&hl=en&rclk=1,"Hospital, Islamabad"
133,advancedinternationa_33.696248_73.049788,Advanced international hospital OPD Block,"Advanced international hospital OPD Block
5.0(1)
Hospital ·  · 12H-2
Open 24 hours · +92 51 8446999",Hospital,Open 24 hours,33.696248,73.0497879,https://www.google.com/maps/place/Advanced+international+hospital+OPD+Block/data=!4m7!3m6!1s0x38dfbff56e796617:0xc3fe1b2382578273!8m2!3d33.696248!4d73.0497879!16s%2Fg%2F11v3yvs4z5!19sChIJF2Z5bvW_3zgRc4JXgiMb_sM?authuser=0&hl=en&rclk=1,"Hospital, Islamabad"
134,surgicalcentre_33.714887_73.033345,Surgical Centre,"Surgical Centre
3.8(40)
Hospital ·  · Block 1, Commercial Area, Madina Market, Street 22
Open 24 hours · +92 51 2280312",Hospital,Open 24 hours,33.7148874,73.0333446,https://www.google.com/maps/place/Surgical+Centre/data=!4m7!3m6!1s0x38dfbe56b893bb01:0x105d3380a10f22b0!8m2!3d33.7148874!4d73.0333446!16s%2Fg%2F1tnhwqb2!19sChIJAbuTuFa-3zgRsCIPoYAzXRA?authuser=0&hl=en&rclk=1,"Hospital, Islamabad"
135,capitalmedicaldental_33.696098_72.979828,Capital Medical & Dental Center Islamabad E11/4,"Capital Medical & Dental Center Islamabad E11/4
No reviews
Hospital · Khan Dera, Capital Medical Center Mohala Khannan
Open 24 hours · +92 316 9798992",Hospital,Open 24 hours,33.6960982,72.9798285,https://www.google.com/maps/place/Capital+Medical+%26+Dental+Center+Islamabad+E11%2F4/data=!4m7!3m6!1s0x38dfbde96b431bf9:0x41c1a5fb06821a68!8m2!3d33.6960982!4d72.9798285!16s%2Fg%2F11k56bfw95!19sChIJ-RtDa-m93zgRaBqCBvulwUE?authuser=0&hl=en&rclk=1,"Hospital, Islamabad"
