Index,Place Id,Name,Address,Category,Status,Latitude,Longitude,Link,SearchKeyword
1,na_noloc,,,,,,,,"Madical, Islamabad"
5,azizmedicalcenter_33.730722_73.080296,Aziz Medical Center,,Hospital,Open,33.7307216,73.080296,https://www.google.com/maps/place/Aziz+Medical+Center/data=!4m7!3m6!1s0x38dfbf796636527d:0x78946fe33d68e6b6!8m2!3d33.7307216!4d73.080296!16s%2Fg%2F1wtbs84p!19sChIJfVI2Znm_3zgRtuZoPeNvlHg?authuser=0&hl=en&rclk=1,"Madical, Islamabad"
37,alimedicalcentre_33.710413_73.042016,Ali Medical Centre,"Ali Medical Centre
3.4(730)
Private hospital ·  · P26Q+JWM, Kohistan Rd
Open 24 hours · +92 51 8090200",Private hospital,Open 24 hours,33.7104129,73.0420161,https://www.google.com/maps/place/Ali+Medical+Centre/data=!4m7!3m6!1s0x38dfbfad680bca0d:0x8035f4aacf56cf3d!8m2!3d33.7104129!4d73.0420161!16s%2Fg%2F1tgw88nw!19sChIJDcoLaK2_3zgRPc9Wz6r0NYA?authuser=0&hl=en&rclk=1,"Madical, Islamabad"
38,premiumdiagnosticand_33.703519_73.051454,Premium Diagnostic and Clinics,"Premium Diagnostic and Clinics
4.2(2,549)
Medical school ·  · Ibn-e-Sina Rd
Open 24 hours · +92 51 9261170",Medical school,Open 24 hours,33.7035185,73.0514542,https://www.google.com/maps/place/Premium+Diagnostic+and+Clinics/data=!4m7!3m6!1s0x38dfbfb826dae131:0xba5e1cbcad4376fe!8m2!3d33.7035185!4d73.0514542!16zL20vMGQyeGNw!19sChIJMeHaJri_3zgR_nZDrbwcXro?authuser=0&hl=en&rclk=1,"Madical, Islamabad"
39,smartmedicaldiagnost_33.698436_73.048823,Smart Medical & Diagnostics Centre ( SMDC),"Smart Medical & Diagnostics Centre ( SMDC)
5.0(415)
Medical Center ·  · Crescent Arcade, opp. Motorway Expess
Open ⋅ Closes 10 PM · +92 51 2340383",Medical Center,Open,33.6984362,73.0488229,https://www.google.com/maps/place/Smart+Medical+%26+Diagnostics+Centre+%28+SMDC%29/data=!4m7!3m6!1s0x38dfbf2235ed90a7:0x1fa908fbadbd9842!8m2!3d33.6984362!4d73.0488229!16s%2Fg%2F11jpd2vqlr!19sChIJp5DtNSK_3zgRQpi9rfsIqR8?authuser=0&hl=en&rclk=1,"Madical, Islamabad"
40,islamabadmedicaldent_33.755508_73.210015,Islamabad Medical & Dental College (IMDC),"Islamabad Medical & Dental College (IMDC)
4.3(273)
Medical school ·  · Q645+2XP Wadi-ul-Ilm، Main Murree Rd
Closes soon ⋅ 3 PM ⋅ Opens 8 AM Fri · +92 51 111 464 632",Medical school,Closes soon,33.7555075,73.2100146,https://www.google.com/maps/place/Islamabad+Medical+%26+Dental+College+%28IMDC%29/data=!4m7!3m6!1s0x38dfc3b9d90b56bd:0xd1ec92ee965afe65!8m2!3d33.7555075!4d73.2100146!16s%2Fm%2F0fpjbwg!19sChIJvVYL2bnD3zgRZf5alu6S7NE?authuser=0&hl=en&rclk=1,"Madical, Islamabad"
41,islamabadmedicalcomp_33.649271_73.017190,Islamabad Medical Complex (IMC),"Islamabad Medical Complex (IMC)
3.7(158)
Hospital ·  · J2X8+PV4, Faqir Aipee Road
Open 24 hours · +92 51 906 725 102",Hospital,Open 24 hours,33.6492715,73.0171903,https://www.google.com/maps/place/Islamabad+Medical+Complex+%28IMC%29/data=!4m7!3m6!1s0x38df95bf7f63ca19:0x6d31923341485537!8m2!3d33.6492715!4d73.0171903!16s%2Fg%2F12mkz7vh9!19sChIJGcpjf7-V3zgRN1VIQTOSMW0?authuser=0&hl=en&rclk=1,"Madical, Islamabad"
42,gulbergmedicalcenter_33.597849_73.142213,Gulberg Medical Center,"Gulberg Medical Center
4.2(171)
Hospital ·  · Plot 30, Street 2, Service Road, Expressway, near Imtiaz Super Store
Open 24 hours · +92 300 8545942",Hospital,Open 24 hours,33.5978486,73.1422128,https://www.google.com/maps/place/Gulberg+Medical+Center/data=!4m7!3m6!1s0x38dfed5a7f50614f:0x681f431d7c656eaa!8m2!3d33.5978486!4d73.1422128!16s%2Fg%2F11j37g75vk!19sChIJT2FQf1rt3zgRqm5lfB1DH2g?authuser=0&hl=en&rclk=1,"Madical, Islamabad"
43,caremedicalcenter_33.698542_73.048703,Care+ Medical Center,"Care+ Medical Center
3.9(208)
Private hospital ·  · 20-C, M2XX+F95 Crescent Arcade
Open 24 hours · +92 51 111 111 097",Private hospital,Open 24 hours,33.6985419,73.0487032,https://www.google.com/maps/place/Care%2B+Medical+Center/data=!4m7!3m6!1s0x38dfbf4b32a7fb61:0xca3ac0299b9d7aa4!8m2!3d33.6985419!4d73.0487032!16s%2Fg%2F11g3y4qzr_!19sChIJYfunMku_3zgRpHqdmynAOso?authuser=0&hl=en&rclk=1,"Madical, Islamabad"
44,pimshospitalislamaba_33.703334_73.052352,PIMS Hospital Islamabad,"PIMS Hospital Islamabad
3.9(818)
Government hospital ·  · Ibn-e-Sina Rd
Open 24 hours · +92 51 9261170",Government hospital,Open 24 hours,33.7033339,73.0523516,https://www.google.com/maps/place/PIMS+Hospital+Islamabad/data=!4m7!3m6!1s0x38df950787a46b87:0x38d56dc761e05e4f!8m2!3d33.7033339!4d73.0523516!16s%2Fg%2F11r6fwws34!19sChIJh2ukhweV3zgRT17gYcdt1Tg?authuser=0&hl=en&rclk=1,"Madical, Islamabad"
45,tabibimedicalcentre_33.692288_73.030280,Tabibi Medical Centre,"Tabibi Medical Centre
4.8(77)
Hospital ·  · Stree# 5, Jahangir Market
Open 24 hours · +92 51 2324344",Hospital,Open 24 hours,33.6922879,73.0302795,https://www.google.com/maps/place/Tabibi+Medical+Centre/data=!4m7!3m6!1s0x38dfbfee5aca6f49:0x96d49ed063951d5!8m2!3d33.6922879!4d73.0302795!16s%2Fg%2F11m29ljvl1!19sChIJSW_KWu6_3zgR1VE5Bu1JbQk?authuser=0&hl=en&rclk=1,"Madical, Islamabad"
46,gracemedicalcentregm_33.668862_73.076560,Grace Medical Centre (GMC),"Grace Medical Centre (GMC)
3.9(29)
Hospital ·  · Mir Chakar Khan Rd
Open 24 hours · +92 51 6139746",Hospital,Open 24 hours,33.6688622,73.0765597,https://www.google.com/maps/place/Grace+Medical+Centre+%28GMC%29/data=!4m7!3m6!1s0x38df956da6844795:0xc0832ee101e7b8ac!8m2!3d33.6688622!4d73.0765597!16s%2Fg%2F11s5yqjc8w!19sChIJlUeEpm2V3zgRrLjnAeEug8A?authuser=0&hl=en&rclk=1,"Madical, Islamabad"
47,islamabadmedicalcent_33.687118_73.032261,Islamabad Medical Centre,"Islamabad Medical Centre
4.6(9)
Doctor · ICT, Rohtas Rd, G9 markaz
Open ⋅ Closes 9 PM · +92 51 2256966",Doctor,Open,33.6871184,73.0322605,https://www.google.com/maps/place/Islamabad+Medical+Centre/data=!4m7!3m6!1s0x38dfbe311dc56119:0x5d4fe7011e598db1!8m2!3d33.6871184!4d73.0322605!16s%2Fg%2F11xc8c18r!19sChIJGWHFHTG-3zgRsY1ZHgHnT10?authuser=0&hl=en&rclk=1,"Madical, Islamabad"
48,hmdiagnosticsandclin_33.698479_73.048750,HM Diagnostics and Clinics,"HM Diagnostics and Clinics
4.8(213)
Medical clinic · Basement shop no. 11 & 12 Crescent Arcade, Road
Open ⋅ Closes 10 PM · +92 321 5199295",Medical clinic,Open,33.6984794,73.0487497,https://www.google.com/maps/place/HM+Diagnostics+and+Clinics/data=!4m7!3m6!1s0x38dfbfd2f102e0f9:0x3e7c6653ba9236fd!8m2!3d33.6984794!4d73.0487497!16s%2Fg%2F11jx6jbvnp!19sChIJ-eAC8dK_3zgR_TaSulNmfD4?authuser=0&hl=en&rclk=1,"Madical, Islamabad"
49,islamabadmedicalands_33.716275_73.084751,Islamabad Medical and Surgical Hospital,"Islamabad Medical and Surgical Hospital
3.7(57)
Hospital ·  · Melody Market
Open 24 hours · +92 51 2603566",Hospital,Open 24 hours,33.7162751,73.0847509,https://www.google.com/maps/place/Islamabad+Medical+and+Surgical+Hospital/data=!4m7!3m6!1s0x38dfbf862d3909cb:0x867c7db711a27e7c!8m2!3d33.7162751!4d73.0847509!16s%2Fg%2F11dyqrrqkw!19sChIJywk5LYa_3zgRfH6iEbd9fIY?authuser=0&hl=en&rclk=1,"Madical, Islamabad"
50,alihospital_33.680692_73.035455,Ali Hospital,"Ali Hospital
3.8(90)
Hospital ·  · M2JP+75G, Street 17
Open 24 hours · +92 51 2255073",Hospital,Open 24 hours,33.6806918,73.0354553,https://www.google.com/maps/place/Ali+Hospital/data=!4m7!3m6!1s0x38df9513543203fb:0x1dd64dab1015462f!8m2!3d33.6806918!4d73.0354553!16s%2Fg%2F11h9sz11f_!19sChIJ-wMyVBOV3zgRL0YVEKtN1h0?authuser=0&hl=en&rclk=1,"Madical, Islamabad"
51,muhammadmedicalcompl_33.698344_73.047654,Muhammad Medical Complex (MMC),"Muhammad Medical Complex (MMC)
4.8(63)
Hospital ·  · Sultan Mansion, near Tandoori restaurant
Open 24 hours · +92 51 2340508",Hospital,Open 24 hours,33.6983441,73.0476544,https://www.google.com/maps/place/Muhammad+Medical+Complex+%28MMC%29/data=!4m7!3m6!1s0x38dfbf003255bf69:0x2058c9dd6f65cfaa!8m2!3d33.6983441!4d73.0476544!16s%2Fg%2F11y84k8rz5!19sChIJab9VMgC_3zgRqs9lb93JWCA?authuser=0&hl=en&rclk=1,"Madical, Islamabad"
52,advancedinternationa_33.696577_73.050456,Advanced International Hospital Islamabad,"Advanced International Hospital Islamabad
4.5(591)
Hospital ·  · 12-2G Markaz Rd
Open 24 hours · +92 51 111 786 005",Hospital,Open 24 hours,33.6965775,73.0504561,https://www.google.com/maps/place/Advanced+International+Hospital+Islamabad/data=!4m7!3m6!1s0x38dfbf8a6764276f:0xdbb21f59afe3a45b!8m2!3d33.6965775!4d73.0504561!16s%2Fg%2F11hnbz_9lk!19sChIJbydkZ4q_3zgRW6Tjr1kfsts?authuser=0&hl=en&rclk=1,"Madical, Islamabad"
53,drajmalosmanfatimacl_33.688607_73.013056,Dr. Ajmal Osman | Fatima Clinic F-10 | Top/Best (No.1) Specialist of Islamabad & Rawalpindi,"Dr. Ajmal Osman | Fatima Clinic F-10 | Top/Best (No.1) Specialist of Islamabad & Rawalpindi
4.8(184)
Hospital ·  · House 93 Street 44
Open ⋅ Closes 12 AM · +92 323 6833333",Hospital,Open,33.6886072,73.013056,https://www.google.com/maps/place/Dr.+Ajmal+Osman+%7C+Fatima+Clinic+F-10+%7C+Top%2FBest+%28No.1%29+Specialist+of+Islamabad+%26+Rawalpindi/data=!4m7!3m6!1s0x38dfbe1693dca1a1:0x4d05249fbcd133d5!8m2!3d33.6886072!4d73.013056!16s%2Fg%2F11fxx64hvf!19sChIJoaHckxa-3zgR1TPRvJ8kBU0?authuser=0&hl=en&rclk=1,"Madical, Islamabad"
54,alayamedicalcenter_33.645061_72.963564,Alaya Medical Center,"Alaya Medical Center
4.8(56)
Hospital ·  · Street 108
Open 24 hours · +92 51 8482540",Hospital,Open 24 hours,33.6450612,72.963564,https://www.google.com/maps/place/Alaya+Medical+Center/data=!4m7!3m6!1s0x38df97002b757ac3:0xf4ba8fad20a0ec6e!8m2!3d33.6450612!4d72.963564!16s%2Fg%2F11vsfmgmj2!19sChIJw3p1KwCX3zgRbuygIK2PuvQ?authuser=0&hl=en&rclk=1,"Madical, Islamabad"
55,alsafiyamedicaldiagn_33.697891_73.049130,AL SAFIYA Medical & Diagnostic Center,"AL SAFIYA Medical & Diagnostic Center
4.9(21)
Medical Center ·  · Executive complex plaza, Markaz, near Bank AL Habib
Open ⋅ Closes 11 PM · +92 51 2340111",Medical Center,Open,33.6978907,73.0491304,https://www.google.com/maps/place/AL+SAFIYA+Medical+%26+Diagnostic+Center/data=!4m7!3m6!1s0x38dfbfc85069c3c7:0xa399ff1cab7b1823!8m2!3d33.6978907!4d73.0491304!16s%2Fg%2F11gcfxjzcs!19sChIJx8NpUMi_3zgRIxh7qxz_maM?authuser=0&hl=en&rclk=1,"Madical, Islamabad"
56,shifamedicalcenter_33.673540_73.020375,Shifa Medical Center,"Shifa Medical Center
2.7(77)
Hospital ·  · 3rd Rd
Open ⋅ Closes 11 PM · +92 51 8469000",Hospital,Open,33.6735397,73.0203752,https://www.google.com/maps/place/Shifa+Medical+Center/data=!4m7!3m6!1s0x38df958a6d156e65:0x9bc9952b6bf7f2e4!8m2!3d33.6735397!4d73.0203752!16s%2Fg%2F11c2qg7bdr!19sChIJZW4VbYqV3zgR5PL3ayuVyZs?authuser=0&hl=en&rclk=1,"Madical, Islamabad"
57,ogdclmedicalcentre_33.712874_73.037630,OGDCL Medical Centre,"OGDCL Medical Centre
4.3(64)
Medical Center ·  · Park Rd, F-8 Markaz, F-8, Islamabad, ICT
Open ⋅ Closes 4:45 PM · +92 51 9258152",Medical Center,Open,33.7128737,73.0376303,https://www.google.com/maps/place/OGDCL+Medical+Centre/data=!4m7!3m6!1s0x38dfbe53091c5bc9:0x4e91d75d67507739!8m2!3d33.7128737!4d73.0376303!16s%2Fg%2F1ttdwtvr!19sChIJyVscCVO-3zgROXdQZ13XkU4?authuser=0&hl=en&rclk=1,"Madical, Islamabad"
58,pafhospitalislamabad_33.708229_73.015313,PAF Hospital Islamabad,"PAF Hospital Islamabad
3.7(690)
Hospital ·  · Main Margalla Rd
Open 24 hours · +92 51 9564000",Hospital,Open 24 hours,33.708229,73.015313,https://www.google.com/maps/place/PAF+Hospital+Islamabad/data=!4m7!3m6!1s0x38dfbf22bfada2c1:0xa4d9acbf9789555b!8m2!3d33.708229!4d73.015313!16s%2Fg%2F11gmgd5zhy!19sChIJwaKtvyK_3zgRW1WJl7-s2aQ?authuser=0&hl=en&rclk=1,"Madical, Islamabad"
59,graceinternationalho_33.663460_72.887963,Grace International Hospital Islamabad,"Grace International Hospital Islamabad
2.8(46)
Hospital · 
Open 24 hours · +92 301 5710777",Hospital,Open 24 hours,33.6634596,72.8879628,https://www.google.com/maps/place/Grace+International+Hospital+Islamabad/data=!4m7!3m6!1s0x38dfa3e8224f80f1:0x89bea84f88237fda!8m2!3d33.6634596!4d72.8879628!16s%2Fg%2F11lg2nf5v3!19sChIJ8YBPIuij3zgR2n8jiE-ovok?authuser=0&hl=en&rclk=1,"Madical, Islamabad"
60,onehealthmedicalserv_33.714684_73.056577,One Health Medical Services,"One Health Medical Services
4.7(12)
Family practice physician · House 8 Street Number 35
Open ⋅ Closes 5 PM · +92 300 0790738",Family practice physician,Open,33.714684,73.0565772,https://www.google.com/maps/place/One+Health+Medical+Services/data=!4m7!3m6!1s0x38dfbf35d4552521:0xd1a6170f65008131!8m2!3d33.714684!4d73.0565772!16s%2Fg%2F11jw55v5ym!19sChIJISVV1DW_3zgRMYEAZQ8XptE?authuser=0&hl=en&rclk=1,"Madical, Islamabad"
61,zainabmedicalcentrea_33.697046_73.050798,Zainab Medical Centre and Lab,"Zainab Medical Centre and Lab
5.0(7)
Hospital · Plot No, 1st Floor, Medicine Plaza, 12-F Hanna Rd
Open ⋅ Closes 10 PM · +92 347 7527486",Hospital,Open,33.6970462,73.0507984,https://www.google.com/maps/place/Zainab+Medical+Centre+and+Lab/data=!4m7!3m6!1s0x38dfbff0e3d0bb49:0xeaeffe7877565449!8m2!3d33.6970462!4d73.0507984!16s%2Fg%2F11tj36p_0s!19sChIJSbvQ4_C_3zgRSVRWd3j-7-o?authuser=0&hl=en&rclk=1,"Madical, Islamabad"
62,kausarmedicalcenter_33.667649_72.998938,Kausar Medical Center,"Kausar Medical Center
5.0(4)
Medical Center · Ground Floor, Raja Haq Nawaz Plaza
Open ⋅ Closes 11 PM · +92 51 6162828",Medical Center,Open,33.6676494,72.9989377,https://www.google.com/maps/place/Kausar+Medical+Center/data=!4m7!3m6!1s0x38df950028b7a61d:0x647151d8a1373c69!8m2!3d33.6676494!4d72.9989377!16s%2Fg%2F11lzndldtm!19sChIJHaa3KACV3zgRaTw3odhRcWQ?authuser=0&hl=en&rclk=1,"Madical, Islamabad"
63,islamabadhealthservi_33.568875_73.200526,Islamabad Health Services Hospital,"Islamabad Health Services Hospital
4.6(99)
Hospital ·  · D-23, Commercial Street 02, Block D Naval Anchorage, Islamabad Expressway Islamabad
Open 24 hours · +92 333 5767177",Hospital,Open 24 hours,33.5688753,73.200526,https://www.google.com/maps/place/Islamabad+Health+Services+Hospital/data=!4m7!3m6!1s0x38dfef77a8d3ea13:0xc7a33b4eb65b3bcf!8m2!3d33.5688753!4d73.200526!16s%2Fg%2F11h0b8y3g2!19sChIJE-rTqHfv3zgRzztbtk47o8c?authuser=0&hl=en&rclk=1,"Madical, Islamabad"
64,multimedicalcentre_33.685271_72.826074,Multi Medical Centre,"Multi Medical Centre
3.9(56)
Hospital ·  · Multi Hospital, near MPCHS Site office
Open 24 hours · +92 51 5443628",Hospital,Open 24 hours,33.6852715,72.8260742,https://www.google.com/maps/place/Multi+Medical+Centre/data=!4m7!3m6!1s0x38dfa235c5388e15:0x8d93227f932c1781!8m2!3d33.6852715!4d72.8260742!16s%2Fg%2F11f10g_81v!19sChIJFY44xTWi3zgRgRcsk38ik40?authuser=0&hl=en&rclk=1,"Madical, Islamabad"
65,gamcamedicalslipcent_33.667656_73.006961,Gamca Medical Slip Center G-11,"Gamca Medical Slip Center G-11
4.3(33)
Medical Center ·  · Street 118
Open 24 hours · +92 337 9216737",Medical Center,Open 24 hours,33.6676555,73.006961,https://www.google.com/maps/place/Gamca+Medical+Slip+Center+G-11/data=!4m7!3m6!1s0x38df95e9608fc4b9:0xe21b42286eea7252!8m2!3d33.6676555!4d73.006961!16s%2Fg%2F11fnp6vdq2!19sChIJucSPYOmV3zgRUnLqbihCG-I?authuser=0&hl=en&rclk=1,"Madical, Islamabad"
66,medicalcentrequaidea_33.750272_73.135849,Medical Centre Quaid e Azam university islamabad,"Medical Centre Quaid e Azam university islamabad
5.0(1)
Medical Center · Quaid e Azam University Islamabad, Medical Centre
+92 319 6598565",Medical Center,,33.7502716,73.1358493,https://www.google.com/maps/place/Medical+Centre+Quaid+e+Azam+university+islamabad/data=!4m7!3m6!1s0x38dfc1005f0edc55:0x931abc6ec5895330!8m2!3d33.7502716!4d73.1358493!16s%2Fg%2F11vk9t241v!19sChIJVdwOXwDB3zgRMFOJxW68GpM?authuser=0&hl=en&rclk=1,"Madical, Islamabad"
67,islamabadinternation_33.702019_72.967700,Islamabad International Hospital & Research Center (IIHRC),"Islamabad International Hospital & Research Center (IIHRC)
4.2(301)
Hospital ·  · 2 Main Double Rd
Open 24 hours · +92 51 2304941",Hospital,Open 24 hours,33.7020189,72.9676998,https://www.google.com/maps/place/Islamabad+International+Hospital+%26+Research+Center+%28IIHRC%29/data=!4m7!3m6!1s0x38dfbdb7b33ca017:0xc4f40d2ce1e0e985!8m2!3d33.7020189!4d72.9676998!16s%2Fg%2F11gf8hs6jv!19sChIJF6A8s7e93zgRheng4SwN9MQ?authuser=0&hl=en&rclk=1,"Madical, Islamabad"
68,shifamedicalcenterfo_33.676046_73.067008,Shifa Medical Center for GCC,"Shifa Medical Center for GCC
2.3(20)
Medical diagnostic imaging center ·  · M3G8+CR6, Pitras Bukhari Rd
Open 24 hours · +92 51 3584162",Medical diagnostic imaging center,Open 24 hours,33.6760459,73.0670077,https://www.google.com/maps/place/Shifa+Medical+Center+for+GCC/data=!4m7!3m6!1s0x38df953e349ffd39:0x5e8eb31338eb66f3!8m2!3d33.6760459!4d73.0670077!16s%2Fg%2F11j4ttkhz5!19sChIJOf2fND6V3zgR82brOBOzjl4?authuser=0&hl=en&rclk=1,"Madical, Islamabad"
69,avicennaclinic_33.710497_73.038990,Avicenna Clinic,"Avicenna Clinic
5.0(4)
Medical clinic ·  · Khasif Plaza, Parking, offJohar Road
Open ⋅ Closes 11 PM · +92 51 8448474",Medical clinic,Open,33.7104968,73.03899,https://www.google.com/maps/place/Avicenna+Clinic/data=!4m7!3m6!1s0x38dfbfae8c8e2981:0xabae6ce0c269947!8m2!3d33.7104968!4d73.03899!16s%2Fg%2F11fn242f7y!19sChIJgSmOjK6_3zgRR5kmDM7mugo?authuser=0&hl=en&rclk=1,"Madical, Islamabad"
70,ayeshamedicalcenter_33.670191_72.985973,Ayesha Medical Center,"Ayesha Medical Center
4.4(20)
Medical Center · House # 957 Service Rd W
Open ⋅ Closes 11 PM · +92 345 5703585",Medical Center,Open,33.6701912,72.9859725,https://www.google.com/maps/place/Ayesha+Medical+Center/data=!4m7!3m6!1s0x38df97d86e55bc95:0xaed8902b349726ca!8m2!3d33.6701912!4d72.9859725!16s%2Fg%2F11h7f8jvnm!19sChIJlbxVbtiX3zgRyiaXNCuQ2K4?authuser=0&hl=en&rclk=1,"Madical, Islamabad"
71,aleesmedicalcenter_33.632684_72.921466,Alees Medical Center,"Alees Medical Center
4.2(28)
Medical Center ·  · 233 Main Road No.1
+92 341 5061201",Medical Center,,33.6326841,72.9214664,https://www.google.com/maps/place/Alees+Medical+Center/data=!4m7!3m6!1s0x38df973941d642d7:0x6b670bcf8fc0e2b3!8m2!3d33.6326841!4d72.9214664!16s%2Fg%2F11rkh_nczw!19sChIJ10LWQTmX3zgRs-LAj88LZ2s?authuser=0&hl=en&rclk=1,"Madical, Islamabad"
72,clinicamedicalcomple_33.634062_72.987688,"Clinica Medical Complex (CMC), NUST Service Road (West) H-13, Islamabad","Clinica Medical Complex (CMC), NUST Service Road (West) H-13, Islamabad
5.0(6)
Hospital ·  · JXMQ+J3 Clinica Medical Complex, NUST Service Rd
Opens soon ⋅ 3 PM · +92 331 7000412",Hospital,Opens soon,33.6340625,72.9876875,"https://www.google.com/maps/place/Clinica+Medical+Complex+%28CMC%29,+NUST+Service+Road+%28West%29+H-13,+Islamabad/data=!4m7!3m6!1s0x38df97007006180b:0x5b9447b6b97e58ef!8m2!3d33.6340625!4d72.9876875!16s%2Fg%2F11w3rtzrxg!19sChIJCxgGcACX3zgR71h-ubZHlFs?authuser=0&hl=en&rclk=1","Madical, Islamabad"
73,mumtazmedicaldentalc_33.515987_73.170956,Mumtaz Medical & Dental Complex,"Mumtaz Medical & Dental Complex
4.7(76)
Hospital ·  · Lavender Street, Commercial Business Avenue, St 26A
Open 24 hours · +92 337 8636844",Hospital,Open 24 hours,33.5159871,73.170956,https://www.google.com/maps/place/Mumtaz+Medical+%26+Dental+Complex/data=!4m7!3m6!1s0x38dff359bc4ac5b3:0x3287a24696be93ab!8m2!3d33.5159871!4d73.170956!16s%2Fg%2F11trgyrgkl!19sChIJs8VKvFnz3zgRq5O-lkaihzI?authuser=0&hl=en&rclk=1,"Madical, Islamabad"
74,shahidakhaliqhospita_33.692240_73.057561,Shahida Khaliq Hospital,"Shahida Khaliq Hospital
4.6(269)
Private hospital ·  · Plot No 14, Street No 22, 17-4 Street 22
Open 24 hours · +92 51 2331908",Private hospital,Open 24 hours,33.6922398,73.0575614,https://www.google.com/maps/place/Shahida+Khaliq+Hospital/data=!4m7!3m6!1s0x38dfbfe86d1359ad:0x565822eeafed1115!8m2!3d33.6922398!4d73.0575614!16s%2Fg%2F11sh5jzyx9!19sChIJrVkTbei_3zgRFRHtr-4iWFY?authuser=0&hl=en&rclk=1,"Madical, Islamabad"
75,humamedicalcomplex_33.680518_73.154699,Huma Medical Complex,"Huma Medical Complex
4.0(23)
Hospital ·  · Jinnah Avenue, road Neomull
Open 24 hours · +92 335 0586179",Hospital,Open 24 hours,33.6805175,73.1546989,https://www.google.com/maps/place/Huma+Medical+Complex/data=!4m7!3m6!1s0x38dfeb98d96099d1:0xbb26d2bc45758753!8m2!3d33.6805175!4d73.1546989!16s%2Fg%2F11sn3s51dj!19sChIJ0Zlg2Zjr3zgRU4d1RbzSJrs?authuser=0&hl=en&rclk=1,"Madical, Islamabad"
76,alfatimaclinicislama_33.716399_73.084738,"Al fatima Clinic, islamabad","Al fatima Clinic, islamabad
3.7(26)
Medical Center ·  · Ground Floor, Melody Market, Islamabad Medical and Surgical Centre
Open 24 hours · +92 336 2824124",Medical Center,Open 24 hours,33.7163989,73.0847375,"https://www.google.com/maps/place/Al+fatima+Clinic,+islamabad/data=!4m7!3m6!1s0x38dfbf7c8641b7cf:0x1713a8999cc921b!8m2!3d33.7163989!4d73.0847375!16s%2Fg%2F11sjrnmzyv!19sChIJz7dBhny_3zgRG5LMmYk6cQE?authuser=0&hl=en&rclk=1","Madical, Islamabad"
77,rawalinstituteofheal_33.632441_73.122416,Rawal Institute of Health Sciences,"Rawal Institute of Health Sciences
4.1(856)
Medical school ·  · Almehrban Road, Madina Town, Lehtrar Rd
Open 24 hours · +92 51 2617381",Medical school,Open 24 hours,33.6324412,73.1224157,https://www.google.com/maps/place/Rawal+Institute+of+Health+Sciences/data=!4m7!3m6!1s0x38dfeb103acb523b:0x83428a0541285c4e!8m2!3d33.6324412!4d73.1224157!16s%2Fg%2F1hdzydn2n!19sChIJO1LLOhDr3zgRTlwoQQWKQoM?authuser=0&hl=en&rclk=1,"Madical, Islamabad"
78,irummedicalcomplex_33.644860_73.170575,Irum Medical Complex,"Irum Medical Complex
4.4(19)
Hospital ·  · J5VC+W79
Open 24 hours · +92 321 5050954",Hospital,Open 24 hours,33.6448595,73.1705751,https://www.google.com/maps/place/Irum+Medical+Complex/data=!4m7!3m6!1s0x38dfebafc756fbc3:0x9bc96ddc95549e74!8m2!3d33.6448595!4d73.1705751!16s%2Fg%2F11gh9p0pkc!19sChIJw_tWx6_r3zgRdJ5UldxtyZs?authuser=0&hl=en&rclk=1,"Madical, Islamabad"
79,riphahinternationalh_33.538162_73.185958,Riphah International Hospital,"Riphah International Hospital
3.5(146)
Hospital ·  · Opp Gate 7, DHA Phase2, near kaakpul, Islamabad Expy
Open 24 hours · +92 51 4486062",Hospital,Open 24 hours,33.5381622,73.1859579,https://www.google.com/maps/place/Riphah+International+Hospital/data=!4m7!3m6!1s0x38dfee0913bb1621:0xfa29a1cc535f02f2!8m2!3d33.5381622!4d73.1859579!16s%2Fg%2F11b7f9110s!19sChIJIRa7Ewnu3zgR8gJfU8yhKfo?authuser=0&hl=en&rclk=1,"Madical, Islamabad"
80,cdamedicalcenter_33.687928_73.034407,CDA Medical Center,"CDA Medical Center
4.0(41)
Hospital ·  · M2QM+4QP Niazi Express, Mangla Rd، near Niazi Bus stop
Open ⋅ Closes 8 PM · +92 51 9330223",Hospital,Open,33.6879277,73.034407,https://www.google.com/maps/place/CDA+Medical+Center/data=!4m7!3m6!1s0x38dfbf1e5ddebda9:0x7d553df06e8b57b6!8m2!3d33.6879277!4d73.034407!16s%2Fg%2F11gydlm98q!19sChIJqb3eXR6_3zgRtleLbvA9VX0?authuser=0&hl=en&rclk=1,"Madical, Islamabad"
81,alammedicalcenter_33.654133_72.876921,Alam Medical Center,"Alam Medical Center
5.0(1)
Medical Center · 9 Street 27
Open ⋅ Closes 10 PM · +92 335 9843832",Medical Center,Open,33.6541327,72.8769212,https://www.google.com/maps/place/Alam+Medical+Center/data=!4m7!3m6!1s0x38dfa370b22ad1af:0xf690c96de6448da3!8m2!3d33.6541327!4d72.8769212!16s%2Fg%2F11vhx5fmhw!19sChIJr9EqsnCj3zgRo41E5m3JkPY?authuser=0&hl=en&rclk=1,"Madical, Islamabad"
82,naqaishmedicare_33.666657_73.076139,Naqaish Medicare,"Naqaish Medicare
4.6(170)
Hospital ·  · Pakland Business Center
Open 24 hours · +92 304 2252555",Hospital,Open 24 hours,33.6666574,73.0761395,https://www.google.com/maps/place/Naqaish+Medicare/data=!4m7!3m6!1s0x38df9566e99b3abd:0xb0ad90d97b709256!8m2!3d33.6666574!4d73.0761395!16s%2Fg%2F11fq88qchw!19sChIJvTqb6WaV3zgRVpJwe9mQrbA?authuser=0&hl=en&rclk=1,"Madical, Islamabad"
83,ndcmedicalcentre_33.655291_73.037019,NDC Medical Centre,"NDC Medical Centre
4.4(19)
Hospital ·  · 59-E Street 7
Open now · +92 51 4431752",Hospital,Open now,33.6552913,73.0370185,https://www.google.com/maps/place/NDC+Medical+Centre/data=!4m7!3m6!1s0x38df959f7b0abbf7:0x1258c4d092d2a9fb!8m2!3d33.6552913!4d73.0370185!16s%2Fg%2F11c51w2pnw!19sChIJ97sKe5-V3zgR-6nSktDEWBI?authuser=0&hl=en&rclk=1,"Madical, Islamabad"
84,bestmedicaldiagnosti_33.696417_73.041122,Best Medical & Diagnostics (BMD),"Best Medical & Diagnostics (BMD)
4.9(43)
Medical diagnostic imaging center · Fayyaz Market, Street 10, opposite NIRM hospital
Open ⋅ Closes 10 PM · +92 320 9840252",Medical diagnostic imaging center,Open,33.6964173,73.0411222,https://www.google.com/maps/place/Best+Medical+%26+Diagnostics+%28BMD%29/data=!4m7!3m6!1s0x38dfbfa7cd3fee01:0xc3d3f67d3c0b72b6!8m2!3d33.6964173!4d73.0411222!16s%2Fg%2F11mtn1xwww!19sChIJAe4_zae_3zgRtnILPH3208M?authuser=0&hl=en&rclk=1,"Madical, Islamabad"
85,zobiahospitalg9islam_33.677978_73.030205,Zobia Hospital G-9 Islamabad,"Zobia Hospital G-9 Islamabad
3.5(103)
Hospital ·  · Street 30
Open 24 hours · +92 51 2261130",Hospital,Open 24 hours,33.6779776,73.0302046,https://www.google.com/maps/place/Zobia+Hospital+G-9+Islamabad/data=!4m7!3m6!1s0x38dfbf80a2b451a5:0x316fd483f145e55d!8m2!3d33.6779776!4d73.0302046!16s%2Fg%2F11h336n5v0!19sChIJpVG0ooC_3zgRXeVF8YPUbzE?authuser=0&hl=en&rclk=1,"Madical, Islamabad"
86,medonehospital_33.668777_73.075558,MedOne Hospital,"MedOne Hospital
4.7(90)
Medical clinic · Office # 18, 1st Floor، City Arcade Plaza
Open ⋅ Closes 7:30 PM · +92 312 5477799",Medical clinic,Open,33.6687774,73.0755584,https://www.google.com/maps/place/MedOne+Hospital/data=!4m7!3m6!1s0x38df95456f8a3141:0x6313a8fef11e595c!8m2!3d33.6687774!4d73.0755584!16s%2Fg%2F11b_00f5m8!19sChIJQTGKb0WV3zgRXFke8f6oE2M?authuser=0&hl=en&rclk=1,"Madical, Islamabad"
87,islamabadspecialized_33.652723_73.071629,Islamabad specialized hospital...,"Islamabad specialized hospital...
4.6(150)
Hospital ·  · Main Double, Rawalpindi Stadium Rd
Open 24 hours · +92 51 8779111",Hospital,Open 24 hours,33.6527227,73.0716286,https://www.google.com/maps/place/Islamabad+specialized+hospital.../data=!4m7!3m6!1s0x38df95af2158e1c3:0xbcf787e80e5c86a4!8m2!3d33.6527227!4d73.0716286!16s%2Fg%2F11sq_hgzjk!19sChIJw-FYIa-V3zgRpIZcDuiH97w?authuser=0&hl=en&rclk=1,"Madical, Islamabad"
88,generalpracticehospi_33.692211_73.025038,General Practice Hospital,"General Practice Hospital
4.9(150)
Hospital ·  · Pakland Tower, 2 New
Open 24 hours · +92 334 7474701",Hospital,Open 24 hours,33.6922109,73.0250382,https://www.google.com/maps/place/General+Practice+Hospital/data=!4m7!3m6!1s0x38dfbf4da7176c71:0xe1512c7b11c15eef!8m2!3d33.6922109!4d73.0250382!16s%2Fg%2F11rl9kp0yv!19sChIJcWwXp02_3zgR717BEXssUeE?authuser=0&hl=en&rclk=1,"Madical, Islamabad"
89,1stdiagnosticsmedica_33.697950_73.048745,1st Diagnostics & Medical Center,"1st Diagnostics & Medical Center
5.0(1)
Medical Center ·  · Office 34 & 35, Ground Floor, Executive Plaza, G-8 Markaz
Open ⋅ Closes 12 AM · +92 51 8442806",Medical Center,Open,33.6979503,73.0487451,https://www.google.com/maps/place/1st+Diagnostics+%26+Medical+Center/data=!4m7!3m6!1s0xaa63a58809cca0d5:0xaa87f608219e3a85!8m2!3d33.6979503!4d73.0487451!16s%2Fg%2F11tsjtrsws!19sChIJ1aDMCYilY6oRhTqeIQj2h6o?authuser=0&hl=en&rclk=1,"Madical, Islamabad"
90,paklandmedicalcenter_33.710792_73.040576,Pakland Medical Center,"Pakland Medical Center
4.7(3)
Medical Center ·  · P26R+76X
Open ⋅ Closes 11 PM",Medical Center,Open,33.7107921,73.0405764,https://www.google.com/maps/place/Pakland+Medical+Center/data=!4m7!3m6!1s0x38dfbf3f5c256da3:0xdeb05f1272917f6b!8m2!3d33.7107921!4d73.0405764!16s%2Fg%2F11vksfdnb1!19sChIJo20lXD-_3zgRa3-RchJfsN4?authuser=0&hl=en&rclk=1,"Madical, Islamabad"
91,islamabadhealthclini_33.706321_73.067806,Islamabad Health Clinic,"Islamabad Health Clinic
5.0(2)
Medical Center · Islamabad Health Clinic G-7 Square Plaza Sitara Market, Markaz
Open 24 hours · +92 51 2606836",Medical Center,Open 24 hours,33.7063206,73.0678056,https://www.google.com/maps/place/Islamabad+Health+Clinic/data=!4m7!3m6!1s0x38dfbf8411f7e61d:0x5a85be4db87f80b!8m2!3d33.7063206!4d73.0678056!16s%2Fg%2F11vcxmdjyg!19sChIJHeb3EYS_3zgRC_iH2-RbqAU?authuser=0&hl=en&rclk=1,"Madical, Islamabad"
92,shaheenmedicalcomple_33.725483_73.184110,Shaheen medical complex,"Shaheen medical complex
4.7(6)
Hospital ·  · P5GM+5JG
Open 24 hours · +92 307 0613780",Hospital,Open 24 hours,33.7254827,73.1841104,https://www.google.com/maps/place/Shaheen+medical+complex/data=!4m7!3m6!1s0x38dfc314ed423a3f:0xfe23b6e731a21dd5!8m2!3d33.7254827!4d73.1841104!16s%2Fg%2F11tft1p6r4!19sChIJPzpC7RTD3zgR1R2iMee2I_4?authuser=0&hl=en&rclk=1,"Madical, Islamabad"
93,abdulrasheedniazimed_33.747022_73.193175,Abdul Rasheed Niazi Medical Complex,"Abdul Rasheed Niazi Medical Complex
4.3(56)
Hospital ·  · P5WV+Q7W
Open 24 hours · +92 51 2165025",Hospital,Open 24 hours,33.7470224,73.1931754,https://www.google.com/maps/place/Abdul+Rasheed+Niazi+Medical+Complex/data=!4m7!3m6!1s0x38dfc18d12f88719:0x1c6c9d0330cdbea9!8m2!3d33.7470224!4d73.1931754!16s%2Fg%2F11h035q50p!19sChIJGYf4Eo3B3zgRqb7NMAOdbBw?authuser=0&hl=en&rclk=1,"Madical, Islamabad"
94,rrdiagnostics_33.681637_73.037128,RR Diagnostics,"RR Diagnostics
3.3(245)
Medical Center ·  · Plot 80 Street 54
Open ⋅ Closes 5 PM · +92 51 2808416",Medical Center,Open,33.6816369,73.0371282,https://www.google.com/maps/place/RR+Diagnostics/data=!4m7!3m6!1s0x38dfbfd79f7b56af:0x449ad6b1582fecd1!8m2!3d33.6816369!4d73.0371282!16s%2Fg%2F11t0p8xh8n!19sChIJr1Z7n9e_3zgR0ewvWLHWmkQ?authuser=0&hl=en&rclk=1,"Madical, Islamabad"
95,maroofinternationalh_33.697460_73.011651,Maroof International Hospital,"Maroof International Hospital
3.2(807)
General hospital ·  · Service Rd E, F-10 Markaz F 10/3 F-10, 04412
Open 24 hours · +92 51 111 644 911",General hospital,Open 24 hours,33.6974597,73.0116512,https://www.google.com/maps/place/Maroof+International+Hospital/data=!4m7!3m6!1s0x38dfbe6b77fc7279:0x855a61d1ef5e9def!8m2!3d33.6974597!4d73.0116512!16s%2Fg%2F1hdzv62pm!19sChIJeXL8d2u-3zgR751e79FhWoU?authuser=0&hl=en&rclk=1,"Madical, Islamabad"
96,islamabadmedicalstor_33.658437_73.059368,Islamabad Medical Store,"Islamabad Medical Store
4.4(5)
Medical Center · M355+9PH
Open ⋅ Closes 10 PM · +92 336 0906915",Medical Center,Open,33.6584369,73.0593678,https://www.google.com/maps/place/Islamabad+Medical+Store/data=!4m7!3m6!1s0x38df956b4955ef5f:0xd90ea335e36a0782!8m2!3d33.6584369!4d73.0593678!16s%2Fg%2F11xgwdprr!19sChIJX-9VSWuV3zgRggdq4zWjDtk?authuser=0&hl=en&rclk=1,"Madical, Islamabad"
97,alimedicalcenterexec_33.710234_73.042088,Ali Medical Center Executive Block,"Ali Medical Center Executive Block
No reviews
Hospital ·  · IBC-IV, Kaghan Rd
Open ⋅ Closes 5 PM · +92 51 8090200",Hospital,Open,33.7102343,73.042088,https://www.google.com/maps/place/Ali+Medical+Center+Executive+Block/data=!4m7!3m6!1s0x38dfbfc5644a1c6d:0x4601391bc5879ed3!8m2!3d33.7102343!4d73.042088!16s%2Fg%2F11jn2zhs8r!19sChIJbRxKZMW_3zgR056HxRs5AUY?authuser=0&hl=en&rclk=1,"Madical, Islamabad"
98,_33.636085_73.133422,اتمان میڈیکل اینڈ ہوم نرسنگ کیئر سنٹر,"اتمان میڈیکل اینڈ ہوم نرسنگ کیئر سنٹر
5.0(6)
Medical Center ·  · Street A-11
Open 24 hours · +92 306 8831094",Medical Center,Open 24 hours,33.6360847,73.1334217,https://www.google.com/maps/place/%D8%A7%D8%AA%D9%85%D8%A7%D9%86+%D9%85%DB%8C%DA%88%DB%8C%DA%A9%D9%84+%D8%A7%DB%8C%D9%86%DA%88+%DB%81%D9%88%D9%85+%D9%86%D8%B1%D8%B3%D9%86%DA%AF+%DA%A9%DB%8C%D8%A6%D8%B1+%D8%B3%D9%86%D9%B9%D8%B1%E2%80%AD/data=!4m7!3m6!1s0x38dfeb00757d893d:0x54cc71008bcafdbd!8m2!3d33.6360847!4d73.1334217!16s%2Fg%2F11vsbj0h2d!19sChIJPYl9dQDr3zgRvf3KiwBxzFQ?authuser=0&hl=en&rclk=1,"Madical, Islamabad"
99,gamcaofficial_33.711599_73.037847,Gamca (Official),"Gamca (Official)
4.9(174)
Consultant ·  · Shop No 5, Shawaiz Center
Open ⋅ Closes 11 PM · +92 321 5256886",Consultant,Open,33.7115992,73.0378475,https://www.google.com/maps/place/Gamca+%28Official%29/data=!4m7!3m6!1s0x38dfbe52c5555555:0x25e0ac73fa3afd4!8m2!3d33.7115992!4d73.0378475!16s%2Fg%2F11q8w75cqd!19sChIJVVVVxVK-3zgR1K-jP8cKXgI?authuser=0&hl=en&rclk=1,"Madical, Islamabad"
100,jinnahmedicalcomplex_33.738743_73.185818,Jinnah Medical Complex,"Jinnah Medical Complex
3.3(10)
Medical Center ·  · P5QP+F8W, Simly Dam Road
Open 24 hours · +92 51 2160579",Medical Center,Open 24 hours,33.738743,73.1858183,https://www.google.com/maps/place/Jinnah+Medical+Complex/data=!4m7!3m6!1s0x38dfc22b056ca099:0xe0a2036f13dcd7f0!8m2!3d33.738743!4d73.1858183!16s%2Fg%2F11fyzbfz7v!19sChIJmaBsBSvC3zgR8NfcE28DouA?authuser=0&hl=en&rclk=1,"Madical, Islamabad"
101,alsadiqfreemedicalce_33.688459_73.023230,Al Sadiq Free Medical Centre,"Al Sadiq Free Medical Centre
5.0(3)
Hospital
Closed ⋅ Opens 9 AM Fri · +92 321 9502222",Hospital,Closed,33.6884594,73.0232299,https://www.google.com/maps/place/Al+Sadiq+Free+Medical+Centre/data=!4m7!3m6!1s0x38dfbe3b83dd30f3:0xe614863ee5f4f22!8m2!3d33.6884594!4d73.0232299!16s%2Fg%2F11dz58dg42!19sChIJ8zDdgzu-3zgRIk9f7mNIYQ4?authuser=0&hl=en&rclk=1,"Madical, Islamabad"
102,amedicalcenterdrmuha_33.689510_73.031698,"A Medical Center, Dr Muhammad Asif Younas","A Medical Center, Dr Muhammad Asif Younas
3.0(3)
Medical Center · Asad Plaza
+92 333 1540555",Medical Center,,33.6895104,73.0316978,"https://www.google.com/maps/place/A+Medical+Center,+Dr+Muhammad+Asif+Younas/data=!4m7!3m6!1s0x38dfbf4150350519:0x7952520ecdf223e!8m2!3d33.6895104!4d73.0316978!16s%2Fg%2F11qqv5ppkm!19sChIJGQU1UEG_3zgRPiLf7CAllQc?authuser=0&hl=en&rclk=1","Madical, Islamabad"
103,mustafamedicalclinic_33.668715_72.986103,Mustafa Medical Clinic and Diagnostic Center,"Mustafa Medical Clinic and Diagnostic Center
4.2(6)
Hospital ·  · MX9P+FCQ, Service Rd W
Open 24 hours · +92 335 5315504",Hospital,Open 24 hours,33.6687147,72.9861035,https://www.google.com/maps/place/Mustafa+Medical+Clinic+and+Diagnostic+Center/data=!4m7!3m6!1s0x38df97225a763aa3:0x4798e45890707bc2!8m2!3d33.6687147!4d72.9861035!16s%2Fg%2F11k2yq68fv!19sChIJozp2WiKX3zgRwntwkFjkmEc?authuser=0&hl=en&rclk=1,"Madical, Islamabad"
104,draftabmedicalclinic_33.672711_73.106522,Dr Aftab Medical clinic,"Dr Aftab Medical clinic
4.3(13)
Medical Center · 13 Street 16
+92 331 5330584",Medical Center,,33.672711,73.1065225,https://www.google.com/maps/place/Dr+Aftab+Medical+clinic/data=!4m7!3m6!1s0x38dfeb3400b851fd:0xaae457941c4f28f4!8m2!3d33.672711!4d73.1065225!16s%2Fg%2F11h_009214!19sChIJ_VG4ADTr3zgR9ChPHJRX5Ko?authuser=0&hl=en&rclk=1,"Madical, Islamabad"
105,islamabadmedicarehos_33.697719_72.970770,Islamabad Medicare Hospital,"Islamabad Medicare Hospital
3.3(30)
Private hospital ·  · 116 Street 88
Open 24 hours · +92 336 5048548",Private hospital,Open 24 hours,33.6977185,72.9707696,https://www.google.com/maps/place/Islamabad+Medicare+Hospital/data=!4m7!3m6!1s0x38dfbdc79a13fc59:0x5b947f3628dd06a0!8m2!3d33.6977185!4d72.9707696!16s%2Fg%2F11cjnnzk12!19sChIJWfwTmse93zgRoAbdKDZ_lFs?authuser=0&hl=en&rclk=1,"Madical, Islamabad"
106,hoslamedicalcentre_33.664937_73.153163,Hosla Medical Centre,"Hosla Medical Centre
4.7(13)
Hospital ·  · Park Rd
Open ⋅ Closes 8 PM · +92 335 2321144",Hospital,Open,33.6649368,73.153163,https://www.google.com/maps/place/Hosla+Medical+Centre/data=!4m7!3m6!1s0x38dfbfa2c713530b:0xae27c32850d95679!8m2!3d33.6649368!4d73.153163!16s%2Fg%2F11f2vb3fdb!19sChIJC1MTx6K_3zgReVbZUCjDJ64?authuser=0&hl=en&rclk=1,"Madical, Islamabad"
107,medsolmedicallaborat_33.722495_73.082167,Medsol medical laboratory,"Medsol medical laboratory
5.0(7)
Medical Center · Office 10-11, Huma plaza, basement, opposite poly clinic hospital
Open 24 hours · +92 342 2214697",Medical Center,Open 24 hours,33.7224946,73.082167,https://www.google.com/maps/place/Medsol+medical+laboratory/data=!4m7!3m6!1s0x38dfbf9efa5072fd:0x7515797c6be9dcb6!8m2!3d33.7224946!4d73.082167!16s%2Fg%2F11svb3b2tk!19sChIJ_XJQ-p6_3zgRttzpa3x5FXU?authuser=0&hl=en&rclk=1,"Madical, Islamabad"
108,lifecareinternationa_33.676624_73.015368,Life Care International Hospital,"Life Care International Hospital
2.8(317)
Hospital ·  · M2G8+Q6G
Open 24 hours · +92 51 2355501",Hospital,Open 24 hours,33.6766236,73.0153676,https://www.google.com/maps/place/Life+Care+International+Hospital/data=!4m7!3m6!1s0x38dfbe1f0d2d6b37:0x8389e594522baac6!8m2!3d33.6766236!4d73.0153676!16s%2Fg%2F119v44ckb!19sChIJN2stDR--3zgRxqorUpTliYM?authuser=0&hl=en&rclk=1,"Madical, Islamabad"
109,islamabadhomeo_33.668420_72.998312,Islamabad homeo,"Islamabad homeo
4.8(38)
Medical Center · Al Ghaffar Mall Shop#9 Ground floor
Open ⋅ Closes 10 PM · +92 300 5178485",Medical Center,Open,33.6684198,72.9983121,https://www.google.com/maps/place/Islamabad+homeo/data=!4m7!3m6!1s0x38df9564e8def301:0x305672d7fc754b1c!8m2!3d33.6684198!4d72.9983121!16s%2Fg%2F11q84lxh20!19sChIJAfPe6GSV3zgRHEt1_NdyVjA?authuser=0&hl=en&rclk=1,"Madical, Islamabad"
110,medicalcenterg73_33.709482_73.068535,Medical Center G-7/3,"Medical Center G-7/3
3.7(3)
Hospital · P359+QCV, Unnamed Road",Hospital,,33.7094822,73.0685349,https://www.google.com/maps/place/Medical+Center+G-7%2F3/data=!4m7!3m6!1s0x38dfbf9236824c87:0x8519e6635278c806!8m2!3d33.7094822!4d73.0685349!16s%2Fg%2F11h2wc1fhn!19sChIJh0yCNpK_3zgRBsh4UmPmGYU?authuser=0&hl=en&rclk=1,"Madical, Islamabad"
111,mri_33.698170_73.049051,Mri,"Mri
4.9(171)
Medical diagnostic imaging center · 
Open 24 hours · +92 300 5186200",Medical diagnostic imaging center,Open 24 hours,33.6981704,73.0490511,https://www.google.com/maps/place/Mri/data=!4m7!3m6!1s0x38dfbf22980e5663:0x571f144b5bdb45ac!8m2!3d33.6981704!4d73.0490511!16s%2Fg%2F11rgnxkd3l!19sChIJY1YOmCK_3zgRrEXbW0sUH1c?authuser=0&hl=en&rclk=1,"Madical, Islamabad"
112,capitalmedicaldental_33.696098_72.979828,Capital Medical & Dental Center Islamabad E11/4,"Capital Medical & Dental Center Islamabad E11/4
No reviews
Hospital · Khan Dera, Capital Medical Center Mohala Khannan
Open 24 hours · +92 316 9798992",Hospital,Open 24 hours,33.6960982,72.9798285,https://www.google.com/maps/place/Capital+Medical+%26+Dental+Center+Islamabad+E11%2F4/data=!4m7!3m6!1s0x38dfbde96b431bf9:0x41c1a5fb06821a68!8m2!3d33.6960982!4d72.9798285!16s%2Fg%2F11k56bfw95!19sChIJ-RtDa-m93zgRaBqCBvulwUE?authuser=0&hl=en&rclk=1,"Madical, Islamabad"
113,doctorayazsaeedclini_33.690269_73.030859,Doctor Ayaz Saeed Clinic,"Doctor Ayaz Saeed Clinic
4.6(25)
Medical clinic · M2RJ+485
Open ⋅ Closes 8 PM · +92 51 2256966",Medical clinic,Open,33.6902686,73.030859,https://www.google.com/maps/place/Doctor+Ayaz+Saeed+Clinic/data=!4m7!3m6!1s0x38dfbe30ef4e3973:0xac4d213f32baa8e8!8m2!3d33.6902686!4d73.030859!16s%2Fg%2F11g7csg6xt!19sChIJczlO7zC-3zgR6Ki6Mj8hTaw?authuser=0&hl=en&rclk=1,"Madical, Islamabad"
114,drtaliyasclinic_33.689457_73.039991,Dr. Taliya's Clinic,"Dr. Taliya's Clinic
3.9(117)
Medical Center ·  · Street #66, Noor Plaza, Taqwa Market
Open 24 hours · +92 51 2260010",Medical Center,Open 24 hours,33.6894567,73.0399914,https://www.google.com/maps/place/Dr.+Taliya%27s+Clinic/data=!4m7!3m6!1s0x38dfbe32c93d4c9b:0x57e939cbc65699b5!8m2!3d33.6894567!4d73.0399914!16s%2Fg%2F11b5s2gj9_!19sChIJm0w9yTK-3zgRtZlWxss56Vc?authuser=0&hl=en&rclk=1,"Madical, Islamabad"
115,aayanhealthclinic_33.705295_73.068247,Aayan Health Clinic,"Aayan Health Clinic
4.6(19)
Medical clinic ·  · Sitara، Shop # 1-2, Kohsar Cinema Building. Sitara Market, Islamabad G-7 Markaz، Market
Open ⋅ Closes 11 PM · +92 51 2606816",Medical clinic,Open,33.7052947,73.0682471,https://www.google.com/maps/place/Aayan+Health+Clinic/data=!4m7!3m6!1s0x38dfbf94f6965785:0x4ac781ac8c060939!8m2!3d33.7052947!4d73.0682471!16s%2Fg%2F11c1ngy_97!19sChIJhVeW9pS_3zgROQkGjKyBx0o?authuser=0&hl=en&rclk=1,"Madical, Islamabad"
116,rapidhealingmedicals_33.616116_73.086108,Rapid Healing Medical Services-Islamabad Clinic,"Rapid Healing Medical Services-Islamabad Clinic
4.4(14)
Psychologist
Open ⋅ Closes 7 PM · +92 336 1820007",Psychologist,Open,33.6161162,73.086108,https://www.google.com/maps/place/Rapid+Healing+Medical+Services-Islamabad+Clinic/data=!4m7!3m6!1s0x38dfbfe77b6af223:0xabddc83fde9e436f!8m2!3d33.6161162!4d73.086108!16s%2Fg%2F11jr6hpnh6!19sChIJI_Jqe-e_3zgRb0Oe3j_I3as?authuser=0&hl=en&rclk=1,"Madical, Islamabad"
117,hashmimedicalicsicen_33.668506_72.999831,Hashmi Medical & ICSI Centre,"Hashmi Medical & ICSI Centre
4.3(116)
Private hospital · First Floor, Plaza Plot 29&30, above Save Mart
Open ⋅ Closes 9 PM · +92 51 8898918",Private hospital,Open,33.6685055,72.9998313,https://www.google.com/maps/place/Hashmi+Medical+%26+ICSI+Centre/data=!4m7!3m6!1s0x38df959e68abe3fd:0x766b1d89d0435612!8m2!3d33.6685055!4d72.9998313!16s%2Fg%2F11rw_q6ll_!19sChIJ_eOraJ6V3zgRElZD0Ikda3Y?authuser=0&hl=en&rclk=1,"Madical, Islamabad"
118,capitaldiagnosticcen_33.695118_73.051230,Capital Diagnostic Centre,"Capital Diagnostic Centre
3.4(115)
Diagnostic center ·  · Media Foundation Plaza
Open ⋅ Closes 12 AM · +92 51 8354601",Diagnostic center,Open,33.6951178,73.0512304,https://www.google.com/maps/place/Capital+Diagnostic+Centre/data=!4m7!3m6!1s0x38dfbfc8b68dcc6d:0x968ab590990cf04d!8m2!3d33.6951178!4d73.0512304!16s%2Fg%2F1q6jzg4kr!19sChIJbcyNtsi_3zgRTfAMmZC1ipY?authuser=0&hl=en&rclk=1,"Madical, Islamabad"
119,saeedinternationalho_33.697662_73.050815,"Saeed International Hospital Near PSO Petrol PumpG-8 Markaz, Islamabad","Saeed International Hospital Near PSO Petrol PumpG-8 Markaz, Islamabad
4.0(64)
Educational consultant ·  · Markaz Rd, near PSO Petrol pump
Open 24 hours · +92 331 1110675",Educational consultant,Open 24 hours,33.6976615,73.0508145,"https://www.google.com/maps/place/Saeed+International+Hospital+Near+PSO+Petrol+PumpG-8+Markaz,+Islamabad/data=!4m7!3m6!1s0x38dfbff80fba2cbf:0x908bdedff9ba4408!8m2!3d33.6976615!4d73.0508145!16s%2Fg%2F11rtthnytx!19sChIJvyy6D_i_3zgRCES6-d_ei5A?authuser=0&hl=en&rclk=1","Madical, Islamabad"
120,bfmedicalcentre_33.689459_73.032564,BF Medical Centre,"BF Medical Centre
3.0(1)
Medical Center · Hussain Plaza, G-9 Markaz, G-9
+92 51 2252240",Medical Center,,33.6894592,73.0325642,https://www.google.com/maps/place/BF+Medical+Centre/data=!4m7!3m6!1s0x38dfbe31a79f4aa5:0x127cc00c5cfcd4c4!8m2!3d33.6894592!4d73.0325642!16s%2Fg%2F12mkz5qm0!19sChIJpUqfpzG-3zgRxNT8XAzAfBI?authuser=0&hl=en&rclk=1,"Madical, Islamabad"
121,collegeofmedicaltech_33.702821_73.048677,"College of Medical Technology, PIMS Hospital.","College of Medical Technology, PIMS Hospital.
4.4(67)
Medical school ·  · P23X+7F8, 3
Open ⋅ Closes 5 PM · +92 51 9261191",Medical school,Open,33.7028207,73.0486767,"https://www.google.com/maps/place/College+of+Medical+Technology,+PIMS+Hospital./data=!4m7!3m6!1s0x38dfbfb6f82cd2cb:0x250154cbe5bf6636!8m2!3d33.7028207!4d73.0486767!16s%2Fg%2F11c6rh0q7z!19sChIJy9Is-La_3zgRNma_5ctUASU?authuser=0&hl=en&rclk=1","Madical, Islamabad"
122,saeedinternationalho_33.697388_73.051085,Saeed International Hospital G-8 Markaz Islamabad,"Saeed International Hospital G-8 Markaz Islamabad
5.0(4)
Hospital · Quest Medical Complex, G8 Markaz, near Faisal Bank
Open 24 hours · +92 332 5410055",Hospital,Open 24 hours,33.6973882,73.0510852,https://www.google.com/maps/place/Saeed+International+Hospital+G-8+Markaz+Islamabad/data=!4m7!3m6!1s0x38dfbf91801d9653:0xb8de360fc3e754!8m2!3d33.6973882!4d73.0510852!16s%2Fg%2F11ks0c_5fx!19sChIJU5YdgJG_3zgRVOfDDzbeuAA?authuser=0&hl=en&rclk=1,"Madical, Islamabad"
123,healthcaremedicalcen_33.643112_73.161434,Healthcare Medical Center,"Healthcare Medical Center
4.4(9)
Hospital ·  · J5V6+6HV, Lehtrar Rd
Open now · +92 333 5159816",Hospital,Open now,33.6431124,73.1614338,https://www.google.com/maps/place/Healthcare+Medical+Center/data=!4m7!3m6!1s0x38dfebc94a9efddd:0x225a3aa8f81bf575!8m2!3d33.6431124!4d73.1614338!16s%2Fg%2F11c1q85kjg!19sChIJ3f2eSsnr3zgRdfUb-Kg6WiI?authuser=0&hl=en&rclk=1,"Madical, Islamabad"
124,wasifmedicaldentalcl_33.739286_73.182839,Wasif Medical & Dental Clinic,"Wasif Medical & Dental Clinic
4.3(18)
Medical Center ·  · Simly Rd, Barakahu
Open ⋅ Closes 10 PM · +92 315 6090906",Medical Center,Open,33.7392861,73.1828388,https://www.google.com/maps/place/Wasif+Medical+%26+Dental+Clinic/data=!4m7!3m6!1s0x38dfc22aa3afc2f9:0xf2ad4679870467d3!8m2!3d33.7392861!4d73.1828388!16s%2Fg%2F11x9wxyc8!19sChIJ-cKvoyrC3zgR02cEh3lGrfI?authuser=0&hl=en&rclk=1,"Madical, Islamabad"
125,nationalinstituteofr_33.695805_73.041512,National Institute of Rehabilitation Medicine (NIRM),"National Institute of Rehabilitation Medicine (NIRM)
4.2(244)
Government hospital ·  · 2 Street 9
Closed ⋅ Opens 8 AM Fri · +92 51 9262213",Government hospital,Closed,33.6958055,73.0415123,https://www.google.com/maps/place/National+Institute+of+Rehabilitation+Medicine+%28NIRM%29/data=!4m7!3m6!1s0x38dfbfcb2174c5f3:0x36de02b41a2e62d2!8m2!3d33.6958055!4d73.0415123!16s%2Fg%2F12mkz5mms!19sChIJ88V0Icu_3zgR0mIuGrQC3jY?authuser=0&hl=en&rclk=1,"Madical, Islamabad"
126,marwamedicalcenter_33.668334_72.983489,Marwa medical center,"Marwa medical center
5.0(1)
Hospital · MX9M+89Q Aslam market
Open ⋅ Closes 11 PM · +92 301 5488346",Hospital,Open,33.6683343,72.9834888,https://www.google.com/maps/place/Marwa+medical+center/data=!4m7!3m6!1s0x38df9700527c23a5:0x985571e0c3b324bf!8m2!3d33.6683343!4d72.9834888!16s%2Fg%2F11vrrbvpvb!19sChIJpSN8UgCX3zgRvySzw-BxVZg?authuser=0&hl=en&rclk=1,"Madical, Islamabad"
127,gamcamedicalcentre_33.684420_73.047885,GAMCA medical centre,"GAMCA medical centre
5.0(2)
Medical Center · 
+92 325 8497972",Medical Center,,33.6844202,73.0478848,https://www.google.com/maps/place/GAMCA+medical+centre/data=!4m7!3m6!1s0x38dfbe3db50fb591:0x7c9afa9fe2b319b5!8m2!3d33.6844202!4d73.0478848!16s%2Fg%2F11sw3l1bjw!19sChIJkbUPtT2-3zgRtRmz4p_6mnw?authuser=0&hl=en&rclk=1,"Madical, Islamabad"
128,shifainternationalho_33.675015_73.066009,Shifa International Hospitals Limited,"Shifa International Hospitals Limited
3.4(2,453)
Hospital ·  · 4 Pitras Bukhari Rd
Open 24 hours · +92 51 8464646",Hospital,Open 24 hours,33.6750148,73.0660089,https://www.google.com/maps/place/Shifa+International+Hospitals+Limited/data=!4m7!3m6!1s0x38df955e641b11dd:0xa273b768a51a9c54!8m2!3d33.6750148!4d73.0660089!16s%2Fm%2F03c3g4_!19sChIJ3REbZF6V3zgRVJwapWi3c6I?authuser=0&hl=en&rclk=1,"Madical, Islamabad"
129,alimedicaldiagnostic_33.710765_73.042172,Ali Medical Diagnostics,"Ali Medical Diagnostics
4.0(2)
Diagnostic center ·  · P26R+8V3
Open ⋅ Closes 11:30 PM · +92 51 8090356",Diagnostic center,Open,33.7107645,73.0421717,https://www.google.com/maps/place/Ali+Medical+Diagnostics/data=!4m7!3m6!1s0x38dfbfad69a89715:0x8addfe10873efd08!8m2!3d33.7107645!4d73.0421717!16s%2Fg%2F11cnd7h4s2!19sChIJFZeoaa2_3zgRCP0-hxD-3Yo?authuser=0&hl=en&rclk=1,"Madical, Islamabad"
130,syedmedicalcentre_33.734264_73.189972,Syed Medical Centre,"Syed Medical Centre
4.3(6)
Hospital ·  · street 6 Prince Rd
Open 24 hours · +92 51 8484675",Hospital,Open 24 hours,33.7342638,73.1899725,https://www.google.com/maps/place/Syed+Medical+Centre/data=!4m7!3m6!1s0x38dfc36562c61807:0x2d2a83582763244b!8m2!3d33.7342638!4d73.1899725!16s%2Fg%2F11ll8mh7yv!19sChIJBxjGYmXD3zgRSyRjJ1iDKi0?authuser=0&hl=en&rclk=1,"Madical, Islamabad"
131,makkahmedicalcenter_33.738698_73.182806,Makkah medical center,"Makkah medical center
5.0(5)
Hospital ·  · P5QM+F4V, Near barakahu police station, opposite malikabad main st, Simly Dam Road
Open ⋅ Closes 5 PM · +92 51 2160653",Hospital,Open,33.7386977,73.1828062,https://www.google.com/maps/place/Makkah+medical+center/data=!4m7!3m6!1s0x38dfc3144e53231b:0x312fdddec08c6c2d!8m2!3d33.7386977!4d73.1828062!16s%2Fg%2F11ksq30npf!19sChIJGyNTThTD3zgRLWyMwN7dLzE?authuser=0&hl=en&rclk=1,"Madical, Islamabad"
132,rehanamedicalcentre_33.657857_73.158483,Rehana Medical Centre,"Rehana Medical Centre
5.0(6)
Medical Center · Hostel city, Street 7A Opposite to Amjad Block Lane No 10, Royal Avenue
Open 24 hours · +92 51 6137786",Medical Center,Open 24 hours,33.6578569,73.1584828,https://www.google.com/maps/place/Rehana+Medical+Centre/data=!4m7!3m6!1s0x38dfeb00637f4887:0xb8ececd7a770b29!8m2!3d33.6578569!4d73.1584828!16s%2Fg%2F11wc7bzr_7!19sChIJh0h_YwDr3zgRKQt3es3Ojgs?authuser=0&hl=en&rclk=1,"Madical, Islamabad"
133,karachimedicose_33.633269_73.129019,Karachi Medicose,"Karachi Medicose
4.0(2)
Medical Center · J4MH+8J2
+92 315 3358000",Medical Center,,33.6332688,73.1290185,https://www.google.com/maps/place/Karachi+Medicose/data=!4m7!3m6!1s0x38dfeb0f32bd68f5:0x2aeaebdac130bf4c!8m2!3d33.6332688!4d73.1290185!16s%2Fg%2F12mkz7hq9!19sChIJ9Wi9Mg_r3zgRTL8wwdrr6io?authuser=0&hl=en&rclk=1,"Madical, Islamabad"
134,medicsihospital_33.551578_73.124169,Medicsi Hospital,"Medicsi Hospital
3.1(71)
Hospital ·  · Plaza, 4 59-61
Open 24 hours · +92 51 111 125 128",Hospital,Open 24 hours,33.5515779,73.1241695,https://www.google.com/maps/place/Medicsi+Hospital/data=!4m7!3m6!1s0x38dfed4481df704f:0x6053a5e41b7c7966!8m2!3d33.5515779!4d73.1241695!16s%2Fg%2F11k3jfgc2_!19sChIJT3DfgUTt3zgRZnl8G-SlU2A?authuser=0&hl=en&rclk=1,"Madical, Islamabad"
135,medicalfrequencycent_33.666540_73.076244,"Medical Frequency Centre, I-8 Markaz","Medical Frequency Centre, I-8 Markaz
3.7(6)
Medical Center ·  · B-21/22, Pakland Business Center
+92 51 2719100",Medical Center,,33.6665401,73.0762442,"https://www.google.com/maps/place/Medical+Frequency+Centre,+I-8+Markaz/data=!4m7!3m6!1s0x38df9569504c1549:0xa255e23f7807c7e6!8m2!3d33.6665401!4d73.0762442!16s%2Fg%2F11j8h164gk!19sChIJSRVMUGmV3zgR5scHeD_iVaI?authuser=0&hl=en&rclk=1","Madical, Islamabad"
136,amanateyehospitalisl_33.722236_73.063935,Amanat Eye Hospital Islamabad,"Amanat Eye Hospital Islamabad
4.5(652)
Eye care center ·  · Auqaf Building, Street 61
Open ⋅ Closes 8 PM · +92 51 8438021",Eye care center,Open,33.7222357,73.0639353,https://www.google.com/maps/place/Amanat+Eye+Hospital+Islamabad/data=!4m7!3m6!1s0x38dfbf9f8ba6d2eb:0x91f7d54a9e1918f9!8m2!3d33.7222357!4d73.0639353!16s%2Fg%2F1tkbwlq7!19sChIJ69Kmi5-_3zgR-RgZnkrV95E?authuser=0&hl=en&rclk=1,"Madical, Islamabad"
137,hayatmedicalcenter_33.664676_73.152822,Hayat Medical Center,"Hayat Medical Center
5.0(5)
Hospital · house 7 street 1 chatha bakhtawer Islamabad Chatha bakhtawar
Open 24 hours · +92 321 5330510",Hospital,Open 24 hours,33.6646755,73.1528219,https://www.google.com/maps/place/Hayat+Medical+Center/data=!4m7!3m6!1s0x38dfebdbe8feeca1:0x1a2c58fd65d3a424!8m2!3d33.6646755!4d73.1528219!16s%2Fg%2F11vbwlhb2g!19sChIJoez-6Nvr3zgRJKTTZf1YLBo?authuser=0&hl=en&rclk=1,"Madical, Islamabad"
138,medicsi_33.715287_73.063448,MEDICSi,"MEDICSi
3.3(205)
Hospital ·  · Saudi-Pak Towers، First floor, Low Rise، 61-A Jinnah Ave
Open 24 hours · +92 51 111 125 128",Hospital,Open 24 hours,33.7152872,73.0634478,https://www.google.com/maps/place/MEDICSi/data=!4m7!3m6!1s0x38dfbfa29a9387f9:0xfed9ddb53dd2a454!8m2!3d33.7152872!4d73.0634478!16s%2Fg%2F1tfrq91s!19sChIJ-YeTmqK_3zgRVKTSPbXd2f4?authuser=0&hl=en&rclk=1,"Madical, Islamabad"
139,medicsiopd2jinnahsup_33.721294_73.059258,Medicsi OPD 2 Jinnah Super,"Medicsi OPD 2 Jinnah Super
3.2(111)
Maternity hospital ·  · Plot No, 134 Jinnah Super Market،, near PSO Pump
Open ⋅ Closes 6 PM · +92 51 111 111 128",Maternity hospital,Open,33.7212942,73.0592575,https://www.google.com/maps/place/Medicsi+OPD+2+Jinnah+Super/data=!4m7!3m6!1s0x38dfbfa70ddf02e9:0x6229cedab4dd18ae!8m2!3d33.7212942!4d73.0592575!16s%2Fg%2F1tdkw15v!19sChIJ6QLfDae_3zgRrhjdtNrOKWI?authuser=0&hl=en&rclk=1,"Madical, Islamabad"
140,drasadtamizuddinniza_33.710747_73.040610,Dr Asad Tamizuddin Nizami - Nizami Health Care Islamabad,"Dr Asad Tamizuddin Nizami - Nizami Health Care Islamabad
4.6(9)
Mental health service · P26R+76X
Closed ⋅ Opens 4 PM Fri · +92 332 6060000",Mental health service,Closed,33.710747,73.0406098,https://www.google.com/maps/place/Dr+Asad+Tamizuddin+Nizami+-+Nizami+Health+Care+Islamabad/data=!4m7!3m6!1s0x38dfbfe1e9daee19:0x655285179b1968f6!8m2!3d33.710747!4d73.0406098!16s%2Fg%2F11jcn0y1dl!19sChIJGe7a6eG_3zgR9mgZmxeFUmU?authuser=0&hl=en&rclk=1,"Madical, Islamabad"
141,fatimamedicaldentalc_33.710971_73.039596,FATIMA MEDICAL & DENTAL CENTRE,"FATIMA MEDICAL & DENTAL CENTRE
5.0(6)
Hospital · Pakistan Wetlands Programme GIS Lab, D Street Number 14
+92 322 5069999",Hospital,,33.7109713,73.0395955,https://www.google.com/maps/place/FATIMA+MEDICAL+%26+DENTAL+CENTRE/data=!4m7!3m6!1s0x38dfbe52c70ba4e7:0x75c1884e4207d0ff!8m2!3d33.7109713!4d73.0395955!16s%2Fg%2F11c37fyvz7!19sChIJ56QLx1K-3zgR_9AHQk6IwXU?authuser=0&hl=en&rclk=1,"Madical, Islamabad"
142,islamabadpharmapharm_33.707936_73.038066,Islamabad Pharma Pharmacy and Healthcare Centre,"Islamabad Pharma Pharmacy and Healthcare Centre
4.0(5)
Hospital · 12 Street 44
Open 24 hours · +92 332 9407614",Hospital,Open 24 hours,33.7079356,73.0380657,https://www.google.com/maps/place/Islamabad+Pharma+Pharmacy+and+Healthcare+Centre/data=!4m7!3m6!1s0x38dfa3da25b7a01b:0xe49f711cb29ad9dc!8m2!3d33.7079356!4d73.0380657!16s%2Fg%2F11qn10y2p_!19sChIJG6C3Jdqj3zgR3Nmashxxn-Q?authuser=0&hl=en&rclk=1,"Madical, Islamabad"
143,totalkarediagnosticm_33.684449_72.986097,"TotalKare Diagnostic, Medical, Aesthetic Center and Laboratories","TotalKare Diagnostic, Medical, Aesthetic Center and Laboratories
4.7(35)
Medical diagnostic imaging center · First floor, Alkaram Plaza, above HBL
Open ⋅ Closes 9 PM · +92 331 0009008",Medical diagnostic imaging center,Open,33.6844491,72.986097,"https://www.google.com/maps/place/TotalKare+Diagnostic,+Medical,+Aesthetic+Center+and+Laboratories/data=!4m7!3m6!1s0x38dfbd7e3815fc43:0x229d4d4f9f956143!8m2!3d33.6844491!4d72.986097!16s%2Fg%2F11s7p_dsy5!19sChIJQ_wVOH693zgRQ2GVn09NnSI?authuser=0&hl=en&rclk=1","Madical, Islamabad"
144,touqeermedicalcentre_33.675865_73.014468,Touqeer Medical Centre,"Touqeer Medical Centre
3.9(7)
Medical clinic · M2G7+8QW
Closed ⋅ Opens 5:15 PM · +92 51 2353688",Medical clinic,Closed,33.6758645,73.0144684,https://www.google.com/maps/place/Touqeer+Medical+Centre/data=!4m7!3m6!1s0x38dfbe1fa91e5d2b:0xad5ae78340efe445!8m2!3d33.6758645!4d73.0144684!16s%2Fg%2F11cnc88l4c!19sChIJK10eqR--3zgRReTvQIPnWq0?authuser=0&hl=en&rclk=1,"Madical, Islamabad"
145,iommigrationhealthas_33.696766_73.051452,IOM Migration Health Assessment Centre,"IOM Migration Health Assessment Centre
4.0(13)
Medical Center ·  · Pakland Square Plaza
Open ⋅ Closes 5 PM · +92 51 111 466 472",Medical Center,Open,33.6967659,73.0514522,https://www.google.com/maps/place/IOM+Migration+Health+Assessment+Centre/data=!4m7!3m6!1s0x38dfbf68d08fe157:0x84b07c7818b9f7c!8m2!3d33.6967659!4d73.0514522!16s%2Fg%2F11svj_lnh8!19sChIJV-GP0Gi_3zgRfJ-LgccHSwg?authuser=0&hl=en&rclk=1,"Madical, Islamabad"
146,qaumedicalunit_33.750154_73.135930,Qau Medical Unit,"Qau Medical Unit
4.0(4)
Medical clinic · Q42P+397",Medical clinic,,33.7501539,73.1359303,https://www.google.com/maps/place/Qau+Medical+Unit/data=!4m7!3m6!1s0x38dfc1719f9e4733:0x2cc5524cc62fb63c!8m2!3d33.7501539!4d73.1359303!16s%2Fg%2F11gm783hdp!19sChIJM0een3HB3zgRPLYvxkxSxSw?authuser=0&hl=en&rclk=1,"Madical, Islamabad"
147,brigrdramjadtanveero_33.711061_73.041423,Brig (R) Dr. Amjad Tanveer - One of the best and highly regarded medical specialist in Islamabad,"Brig (R) Dr. Amjad Tanveer - One of the best and highly regarded medical specialist in Islamabad
5.0(3)
Medical clinic · Kiran Plaza, 3 Kohistan Rd, adjacent IDC
Open ⋅ Closes 6 PM · +92 321 5204304",Medical clinic,Open,33.7110605,73.0414235,https://www.google.com/maps/place/Brig+%28R%29+Dr.+Amjad+Tanveer+-+One+of+the+best+and+highly+regarded+medical+specialist+in+Islamabad/data=!4m7!3m6!1s0x38dfbf9fa5cebde3:0x3fb127e5d6f63296!8m2!3d33.7110605!4d73.0414235!16s%2Fg%2F11sjfzx9m3!19sChIJ473OpZ-_3zgRljL21uUnsT8?authuser=0&hl=en&rclk=1,"Madical, Islamabad"
148,zainmedicalcentre_33.673685_72.946292,Zain Medical Centre,"Zain Medical Centre
5.0(3)
Hospital · E-13
+92 333 5261093",Hospital,,33.6736855,72.9462917,https://www.google.com/maps/place/Zain+Medical+Centre/data=!4m7!3m6!1s0x38dfbd82a6c33c09:0xa05d75f3dfbbdeb9!8m2!3d33.6736855!4d72.9462917!16s%2Fg%2F12mkzjp82!19sChIJCTzDpoK93zgRud673_N1XaA?authuser=0&hl=en&rclk=1,"Madical, Islamabad"
149,islamabadmedicaldent_33.566340_73.177331,ISLAMABAD MEDICAL DENTAL CENTRE,"ISLAMABAD MEDICAL DENTAL CENTRE
3.1(17)
Hospital · Main Jinnah Avenue
Closed ⋅ Opens 5 PM · +92 332 8222848",Hospital,Closed,33.5663398,73.1773309,https://www.google.com/maps/place/ISLAMABAD+MEDICAL+DENTAL+CENTRE/data=!4m7!3m6!1s0x38dfeda0d98d8c25:0x4edbdb9fa8ad38b!8m2!3d33.5663398!4d73.1773309!16s%2Fg%2F11h84jk23n!19sChIJJYyN2aDt3zgRi9OK-rm97QQ?authuser=0&hl=en&rclk=1,"Madical, Islamabad"
150,asasmedicalandrehabi_33.705485_73.043308,ASAS Medical and Rehabilitation Complex ( AMRC),"ASAS Medical and Rehabilitation Complex ( AMRC)
4.9(17)
Medical Center · 38-A Nazim-ud-din Rd
Opens soon ⋅ 3 PM · +92 333 5063247",Medical Center,Opens soon,33.7054847,73.0433076,https://www.google.com/maps/place/ASAS+Medical+and+Rehabilitation+Complex+%28+AMRC%29/data=!4m7!3m6!1s0x38dfbf003672a94d:0xf3931f95b786d717!8m2!3d33.7054847!4d73.0433076!16s%2Fg%2F11y5vzwny6!19sChIJTalyNgC_3zgRF9eGt5Ufk_M?authuser=0&hl=en&rclk=1,"Madical, Islamabad"
151,faisalmedicalcomplex_33.669741_72.950163,Faisal Medical Complex,"Faisal Medical Complex
5.0(2)
Hospital ·  · Ahmed market, Hospital chowk, Main Golra Rd, opp. Golra Railway station, near Dar ul Huda
Open ⋅ Closes 10 PM · +92 336 5313306",Hospital,Open,33.6697406,72.9501632,https://www.google.com/maps/place/Faisal+Medical+Complex/data=!4m7!3m6!1s0x38dfbdc6f7a337b1:0x2ca0fc65357204b7!8m2!3d33.6697406!4d72.9501632!16s%2Fg%2F11l5vbxlms!19sChIJsTej98a93zgRtwRyNWX8oCw?authuser=0&hl=en&rclk=1,"Madical, Islamabad"
152,gamcapakistan_33.712094_73.038127,Gamca Pakistan,"Gamca Pakistan
4.2(6)
Medical group ·  · Office # 9, Victory Tower
Open 24 hours · +92 334 5084871",Medical group,Open 24 hours,33.712094,73.0381271,https://www.google.com/maps/place/Gamca+Pakistan/data=!4m7!3m6!1s0x38dfbf663de1de97:0x5787151e558b811d!8m2!3d33.712094!4d73.0381271!16s%2Fg%2F11rz3s89sn!19sChIJl97hPWa_3zgRHYGLVR4Vh1c?authuser=0&hl=en&rclk=1,"Madical, Islamabad"
153,khaliqraheemmedicalc_33.741170_73.177910,Khaliq Raheem Medical Centre,"Khaliq Raheem Medical Centre
4.5(11)
Medical clinic · Kiani Road kothatial
Open ⋅ Closes 8 PM · +92 334 5345155",Medical clinic,Open,33.7411702,73.17791,https://www.google.com/maps/place/Khaliq+Raheem+Medical+Centre/data=!4m7!3m6!1s0x38dfc15006f04d3d:0x12bf6b0cefe41335!8m2!3d33.7411702!4d73.17791!16s%2Fg%2F11ffm1gsk5!19sChIJPU3wBlDB3zgRNRPk7wxrvxI?authuser=0&hl=en&rclk=1,"Madical, Islamabad"
154,ayeshamedicalstorean_33.668048_72.987567,AYESHA MEDICAL STORE AND DENTAL CLINIC,"AYESHA MEDICAL STORE AND DENTAL CLINIC
5.0(2)
Medical Center · G11/2 MAIN, Service Rd W",Medical Center,,33.6680478,72.9875671,https://www.google.com/maps/place/AYESHA+MEDICAL+STORE+AND+DENTAL+CLINIC/data=!4m7!3m6!1s0x38dfbd2096c6afcb:0xe5a23bef94e2adba!8m2!3d33.6680478!4d72.9875671!16s%2Fg%2F11rhsyhwxh!19sChIJy6_GliC93zgRuq3ilO87ouU?authuser=0&hl=en&rclk=1,"Madical, Islamabad"
155,alfayyazkhanclinicol_33.737271_73.175648,Al Fayyaz Khan Clinic. (Old Name)-Khan Medical Centre,"Al Fayyaz Khan Clinic. (Old Name)-Khan Medical Centre
No reviews
Medical clinic ·  · Main Murree road, near Abbasi Hotel, opposite CSD Store
Open ⋅ Closes 10 PM · +92 301 5563495",Medical clinic,Open,33.7372705,73.1756485,https://www.google.com/maps/place/Al+Fayyaz+Khan+Clinic.+%28Old+Name%29-Khan+Medical+Centre/data=!4m7!3m6!1s0x38dfc18228b1ec0b:0x3f756c0e8ec8b268!8m2!3d33.7372705!4d73.1756485!16s%2Fg%2F12mkw9q2x!19sChIJC-yxKILB3zgRaLLIjg5sdT8?authuser=0&hl=en&rclk=1,"Madical, Islamabad"
156,aljannatfalahimedica_33.687711_73.033907,Aljannat Falahi medical center,"Aljannat Falahi medical center
No reviews
Medical Center · M2QM+3HM
Open ⋅ Closes 8 PM · +92 51 2282731",Medical Center,Open,33.6877115,73.0339072,https://www.google.com/maps/place/Aljannat+Falahi+medical+center/data=!4m7!3m6!1s0x38dfbf0076702b5f:0x6594114d717109b0!8m2!3d33.6877115!4d73.0339072!16s%2Fg%2F11wtmqdct7!19sChIJXytwdgC_3zgRsAlxcU0RlGU?authuser=0&hl=en&rclk=1,"Madical, Islamabad"
