Index,Place Id,Name,Address,Category,Status,Latitude,Longitude,Link,SearchKeyword
1,na_noloc,,,,,,,,"Medicine, Islamabad"
5,hanifmedicalcomplexf_33.609167_72.865749,"Hanif Medical Complex - Faisal Town, Islamabad",,Pharmacy,Open 24 hours,33.6091671,72.8657494,"https://www.google.com/maps/place/Hanif+Medical+Complex+-+Faisal+Town,+Islamabad/data=!4m7!3m6!1s0x38df997275d079bd:0x9ed1a4a85f55ebed!8m2!3d33.6091671!4d72.8657494!16s%2Fg%2F11k3rthrtk!19sChIJvXnQdXKZ3zgR7etVX6ik0Z4?authuser=0&hl=en&rclk=1","Medicine, Islamabad"
37,premiumdiagnosticand_33.703519_73.051454,Premium Diagnostic and Clinics,"Premium Diagnostic and Clinics
4.2(2,549)
Medical school ·  · Ibn-e-Sina Rd
Open 24 hours · +92 51 9261170",Medical school,Open 24 hours,33.7035185,73.0514542,https://www.google.com/maps/place/Premium+Diagnostic+and+Clinics/data=!4m7!3m6!1s0x38dfbfb826dae131:0xba5e1cbcad4376fe!8m2!3d33.7035185!4d73.0514542!16zL20vMGQyeGNw!19sChIJMeHaJri_3zgR_nZDrbwcXro?authuser=0&hl=en&rclk=1,"Medicine, Islamabad"
38,islamabadmedicalcent_33.687118_73.032261,Islamabad Medical Centre,"Islamabad Medical Centre
4.6(9)
Doctor · ICT, Rohtas Rd, G9 markaz
Open ⋅ Closes 9 PM · +92 51 2256966",Doctor,Open,33.6871184,73.0322605,https://www.google.com/maps/place/Islamabad+Medical+Centre/data=!4m7!3m6!1s0x38dfbe311dc56119:0x5d4fe7011e598db1!8m2!3d33.6871184!4d73.0322605!16s%2Fg%2F11xc8c18r!19sChIJGWHFHTG-3zgRsY1ZHgHnT10?authuser=0&hl=en&rclk=1,"Medicine, Islamabad"
39,islamabadmedicalcomp_33.649271_73.017190,Islamabad Medical Complex (IMC),"Islamabad Medical Complex (IMC)
3.7(158)
Hospital ·  · J2X8+PV4, Faqir Aipee Road
Open 24 hours · +92 51 906 725 102",Hospital,Open 24 hours,33.6492715,73.0171903,https://www.google.com/maps/place/Islamabad+Medical+Complex+%28IMC%29/data=!4m7!3m6!1s0x38df95bf7f63ca19:0x6d31923341485537!8m2!3d33.6492715!4d73.0171903!16s%2Fg%2F12mkz7vh9!19sChIJGcpjf7-V3zgRN1VIQTOSMW0?authuser=0&hl=en&rclk=1,"Medicine, Islamabad"
40,nustmedicalcentre_33.644090_72.997799,NUST Medical Centre,"NUST Medical Centre
4.7(28)
Medical clinic ·  · JXVX+J4M Nat'l Univ of Sciences & Technology, Ravi Rd
Open 24 hours · +92 51 90851666",Medical clinic,Open 24 hours,33.64409,72.9977989,https://www.google.com/maps/place/NUST+Medical+Centre/data=!4m7!3m6!1s0x38df95deb59e8c23:0x7babaa2f1575b6ea!8m2!3d33.64409!4d72.9977989!16s%2Fg%2F1vtqtglq!19sChIJI4yetd6V3zgR6rZ1FS-qq3s?authuser=0&hl=en&rclk=1,"Medicine, Islamabad"
41,islamabadmedicinemar_33.637658_73.144294,Islamabad Medicine Mart,"Islamabad Medicine Mart
5.0(1)
Pharmacy · Ch Rehman Plaza, Lehtrar Rd
Open ⋅ Closes 8 PM · +92 307 5100052",Pharmacy,Open,33.6376582,73.1442943,https://www.google.com/maps/place/Islamabad+Medicine+Mart/data=!4m7!3m6!1s0x38dfeb002e934247:0x26978cef2c937da4!8m2!3d33.6376582!4d73.1442943!16s%2Fg%2F11lyrkcnfc!19sChIJR0KTLgDr3zgRpH2TLO-MlyY?authuser=0&hl=en&rclk=1,"Medicine, Islamabad"
42,islamabadhomeo_33.668420_72.998312,Islamabad homeo,"Islamabad homeo
4.8(38)
Medical Center · Al Ghaffar Mall Shop#9 Ground floor
Open ⋅ Closes 10 PM · +92 300 5178485",Medical Center,Open,33.6684198,72.9983121,https://www.google.com/maps/place/Islamabad+homeo/data=!4m7!3m6!1s0x38df9564e8def301:0x305672d7fc754b1c!8m2!3d33.6684198!4d72.9983121!16s%2Fg%2F11q84lxh20!19sChIJAfPe6GSV3zgRHEt1_NdyVjA?authuser=0&hl=en&rclk=1,"Medicine, Islamabad"
43,gulbergmedicalcenter_33.597849_73.142213,Gulberg Medical Center,"Gulberg Medical Center
4.2(171)
Hospital ·  · Plot 30, Street 2, Service Road, Expressway, near Imtiaz Super Store
Open 24 hours · +92 300 8545942",Hospital,Open 24 hours,33.5978486,73.1422128,https://www.google.com/maps/place/Gulberg+Medical+Center/data=!4m7!3m6!1s0x38dfed5a7f50614f:0x681f431d7c656eaa!8m2!3d33.5978486!4d73.1422128!16s%2Fg%2F11j37g75vk!19sChIJT2FQf1rt3zgRqm5lfB1DH2g?authuser=0&hl=en&rclk=1,"Medicine, Islamabad"
44,tabibimedicalcentre_33.692288_73.030280,Tabibi Medical Centre,"Tabibi Medical Centre
4.8(77)
Hospital ·  · Stree# 5, Jahangir Market
Open 24 hours · +92 51 2324344",Hospital,Open 24 hours,33.6922879,73.0302795,https://www.google.com/maps/place/Tabibi+Medical+Centre/data=!4m7!3m6!1s0x38dfbfee5aca6f49:0x96d49ed063951d5!8m2!3d33.6922879!4d73.0302795!16s%2Fg%2F11m29ljvl1!19sChIJSW_KWu6_3zgR1VE5Bu1JbQk?authuser=0&hl=en&rclk=1,"Medicine, Islamabad"
45,universalclinicherba_33.688695_73.031620,Universal Clinic Herbal & Homeo Medical Store,"Universal Clinic Herbal & Homeo Medical Store
3.0(3)
Pharmacy · Mumtaz Plaza, Rohtas Rd, G-9 Markaz, G-9
Open now",Pharmacy,Open now,33.6886947,73.0316204,https://www.google.com/maps/place/Universal+Clinic+Herbal+%26+Homeo+Medical+Store/data=!4m7!3m6!1s0x38dfbe31b2cb341b:0xc5adfe9fd0e31fbb!8m2!3d33.6886947!4d73.0316204!16s%2Fg%2F12mkzk5xf!19sChIJGzTLsjG-3zgRux_j0J_-rcU?authuser=0&hl=en&rclk=1,"Medicine, Islamabad"
46,islamabadmedicine_33.637666_73.144314,islamabad medicine,"islamabad medicine
No reviews
Pet store · J4QV+3QF",Pet store,,33.6376657,73.1443136,https://www.google.com/maps/place/islamabad+medicine/data=!4m7!3m6!1s0x38dfeb0069d8b4a1:0xa137a3617829127!8m2!3d33.6376657!4d73.1443136!16s%2Fg%2F11w_h40xx6!19sChIJobTYaQDr3zgRJ5GCFzZ6Ewo?authuser=0&hl=en&rclk=1,"Medicine, Islamabad"
47,alimedicalcentre_33.710413_73.042016,Ali Medical Centre,"Ali Medical Centre
3.4(730)
Private hospital ·  · P26Q+JWM, Kohistan Rd
Open 24 hours · +92 51 8090200",Private hospital,Open 24 hours,33.7104129,73.0420161,https://www.google.com/maps/place/Ali+Medical+Centre/data=!4m7!3m6!1s0x38dfbfad680bca0d:0x8035f4aacf56cf3d!8m2!3d33.7104129!4d73.0420161!16s%2Fg%2F1tgw88nw!19sChIJDcoLaK2_3zgRPc9Wz6r0NYA?authuser=0&hl=en&rclk=1,"Medicine, Islamabad"
48,smartmedicaldiagnost_33.698436_73.048823,Smart Medical & Diagnostics Centre ( SMDC),"Smart Medical & Diagnostics Centre ( SMDC)
5.0(415)
Medical Center ·  · Crescent Arcade, opp. Motorway Expess
Open ⋅ Closes 10 PM · +92 51 2340383",Medical Center,Open,33.6984362,73.0488229,https://www.google.com/maps/place/Smart+Medical+%26+Diagnostics+Centre+%28+SMDC%29/data=!4m7!3m6!1s0x38dfbf2235ed90a7:0x1fa908fbadbd9842!8m2!3d33.6984362!4d73.0488229!16s%2Fg%2F11jpd2vqlr!19sChIJp5DtNSK_3zgRQpi9rfsIqR8?authuser=0&hl=en&rclk=1,"Medicine, Islamabad"
49,alihospital_33.680692_73.035455,Ali Hospital,"Ali Hospital
3.8(90)
Hospital ·  · M2JP+75G, Street 17
Open 24 hours · +92 51 2255073",Hospital,Open 24 hours,33.6806918,73.0354553,https://www.google.com/maps/place/Ali+Hospital/data=!4m7!3m6!1s0x38df9513543203fb:0x1dd64dab1015462f!8m2!3d33.6806918!4d73.0354553!16s%2Fg%2F11h9sz11f_!19sChIJ-wMyVBOV3zgRL0YVEKtN1h0?authuser=0&hl=en&rclk=1,"Medicine, Islamabad"
50,drajmalosmanfatimacl_33.688607_73.013056,Dr. Ajmal Osman | Fatima Clinic F-10 | Top/Best (No.1) Specialist of Islamabad & Rawalpindi,"Dr. Ajmal Osman | Fatima Clinic F-10 | Top/Best (No.1) Specialist of Islamabad & Rawalpindi
4.8(184)
Hospital ·  · House 93 Street 44
Open ⋅ Closes 12 AM · +92 323 6833333",Hospital,Open,33.6886072,73.013056,https://www.google.com/maps/place/Dr.+Ajmal+Osman+%7C+Fatima+Clinic+F-10+%7C+Top%2FBest+%28No.1%29+Specialist+of+Islamabad+%26+Rawalpindi/data=!4m7!3m6!1s0x38dfbe1693dca1a1:0x4d05249fbcd133d5!8m2!3d33.6886072!4d73.013056!16s%2Fg%2F11fxx64hvf!19sChIJoaHckxa-3zgR1TPRvJ8kBU0?authuser=0&hl=en&rclk=1,"Medicine, Islamabad"
51,islamabadmedicalands_33.716275_73.084751,Islamabad Medical and Surgical Hospital,"Islamabad Medical and Surgical Hospital
3.7(57)
Hospital ·  · Melody Market
Open 24 hours · +92 51 2603566",Hospital,Open 24 hours,33.7162751,73.0847509,https://www.google.com/maps/place/Islamabad+Medical+and+Surgical+Hospital/data=!4m7!3m6!1s0x38dfbf862d3909cb:0x867c7db711a27e7c!8m2!3d33.7162751!4d73.0847509!16s%2Fg%2F11dyqrrqkw!19sChIJywk5LYa_3zgRfH6iEbd9fIY?authuser=0&hl=en&rclk=1,"Medicine, Islamabad"
52,eshifahomehealth_33.667854_73.075846,eShifa Home Health,"eShifa Home Health
3.8(54)
Home health care service ·  · Plot No. 17 & 18, 2nd Floor, EOBI Building
Open 24 hours · +92 51 111 111 567",Home health care service,Open 24 hours,33.6678545,73.075846,https://www.google.com/maps/place/eShifa+Home+Health/data=!4m7!3m6!1s0x38df9500c7c75e3b:0xcd19f0308c0dfe4c!8m2!3d33.6678545!4d73.075846!16s%2Fg%2F11p5hm1xhf!19sChIJO17HxwCV3zgRTP4NjDDwGc0?authuser=0&hl=en&rclk=1,"Medicine, Islamabad"
53,naeemmedicalstorebha_33.739688_73.179688,Naeem medical store Bharakhou Islamabad,"Naeem medical store Bharakhou Islamabad
4.7(3)
Homeopathic pharmacy · Murree Rd P5QH+VV5 Athal, Chowk
Open ⋅ Closes 9 PM · +92 331 5388003",Homeopathic pharmacy,Open,33.7396875,73.1796875,https://www.google.com/maps/place/Naeem+medical+store+Bharakhou+Islamabad/data=!4m7!3m6!1s0x38dfc1802ed97683:0xee3d2d51661ca197!8m2!3d33.7396875!4d73.1796875!16s%2Fg%2F12mkw8t0g!19sChIJg3bZLoDB3zgRl6EcZlEtPe4?authuser=0&hl=en&rclk=1,"Medicine, Islamabad"
54,malikmedicalstorehom_33.707977_73.089746,"Malik Medical Store. (Homeopathic, Allopathic And Unani Medicines)","Malik Medical Store. (Homeopathic, Allopathic And Unani Medicines)
4.8(28)
Pharmacy · Municipal Rd
Open ⋅ Closes 10 PM · +92 51 2206092",Pharmacy,Open,33.707977,73.0897463,"https://www.google.com/maps/place/Malik+Medical+Store.+%28Homeopathic,+Allopathic+And+Unani+Medicines%29/data=!4m7!3m6!1s0x38dfc0750b932d49:0x17744ef4ac16d77f!8m2!3d33.707977!4d73.0897463!16s%2Fg%2F119wnsyzp!19sChIJSS2TC3XA3zgRf9cWrPROdBc?authuser=0&hl=en&rclk=1","Medicine, Islamabad"
55,shaheenhomeoclinicst_33.708778_73.055971,Shaheen Homeo Clinic & Store,"Shaheen Homeo Clinic & Store
3.6(5)
Medical clinic · United Plaza, Shop 2, Fazal-ul-Haq Road
Open ⋅ Closes 10 PM · +92 51 2347383",Medical clinic,Open,33.7087781,73.0559715,https://www.google.com/maps/place/Shaheen+Homeo+Clinic+%26+Store/data=!4m7!3m6!1s0x38dfbfbbaf53db3b:0x7d3806b9e40f7e10!8m2!3d33.7087781!4d73.0559715!16s%2Fg%2F12mkw9zp2!19sChIJO9tTr7u_3zgREH4P5LkGOH0?authuser=0&hl=en&rclk=1,"Medicine, Islamabad"
56,medicalstore_33.693013_73.059032,Medical Store,"Medical Store
3.8(16)
Pharmacy · Khumrial Centre, St 22, G-8-4, G-8
+92 317 3824809",Pharmacy,,33.6930126,73.0590319,https://www.google.com/maps/place/Medical+Store/data=!4m7!3m6!1s0x38dfbfc377699507:0x342e468cb3703140!8m2!3d33.6930126!4d73.0590319!16s%2Fg%2F12mkzc9mg!19sChIJB5Vpd8O_3zgRQDFws4xGLjQ?authuser=0&hl=en&rclk=1,"Medicine, Islamabad"
57,instituteofregenerat_33.515771_73.167394,Institute of Regenerative Medicine (IRM Hospital),"Institute of Regenerative Medicine (IRM Hospital)
4.4(120)
Medical Center ·  · Institute of Regenerative Medicine 397 Kortana, GT Rd, opposite Gate 4
Open 24 hours · +92 51 3757635",Medical Center,Open 24 hours,33.5157711,73.1673939,https://www.google.com/maps/place/Institute+of+Regenerative+Medicine+%28IRM+Hospital%29/data=!4m7!3m6!1s0x38dff374f326913b:0x78cee8166e11606f!8m2!3d33.5157711!4d73.1673939!16s%2Fg%2F11mvlqkhdg!19sChIJO5Em83Tz3zgRb2ARbhbozng?authuser=0&hl=en&rclk=1,"Medicine, Islamabad"
58,qasimhomeopathicmedi_33.683999_73.041054,Qasim Homeopathic Medical Store,"Qasim Homeopathic Medical Store
3.6(8)
Pharmacy · Nishtar Market, Street 55
Open ⋅ Closes 11:30 PM · +92 300 7461667",Pharmacy,Open,33.6839995,73.0410541,https://www.google.com/maps/place/Qasim+Homeopathic+Medical+Store/data=!4m7!3m6!1s0x38dfbfd33894e30b:0xbc5a9b1fd85514e8!8m2!3d33.6839995!4d73.0410541!16s%2Fg%2F12mkz5m0h!19sChIJC-OUONO_3zgR6BRV2B-bWrw?authuser=0&hl=en&rclk=1,"Medicine, Islamabad"
59,dlightpharmacy_33.708688_73.055937,D-Light Pharmacy,"D-Light Pharmacy
4.1(35)
Pharmacy · Khyber Plaza, AKM Fazl-ul-Haq Rd
Open 24 hours · +92 51 2347363",Pharmacy,Open 24 hours,33.7086875,73.0559375,https://www.google.com/maps/place/D-Light+Pharmacy/data=!4m7!3m6!1s0x38dfbfbba8ca80e1:0x73268a4d58e72ecc!8m2!3d33.7086875!4d73.0559375!16s%2Fg%2F11xhx58g4!19sChIJ4YDKqLu_3zgRzC7nWE2KJnM?authuser=0&hl=en&rclk=1,"Medicine, Islamabad"
60,islamabadmedicspharm_33.684782_72.986486,ISLAMABAD MEDICS PHARMACY,"ISLAMABAD MEDICS PHARMACY
5.0(4)
Oriental medicine store · Select Center, inside Sauda sulf grocery store
+92 333 2971700",Oriental medicine store,,33.684782,72.9864865,https://www.google.com/maps/place/ISLAMABAD+MEDICS+PHARMACY/data=!4m7!3m6!1s0x38dfbd004e3b7d59:0xa68af23859d39656!8m2!3d33.684782!4d72.9864865!16s%2Fg%2F11v_1bqrh_!19sChIJWX07TgC93zgRVpbTWTjyiqY?authuser=0&hl=en&rclk=1,"Medicine, Islamabad"
61,demedicine_33.623804_73.121432,De Medicine,"De Medicine
4.5(2)
Pharmacy · Street No. 5
Open ⋅ Closes 11:30 PM · +92 333 3300912",Pharmacy,Open,33.6238039,73.1214317,https://www.google.com/maps/place/De+Medicine/data=!4m7!3m6!1s0x38dfeb1e0e1b1897:0x687b17c86b780726!8m2!3d33.6238039!4d73.1214317!16s%2Fg%2F11hzslsj6z!19sChIJlxgbDh7r3zgRJgd4a8gXe2g?authuser=0&hl=en&rclk=1,"Medicine, Islamabad"
62,ameerpharmacy_33.699184_73.048760,Ameer Pharmacy,"Ameer Pharmacy
4.1(11)
Pharmacy · Al-Abbas Plaza
Open ⋅ Closes 12 AM · +92 51 2253329",Pharmacy,Open,33.6991843,73.0487602,https://www.google.com/maps/place/Ameer+Pharmacy/data=!4m7!3m6!1s0x38dfbfc8e36d49b5:0x77d909ac723fbf43!8m2!3d33.6991843!4d73.0487602!16s%2Fg%2F12mkwb59z!19sChIJtUlt48i_3zgRQ78_cqwJ2Xc?authuser=0&hl=en&rclk=1,"Medicine, Islamabad"
63,avicennaclinic_33.710497_73.038990,Avicenna Clinic,"Avicenna Clinic
5.0(4)
Hospital ·  · Khasif Plaza, Parking, offJohar Road
Open ⋅ Closes 11 PM · +92 51 8448474",Hospital,Open,33.7104968,73.03899,https://www.google.com/maps/place/Avicenna+Clinic/data=!4m7!3m6!1s0x38dfbfae8c8e2981:0xabae6ce0c269947!8m2!3d33.7104968!4d73.03899!16s%2Fg%2F11fn242f7y!19sChIJgSmOjK6_3zgRR5kmDM7mugo?authuser=0&hl=en&rclk=1,"Medicine, Islamabad"
64,islamabdpharmapharma_33.658479_72.856157,ISLAMABD PHARMA PHARMACY & HEALTH CARE CENTRE,"ISLAMABD PHARMA PHARMACY & HEALTH CARE CENTRE
4.7(15)
Pharmacy ·  · MV43+W6C, Markaz Rd
Open ⋅ Closes 12 AM · +92 51 2766660",Pharmacy,Open,33.6584786,72.8561569,https://www.google.com/maps/place/ISLAMABD+PHARMA+PHARMACY+%26+HEALTH+CARE+CENTRE/data=!4m7!3m6!1s0x38dfa3cc982ead61:0xb70a1fe013f72e7f!8m2!3d33.6584786!4d72.8561569!16s%2Fg%2F11qn6v1m3h!19sChIJYa0umMyj3zgRfy73E-AfCrc?authuser=0&hl=en&rclk=1,"Medicine, Islamabad"
65,ajkcentralmedicinest_33.665018_73.045614,AJK Central Medicine Store,"AJK Central Medicine Store
5.0(2)
Pharmacy · 5 Khayaban-e-Johar
Open now",Pharmacy,Open now,33.6650181,73.0456143,https://www.google.com/maps/place/AJK+Central+Medicine+Store/data=!4m7!3m6!1s0x38df95d0d89cecd3:0x540e862f7fb2189d!8m2!3d33.6650181!4d73.0456143!16s%2Fg%2F11h7rntqm8!19sChIJ0-yc2NCV3zgRnRiyfy-GDlQ?authuser=0&hl=en&rclk=1,"Medicine, Islamabad"
66,shifamedicalcenter_33.673540_73.020375,Shifa Medical Center,"Shifa Medical Center
2.7(77)
Hospital ·  · 3rd Rd
Open ⋅ Closes 11 PM · +92 51 8469000",Hospital,Open,33.6735397,73.0203752,https://www.google.com/maps/place/Shifa+Medical+Center/data=!4m7!3m6!1s0x38df958a6d156e65:0x9bc9952b6bf7f2e4!8m2!3d33.6735397!4d73.0203752!16s%2Fg%2F11c2qg7bdr!19sChIJZW4VbYqV3zgR5PL3ayuVyZs?authuser=0&hl=en&rclk=1,"Medicine, Islamabad"
67,mahammedicalstore_33.648141_73.040269,Maham Medical Store,"Maham Medical Store
5.0(5)
Pharmacy · J2XR+742
Open ⋅ Closes 11 PM",Pharmacy,Open,33.6481406,73.0402686,https://www.google.com/maps/place/Maham+Medical+Store/data=!4m7!3m6!1s0x38df95a763c4bf31:0x37e5bd298b3954ab!8m2!3d33.6481406!4d73.0402686!16s%2Fg%2F11f0wkgssr!19sChIJMb_EY6eV3zgRq1Q5iym95Tc?authuser=0&hl=en&rclk=1,"Medicine, Islamabad"
68,islamabadmedicalcent_33.624176_73.149064,Islamabad Medical Centre (IMC),"Islamabad Medical Centre (IMC)
4.8(6)
Medical Center · J4FX+MJG
Open 24 hours · +92 334 4440614",Medical Center,Open 24 hours,33.6241763,73.1490642,https://www.google.com/maps/place/Islamabad+Medical+Centre+%28IMC%29/data=!4m7!3m6!1s0x38dfeb0072e86699:0x9ed9a420f347b290!8m2!3d33.6241763!4d73.1490642!16s%2Fg%2F11wqv6mpqx!19sChIJmWbocgDr3zgRkLJH8yCk2Z4?authuser=0&hl=en&rclk=1,"Medicine, Islamabad"
69,parachamedicalcentre_33.719683_73.170076,Paracha Medical Centre,"Paracha Medical Centre
3.6(7)
Pharmacy · 3 Korang Rd
Open ⋅ Closes 9 PM · +92 333 9624552",Pharmacy,Open,33.7196829,73.1700764,https://www.google.com/maps/place/Paracha+Medical+Centre/data=!4m7!3m6!1s0x38dfc18d737738f5:0x81fa7ea30bf4b583!8m2!3d33.7196829!4d73.1700764!16s%2Fg%2F11csp9fzzg!19sChIJ9Th3c43B3zgRg7X0C6N--oE?authuser=0&hl=en&rclk=1,"Medicine, Islamabad"
70,noorsmedicalcentre_33.697966_73.048813,Noor's Medical Centre,"Noor's Medical Centre
5.0(1)
Pharmacy · Shop No 6, Next to TCS Office, Executive Complex
Open ⋅ Closes 9 PM · +92 51 8735494",Pharmacy,Open,33.6979657,73.048813,https://www.google.com/maps/place/Noor%27s+Medical+Centre/data=!4m7!3m6!1s0x38dfbf88fe262215:0x72fb8060a2c3b211!8m2!3d33.6979657!4d73.048813!16s%2Fg%2F11lsmcdx4m!19sChIJFSIm_oi_3zgREbLDomCA-3I?authuser=0&hl=en&rclk=1,"Medicine, Islamabad"
71,altmedhospital_33.699519_72.986296,ALTMED.Hospital,"ALTMED.Hospital
5.0(3)
Alternative medicine practitioner · Block-82, Main Service Rd N
Open ⋅ Closes 8 PM · +92 311 1666683",Alternative medicine practitioner,Open,33.6995189,72.9862962,https://www.google.com/maps/place/ALTMED.Hospital/data=!4m7!3m6!1s0x38dfbdffeadd8b95:0xeec7d96f721b9634!8m2!3d33.6995189!4d72.9862962!16s%2Fg%2F11sy41dfrp!19sChIJlYvd6v-93zgRNJYbcm_Zx-4?authuser=0&hl=en&rclk=1,"Medicine, Islamabad"
72,rawalinstituteofheal_33.632441_73.122416,Rawal Institute of Health Sciences,"Rawal Institute of Health Sciences
4.1(856)
Medical school ·  · Almehrban Road, Madina Town, Lehtrar Rd
Open 24 hours · +92 51 2617381",Medical school,Open 24 hours,33.6324412,73.1224157,https://www.google.com/maps/place/Rawal+Institute+of+Health+Sciences/data=!4m7!3m6!1s0x38dfeb103acb523b:0x83428a0541285c4e!8m2!3d33.6324412!4d73.1224157!16s%2Fg%2F1hdzydn2n!19sChIJO1LLOhDr3zgRTlwoQQWKQoM?authuser=0&hl=en&rclk=1,"Medicine, Islamabad"
73,multimedicalcentre_33.685271_72.826074,Multi Medical Centre,"Multi Medical Centre
3.9(56)
Hospital ·  · Multi Hospital, near MPCHS Site office
Open 24 hours · +92 51 5443628",Hospital,Open 24 hours,33.6852715,72.8260742,https://www.google.com/maps/place/Multi+Medical+Centre/data=!4m7!3m6!1s0x38dfa235c5388e15:0x8d93227f932c1781!8m2!3d33.6852715!4d72.8260742!16s%2Fg%2F11f10g_81v!19sChIJFY44xTWi3zgRgRcsk38ik40?authuser=0&hl=en&rclk=1,"Medicine, Islamabad"
74,irummedicalcomplex_33.644860_73.170575,Irum Medical Complex,"Irum Medical Complex
4.4(19)
Hospital ·  · J5VC+W79
Open 24 hours · +92 321 5050954",Hospital,Open 24 hours,33.6448595,73.1705751,https://www.google.com/maps/place/Irum+Medical+Complex/data=!4m7!3m6!1s0x38dfebafc756fbc3:0x9bc96ddc95549e74!8m2!3d33.6448595!4d73.1705751!16s%2Fg%2F11gh9p0pkc!19sChIJw_tWx6_r3zgRdJ5UldxtyZs?authuser=0&hl=en&rclk=1,"Medicine, Islamabad"
75,themedicinepharmacy_33.517860_73.086334,The Medicine - Pharmacy,"The Medicine - Pharmacy
5.0(5)
Pharmacy · G39P+4GW
Open ⋅ Closes 12 AM · +92 332 0069226",Pharmacy,Open,33.5178602,73.0863336,https://www.google.com/maps/place/The+Medicine+-+Pharmacy/data=!4m7!3m6!1s0x38df930d08d66e7b:0xba9e1891a25c2fe4!8m2!3d33.5178602!4d73.0863336!16s%2Fg%2F11h2gl_t2t!19sChIJe27WCA2T3zgR5C9copEYnro?authuser=0&hl=en&rclk=1,"Medicine, Islamabad"
76,advancedinternationa_33.696577_73.050456,Advanced International Hospital Islamabad,"Advanced International Hospital Islamabad
4.5(591)
Hospital ·  · 12-2G Markaz Rd
Open 24 hours · +92 51 111 786 005",Hospital,Open 24 hours,33.6965775,73.0504561,https://www.google.com/maps/place/Advanced+International+Hospital+Islamabad/data=!4m7!3m6!1s0x38dfbf8a6764276f:0xdbb21f59afe3a45b!8m2!3d33.6965775!4d73.0504561!16s%2Fg%2F11hnbz_9lk!19sChIJbydkZ4q_3zgRW6Tjr1kfsts?authuser=0&hl=en&rclk=1,"Medicine, Islamabad"
77,zainabpharmacy_33.697083_73.051026,Zainab Pharmacy,"Zainab Pharmacy
4.3(14)
Pharmacy ·  · Medicine Plaza, M3W2+R86 Zainab Pharmacy, Markaz, opposite Hanna Road
Open ⋅ Closes 2 AM · +92 51 2340095",Pharmacy,Open,33.6970831,73.0510257,https://www.google.com/maps/place/Zainab+Pharmacy/data=!4m7!3m6!1s0x38dfbfc837750cd7:0x40185ab86a261347!8m2!3d33.6970831!4d73.0510257!16s%2Fg%2F11qn9s0_hn!19sChIJ1wx1N8i_3zgRRxMmarhaGEA?authuser=0&hl=en&rclk=1,"Medicine, Islamabad"
78,medicinepoint_33.690087_73.031789,Medicine Point,"Medicine Point
5.0(1)
Pharmacy · Mehran Plaza, Rohtas Rd, G-9 Markaz, G-9
Open now",Pharmacy,Open now,33.6900874,73.0317888,https://www.google.com/maps/place/Medicine+Point/data=!4m7!3m6!1s0x38dfbe3102b30bd9:0xf1cd3f2df2e12041!8m2!3d33.6900874!4d73.0317888!16s%2Fg%2F12mkzj4mh!19sChIJ2QuzAjG-3zgRQSDh8i0_zfE?authuser=0&hl=en&rclk=1,"Medicine, Islamabad"
79,anammedicalveterinar_33.643623_73.162878,Anam Medical Veterinary & Departmental Store,"Anam Medical Veterinary & Departmental Store
4.8(5)
Pharmacy · Lehtrar Rd Taramri
Open ⋅ Closes 9:30 PM · +92 51 2241858",Pharmacy,Open,33.6436226,73.1628784,https://www.google.com/maps/place/Anam+Medical+Veterinary+%26+Departmental+Store/data=!4m7!3m6!1s0x38dfebc916176965:0xd7f8878c1af2ee16!8m2!3d33.6436226!4d73.1628784!16s%2Fg%2F12mkw9nkw!19sChIJZWkXFsnr3zgRFu7yGoyH-Nc?authuser=0&hl=en&rclk=1,"Medicine, Islamabad"
80,legalmedicine_33.721762_73.057720,Legal Medicine,"Legal Medicine
4.9(7)
Pharmacy · Shop 2A, Block 12C, College Rd, F-7 Markaz, Jinnah Super Market
Open ⋅ Closes 11:30 PM · +92 51 2651037",Pharmacy,Open,33.721762,73.0577195,https://www.google.com/maps/place/Legal+Medicine/data=!4m7!3m6!1s0x38dfbfa74905ae83:0x2d2bf80bf58b5db2!8m2!3d33.721762!4d73.0577195!16s%2Fg%2F11ynrjvhc!19sChIJg64FSae_3zgRsl2L9Qv4Ky0?authuser=0&hl=en&rclk=1,"Medicine, Islamabad"
81,islamabadmedicaldent_33.755508_73.210015,Islamabad Medical & Dental College (IMDC),"Islamabad Medical & Dental College (IMDC)
4.3(273)
Medical school ·  · Q645+2XP Wadi-ul-Ilm، Main Murree Rd
Closes soon ⋅ 3 PM ⋅ Opens 8 AM Fri · +92 51 111 464 632",Medical school,Closes soon,33.7555075,73.2100146,https://www.google.com/maps/place/Islamabad+Medical+%26+Dental+College+%28IMDC%29/data=!4m7!3m6!1s0x38dfc3b9d90b56bd:0xd1ec92ee965afe65!8m2!3d33.7555075!4d73.2100146!16s%2Fm%2F0fpjbwg!19sChIJvVYL2bnD3zgRZf5alu6S7NE?authuser=0&hl=en&rclk=1,"Medicine, Islamabad"
82,shahmedicalcare_33.704239_72.979936,Shah Medical Care,"Shah Medical Care
4.5(2)
Pharmacy · Shop 3, Usmania Tower, behind Jamil Sweets
Open ⋅ Closes 8 PM · +92 51 2751808",Pharmacy,Open,33.704239,72.9799358,https://www.google.com/maps/place/Shah+Medical+Care/data=!4m7!3m6!1s0x38dfbd37b35945e9:0x70af67ebf3a2d78a!8m2!3d33.704239!4d72.9799358!16s%2Fg%2F11sff3qrc1!19sChIJ6UVZsze93zgRitei8-tnr3A?authuser=0&hl=en&rclk=1,"Medicine, Islamabad"
83,familyhomeomedicarec_33.535727_73.112971,Family Homeo Medicare Clinic,"Family Homeo Medicare Clinic
5.0(1)
Homeopath · Shop No Lg 12 Emirates Shoppers Paradise Mall Street 12 walayat complex Shop no Lg12 Bahria Town Phase 7
Open ⋅ Closes 9 PM · +92 300 9784951",Homeopath,Open,33.5357273,73.1129712,https://www.google.com/maps/place/Family+Homeo+Medicare+Clinic/data=!4m7!3m6!1s0x38dfed0f5ce54f2b:0x2a135af481d852bd!8m2!3d33.5357273!4d73.1129712!16s%2Fg%2F11fr5q3zmh!19sChIJK0_lXA_t3zgRvVLYgfRaEyo?authuser=0&hl=en&rclk=1,"Medicine, Islamabad"
84,starmedicalstore_33.643223_73.041267,Star Medical Store,"Star Medical Store
4.5(2)
Pharmacy · J2VR+7GJ
Open ⋅ Closes 10:30 PM · +92 51 4447620",Pharmacy,Open,33.6432234,73.0412666,https://www.google.com/maps/place/Star+Medical+Store/data=!4m7!3m6!1s0x38df95505e6d4fc5:0x1554119e08ac4d02!8m2!3d33.6432234!4d73.0412666!16s%2Fg%2F11h1l0lnn0!19sChIJxU9tXlCV3zgRAk2sCJ4RVBU?authuser=0&hl=en&rclk=1,"Medicine, Islamabad"
85,azizmedicalcenter_33.730722_73.080296,Aziz Medical Center,"Aziz Medical Center
3.4(406)
Hospital ·  · 1 Street 16
Open ⋅ Closes 4:30 PM · +92 51 2873192",Hospital,Open,33.7307216,73.080296,https://www.google.com/maps/place/Aziz+Medical+Center/data=!4m7!3m6!1s0x38dfbf796636527d:0x78946fe33d68e6b6!8m2!3d33.7307216!4d73.080296!16s%2Fg%2F1wtbs84p!19sChIJfVI2Znm_3zgRtuZoPeNvlHg?authuser=0&hl=en&rclk=1,"Medicine, Islamabad"
86,hmdiagnosticsandclin_33.698479_73.048750,HM Diagnostics and Clinics,"HM Diagnostics and Clinics
4.8(213)
Medical clinic · Basement shop no. 11 & 12 Crescent Arcade, Road
Open ⋅ Closes 10 PM · +92 321 5199295",Medical clinic,Open,33.6984794,73.0487497,https://www.google.com/maps/place/HM+Diagnostics+and+Clinics/data=!4m7!3m6!1s0x38dfbfd2f102e0f9:0x3e7c6653ba9236fd!8m2!3d33.6984794!4d73.0487497!16s%2Fg%2F11jx6jbvnp!19sChIJ-eAC8dK_3zgR_TaSulNmfD4?authuser=0&hl=en&rclk=1,"Medicine, Islamabad"
87,islamabadmedicalstor_33.658437_73.059368,Islamabad Medical Store,"Islamabad Medical Store
4.4(5)
Medical Center · M355+9PH
Open ⋅ Closes 10 PM · +92 336 0906915",Medical Center,Open,33.6584369,73.0593678,https://www.google.com/maps/place/Islamabad+Medical+Store/data=!4m7!3m6!1s0x38df956b4955ef5f:0xd90ea335e36a0782!8m2!3d33.6584369!4d73.0593678!16s%2Fg%2F11xgwdprr!19sChIJX-9VSWuV3zgRggdq4zWjDtk?authuser=0&hl=en&rclk=1,"Medicine, Islamabad"
88,internationalalterna_33.696656_73.011309,International Alternative Medical Council,"International Alternative Medical Council
5.0(4)
Alternative medicine practitioner · 13, First Floor, Capital Trade Center
Closed ⋅ Opens 10 AM Sat · +92 300 8762272",Alternative medicine practitioner,Closed,33.6966562,73.011309,https://www.google.com/maps/place/International+Alternative+Medical+Council/data=!4m7!3m6!1s0x38dfbe6b63442a1d:0x331ee5c631937142!8m2!3d33.6966562!4d73.011309!16s%2Fg%2F11gbzcq6l7!19sChIJHSpEY2u-3zgRQnGTMcblHjM?authuser=0&hl=en&rclk=1,"Medicine, Islamabad"
89,medxpharmacy_33.669184_73.073893,Med-X Pharmacy,"Med-X Pharmacy
4.6(45)
Pharmacy
Open ⋅ Closes 12 AM · +92 51 4864549",Pharmacy,Open,33.6691844,73.0738928,https://www.google.com/maps/place/Med-X+Pharmacy/data=!4m7!3m6!1s0x38df954516816441:0x560ae8b79c72d0c8!8m2!3d33.6691844!4d73.0738928!16s%2Fg%2F11g6r24b36!19sChIJQWSBFkWV3zgRyNBynLfoClY?authuser=0&hl=en&rclk=1,"Medicine, Islamabad"
90,dwatsonchemistf6mark_33.729701_73.075424,D.WATSON CHEMIST F-6 MARKAZ,"D.WATSON CHEMIST F-6 MARKAZ
4.3(255)
Pharmacy ·  · P3HG+W53, School Rd
Open ⋅ Closes 1 AM · +92 51 8438111",Pharmacy,Open,33.7297008,73.0754236,https://www.google.com/maps/place/D.WATSON+CHEMIST+F-6+MARKAZ/data=!4m7!3m6!1s0x38dfbf775cc17be5:0xbe2ed3739e338621!8m2!3d33.7297008!4d73.0754236!16s%2Fg%2F1wcxbgb2!19sChIJ5XvBXHe_3zgRIYYznnPTLr4?authuser=0&hl=en&rclk=1,"Medicine, Islamabad"
91,afridimedicalstore_33.646071_73.035558,Afridi Medical Store,"Afridi Medical Store
1.0(2)
Pharmacy · Shaheen Plaza, Shop A-3, Sohni Rd, I-10-1 Markaz, I-10
Open now · +92 51 4442752",Pharmacy,Open now,33.6460713,73.0355577,https://www.google.com/maps/place/Afridi+Medical+Store/data=!4m7!3m6!1s0x38df95a66442de45:0xac50bf5b7075df7a!8m2!3d33.6460713!4d73.0355577!16s%2Fg%2F1jkxm4jbt!19sChIJRd5CZKaV3zgRet91cFu_UKw?authuser=0&hl=en&rclk=1,"Medicine, Islamabad"
92,madinamedicalstore_33.642500_72.972715,Madina Medical Store,"Madina Medical Store
3.7(3)
Pharmacy · Khayaban-e Faiz Road
Open ⋅ Closes 5 PM",Pharmacy,Open,33.6424996,72.9727147,https://www.google.com/maps/place/Madina+Medical+Store/data=!4m7!3m6!1s0x38df9727ae9ee26b:0x8d42b8de7f3b51c7!8m2!3d33.6424996!4d72.9727147!16s%2Fg%2F11fm187rdl!19sChIJa-KerieX3zgRx1E7f964Qo0?authuser=0&hl=en&rclk=1,"Medicine, Islamabad"
93,herbalmedicines_33.647541_73.164600,Herbal Medicines,"Herbal Medicines
5.0(1)
Herbal medicine store · J5X7+2R9
Open 24 hours · +92 333 7706322",Herbal medicine store,Open 24 hours,33.6475408,73.1645998,https://www.google.com/maps/place/Herbal+Medicines/data=!4m7!3m6!1s0x38dfeba68bf889ad:0xbc4716553942120c!8m2!3d33.6475408!4d73.1645998!16s%2Fg%2F11f62_92st!19sChIJrYn4i6br3zgRDBJCOVUWR7w?authuser=0&hl=en&rclk=1,"Medicine, Islamabad"
94,denovomedicalstore_33.680334_73.022642,Denovo Medical Store,"Denovo Medical Store
4.3(16)
Pharmacy · M2JF+43J
Open ⋅ Closes 10 PM · +92 334 1107504",Pharmacy,Open,33.6803344,73.0226424,https://www.google.com/maps/place/Denovo+Medical+Store/data=!4m7!3m6!1s0x38dfbe23f9bb2729:0xa2f4933b10d733b5!8m2!3d33.6803344!4d73.0226424!16s%2Fg%2F11g6s83jp6!19sChIJKSe7-SO-3zgRtTPXEDuT9KI?authuser=0&hl=en&rclk=1,"Medicine, Islamabad"
95,iqbalhomeopathicclin_33.689265_73.032860,Iqbal Homeopathic Clinic & Store,"Iqbal Homeopathic Clinic & Store
3.9(36)
Homeopathic pharmacy · Doctor Plaza
Open ⋅ Closes 10 PM · +92 51 2255914",Homeopathic pharmacy,Open,33.6892648,73.0328595,https://www.google.com/maps/place/Iqbal+Homeopathic+Clinic+%26+Store/data=!4m7!3m6!1s0x38dfbe31a3cafaed:0x68461120b7c6eb86!8m2!3d33.6892648!4d73.0328595!16s%2Fg%2F12mkzjns0!19sChIJ7frKozG-3zgRhuvGtyARRmg?authuser=0&hl=en&rclk=1,"Medicine, Islamabad"
96,tmpharmacy_33.676061_73.014120,TM Pharmacy,"TM Pharmacy
4.6(13)
Pharmacy · Bela Rd
Open ⋅ Closes 12 AM · +92 322 4369794",Pharmacy,Open,33.6760611,73.0141201,https://www.google.com/maps/place/TM+Pharmacy/data=!4m7!3m6!1s0x38dfbe1fab03d88f:0x1d0176acb790f663!8m2!3d33.6760611!4d73.0141201!16s%2Fg%2F11d_8l_063!19sChIJj9gDqx--3zgRY_aQt6x2AR0?authuser=0&hl=en&rclk=1,"Medicine, Islamabad"
97,nationalinstituteofr_33.695805_73.041512,National Institute of Rehabilitation Medicine (NIRM),"National Institute of Rehabilitation Medicine (NIRM)
4.2(244)
Government hospital ·  · 2 Street 9
Closed ⋅ Opens 8 AM Fri · +92 51 9262213",Government hospital,Closed,33.6958055,73.0415123,https://www.google.com/maps/place/National+Institute+of+Rehabilitation+Medicine+%28NIRM%29/data=!4m7!3m6!1s0x38dfbfcb2174c5f3:0x36de02b41a2e62d2!8m2!3d33.6958055!4d73.0415123!16s%2Fg%2F12mkz5mms!19sChIJ88V0Icu_3zgR0mIuGrQC3jY?authuser=0&hl=en&rclk=1,"Medicine, Islamabad"
98,waheedchemistoptics_33.699121_73.048635,Waheed Chemist & Optics,"Waheed Chemist & Optics
4.3(113)
Pharmacy ·  · M2XX+JFR, Markaz Rd
Open ⋅ Closes 12 AM · +92 51 2260703",Pharmacy,Open,33.6991215,73.0486346,https://www.google.com/maps/place/Waheed+Chemist+%26+Optics/data=!4m7!3m6!1s0x38dfbfc9c4e9d999:0x4bc932adb5543879!8m2!3d33.6991215!4d73.0486346!16s%2Fg%2F1thf6ynt!19sChIJmdnpxMm_3zgReThUta0yyUs?authuser=0&hl=en&rclk=1,"Medicine, Islamabad"
99,cspharmacy_33.656437_72.966824,CS Pharmacy®,"CS Pharmacy®
4.9(16)
Pharmacy · 3 Street 169
Open ⋅ Closes 12 AM · +92 311 5187836",Pharmacy,Open,33.6564371,72.9668244,https://www.google.com/maps/place/CS+Pharmacy%C2%AE/data=!4m7!3m6!1s0x38df95c47adff3c7:0xc5a64b7492a9250a!8m2!3d33.6564371!4d72.9668244!16s%2Fg%2F11sy031bw6!19sChIJx_PfesSV3zgRCiWpknRLpsU?authuser=0&hl=en&rclk=1,"Medicine, Islamabad"
100,zobiahospitalg9islam_33.677978_73.030205,Zobia Hospital G-9 Islamabad,"Zobia Hospital G-9 Islamabad
3.5(103)
Pharmacy ·  · Street 30
Open 24 hours · +92 51 2261130",Pharmacy,Open 24 hours,33.6779776,73.0302046,https://www.google.com/maps/place/Zobia+Hospital+G-9+Islamabad/data=!4m7!3m6!1s0x38dfbf80a2b451a5:0x316fd483f145e55d!8m2!3d33.6779776!4d73.0302046!16s%2Fg%2F11h336n5v0!19sChIJpVG0ooC_3zgRXeVF8YPUbzE?authuser=0&hl=en&rclk=1,"Medicine, Islamabad"
101,medicalstore_33.686748_73.139501,Medical Store,"Medical Store
1.8(5)
Medical supply store · M4PQ+MRR
Open 24 hours · +92 300 6169220",Medical supply store,Open 24 hours,33.6867484,73.139501,https://www.google.com/maps/place/Medical+Store/data=!4m7!3m6!1s0x38dfea7ebfb6cd3d:0xf4077dcae21e3ab7!8m2!3d33.6867484!4d73.139501!16s%2Fg%2F11c58rt9sw!19sChIJPc22v37q3zgRtzoe4sp9B_Q?authuser=0&hl=en&rclk=1,"Medicine, Islamabad"
102,doctorayazsaeedclini_33.690269_73.030859,Doctor Ayaz Saeed Clinic,"Doctor Ayaz Saeed Clinic
4.6(25)
Medical clinic · M2RJ+485
Open ⋅ Closes 8 PM · +92 51 2256966",Medical clinic,Open,33.6902686,73.030859,https://www.google.com/maps/place/Doctor+Ayaz+Saeed+Clinic/data=!4m7!3m6!1s0x38dfbe30ef4e3973:0xac4d213f32baa8e8!8m2!3d33.6902686!4d73.030859!16s%2Fg%2F11g7csg6xt!19sChIJczlO7zC-3zgR6Ki6Mj8hTaw?authuser=0&hl=en&rclk=1,"Medicine, Islamabad"
103,federalmedicalstore_33.722127_73.081450,Federal Medical Store,"Federal Medical Store
3.0(1)
Pharmacy · P3CJ+VH4, Huma Plaza, Fazal-e-Haq Rd, Block C, Blue Area
+92 51 2273242",Pharmacy,,33.7221272,73.08145,https://www.google.com/maps/place/Federal+Medical+Store/data=!4m7!3m6!1s0x38dfbf83e0b2e2d9:0x770d33b9aaf00242!8m2!3d33.7221272!4d73.08145!16s%2Fg%2F12mkz60kx!19sChIJ2eKy4IO_3zgRQgLwqrkzDXc?authuser=0&hl=en&rclk=1,"Medicine, Islamabad"
104,islamabadmedicalrheu_33.711801_73.041135,Islamabad Medical & Rheumotology Clinic,"Islamabad Medical & Rheumotology Clinic
4.3(6)
Medical clinic · Royal Inn Plaza, Plot 16 Kohistan Rd
+92 51 2254868",Medical clinic,,33.7118005,73.0411348,https://www.google.com/maps/place/Islamabad+Medical+%26+Rheumotology+Clinic/data=!4m7!3m6!1s0x38dfbfad2ffa05c7:0xe6cee6aada1bc56a!8m2!3d33.7118005!4d73.0411348!16s%2Fg%2F11x9hkf27!19sChIJxwX6L62_3zgRasUb2qrmzuY?authuser=0&hl=en&rclk=1,"Medicine, Islamabad"
105,arsalanmedicalstorec_33.635480_72.936033,Arsalan Medical STORE & COSMETICS,"Arsalan Medical STORE & COSMETICS
4.7(9)
Pharmacy · Unnamed Road
Open ⋅ Closes 11 PM · +92 332 5570701",Pharmacy,Open,33.63548,72.9360333,https://www.google.com/maps/place/Arsalan+Medical+STORE+%26+COSMETICS/data=!4m7!3m6!1s0x38df972ad68bc763:0x5fa68990bccb7594!8m2!3d33.63548!4d72.9360333!16s%2Fg%2F11h02l5kyz!19sChIJY8eL1iqX3zgRlHXLvJCJpl8?authuser=0&hl=en&rclk=1,"Medicine, Islamabad"
106,idealmedicalstore_33.625646_72.970345,Ideal Medical Store,"Ideal Medical Store
5.0(4)
Pharmacy · Shop no 2 gulshan plaza Golda mor islamabad H 14
Open ⋅ Closes 9:30 PM · +92 333 5391163",Pharmacy,Open,33.6256459,72.9703448,https://www.google.com/maps/place/Ideal+Medical+Store/data=!4m7!3m6!1s0x38df96607036fa47:0xbb370b924a3afe70!8m2!3d33.6256459!4d72.9703448!16s%2Fg%2F12mkw85x2!19sChIJR_o2cGCW3zgRcP46SpILN7s?authuser=0&hl=en&rclk=1,"Medicine, Islamabad"
107,islamabadspecialists_33.711194_73.041715,Islamabad Specialists Clinic F8,"Islamabad Specialists Clinic F8
3.7(70)
Doctor ·  · Kiran Plaza، 13-B Kohistan Rd
Open ⋅ Closes 10 PM · +92 343 0000433",Doctor,Open,33.7111944,73.0417154,https://www.google.com/maps/place/Islamabad+Specialists+Clinic+F8/data=!4m7!3m6!1s0x38dfbfad4708d48d:0x941929274b3a9944!8m2!3d33.7111944!4d73.0417154!16s%2Fg%2F11xmdm97h!19sChIJjdQIR62_3zgRRJk6SycpGZQ?authuser=0&hl=en&rclk=1,"Medicine, Islamabad"
108,doctorsinstituteofme_33.653638_72.972777,Doctors Institute of Medical Sciences,"Doctors Institute of Medical Sciences
5.0(3)
College ·  · 60 Street 787
Open ⋅ Closes 5 PM · +92 336 9201960",College,Open,33.6536375,72.9727766,https://www.google.com/maps/place/Doctors+Institute+of+Medical+Sciences/data=!4m7!3m6!1s0x38df97da45e75ae3:0x7e08caf58aee0044!8m2!3d33.6536375!4d72.9727766!16s%2Fg%2F11j85760yy!19sChIJ41rnRdqX3zgRRADuivXKCH4?authuser=0&hl=en&rclk=1,"Medicine, Islamabad"
109,fcmedicalstoreislama_33.744287_73.112702,FC Medical Store Islamabad,"FC Medical Store Islamabad
5.0(1)
Pharmacy · Near Shrine of Hazrat Bari Imam Sarkar
Open ⋅ Closes 12 AM · +92 345 5607132",Pharmacy,Open,33.7442869,73.1127025,https://www.google.com/maps/place/FC+Medical+Store+Islamabad/data=!4m7!3m6!1s0x38dfc1dc44c577ef:0x2e8a38d7ba743a0e!8m2!3d33.7442869!4d73.1127025!16s%2Fg%2F11ry2pt_4h!19sChIJ73fFRNzB3zgRDjp0utc4ii4?authuser=0&hl=en&rclk=1,"Medicine, Islamabad"
110,dwatsonchemist_33.645820_72.964309,D-Watson Chemist,"D-Watson Chemist
3.8(157)
Pharmacy · 
Open ⋅ Closes 12 AM · +92 51 2306848",Pharmacy,Open,33.6458197,72.9643094,https://www.google.com/maps/place/D-Watson+Chemist/data=!4m7!3m6!1s0x38df976883796ebd:0x8349d9eb40d9411!8m2!3d33.6458197!4d72.9643094!16s%2Fg%2F11j0brb027!19sChIJvW55g2iX3zgREZQNtJ6dNAg?authuser=0&hl=en&rclk=1,"Medicine, Islamabad"
111,shaheenchemist_33.699194_73.048815,Shaheen Chemist,"Shaheen Chemist
4.1(89)
Pharmacy · Allah Dad Plaza, Markaz Rd
Open ⋅ Closes 1 AM · +92 51 2252215",Pharmacy,Open,33.6991939,73.0488153,https://www.google.com/maps/place/Shaheen+Chemist/data=!4m7!3m6!1s0x38dfbfc9d1ce94e1:0x549deca7538bcd9e!8m2!3d33.6991939!4d73.0488153!16s%2Fg%2F1tp06gtr!19sChIJ4ZTO0cm_3zgRns2LU6fsnVQ?authuser=0&hl=en&rclk=1,"Medicine, Islamabad"
112,drmuhammadadnanshahi_33.554608_73.166622,Dr Muhammad Adnan Shahid Medical Specialist/Diabetes Specialist - Gulf Care Hospital Islamabad,"Dr Muhammad Adnan Shahid Medical Specialist/Diabetes Specialist - Gulf Care Hospital Islamabad
4.9(27)
Hospital ·  · Gulf Care Hospital
Closed ⋅ Opens 3:30 PM",Hospital,Closed,33.5546084,73.1666223,https://www.google.com/maps/place/Dr+Muhammad+Adnan+Shahid+Medical+Specialist%2FDiabetes+Specialist+-+Gulf+Care+Hospital+Islamabad/data=!4m7!3m6!1s0x38dfed0039f354cd:0x7ffd64c9416fe265!8m2!3d33.5546084!4d73.1666223!16s%2Fg%2F11wr45n75d!19sChIJzVTzOQDt3zgRZeJvQclk_X8?authuser=0&hl=en&rclk=1,"Medicine, Islamabad"
113,pharmapluspharmacy_33.708799_73.153966,Pharma Plus Pharmacy,"Pharma Plus Pharmacy
4.7(15)
Pharmacy · Jinnah Rd
Open ⋅ Closes 3 AM · +92 51 2612743",Pharmacy,Open,33.7087989,73.153966,https://www.google.com/maps/place/Pharma+Plus+Pharmacy/data=!4m7!3m6!1s0x38dfc12a89f1cedb:0xa8bedcd06649cd9e!8m2!3d33.7087989!4d73.153966!16s%2Fg%2F11g_x6m5sl!19sChIJ287xiSrB3zgRns1JZtDcvqg?authuser=0&hl=en&rclk=1,"Medicine, Islamabad"
114,maxhealthhospital_33.697569_73.049161,Max Health Hospital,"Max Health Hospital
3.8(355)
General hospital ·  · 12-K Markaz Rd
Open 24 hours · +92 51 8094762",General hospital,Open 24 hours,33.6975693,73.0491612,https://www.google.com/maps/place/Max+Health+Hospital/data=!4m7!3m6!1s0x38dfbfc9ab6d46d5:0xf0f515eb876e3c03!8m2!3d33.6975693!4d73.0491612!16s%2Fg%2F11cjkd0f8b!19sChIJ1UZtq8m_3zgRAzxuh-sV9fA?authuser=0&hl=en&rclk=1,"Medicine, Islamabad"
115,mmedicalstoreandclin_33.628767_73.155074,M.medical store and clinic,"M.medical store and clinic
4.0(6)
Pharmacy · 2nd Road
Open ⋅ Closes 9 PM · +92 345 9254218",Pharmacy,Open,33.6287666,73.1550743,https://www.google.com/maps/place/M.medical+store+and+clinic/data=!4m7!3m6!1s0x38dfeb22d01b90ab:0x99f0bf896d247453!8m2!3d33.6287666!4d73.1550743!16s%2Fg%2F11tx5bkf08!19sChIJq5Ab0CLr3zgRU3QkbYm_8Jk?authuser=0&hl=en&rclk=1,"Medicine, Islamabad"
116,talatmedicalcomplex_33.520016_73.161858,Talat Medical Complex,"Talat Medical Complex
4.8(4)
Hospital · Talat Medical Complex
Open ⋅ Closes 9 PM · +92 303 8000801",Hospital,Open,33.5200162,73.1618583,https://www.google.com/maps/place/Talat+Medical+Complex/data=!4m7!3m6!1s0x38dff3bcd410e865:0x4ab152d84b5c8aa7!8m2!3d33.5200162!4d73.1618583!16s%2Fg%2F11t53j9_xk!19sChIJZegQ1Lzz3zgRp4pcS9hSsUo?authuser=0&hl=en&rclk=1,"Medicine, Islamabad"
120,newgujjerkhanmedical_33.644984_73.175468,New gujjer Khan medical store Ali pur Islamabad,"New gujjer Khan medical store Ali pur Islamabad
4.8(5)
Pharmacy · pure, Ali Pur, Ali
Open 24 hours · +92 342 1945217",Pharmacy,Open 24 hours,33.6449836,73.1754683,https://www.google.com/maps/place/New+gujjer+Khan+medical+store+Ali+pur+Islamabad/data=!4m7!3m6!1s0x38dfebd6cfbb8783:0xd32650ff5a37ce9e!8m2!3d33.6449836!4d73.1754683!16s%2Fg%2F11r92y6h_!19sChIJg4e7z9br3zgRns43Wv9QJtM?authuser=0&hl=en&rclk=1,"Medicine, Islamabad"
121,alimedicalcenterexec_33.710234_73.042088,Ali Medical Center Executive Block,"Ali Medical Center Executive Block
No reviews
Hospital ·  · IBC-IV, Kaghan Rd
Open ⋅ Closes 5 PM · +92 51 8090200",Hospital,Open,33.7102343,73.042088,https://www.google.com/maps/place/Ali+Medical+Center+Executive+Block/data=!4m7!3m6!1s0x38dfbfc5644a1c6d:0x4601391bc5879ed3!8m2!3d33.7102343!4d73.042088!16s%2Fg%2F11jn2zhs8r!19sChIJbRxKZMW_3zgR056HxRs5AUY?authuser=0&hl=en&rclk=1,"Medicine, Islamabad"
122,alkausardrugstore_33.729384_73.077039,Al-Kausar Drug Store,"Al-Kausar Drug Store
4.2(12)
Pharmacy · School Rd, F-6 Markaz, F-6
Open ⋅ Closes 10 PM · +92 51 8311550",Pharmacy,Open,33.729384,73.0770395,https://www.google.com/maps/place/Al-Kausar+Drug+Store/data=!4m7!3m6!1s0x38dfbf79c113c8e9:0x9864efa90d2f59cf!8m2!3d33.729384!4d73.0770395!16s%2Fg%2F12mkz8kq6!19sChIJ6cgTwXm_3zgRz1kvDanvZJg?authuser=0&hl=en&rclk=1,"Medicine, Islamabad"
123,alrehmanhomeopathicc_33.571557_73.145494,Al-Rehman Homeopathic Clinic & Store (Dr Muhammad Tahir Khan),"Al-Rehman Homeopathic Clinic & Store (Dr Muhammad Tahir Khan)
4.9(11)
Homeopath · 15 Central Rd, PWD Housing Society
Open ⋅ Closes 10 PM · +92 333 5605689",Homeopath,Open,33.5715572,73.1454942,https://www.google.com/maps/place/Al-Rehman+Homeopathic+Clinic+%26+Store+%28Dr+Muhammad+Tahir+Khan%29/data=!4m7!3m6!1s0x38dfede5fa89752f:0xc7107df6cb7c0cb5!8m2!3d33.5715572!4d73.1454942!16s%2Fg%2F11rwq6r731!19sChIJL3WJ-uXt3zgRtQx8y_Z9EMc?authuser=0&hl=en&rclk=1,"Medicine, Islamabad"
124,medicalstore_33.541905_73.155406,Medical Store,"Medical Store
No reviews
Chinese medicine store · G5R4+Q57",Chinese medicine store,,33.541905,73.1554064,https://www.google.com/maps/place/Medical+Store/data=!4m7!3m6!1s0x38dfedbe33a20fc3:0xf4885cbcb8db283c!8m2!3d33.541905!4d73.1554064!16s%2Fg%2F11hbl1kjnq!19sChIJww-iM77t3zgRPCjbuLxciPQ?authuser=0&hl=en&rclk=1,"Medicine, Islamabad"
125,zubairpharmacy_33.722547_73.082246,Zubair Pharmacy,"Zubair Pharmacy
3.5(4)
Oriental medicine store · P3FJ+2V9, Huma Plaza, AK Fazal-ul-Haq Rd, Block C, Blue Area, Islamabad, ICT Block C
+92 332 0551099",Oriental medicine store,,33.7225475,73.0822461,https://www.google.com/maps/place/Zubair+Pharmacy/data=!4m7!3m6!1s0x38dfbf839aab4c8b:0xdb975b6878dc02e8!8m2!3d33.7225475!4d73.0822461!16s%2Fg%2F11f6y2x8fk!19sChIJi0yrmoO_3zgR6ALceGhbl9s?authuser=0&hl=en&rclk=1,"Medicine, Islamabad"
126,islamabadmedicalcomp_33.724151_73.084269,Islamabad Medical Complex Pharmacy,"Islamabad Medical Complex Pharmacy
2.0(2)
Pharmacy · Askari Bank, 24-D Rasheed Plaza,, Jinnah Ave
+92 308 2877712",Pharmacy,,33.7241505,73.0842687,https://www.google.com/maps/place/Islamabad+Medical+Complex+Pharmacy/data=!4m7!3m6!1s0x38dfbf81a8dbd25d:0xa5c120b54fb4e2ed!8m2!3d33.7241505!4d73.0842687!16s%2Fg%2F11c2lr3skt!19sChIJXdLbqIG_3zgR7eK0T7UgwaU?authuser=0&hl=en&rclk=1,"Medicine, Islamabad"
127,collegeofphysiciansa_33.700716_73.048175,College of Physicians and Surgeons of Pakistan,"College of Physicians and Surgeons of Pakistan
4.1(292)
Medical school · 
Open ⋅ Closes 4 PM · +92 51 9262590",Medical school,Open,33.7007157,73.0481745,https://www.google.com/maps/place/College+of+Physicians+and+Surgeons+of+Pakistan/data=!4m7!3m6!1s0x38dfbfb63cf3466f:0x1b98831d7a1eb570!8m2!3d33.7007157!4d73.0481745!16s%2Fm%2F0ct2hxf!19sChIJb0bzPLa_3zgRcLUeeh2DmBs?authuser=0&hl=en&rclk=1,"Medicine, Islamabad"
128,hashimmedicalstore_33.658322_73.059332,Hashim Medical Store,"Hashim Medical Store
3.0(3)
Medical Center · Najeeb plaza
Open ⋅ Closes 10 PM · +92 333 0943835",Medical Center,Open,33.6583224,73.0593325,https://www.google.com/maps/place/Hashim+Medical+Store/data=!4m7!3m6!1s0x38df956b4d3bdc55:0xe6835d4d49314dfc!8m2!3d33.6583224!4d73.0593325!16s%2Fg%2F11gf5rq314!19sChIJVdw7TWuV3zgR_E0xSU1dg-Y?authuser=0&hl=en&rclk=1,"Medicine, Islamabad"
129,msmedicalstore_33.640813_73.165073,MS Medical Store,"MS Medical Store
5.0(4)
Pharmacy · F21 St.no 21
Open ⋅ Closes 11 PM · +92 333 7255606",Pharmacy,Open,33.6408126,73.1650727,https://www.google.com/maps/place/MS+Medical+Store/data=!4m7!3m6!1s0x38dfeb97f85ae229:0x8971f719e47c00ce!8m2!3d33.6408126!4d73.1650727!16s%2Fg%2F11rxqjcmzr!19sChIJKeJa-Jfr3zgRzgB85Bn3cYk?authuser=0&hl=en&rclk=1,"Medicine, Islamabad"
130,snoormedicineco_33.654484_73.035921,S Noor Medicine Co,"S Noor Medicine Co
No reviews
Pharmacy · Plot 80-E, St 6, I-10-3, I-10
Open now",Pharmacy,Open now,33.6544841,73.0359212,https://www.google.com/maps/place/S+Noor+Medicine+Co/data=!4m7!3m6!1s0x38df95a1e0dc9907:0xd1323ac93ddda737!8m2!3d33.6544841!4d73.0359212!16s%2Fg%2F12mkw903p!19sChIJB5nc4KGV3zgRN6fdPck6MtE?authuser=0&hl=en&rclk=1,"Medicine, Islamabad"
131,medonehospital_33.668777_73.075558,MedOne Hospital,"MedOne Hospital
4.7(90)
Pharmacy · Office # 18, 1st Floor، City Arcade Plaza
Open ⋅ Closes 7:30 PM · +92 312 5477799",Pharmacy,Open,33.6687774,73.0755584,https://www.google.com/maps/place/MedOne+Hospital/data=!4m7!3m6!1s0x38df95456f8a3141:0x6313a8fef11e595c!8m2!3d33.6687774!4d73.0755584!16s%2Fg%2F11b_00f5m8!19sChIJQTGKb0WV3zgRXFke8f6oE2M?authuser=0&hl=en&rclk=1,"Medicine, Islamabad"
132,howalshafihomeopathi_33.641312_73.039221,"Howalshafi Homeopathic Clinic, Sr. H/Dr. Muhammad Khalid Zia Ramay, Sheikh Market St#15, I-10/1, Islamabad","Howalshafi Homeopathic Clinic, Sr. H/Dr. Muhammad Khalid Zia Ramay, Sheikh Market St#15, I-10/1, Islamabad
4.9(18)
Doctor · Imam Shaikh Market, Street No. 15، near Abu ul Qasim Masjid
Closed ⋅ Opens 4:30 PM · +92 300 5124247",Doctor,Closed,33.6413123,73.0392212,"https://www.google.com/maps/place/Howalshafi+Homeopathic+Clinic,+Sr.+H%2FDr.+Muhammad+Khalid+Zia+Ramay,+Sheikh+Market+St%2315,+I-10%2F1,+Islamabad/data=!4m7!3m6!1s0x38df95a9c78ad2a9:0x996ffd63951d7e43!8m2!3d33.6413123!4d73.0392212!16s%2Fg%2F11ddx9mh0z!19sChIJqdKKx6mV3zgRQ34dlWP9b5k?authuser=0&hl=en&rclk=1","Medicine, Islamabad"
133,malikmedicalstore_33.653398_73.061694,Malik Medical Store,"Malik Medical Store
4.0(7)
Pharmacy · M336+9M4 Chaudhary Market
Open ⋅ Closes 10 PM · +92 344 5566789",Pharmacy,Open,33.6533978,73.0616943,https://www.google.com/maps/place/Malik+Medical+Store/data=!4m7!3m6!1s0x38df9515d1082f47:0x54de55b3f838b5f6!8m2!3d33.6533978!4d73.0616943!16s%2Fg%2F11c1q43g5q!19sChIJRy8I0RWV3zgR9rU4-LNV3lQ?authuser=0&hl=en&rclk=1,"Medicine, Islamabad"
134,gamcamedicalslipcent_33.667656_73.006961,Gamca Medical Slip Center G-11,"Gamca Medical Slip Center G-11
4.3(33)
Medical Center ·  · Street 118
Open 24 hours · +92 337 9216737",Medical Center,Open 24 hours,33.6676555,73.006961,https://www.google.com/maps/place/Gamca+Medical+Slip+Center+G-11/data=!4m7!3m6!1s0x38df95e9608fc4b9:0xe21b42286eea7252!8m2!3d33.6676555!4d73.006961!16s%2Fg%2F11fnp6vdq2!19sChIJucSPYOmV3zgRUnLqbihCG-I?authuser=0&hl=en&rclk=1,"Medicine, Islamabad"
135,shifamedicalcenter_33.565923_73.139184,Shifa medical Center,"Shifa medical Center
5.0(12)
Medical clinic · Al-Noor Chemist, Al -Barq Plaza, Main PWD road, street Burj
Open ⋅ Closes 6 PM · +92 300 5141455",Medical clinic,Open,33.5659226,73.1391843,https://www.google.com/maps/place/Shifa+medical+Center/data=!4m7!3m6!1s0x38dfedc50fb51257:0xc5c1f615f33fb28d!8m2!3d33.5659226!4d73.1391843!16s%2Fg%2F11scl8wt5t!19sChIJVxK1D8Xt3zgRjbI_8xX2wcU?authuser=0&hl=en&rclk=1,"Medicine, Islamabad"
136,amanateyehospitalraw_33.587252_73.066364,Amanat Eye Hospital Rawalpindi,"Amanat Eye Hospital Rawalpindi
4.7(2,021)
Eye care center ·  · 10-D Mayo Road
Open ⋅ Closes 8 PM · +92 51 8439993",Eye care center,Open,33.5872518,73.0663637,https://www.google.com/maps/place/Amanat+Eye+Hospital+Rawalpindi/data=!4m7!3m6!1s0x38df935dc4333d53:0xa7d989ebc4727fe!8m2!3d33.5872518!4d73.0663637!16s%2Fg%2F1tf060yh!19sChIJUz0zxF2T3zgR_idHvJ6YfQo?authuser=0&hl=en&rclk=1,"Medicine, Islamabad"
138,elixirpharmacy_33.686032_73.045185,Elixir Pharmacy,"Elixir Pharmacy
4.7(30)
Pharmacy · service road E, Street 55
Open ⋅ Closes 12:30 AM · +92 51 2852691",Pharmacy,Open,33.6860324,73.0451853,https://www.google.com/maps/place/Elixir+Pharmacy/data=!4m7!3m6!1s0x38dfbfd2353d8099:0x616b83ccc7d09960!8m2!3d33.6860324!4d73.0451853!16s%2Fg%2F12mkz9kkh!19sChIJmYA9NdK_3zgRYJnQx8yDa2E?authuser=0&hl=en&rclk=1,"Medicine, Islamabad"
139,ayeshamedicalcenter_33.670191_72.985973,Ayesha Medical Center,"Ayesha Medical Center
4.4(20)
Medical Center · House # 957 Service Rd W
Open ⋅ Closes 11 PM · +92 345 5703585",Medical Center,Open,33.6701912,72.9859725,https://www.google.com/maps/place/Ayesha+Medical+Center/data=!4m7!3m6!1s0x38df97d86e55bc95:0xaed8902b349726ca!8m2!3d33.6701912!4d72.9859725!16s%2Fg%2F11h7f8jvnm!19sChIJlbxVbtiX3zgRyiaXNCuQ2K4?authuser=0&hl=en&rclk=1,"Medicine, Islamabad"
140,waqarmedicalstore_33.677553_73.024837,Waqar Medical Store,"Waqar Medical Store
3.8(6)
Pharmacy · M2HF+2WG Power Market, Street 69
Open ⋅ Closes 11 PM · +92 345 5120721",Pharmacy,Open,33.6775529,73.0248366,https://www.google.com/maps/place/Waqar+Medical+Store/data=!4m7!3m6!1s0x38dfbe26e36aaaab:0x647c6a0717b0a99d!8m2!3d33.6775529!4d73.0248366!16s%2Fg%2F11c5s5gt9j!19sChIJq6pq4ya-3zgRnamwFwdqfGQ?authuser=0&hl=en&rclk=1,"Medicine, Islamabad"
141,alsalehachemist_33.717340_73.083884,Al-Saleha Chemist,"Al-Saleha Chemist
4.4(48)
Pharmacy · Mir Trade Centre Municipal Rd Melody Market
Open ⋅ Closes 2 AM · +92 51 2206929",Pharmacy,Open,33.7173398,73.0838836,https://www.google.com/maps/place/Al-Saleha+Chemist/data=!4m7!3m6!1s0x38dfbf86478e504b:0x2ac5d879f889e640!8m2!3d33.7173398!4d73.0838836!16s%2Fg%2F12mk_3ds2!19sChIJS1COR4a_3zgRQOaJ-HnYxSo?authuser=0&hl=en&rclk=1,"Medicine, Islamabad"
142,kazimmedicalstore_33.705061_73.067903,Kazim Medical Store,"Kazim Medical Store
4.8(4)
Pharmacy · AWLINKERS
Open ⋅ Closes 11 PM · +92 51 2204903",Pharmacy,Open,33.705061,73.067903,https://www.google.com/maps/place/Kazim+Medical+Store/data=!4m7!3m6!1s0x38dfbf94f74acd2f:0x8caf8d8e4ea5cc7a!8m2!3d33.705061!4d73.067903!16s%2Fg%2F11hbbzfk4m!19sChIJL81K95S_3zgResylTo6Nr4w?authuser=0&hl=en&rclk=1,"Medicine, Islamabad"
143,epharmacy_33.717899_73.073471,ePharmacy,"ePharmacy
4.5(26)
Pharmacy · Ground Floor, Office Tower, 44 East Fazal e Haq Rd
Open 24 hours · +92 51 8841020",Pharmacy,Open 24 hours,33.7178986,73.0734711,https://www.google.com/maps/place/ePharmacy/data=!4m7!3m6!1s0x38dfbf0077cd224b:0x2ed07f5352cff018!8m2!3d33.7178986!4d73.0734711!16s%2Fg%2F11qnvl2kcl!19sChIJSyLNdwC_3zgRGPDPUlN_0C4?authuser=0&hl=en&rclk=1,"Medicine, Islamabad"
144,adilmedicalstore_33.673833_72.948469,Adil Medical Store,"Adil Medical Store
5.0(3)
Pharmacy · Golra Rd, Station Mor, E-12
+92 336 5263573",Pharmacy,,33.6738327,72.9484688,https://www.google.com/maps/place/Adil+Medical+Store/data=!4m7!3m6!1s0x38dfbd82dc4eb3d5:0x351fc5af2b490aa5!8m2!3d33.6738327!4d72.9484688!16s%2Fg%2F12mkw8_6g!19sChIJ1bNO3IK93zgRpQpJK6_FHzU?authuser=0&hl=en&rclk=1,"Medicine, Islamabad"
145,newmedifairchemistme_33.690285_73.031483,New Medi Fair Chemist & Medical Store,"New Medi Fair Chemist & Medical Store
4.0(2)
Pharmacy · Chand Plaza, Rohtas Rd, G-9 Markaz, G-9
Open now · +92 51 2282586",Pharmacy,Open now,33.6902846,73.0314833,https://www.google.com/maps/place/New+Medi+Fair+Chemist+%26+Medical+Store/data=!4m7!3m6!1s0x38dfbe30e238ecd7:0xbbc45b3f974f61f6!8m2!3d33.6902846!4d73.0314833!16s%2Fg%2F12mkw8fgy!19sChIJ1-w44jC-3zgR9mFPlz9bxLs?authuser=0&hl=en&rclk=1,"Medicine, Islamabad"
146,tahirpharmacy_33.517177_73.084955,Tahir Pharmacy,"Tahir Pharmacy
4.3(43)
Pharmacy · AAA Riveria, Plot no 100 A, Springs Commercial, Quid Chowk Phase, 7
Open ⋅ Closes 3 AM · +92 51 8489915",Pharmacy,Open,33.5171766,73.0849554,https://www.google.com/maps/place/Tahir+Pharmacy/data=!4m7!3m6!1s0x38df932d2abbe5cd:0xd97b7356c94a6aa!8m2!3d33.5171766!4d73.0849554!16s%2Fg%2F11y35hyb9_!19sChIJzeW7Ki2T3zgRqqaUbDW3lw0?authuser=0&hl=en&rclk=1,"Medicine, Islamabad"
147,mahmoodhomoeopathicc_33.622470_73.143262,Mahmood Homoeopathic Clinic 36سالہ تجربہ کے حامل,"Mahmood Homoeopathic Clinic 36سالہ تجربہ کے حامل
5.0(4)
Homeopathic pharmacy · Basement Islamabad Diagnostic Center Ghouri Town 5 B Garden, Chowk
Open ⋅ Closes 11 PM · +92 304 0035053",Homeopathic pharmacy,Open,33.6224701,73.1432619,https://www.google.com/maps/place/Mahmood+Homoeopathic+Clinic+36%D8%B3%D8%A7%D9%84%DB%81+%D8%AA%D8%AC%D8%B1%D8%A8%DB%81+%DA%A9%DB%92+%D8%AD%D8%A7%D9%85%D9%84%E2%80%AD/data=!4m7!3m6!1s0x38dfed347e470afb:0x43f9d8fdcd59b080!8m2!3d33.6224701!4d73.1432619!16s%2Fg%2F11rw6mf3hc!19sChIJ-wpHfjTt3zgRgLBZzf3Y-UM?authuser=0&hl=en&rclk=1,"Medicine, Islamabad"
148,adnanmedicalstore_33.690194_73.033291,Adnan Medical Store,"Adnan Medical Store
3.7(3)
Pharmacy · Adnan medical store
Open ⋅ Closes 11:15 PM · +92 306 1583298",Pharmacy,Open,33.6901938,73.0332912,https://www.google.com/maps/place/Adnan+Medical+Store/data=!4m7!3m6!1s0x38dfbe3172f27265:0x1797c85f67872ada!8m2!3d33.6901938!4d73.0332912!16s%2Fg%2F11f3xgflw1!19sChIJZXLycjG-3zgR2iqHZ1_Ilxc?authuser=0&hl=en&rclk=1,"Medicine, Islamabad"
149,shifamedicalcenterfo_33.676046_73.067008,Shifa Medical Center for GCC,"Shifa Medical Center for GCC
2.3(20)
Medical diagnostic imaging center ·  · M3G8+CR6, Pitras Bukhari Rd
Open 24 hours · +92 51 3584162",Medical diagnostic imaging center,Open 24 hours,33.6760459,73.0670077,https://www.google.com/maps/place/Shifa+Medical+Center+for+GCC/data=!4m7!3m6!1s0x38df953e349ffd39:0x5e8eb31338eb66f3!8m2!3d33.6760459!4d73.0670077!16s%2Fg%2F11j4ttkhz5!19sChIJOf2fND6V3zgR82brOBOzjl4?authuser=0&hl=en&rclk=1,"Medicine, Islamabad"
150,hijamacenterubqarish_33.645345_73.176074,hijama center & ubqari shop (agency of Islamabad ) Anas dwakhana and hijama centre,"hijama center & ubqari shop (agency of Islamabad ) Anas dwakhana and hijama centre
4.1(417)
Herbal medicine store ·  · H K، Elahi plaza، Shop 1-2 first floor main، Main Lehtrar Rd
Open ⋅ Closes 8:30 AM Fri · +92 336 0195366",Herbal medicine store,Open,33.6453451,73.1760741,https://www.google.com/maps/place/hijama+center+%26+ubqari+shop+%28agency+of+Islamabad+%29+Anas+dwakhana+and+hijama+centre/data=!4m7!3m6!1s0x38df953bbcdff65f:0x2115ba5776b518bf!8m2!3d33.6453451!4d73.1760741!16s%2Fg%2F11c5j7j4mn!19sChIJX_bfvDuV3zgRvxi1dle6FSE?authuser=0&hl=en&rclk=1,"Medicine, Islamabad"
151,aliyashomeopathicdia_33.655060_73.060546,Aliya's Homeopathic & Diagnosis Centre,"Aliya's Homeopathic & Diagnosis Centre
5.0(4)
Homeopath · HOUSE#263, Street 34F
Opens soon ⋅ 3 PM · +92 321 9533908",Homeopath,Opens soon,33.6550596,73.0605462,https://www.google.com/maps/place/Aliya%27s+Homeopathic+%26+Diagnosis+Centre/data=!4m7!3m6!1s0x38df95589207baf3:0x7a9247cfeb514f5f!8m2!3d33.6550596!4d73.0605462!16s%2Fg%2F11sw6my819!19sChIJ87oHkliV3zgRX09R689Hkno?authuser=0&hl=en&rclk=1,"Medicine, Islamabad"
152,gapharmacy_33.644205_73.164853,G.A Pharmacy,"G.A Pharmacy
5.0(6)
Pharmacy · J5V7+MWQ, Lehtrar Rd، near Tramri Chowk
Open ⋅ Closes 9 PM · +92 312 5002140",Pharmacy,Open,33.6442055,73.1648534,https://www.google.com/maps/place/G.A+Pharmacy/data=!4m7!3m6!1s0x38dfebcec9f659bb:0x3a8ce3cdce164133!8m2!3d33.6442055!4d73.1648534!16s%2Fg%2F11fy99m06n!19sChIJu1n2yc7r3zgRM0EWzs3jjDo?authuser=0&hl=en&rclk=1,"Medicine, Islamabad"
153,javedmedicospharmacy_33.720146_73.054481,Javed medicos pharmacy,"Javed medicos pharmacy
3.5(17)
Pharmacy · P3C3+3Q5
+92 51 2650868",Pharmacy,,33.720146,73.0544806,https://www.google.com/maps/place/Javed+medicos+pharmacy/data=!4m7!3m6!1s0x38dfbfc36002fb2d:0xb70046134a85d17c!8m2!3d33.720146!4d73.0544806!16s%2Fg%2F11fm1x8k9s!19sChIJLfsCYMO_3zgRfNGFShNGALc?authuser=0&hl=en&rclk=1,"Medicine, Islamabad"
154,medicaremedicalstore_33.646482_73.036822,Medicare Medical Store,"Medicare Medical Store
5.0(2)
Pharmacy · Mundair Palace, Korang Rd, I-10-1 Markaz, I-10
+92 345 5241091",Pharmacy,,33.6464819,73.0368216,https://www.google.com/maps/place/Medicare+Medical+Store/data=!4m7!3m6!1s0x38df95a659c180f5:0x8a0b6a9df31ac9e2!8m2!3d33.6464819!4d73.0368216!16s%2Fg%2F12mk_3gdq!19sChIJ9YDBWaaV3zgR4ska851qC4o?authuser=0&hl=en&rclk=1,"Medicine, Islamabad"
155,drhuanghaitaosclinic_33.729288_73.052106,Dr Huang Haitao's Clinic,"Dr Huang Haitao's Clinic
4.0(3)
Chinese medicine clinic · 35 Street 5
Closed ⋅ Opens 4 PM · +92 300 9501298",Chinese medicine clinic,Closed,33.729288,73.0521063,https://www.google.com/maps/place/Dr+Huang+Haitao%27s+Clinic/data=!4m7!3m6!1s0x38dfbf00c7b9fbe3:0xa6fba845500abad1!8m2!3d33.729288!4d73.0521063!16s%2Fg%2F11h52qt5wv!19sChIJ4_u5xwC_3zgR0boKUEWo-6Y?authuser=0&hl=en&rclk=1,"Medicine, Islamabad"
156,noormedicalstore_33.653453_73.050716,Noor Medical Store,"Noor Medical Store
5.0(2)
Pharmacy · Asim, Plaza Warsak Rd
Open ⋅ Closes 10 PM · +92 321 5091789",Pharmacy,Open,33.6534533,73.050716,https://www.google.com/maps/place/Noor+Medical+Store/data=!4m7!3m6!1s0x38df95092823a89f:0xf68a03eda0ae68d!8m2!3d33.6534533!4d73.050716!16s%2Fg%2F11k3xs31yt!19sChIJn6gjKAmV3zgRjeYK2j6gaA8?authuser=0&hl=en&rclk=1,"Medicine, Islamabad"
157,kashmirpansarstoreda_33.689860_73.031854,Kashmir Pansar Store & Dawakhana(Herbs & Herbal Medicines)(G-9 Markaz),"Kashmir Pansar Store & Dawakhana(Herbs & Herbal Medicines)(G-9 Markaz)
5.0(31)
Herbal medicine store ·  · karachi company، Shop # 5-6, Kalar Syedan plaza, Rohtas Rd
Open ⋅ Closes 9 PM · +92 51 2250217",Herbal medicine store,Open,33.6898604,73.031854,https://www.google.com/maps/place/Kashmir+Pansar+Store+%26+Dawakhana%28Herbs+%26+Herbal+Medicines%29%28G-9+Markaz%29/data=!4m7!3m6!1s0x38dfbe30557ac387:0x6621e841666636ab!8m2!3d33.6898604!4d73.031854!16s%2Fg%2F1tdlsnj5!19sChIJh8N6VTC-3zgRqzZmZkHoIWY?authuser=0&hl=en&rclk=1,"Medicine, Islamabad"
1,na_noloc,,,,,,,,"Medicine, Islamabad"
5,islamabadelectronics_33.720607_73.077462,Islamabad Electronics,,Electronics store,Open,33.7206073,73.0774625,https://www.google.com/maps/place/Islamabad+Electronics/data=!4m7!3m6!1s0x38dfbf8ecf7c1d1b:0x88b0bb068f3f808d!8m2!3d33.7206073!4d73.0774625!16s%2Fg%2F11kmvf2_qn!19sChIJGx18z46_3zgRjYA_jwa7sIg?authuser=0&hl=en&rclk=1,"Medicine, Islamabad"
37,gigamallislamabad_33.521111_73.158519,Giga Mall Islamabad.,"Giga Mall Islamabad.
4.5(46,534)
Shopping mall ·  · Main Grand Trunk Rd, Defense Housing Authority
Brand-name shopping, dining & movies
Open ⋅ Closes 11 PM · +92 51 8491040",Shopping mall,Open,33.5211113,73.1585192,https://www.google.com/maps/place/Giga+Mall+Islamabad./data=!4m7!3m6!1s0x38dfed736df2ee2b:0xd2c18a69157f1c54!8m2!3d33.5211113!4d73.1585192!16s%2Fg%2F1z44bhl9_!19sChIJK-7ybXPt3zgRVBx_FWmKwdI?authuser=0&hl=en&rclk=1,"Medicine, Islamabad"
38,emporiumislamabad_33.698389_73.011404,Emporium Islamabad,"Emporium Islamabad
4.0(28)
Shopping mall ·  · 10A
Open ⋅ Closes 10 PM · +92 300 5172434",Shopping mall,Open,33.6983886,73.0114044,https://www.google.com/maps/place/Emporium+Islamabad/data=!4m7!3m6!1s0x38dfbf6b10ee3fc9:0x9a15f93293d24e0e!8m2!3d33.6983886!4d73.0114044!16s%2Fg%2F11t7s_xq6p!19sChIJyT_uEGu_3zgRDk7SkzL5FZo?authuser=0&hl=en&rclk=1,"Medicine, Islamabad"
39,albalaghislamicstore_33.678189_73.016757,AlBalagh Islamic Store G10 Islamabad البلاغ جی ٹین اسلام آباد,"AlBalagh Islamic Store G10 Islamabad البلاغ جی ٹین اسلام آباد
4.3(314)
Religious goods store ·  · Shop18, Adnan Plaza Sawan Road, Markaz, near Post Office & Babri Masjid
Open ⋅ Closes 10 PM · +92 300 5511552",Religious goods store,Open,33.678189,73.0167574,https://www.google.com/maps/place/AlBalagh+Islamic+Store+G10+Islamabad+%D8%A7%D9%84%D8%A8%D9%84%D8%A7%D8%BA+%D8%AC%DB%8C+%D9%B9%DB%8C%D9%86+%D8%A7%D8%B3%D9%84%D8%A7%D9%85+%D8%A2%D8%A8%D8%A7%D8%AF%E2%80%AD/data=!4m7!3m6!1s0x38dfbe21dfe18365:0x8aae3b12ab78626b!8m2!3d33.678189!4d73.0167574!16s%2Fg%2F11clwn96v6!19sChIJZYPh3yG-3zgRa2J4qxI7roo?authuser=0&hl=en&rclk=1,"Medicine, Islamabad"
40,themoimall_33.682369_72.990509,The MOI Mall,"The MOI Mall
4.2(437)
Shopping mall ·  · Plot no, 07 Hilal Rd
Open ⋅ Closes 11 PM · +92 331 0001086",Shopping mall,Open,33.6823685,72.9905094,https://www.google.com/maps/place/The+MOI+Mall/data=!4m7!3m6!1s0x38dfbde3aa2eb38d:0x4773b3d8251ee308!8m2!3d33.6823685!4d72.9905094!16s%2Fg%2F11bw3yp0k4!19sChIJjbMuquO93zgRCOMeJdizc0c?authuser=0&hl=en&rclk=1,"Medicine, Islamabad"
41,metroislamabadstore_33.639918_73.026167,METRO Islamabad Store,"METRO Islamabad Store
4.3(13,790)
Grocery store ·  · Plot 1-A, Laila Rd, adjacent Railway Carriage Factory Road
Open ⋅ Closes 11 PM · +92 51 4020073",Grocery store,Open,33.6399179,73.0261665,https://www.google.com/maps/place/METRO+Islamabad+Store/data=!4m7!3m6!1s0x38df95b111b61cd7:0x2613048254d87137!8m2!3d33.6399179!4d73.0261665!16s%2Fg%2F11c51w48nq!19sChIJ1xy2EbGV3zgRN3HYVIIEEyY?authuser=0&hl=en&rclk=1,"Medicine, Islamabad"
42,safagoldmall_33.720709_73.055502,Safa Gold Mall,"Safa Gold Mall
4.3(32,134)
Shopping mall ·  · Plot No، 5 College Rd
Mall with chain stores & a food court
Open ⋅ Closes 11 PM · +92 51 2656766",Shopping mall,Open,33.7207086,73.0555015,https://www.google.com/maps/place/Safa+Gold+Mall/data=!4m7!3m6!1s0x38dfbfa7067ea8d3:0x49a6054408b8b584!8m2!3d33.7207086!4d73.0555015!16s%2Fg%2F11byxfvf5h!19sChIJ06h-Bqe_3zgRhLW4CEQFpkk?authuser=0&hl=en&rclk=1,"Medicine, Islamabad"
43,kayalislamabad_33.730551_73.079166,"Kayal, Islamabad","Kayal, Islamabad
4.4(36)
Women's clothing store · 1 Agha Khan Rd
Open ⋅ Closes 9 PM · +92 51 8440038",Women's clothing store,Open,33.7305509,73.079166,"https://www.google.com/maps/place/Kayal,+Islamabad/data=!4m7!3m6!1s0x38dfbf9c8548e4c3:0xf90d9963d10a67b8!8m2!3d33.7305509!4d73.079166!16s%2Fg%2F11b6bv1k9x!19sChIJw-RIhZy_3zgRuGcK0WOZDfk?authuser=0&hl=en&rclk=1","Medicine, Islamabad"
44,oneshoptoysofficial_33.696505_73.012303,One Shop Toys Official,"One Shop Toys Official
3.9(630)
Toy store ·  · Shop No. 7 L, Ajaib Plaza, next to Faysal Bank
Open ⋅ Closes 11 PM · +92 51 2222955",Toy store,Open,33.6965049,73.0123028,https://www.google.com/maps/place/One+Shop+Toys+Official/data=!4m7!3m6!1s0x38dfbe6b6c3e17a3:0x83e469d7dfa37b78!8m2!3d33.6965049!4d73.0123028!16s%2Fg%2F12mkz5pkm!19sChIJoxc-bGu-3zgReHuj39dp5IM?authuser=0&hl=en&rclk=1,"Medicine, Islamabad"
45,khasstoreislamabadpw_33.573082_73.148406,Khas Store Islamabad - PWD,"Khas Store Islamabad - PWD
4.0(154)
Clothing store · 24-D Main PWD Rd
Open ⋅ Closes 10 PM · +92 321 9434712",Clothing store,Open,33.5730819,73.1484061,https://www.google.com/maps/place/Khas+Store+Islamabad+-+PWD/data=!4m7!3m6!1s0x38dfec456641e99f:0x8b9a109b1d492802!8m2!3d33.5730819!4d73.1484061!16s%2Fg%2F11b75mh21v!19sChIJn-lBZkXs3zgRAihJHZsQmos?authuser=0&hl=en&rclk=1,"Medicine, Islamabad"
46,labelsislamabad_33.721479_73.059061,Labels Islamabad,"Labels Islamabad
4.0(41)
Clothing store · 13Y,Chaudhary Plaza, Next to PSO Pump, Bhittai Road,F-7 Markaz, Islamabad
Open ⋅ Closes 9 PM · +92 51 8437941",Clothing store,Open,33.721479,73.059061,https://www.google.com/maps/place/Labels+Islamabad/data=!4m7!3m6!1s0x38dfbf75997704e1:0xeddc5db04e302df5!8m2!3d33.721479!4d73.059061!16s%2Fg%2F11b6gm9k2f!19sChIJ4QR3mXW_3zgR9S0wTrBd3O0?authuser=0&hl=en&rclk=1,"Medicine, Islamabad"
47,lulusarstoreislamaba_33.731594_73.078884,Lulusar store Islamabad,"Lulusar store Islamabad
4.2(81)
Clothing store · School Rd, near shell pump
Open ⋅ Closes 10 PM · +92 305 2553434",Clothing store,Open,33.7315943,73.0788839,https://www.google.com/maps/place/Lulusar+store+Islamabad/data=!4m7!3m6!1s0x38dfbfa63ccf9823:0xc9e201b064f6e69b!8m2!3d33.7315943!4d73.0788839!16s%2Fg%2F11sghj5wpr!19sChIJI5jPPKa_3zgRm-b2ZLAB4sk?authuser=0&hl=en&rclk=1,"Medicine, Islamabad"
48,libertyshoppingcentr_33.706556_73.086996,Liberty Shopping Centre,"Liberty Shopping Centre
4.1(308)
Shopping mall · 700 Khayaban-e-Suhrwardy Rd
Open ⋅ Closes 10 PM · +92 300 5327186",Shopping mall,Open,33.7065564,73.0869956,https://www.google.com/maps/place/Liberty+Shopping+Centre/data=!4m7!3m6!1s0x38dfc07570c3b2e1:0x31a99d0cdf4fff0!8m2!3d33.7065564!4d73.0869956!16s%2Fg%2F11xdmrlt1!19sChIJ4bLDcHXA3zgR8P_0zdCZGgM?authuser=0&hl=en&rclk=1,"Medicine, Islamabad"
49,dxsportsfitnessshopi_33.668429_72.996849,DX Sports & Fitness Shop Islamabad,"DX Sports & Fitness Shop Islamabad
4.3(60)
Sports accessories wholesaler · 19B, Silver City Plaza, MARKAZ
Open ⋅ Closes 5:30 PM ⋅ Reopens 9 PM · +92 300 9508214",Sports accessories wholesaler,Open,33.6684286,72.9968488,https://www.google.com/maps/place/DX+Sports+%26+Fitness+Shop+Islamabad/data=!4m7!3m6!1s0x38df959572b7751b:0xd232cbb6022688d0!8m2!3d33.6684286!4d72.9968488!16s%2Fg%2F11h6m52lgp!19sChIJG3W3cpWV3zgR0IgmArbLMtI?authuser=0&hl=en&rclk=1,"Medicine, Islamabad"
50,islamabadsuperstore_33.677277_72.985799,Islamabad Super Store,"Islamabad Super Store
4.3(35)
General store ·  · Ali Market, St 9, F-11-1, F-11, 3
Open ⋅ Closes 11 PM · +92 51 2214226",General store,Open,33.6772769,72.9857993,https://www.google.com/maps/place/Islamabad+Super+Store/data=!4m7!3m6!1s0x38dfbdfba1bbddcf:0x1e6a575e4a1cee1b!8m2!3d33.6772769!4d72.9857993!16s%2Fg%2F12mkzc55r!19sChIJz927ofu93zgRG-4cSl5Xah4?authuser=0&hl=en&rclk=1,"Medicine, Islamabad"
51,nikeflagshipstoreisl_33.710761_73.058777,Nike Flagship Store Islamabad,"Nike Flagship Store Islamabad
4.0(428)
Shoe store · Shop# 3-4, Sardar Beagum Plaza, Jinnah Ave، near Domino's Pizza
Mainstay for athletic apparel & footwear
Open ⋅ Closes 10:30 AM Fri · +92 51 2347157",Shoe store,Open,33.7107614,73.0587774,https://www.google.com/maps/place/Nike+Flagship+Store+Islamabad/data=!4m7!3m6!1s0x38dfbfbcbdaf7dcb:0x3c68befa31414abd!8m2!3d33.7107614!4d73.0587774!16s%2Fg%2F1pp2vkqr6!19sChIJy32vvby_3zgRvUpBMfq-aDw?authuser=0&hl=en&rclk=1,"Medicine, Islamabad"
52,gamestoreislamabad_33.720632_73.054862,Game Store Islamabad,"Game Store Islamabad
4.4(509)
Video game store · MCB Bank, Safa Gold Mall, King Arcade Plaza Mid Caltex Petrol Pump and safa gold mall College Road, MARKAZ
Open ⋅ Closes 11 PM · +92 336 2002640",Video game store,Open,33.7206323,73.0548624,https://www.google.com/maps/place/Game+Store+Islamabad/data=!4m7!3m6!1s0x38dfbfb61c6e95d5:0xd366e50b1cb02ea0!8m2!3d33.7206323!4d73.0548624!16s%2Fg%2F11fhtw_x50!19sChIJ1ZVuHLa_3zgRoC6wHAvlZtM?authuser=0&hl=en&rclk=1,"Medicine, Islamabad"
53,samsungoutletislamab_33.711800_73.041135,Samsung Outlet Islamabad,"Samsung Outlet Islamabad
4.5(352)
Outlet store ·  · Ground floor, Royal Inn Plaza, Kohistan Rd
Open ⋅ Closes 10 PM · +92 333 5777792",Outlet store,Open,33.7117998,73.0411355,https://www.google.com/maps/place/Samsung+Outlet+Islamabad/data=!4m7!3m6!1s0x38dfbfad2fe47385:0xea2fcacb2778fb4f!8m2!3d33.7117998!4d73.0411355!16s%2Fg%2F11cs1wk148!19sChIJhXPkL62_3zgRT_t4J8vKL-o?authuser=0&hl=en&rclk=1,"Medicine, Islamabad"
54,islamabadsportsshop_33.706487_73.086969,Islamabad Sports Shop,"Islamabad Sports Shop
4.8(45)
Sporting goods store · Shop # 32-G, Liberty Shoping Center, Abpara Market
Open ⋅ Closes 10 PM · +92 333 5363162",Sporting goods store,Open,33.7064868,73.0869688,https://www.google.com/maps/place/Islamabad+Sports+Shop/data=!4m7!3m6!1s0x38dfbff5c9cd105d:0x6c12671bc9bbf994!8m2!3d33.7064868!4d73.0869688!16s%2Fg%2F11t7t2fwxm!19sChIJXRDNyfW_3zgRlPm7yRtnEmw?authuser=0&hl=en&rclk=1,"Medicine, Islamabad"
55,imagef10markazislama_33.696705_73.012612,Image - F-10 Markaz - Islamabad,"Image - F-10 Markaz - Islamabad
4.1(27)
Women's clothing store · Pak Plaza
Open ⋅ Closes 10 PM · +92 51 8739054",Women's clothing store,Open,33.696705,73.0126115,https://www.google.com/maps/place/Image+-+F-10+Markaz+-+Islamabad/data=!4m7!3m6!1s0x38dfbff083da6be3:0x221935261569e37f!8m2!3d33.696705!4d73.0126115!16s%2Fg%2F11q46l4tc8!19sChIJ42vag_C_3zgRf-NpFSY1GSI?authuser=0&hl=en&rclk=1,"Medicine, Islamabad"
56,alsyedmobilesgadgets_33.666729_73.073557,Al Syed Mobiles & Gadgets i-8 Markaz Islamabad,"Al Syed Mobiles & Gadgets i-8 Markaz Islamabad
4.8(101)
Cell phone store
Open ⋅ Closes 11 PM · +92 333 5147779",Cell phone store,Open,33.6667293,73.0735574,https://www.google.com/maps/place/Al+Syed+Mobiles+%26+Gadgets+i-8+Markaz+Islamabad/data=!4m7!3m6!1s0x38df9545c9d0fd65:0x3fac5ff1652a7901!8m2!3d33.6667293!4d73.0735574!16s%2Fg%2F1tzlxb93!19sChIJZf3QyUWV3zgRAXkqZfFfrD8?authuser=0&hl=en&rclk=1,"Medicine, Islamabad"
57,kamaliakhaddarislama_33.706402_73.088923,Kamalia Khaddar Islamabad,"Kamalia Khaddar Islamabad
4.6(85)
Clothing store · Al shuhda on, main Srinagar Hwy, behind masjid
Open ⋅ Closes 9 PM · +92 313 5143143",Clothing store,Open,33.7064016,73.0889232,https://www.google.com/maps/place/Kamalia+Khaddar+Islamabad/data=!4m7!3m6!1s0x38dfc18cb1580da3:0x60bba5fe75c06ed9!8m2!3d33.7064016!4d73.0889232!16s%2Fg%2F11jd9kdcp2!19sChIJow1YsYzB3zgR2W7Adf6lu2A?authuser=0&hl=en&rclk=1,"Medicine, Islamabad"
58,zubaidasgracobabysho_33.683836_72.986746,"Zubaida's Graco Babyshop – F11 MARKAZ, ISLAMABAD","Zubaida's Graco Babyshop – F11 MARKAZ, ISLAMABAD
3.9(89)
Baby store · Besides Standard Chartered Bank, Savoy Arcade, Lower Ground, besides, Plot # 21 Hilal Rd
Open ⋅ Closes 10 PM · +92 345 0022348",Baby store,Open,33.6838361,72.9867457,"https://www.google.com/maps/place/Zubaida%27s+Graco+Babyshop+%E2%80%93+F11+MARKAZ,+ISLAMABAD/data=!4m7!3m6!1s0x38dfbde47a5f2205:0x8711403dd18c706d!8m2!3d33.6838361!4d72.9867457!16s%2Fg%2F11c5_q34q5!19sChIJBSJfeuS93zgRbXCM0T1AEYc?authuser=0&hl=en&rclk=1","Medicine, Islamabad"
59,gamestopislamabadpsn_33.666739_73.075953,Game Stop Islamabad & PSN Gift Card Store,"Game Stop Islamabad & PSN Gift Card Store
4.8(12)
Shopping mall ·  · Pak Land Business Centre, Markaz
Open ⋅ Closes 10 PM · +92 305 6916224",Shopping mall,Open,33.6667391,73.0759528,https://www.google.com/maps/place/Game+Stop+Islamabad+%26+PSN+Gift+Card+Store/data=!4m7!3m6!1s0x38dfbfcf470931e1:0xbf9e4a3e298f495f!8m2!3d33.6667391!4d73.0759528!16s%2Fg%2F11ny23n9gh!19sChIJ4TEJR8-_3zgRX0mPKT5Knr8?authuser=0&hl=en&rclk=1,"Medicine, Islamabad"
60,librajewellers_33.729736_73.076263,Libra Jewellers,"Libra Jewellers
4.7(32)
Jeweler · Islamabad Islamabad Islamabad Capital Territory
Open ⋅ Closes 8 PM · +92 300 9543653",Jeweler,Open,33.7297363,73.0762634,https://www.google.com/maps/place/Libra+Jewellers/data=!4m7!3m6!1s0x38dfbf79e6bf71c7:0x57708d779bd432ed!8m2!3d33.7297363!4d73.0762634!16s%2Fg%2F1tq4pglq!19sChIJx3G_5nm_3zgR7TLUm3eNcFc?authuser=0&hl=en&rclk=1,"Medicine, Islamabad"
61,centaurusmall_33.707728_73.049792,Centaurus Mall,"Centaurus Mall
4.4(78,171)
Shopping mall ·  · 4 Jinnah Avenue
Sizable, contemporary shopping center
Open ⋅ Closes 11 PM · +92 51 8483040",Shopping mall,Open,33.7077281,73.0497919,https://www.google.com/maps/place/Centaurus+Mall/data=!4m7!3m6!1s0x38dfbfb0f4f77379:0xf8c50b8651f56d02!8m2!3d33.7077281!4d73.0497919!16s%2Fm%2F01xmgnl!19sChIJeXP39LC_3zgRAm31UYYLxfg?authuser=0&hl=en&rclk=1,"Medicine, Islamabad"
62,mohsinsonsf7islamaba_33.722654_73.059578,Mohsin Sons F-7 Islamabad,"Mohsin Sons F-7 Islamabad
4.1(196)
Clothing store ·  · Ammar Centre, Jinnah Super Market
Open ⋅ Closes 10 PM · +92 51 2654122",Clothing store,Open,33.7226537,73.0595776,https://www.google.com/maps/place/Mohsin+Sons+F-7+Islamabad/data=!4m7!3m6!1s0x38dfbff139aaa01d:0xe63abab5ec106cb9!8m2!3d33.7226537!4d73.0595776!16s%2Fg%2F11szc_jsb5!19sChIJHaCqOfG_3zgRuWwQ7LW6OuY?authuser=0&hl=en&rclk=1,"Medicine, Islamabad"
63,islamabadgeneralstor_33.683138_72.988114,Islamabad general store,"Islamabad general store
4.4(33)
Supermarket · shop no 5, trade centre
Open 24 hours · +92 51 2113030",Supermarket,Open 24 hours,33.6831375,72.9881144,https://www.google.com/maps/place/Islamabad+general+store/data=!4m7!3m6!1s0x38dfbda6323eabf3:0x6c81b88cdc383ed9!8m2!3d33.6831375!4d72.9881144!16s%2Fg%2F11t9g_4tt1!19sChIJ86s-Mqa93zgR2T443Iy4gWw?authuser=0&hl=en&rclk=1,"Medicine, Islamabad"
64,minisoi8markazislama_33.667994_73.075806,Miniso I-8 Markaz Islamabad,"Miniso I-8 Markaz Islamabad
3.8(55)
Cosmetics store · Plot # 17,18
Open ⋅ Closes 11 PM · +92 343 5367536",Cosmetics store,Open,33.6679937,73.0758062,https://www.google.com/maps/place/Miniso+I-8+Markaz+Islamabad/data=!4m7!3m6!1s0x38df950fb78282a7:0xb9a7002a7c3d1f0!8m2!3d33.6679937!4d73.0758062!16s%2Fg%2F11fr6sy5_c!19sChIJp4KCtw-V3zgR8NHDpwJwmgs?authuser=0&hl=en&rclk=1,"Medicine, Islamabad"
65,themobileshop_33.711665_73.061528,The Mobile Shop,"The Mobile Shop
4.2(328)
Cell phone store · Shop 7 Ittehad Center, Fazal e Haq Rd
Open ⋅ Closes 10 PM · +92 310 9111222",Cell phone store,Open,33.7116654,73.0615281,https://www.google.com/maps/place/The+Mobile+Shop/data=!4m7!3m6!1s0x38dfbfbd26c47619:0x685f5af16ef1c6e2!8m2!3d33.7116654!4d73.0615281!16s%2Fg%2F1q6j72jgg!19sChIJGXbEJr2_3zgR4sbxbvFaX2g?authuser=0&hl=en&rclk=1,"Medicine, Islamabad"
66,saeedtradersislamaba_33.689256_73.033286,Saeed Traders Islamabad,"Saeed Traders Islamabad
4.0(95)
Store ·  · Adeel Plaza Shop#5, G 9 Markaz pso pump ki back side
Open ⋅ Closes 10:30 PM · +92 51 2284808",Store,Open,33.6892561,73.0332859,https://www.google.com/maps/place/Saeed+Traders+Islamabad/data=!4m7!3m6!1s0x38dfbf4a16ac754f:0x6a1b0c07b7518543!8m2!3d33.6892561!4d73.0332859!16s%2Fg%2F11fl08p78l!19sChIJT3WsFkq_3zgRQ4VRtwcMG2o?authuser=0&hl=en&rclk=1,"Medicine, Islamabad"
67,laptopstorei9islamab_33.650864_73.050110,laptop store i9 Islamabad,"laptop store i9 Islamabad
4.9(53)
Computer store · 652 Street 22B
Open ⋅ Closes 10 PM · +92 331 5858063",Computer store,Open,33.650864,73.05011,https://www.google.com/maps/place/laptop+store+i9+Islamabad/data=!4m7!3m6!1s0x38df958dd08801fd:0xbcad811fba120525!8m2!3d33.650864!4d73.05011!16s%2Fg%2F11tdblkk2c!19sChIJ_QGI0I2V3zgRJQUSuh-Brbw?authuser=0&hl=en&rclk=1,"Medicine, Islamabad"
68,f7markazjinnahsuperm_33.721219_73.057552,F-7 Markaz (Jinnah Super Market),"F-7 Markaz (Jinnah Super Market)
4.4(49,158)
Supermarket ·  · Opposite To Flower Market, College Rd
Open ⋅ Closes 1 AM · +92 317 5666179",Supermarket,Open,33.7212189,73.0575515,https://www.google.com/maps/place/F-7+Markaz+%28Jinnah+Super+Market%29/data=!4m7!3m6!1s0x38dfbfa76b72ff95:0x7f5e8a6820990b68!8m2!3d33.7212189!4d73.0575515!16s%2Fg%2F1q5bl4ywq!19sChIJlf9ya6e_3zgRaAuZIGiKXn8?authuser=0&hl=en&rclk=1,"Medicine, Islamabad"
69,khaadi_33.698516_73.011431,Khaadi,"Khaadi
4.3(1,193)
Clothing store · 
Open ⋅ Closes 11 PM · +92 51 2809627",Clothing store,Open,33.698516,73.0114309,https://www.google.com/maps/place/Khaadi/data=!4m7!3m6!1s0x38dfbe152e29e0e9:0xbe11759c47145240!8m2!3d33.698516!4d73.0114309!16s%2Fg%2F1hhwbl5sq!19sChIJ6eApLhW-3zgRQFIUR5x1Eb4?authuser=0&hl=en&rclk=1,"Medicine, Islamabad"
70,islamabadgiftshoppk_33.722466_73.058177,Islamabad Giftshop Pk,"Islamabad Giftshop Pk
5.0(165)
Gift shop · Flowers market, College Rd
Open 24 hours · +92 332 6362390",Gift shop,Open 24 hours,33.722466,73.058177,https://www.google.com/maps/place/Islamabad+Giftshop+Pk/data=!4m7!3m6!1s0x8aaea4846331ec8f:0x27892c14d58f65d!8m2!3d33.722466!4d73.058177!16s%2Fg%2F11w4lqk7nc!19sChIJj-wxY4SkrooRXfZYTcGSeAI?authuser=0&hl=en&rclk=1,"Medicine, Islamabad"
71,topshopislamabad_33.532688_73.112062,Top shop islamabad,"Top shop islamabad
5.0(1)
Clothing store
Open ⋅ Closes 10 PM · +92 333 5297471",Clothing store,Open,33.5326875,73.1120625,https://www.google.com/maps/place/Top+shop+islamabad/data=!4m7!3m6!1s0x38dfedb25cf841db:0x8cd6d85fb88c90f5!8m2!3d33.5326875!4d73.1120625!16s%2Fg%2F11pz3k90m_!19sChIJ20H4XLLt3zgR9ZCMuF_Y1ow?authuser=0&hl=en&rclk=1,"Medicine, Islamabad"
72,perfumesshopinislama_33.521200_73.158774,Perfumes Shop in Islamabad - Scents N Stories - GIGA Mall,"Perfumes Shop in Islamabad - Scents N Stories - GIGA Mall
4.4(123)
Perfume store · GIGA MAll, Main GT Rd
Open ⋅ Closes 11 PM · +92 51 8488052",Perfume store,Open,33.5212,73.1587741,https://www.google.com/maps/place/Perfumes+Shop+in+Islamabad+-+Scents+N+Stories+-+GIGA+Mall/data=!4m7!3m6!1s0x38dfedc09b6ef279:0x16659db66ee2bff1!8m2!3d33.5212!4d73.1587741!16s%2Fg%2F11k9fl888r!19sChIJefJum8Dt3zgR8b_ibradZRY?authuser=0&hl=en&rclk=1,"Medicine, Islamabad"
73,artplanetislamabadha_33.721985_73.059108,Art Planet Islamabad (Handmade Rugs & Kilims).,"Art Planet Islamabad (Handmade Rugs & Kilims).
4.9(209)
Carpet store ·  · Shop# 11-12, Address of Art planet :, Block 13-J Markaz, next to Generations & Fish Shop, beside PSO PUMP
Open ⋅ Closes 10 PM · +92 51 2650701",Carpet store,Open,33.7219848,73.0591077,https://www.google.com/maps/place/Art+Planet+Islamabad+%28Handmade+Rugs+%26+Kilims%29./data=!4m7!3m6!1s0x38dfbfa0b9cca349:0xad5bb9999bd12491!8m2!3d33.7219848!4d73.0591077!16s%2Fg%2F11g8b57pql!19sChIJSaPMuaC_3zgRkSTRm5m5W60?authuser=0&hl=en&rclk=1,"Medicine, Islamabad"
74,islamabadsanitarysto_33.687918_73.049329,Islamabad Sanitary Store,"Islamabad Sanitary Store
4.1(79)
Bathroom supply store · I&T Centre Plot 78,Shop#01, Street 14
Open ⋅ Closes 8 PM · +92 51 2252670",Bathroom supply store,Open,33.6879184,73.0493285,https://www.google.com/maps/place/Islamabad+Sanitary+Store/data=!4m7!3m6!1s0x38dfbfd1caafd235:0x133ced8a4b944820!8m2!3d33.6879184!4d73.0493285!16s%2Fg%2F12mkzjj8y!19sChIJNdKvytG_3zgRIEiUS4rtPBM?authuser=0&hl=en&rclk=1,"Medicine, Islamabad"
75,scribblebooksschools_33.696377_73.011371,Scribble Books & School Supplies (Islamabad),"Scribble Books & School Supplies (Islamabad)
4.0(33)
Book store · Shop no.7, Capital trade center, near Rahat Bakery & Subway
Open ⋅ Closes 11 PM · +92 333 5417773",Book store,Open,33.6963774,73.0113711,https://www.google.com/maps/place/Scribble+Books+%26+School+Supplies+%28Islamabad%29/data=!4m7!3m6!1s0x38dfbfc12f64d2cd:0x28aeff9a2b1a5f6e!8m2!3d33.6963774!4d73.0113711!16s%2Fg%2F11h7fmjp7v!19sChIJzdJkL8G_3zgRbl8aK5r_rig?authuser=0&hl=en&rclk=1,"Medicine, Islamabad"
