Index,Place Id,Name,Address,Category,Status,Latitude,Longitude,Link,SearchKeyword
1,na_noloc,,,,,,,,"Mental Health Clinic, Islamabad"
5,islamabadpsychiatric_33.663819_73.153974,Islamabad Psychiatric Clinic & Rehabilitation Centre | Addiction Treatment and Rehabilitation Center in Islamabad,,Mental health clinic,Open 24 hours,33.6638193,73.1539744,https://www.google.com/maps/place/Islamabad+Psychiatric+Clinic+%26+Rehabilitation+Centre+%7C+Addiction+Treatment+and+Rehabilitation+Center+in+Islamabad/data=!4m7!3m6!1s0x38dfeb9814780d4d:0x8717ceb69842c135!8m2!3d33.6638193!4d73.1539744!16s%2Fg%2F11h1hnkywz!19sChIJTQ14FJjr3zgRNcFCmLbOF4c?authuser=0&hl=en&rclk=1,"Mental Health Clinic, Islamabad"
37,sochpsychologicalcli_33.560173_73.133577,SOCH Psychological Clinics Bahria Branch,"SOCH Psychological Clinics Bahria Branch
4.9(163)
Mental health clinic Â· î¤´ Â· 415D Street 26, near Bahria 1
Open â‹… Closes 7â€¯PM Â· +92 343 1433331",Mental health clinic,Open,33.5601729,73.1335767,https://www.google.com/maps/place/SOCH+Psychological+Clinics+Bahria+Branch/data=!4m7!3m6!1s0x38dfedee6ff0f6f9:0x596fc28ace050820!8m2!3d33.5601729!4d73.1335767!16s%2Fg%2F11h6m4n74z!19sChIJ-fbwb-7t3zgRIAgFzorCb1k?authuser=0&hl=en&rclk=1,"Mental Health Clinic, Islamabad"
38,sochclinicsislamabad_33.696830_73.051393,SOCH Clinics Islamabad Branch,"SOCH Clinics Islamabad Branch
4.8(283)
Psychologist Â· î¤´ Â· Clinic #2 Pakland Square
Open â‹… Closes 9â€¯PM Â· +92 343 1433331",Psychologist,Open,33.69683,73.0513934,https://www.google.com/maps/place/SOCH+Clinics+Islamabad+Branch/data=!4m7!3m6!1s0x38dfecffddb2c569:0x1aeb15c96e355700!8m2!3d33.69683!4d73.0513934!16s%2Fg%2F11f_0wnkrh!19sChIJacWy3f_s3zgRAFc1bskV6xo?authuser=0&hl=en&rclk=1,"Mental Health Clinic, Islamabad"
39,islamabadmindwellnes_33.572145_73.144785,Islamabad Mind Wellness Clinic & Rehabilitation Centre (Best Drug Addiction and Psychiatric Treatment Centre),"Islamabad Mind Wellness Clinic & Rehabilitation Centre (Best Drug Addiction and Psychiatric Treatment Centre)
4.5(226)
Psychiatric hospital Â· î¤´ Â· House 265 Street Number 1
Open 24 hours Â· +92 333 0951030",Psychiatric hospital,Open 24 hours,33.5721454,73.1447852,https://www.google.com/maps/place/Islamabad+Mind+Wellness+Clinic+%26+Rehabilitation+Centre+%28Best+Drug+Addiction+and+Psychiatric+Treatment+Centre%29/data=!4m7!3m6!1s0x38dfedc7a53e932d:0x8d427a47b7c7278a!8m2!3d33.5721454!4d73.1447852!16s%2Fg%2F11vbl9w77p!19sChIJLZM-pcft3zgRiifHt0d6Qo0?authuser=0&hl=en&rclk=1,"Mental Health Clinic, Islamabad"
40,psychologicalhealthc_33.697728_73.046929,Psychological health care center Islamabad,"Psychological health care center Islamabad
4.8(33)
Psychologist Â· House no, 279 Street 3, opposite tandoori restaurant
+92 300 8505221",Psychologist,,33.6977283,73.0469289,https://www.google.com/maps/place/Psychological+health+care+center+Islamabad/data=!4m7!3m6!1s0x38dfbf72b1434937:0xe555922930620b05!8m2!3d33.6977283!4d73.0469289!16s%2Fg%2F11r7s3l2sh!19sChIJN0lDsXK_3zgRBQtiMCmSVeU?authuser=0&hl=en&rclk=1,"Mental Health Clinic, Islamabad"
41,happylifepsychologic_33.619057_73.140475,Happy Life Psychological Services (HLPS),"Happy Life Psychological Services (HLPS)
5.0(272)
Rehabilitation center Â· HLPS Drugs Addiction Treatment Center, Street 5
Open 24 hours Â· +92 300 0945066",Rehabilitation center,Open 24 hours,33.6190574,73.1404751,https://www.google.com/maps/place/Happy+Life+Psychological+Services+%28HLPS%29/data=!4m7!3m6!1s0x38dfeb3df297c315:0xbc3c428ab879ac66!8m2!3d33.6190574!4d73.1404751!16s%2Fg%2F11t7p8bmc3!19sChIJFcOX8j3r3zgRZqx5uIpCPLw?authuser=0&hl=en&rclk=1,"Mental Health Clinic, Islamabad"
42,dribadulhaqpsychiatr_33.666818_73.076175,Dr. Ibad-ul-Haq Psychiatry and Therapy Associates Islamabad,"Dr. Ibad-ul-Haq Psychiatry and Therapy Associates Islamabad
5.0(12)
Mental health service Â· î¤´ Â· Pakland Business Center
Open â‹… Closes 4â€¯PM Â· +92 312 5313641",Mental health service,Open,33.6668179,73.0761751,https://www.google.com/maps/place/Dr.+Ibad-ul-Haq+Psychiatry+and+Therapy+Associates+Islamabad/data=!4m7!3m6!1s0x38df950ef9f894b5:0xd3f5dd6472c1a962!8m2!3d33.6668179!4d73.0761751!16s%2Fg%2F11qycq9lg4!19sChIJtZT4-Q6V3zgRYqnBcmTd9dM?authuser=0&hl=en&rclk=1,"Mental Health Clinic, Islamabad"
43,sehatyabonlinepsychi_33.649743_73.041717,SehatYab - Online Psychiatrists | Psychologists | Psychotherapists | Counselors in Pakistan,"SehatYab - Online Psychiatrists | Psychologists | Psychotherapists | Counselors in Pakistan
4.9(344)
Mental health service Â· Kickstart, 189 Korang Road
Open â‹… Closes 4â€¯PM â‹… Reopens 8â€¯PM Â· +92 304 1112310",Mental health service,Open,33.6497433,73.0417171,https://www.google.com/maps/place/SehatYab+-+Online+Psychiatrists+%7C+Psychologists+%7C+Psychotherapists+%7C+Counselors+in+Pakistan/data=!4m7!3m6!1s0x38dfedd5e8db75c1:0xf91d3f0f61844771!8m2!3d33.6497433!4d73.0417171!16s%2Fg%2F11qr5pxnd2!19sChIJwXXb6NXt3zgRcUeEYQ8_Hfk?authuser=0&hl=en&rclk=1,"Mental Health Clinic, Islamabad"
44,iomhinstituteofmenta_33.635955_73.142117,IOMH Institute of Mental Health,"IOMH Institute of Mental Health
4.9(128)
Mental health service Â· Near Al-Badar Masjid Main Lehtrar Road, St 3
Open 24 hours Â· +92 313 4664786",Mental health service,Open 24 hours,33.635955,73.1421175,https://www.google.com/maps/place/IOMH+Institute+of+Mental+Health/data=!4m7!3m6!1s0x38dfc3412287e4c5:0x5f64400da2f06f29!8m2!3d33.635955!4d73.1421175!16s%2Fg%2F11rsbb_q4f!19sChIJxeSHIkHD3zgRKW_wog1AZF8?authuser=0&hl=en&rclk=1,"Mental Health Clinic, Islamabad"
45,mentalmentorpsycholo_33.591475_73.129577,Mental mentor psychological and Counseling services,"Mental mentor psychological and Counseling services
4.8(10)
Mental health service Â· phase 2, Main PWD road house #107, Street 19
Open â‹… Closes 5â€¯PM Â· +92 340 8014785",Mental health service,Open,33.591475,73.129577,https://www.google.com/maps/place/Mental+mentor+psychological+and+Counseling+services/data=!4m7!3m6!1s0x38df951f2c53925b:0xeea47c72ad9bc63c!8m2!3d33.591475!4d73.129577!16s%2Fg%2F11s46rw2rr!19sChIJW5JTLB-V3zgRPMabrXJ8pO4?authuser=0&hl=en&rclk=1,"Mental Health Clinic, Islamabad"
46,islamabadmentalwelln_33.566372_73.126688,Islamabad Mental & Wellness Center - Rehab & Drug Addiction Treatment Center in Islamabad,"Islamabad Mental & Wellness Center - Rehab & Drug Addiction Treatment Center in Islamabad
4.7(37)
Mental health clinic Â· î¤´ Â· Plot No, House # 228, Street 1, 145 Gate 2, near Bahria Town
Open 24 hours Â· +92 335 0509344",Mental health clinic,Open 24 hours,33.5663725,73.1266875,https://www.google.com/maps/place/Islamabad+Mental+%26+Wellness+Center+-+Rehab+%26+Drug+Addiction+Treatment+Center+in+Islamabad/data=!4m7!3m6!1s0x38dfed247dec6007:0x119a0db1742eaf5!8m2!3d33.5663725!4d73.1266875!16s%2Fg%2F11s538pj89!19sChIJB2DsfSTt3zgR9epCF9ugGQE?authuser=0&hl=en&rclk=1,"Mental Health Clinic, Islamabad"
47,islamabadmindtherapy_33.564690_73.140304,Islamabad Mind Therapy | Best Mental Health Rehab Center Islamabad,"Islamabad Mind Therapy | Best Mental Health Rehab Center Islamabad
5.0(6)
Psychiatric hospital Â· House# 115, St#19 Pakistan Town Phase 2 Rd, Block C Phase 2 PWD, Islamabad, Punjab, near SSL School
Open 24 hours Â· +92 331 7443330",Psychiatric hospital,Open 24 hours,33.5646902,73.1403041,https://www.google.com/maps/place/Islamabad+Mind+Therapy+%7C+Best+Mental+Health+Rehab+Center+Islamabad/data=!4m7!3m6!1s0x38dfed1da1f70f4b:0x115089003208ea43!8m2!3d33.5646902!4d73.1403041!16s%2Fg%2F11lcfsrv53!19sChIJSw_3oR3t3zgRQ-oIMgCJUBE?authuser=0&hl=en&rclk=1,"Mental Health Clinic, Islamabad"
48,safecaretrustinterna_33.629311_72.936755,Safe Care Trust International,"Safe Care Trust International
4.9(94)
Psychiatric hospital Â· î¤´ Â· Main Motorway ChowkØŒ Gillani Avenue, Motorway Service Rd, near almizan college
Open 24 hours Â· +92 333 5643733",Psychiatric hospital,Open 24 hours,33.6293111,72.9367553,https://www.google.com/maps/place/Safe+Care+Trust+International/data=!4m7!3m6!1s0x38df97ae4cfec8a1:0x1bd9ac1fc513b6fb!8m2!3d33.6293111!4d72.9367553!16s%2Fg%2F11c2p5vb6l!19sChIJocj-TK6X3zgR-7YTxR-s2Rs?authuser=0&hl=en&rclk=1,"Mental Health Clinic, Islamabad"
49,greenfieldhospitalof_33.710173_73.167963,Greenfield Hospital Of Psychiatry,"Greenfield Hospital Of Psychiatry
4.7(23)
Mental health clinic Â· î¤´ Â· Maple homes, Street no 1, Pepsi road
Open â‹… Closes 5â€¯PM Â· +92 323 1595869",Mental health clinic,Open,33.7101732,73.1679634,https://www.google.com/maps/place/Greenfield+Hospital+Of+Psychiatry/data=!4m7!3m6!1s0x38dfc19ac85a85d3:0x6acc700ee63a7316!8m2!3d33.7101732!4d73.1679634!16s%2Fg%2F11pclwngnl!19sChIJ04VayJrB3zgRFnM65g5wzGo?authuser=0&hl=en&rclk=1,"Mental Health Clinic, Islamabad"
50,islamabadpsychologic_33.691360_72.999301,Islamabad Psychological Support By Maliha Ahmed,"Islamabad Psychological Support By Maliha Ahmed
5.0(33)
Mental health service Â· MXRX+GPV, Street 14
Open 24 hours Â· +92 316 5823033",Mental health service,Open 24 hours,33.6913602,72.9993008,https://www.google.com/maps/place/Islamabad+Psychological+Support+By+Maliha+Ahmed/data=!4m7!3m6!1s0x38dfbf0ac6cfc751:0x81abda60bfe86fad!8m2!3d33.6913602!4d72.9993008!16s%2Fg%2F11q1qqj_w5!19sChIJUcfPxgq_3zgRrW_ov2Daq4E?authuser=0&hl=en&rclk=1,"Mental Health Clinic, Islamabad"
51,mindmatterswithsahar_33.683098_72.988423,Mind Matters with Sahar - ğ—–ğ—¼ğ—»ğ˜€ğ˜‚ğ—¹ğ˜ğ—®ğ—»ğ˜ ğ—£ğ˜€ğ˜†ğ—°ğ—µğ—¶ğ—®ğ˜ğ—¿ğ—¶ğ˜€ğ˜ & ğ—£ğ˜€ğ˜†ğ—°ğ—µğ—¼ğ˜ğ—µğ—²ğ—¿ğ—®ğ—½ğ—¶ğ˜€ğ˜.,"Mind Matters with Sahar - ğ—–ğ—¼ğ—»ğ˜€ğ˜‚ğ—¹ğ˜ğ—®ğ—»ğ˜ ğ—£ğ˜€ğ˜†ğ—°ğ—µğ—¶ğ—®ğ˜ğ—¿ğ—¶ğ˜€ğ˜ & ğ—£ğ˜€ğ˜†ğ—°ğ—µğ—¼ğ˜ğ—µğ—²ğ—¿ğ—®ğ—½ğ—¶ğ˜€ğ˜.
5.0(18)
Mental health clinic Â· 1st Floor, Office No. 4,5, Lord Trade Centre, above Najeeb Pharmacy
Open â‹… Closes 6â€¯PM Â· +92 316 1819835",Mental health clinic,Open,33.6830979,72.9884226,https://www.google.com/maps/place/Mind+Matters+with+Sahar+-+%F0%9D%97%96%F0%9D%97%BC%F0%9D%97%BB%F0%9D%98%80%F0%9D%98%82%F0%9D%97%B9%F0%9D%98%81%F0%9D%97%AE%F0%9D%97%BB%F0%9D%98%81+%F0%9D%97%A3%F0%9D%98%80%F0%9D%98%86%F0%9D%97%B0%F0%9D%97%B5%F0%9D%97%B6%F0%9D%97%AE%F0%9D%98%81%F0%9D%97%BF%F0%9D%97%B6%F0%9D%98%80%F0%9D%98%81+%26+%F0%9D%97%A3%F0%9D%98%80%F0%9D%98%86%F0%9D%97%B0%F0%9D%97%B5%F0%9D%97%BC%F0%9D%98%81%F0%9D%97%B5%F0%9D%97%B2%F0%9D%97%BF%F0%9D%97%AE%F0%9D%97%BD%F0%9D%97%B6%F0%9D%98%80%F0%9D%98%81./data=!4m7!3m6!1s0x38df950ff5ebcdcf:0x9e3d6f20cb779e0a!8m2!3d33.6830979!4d72.9884226!16s%2Fg%2F11y1cd4m76!19sChIJz83r9Q-V3zgRCp53yyBvPZ4?authuser=0&hl=en&rclk=1,"Mental Health Clinic, Islamabad"
52,meetingmattersclinic_33.678552_73.010743,"Meeting Matters Clinic - Psychologists, Counselors and Therapists","Meeting Matters Clinic - Psychologists, Counselors and Therapists
4.8(272)
Psychologist Â· House 90, Street 27
Open 24 hours Â· +92 311 1155601",Psychologist,Open 24 hours,33.6785523,73.0107434,"https://www.google.com/maps/place/Meeting+Matters+Clinic+-+Psychologists,+Counselors+and+Therapists/data=!4m7!3m6!1s0x38dfbfb8974ddb91:0xe24956d22a3380b6!8m2!3d33.6785523!4d73.0107434!16s%2Fg%2F11gxnvs765!19sChIJkdtNl7i_3zgRtoAzKtJWSeI?authuser=0&hl=en&rclk=1","Mental Health Clinic, Islamabad"
53,mashalwellnessclinic_33.519210_73.092167,Mashal Wellness Clinic,"Mashal Wellness Clinic
5.0(11)
Mental health clinic Â· Building no C-09, Business Bay
Open â‹… Closes 4â€¯PM",Mental health clinic,Open,33.5192099,73.092167,https://www.google.com/maps/place/Mashal+Wellness+Clinic/data=!4m7!3m6!1s0x38dfeda523045557:0x146dbfd8d11e25da!8m2!3d33.5192099!4d73.092167!16s%2Fg%2F11krfj8k80!19sChIJV1UEI6Xt3zgR2iUe0di_bRQ?authuser=0&hl=en&rclk=1,"Mental Health Clinic, Islamabad"
54,mentalhealthcarehosp_33.618842_73.126497,"Mental Health Care Hospital, Islamabad","Mental Health Care Hospital, Islamabad
5.0(2)
Hospital Â· î¤´ Â· J49G+GHQ, Main market road
+92 300 8346269",Hospital,,33.6188418,73.1264971,"https://www.google.com/maps/place/Mental+Health+Care+Hospital,+Islamabad/data=!4m7!3m6!1s0x38dfebee9e4c2345:0x35d32b26a3c63451!8m2!3d33.6188418!4d73.1264971!16s%2Fg%2F11fnqc96rf!19sChIJRSNMnu7r3zgRUTTGoyYr0zU?authuser=0&hl=en&rclk=1","Mental Health Clinic, Islamabad"
55,newsochrehabpsychiat_33.571474_73.142974,New Soch Rehab & Psychiatric Centre Islamabad,"New Soch Rehab & Psychiatric Centre Islamabad
5.0(45)
Mental health clinic Â· House # 66 Street Number 1
Open 24 hours Â· +92 315 0005613",Mental health clinic,Open 24 hours,33.571474,73.1429736,https://www.google.com/maps/place/New+Soch+Rehab+%26+Psychiatric+Centre+Islamabad/data=!4m7!3m6!1s0x38dfefe26738cbe7:0x16c2d8c7fd71a032!8m2!3d33.571474!4d73.1429736!16s%2Fg%2F11txfqk_hr!19sChIJ58s4Z-Lv3zgRMqBx_cfYwhY?authuser=0&hl=en&rclk=1,"Mental Health Clinic, Islamabad"
56,ipcislamabadpsycholo_30.362957_68.996698,IPC - Islamabad Psychological Center,"IPC - Islamabad Psychological Center
5.0(29)
Psychologist
Open â‹… Closes 5â€¯PM Â· +92 316 9224768",Psychologist,Open,30.3629572,68.9966984,https://www.google.com/maps/place/IPC+-+Islamabad+Psychological+Center/data=!4m7!3m6!1s0x38dfc16b601ee5e9:0xd784645af3ece5e7!8m2!3d30.3629572!4d68.9966984!16s%2Fg%2F11fm5c7pn_!19sChIJ6eUeYGvB3zgR5-Xs81pkhNc?authuser=0&hl=en&rclk=1,"Mental Health Clinic, Islamabad"
57,logicspsychologicals_33.698467_73.048749,Logics Psychological Services,"Logics Psychological Services
5.0(3)
Mental health service Â· Main Markaz Rd, near to Habib metro bank
Open â‹… Closes 9â€¯PM",Mental health service,Open,33.6984672,73.0487488,https://www.google.com/maps/place/Logics+Psychological+Services/data=!4m7!3m6!1s0x38dfbf9cee7b319b:0x8369ae61a16577d1!8m2!3d33.6984672!4d73.0487488!16s%2Fg%2F11lnpylbh7!19sChIJmzF77py_3zgR0XdloWGuaYM?authuser=0&hl=en&rclk=1,"Mental Health Clinic, Islamabad"
58,psychcaredrsemrasali_33.696563_73.049969,PsychCare | Dr. Semra Salik - Consultant Clinical Psychologist | Psychotherapist,"PsychCare | Dr. Semra Salik - Consultant Clinical Psychologist | Psychotherapist
4.6(146)
Psychologist Â· î¤´ Â· First Floor, Time Square Plaza, Office 1
Open â‹… Closes 8â€¯PM Â· +92 331 2220247",Psychologist,Open,33.6965626,73.0499694,https://www.google.com/maps/place/PsychCare+%7C+Dr.+Semra+Salik+-+Consultant+Clinical+Psychologist+%7C+Psychotherapist/data=!4m7!3m6!1s0x38dfbf4ce20f21f3:0x1bfc129808552783!8m2!3d33.6965626!4d73.0499694!16s%2Fg%2F11hdpgs2jx!19sChIJ8yEP4ky_3zgRgydVCJgS_Bs?authuser=0&hl=en&rclk=1,"Mental Health Clinic, Islamabad"
59,mindcarewellnessclin_33.524718_73.149486,Mindcare Wellness Clinic - Ms. Aniqa Malik,"Mindcare Wellness Clinic - Ms. Aniqa Malik
5.0(21)
Psychologist Â· 407, Block 5, Defense Residency
Open 24 hours Â· +92 311 1555382",Psychologist,Open 24 hours,33.5247181,73.149486,https://www.google.com/maps/place/Mindcare+Wellness+Clinic+-+Ms.+Aniqa+Malik/data=!4m7!3m6!1s0x38df93786fb1909b:0x7bd2484153559231!8m2!3d33.5247181!4d73.149486!16s%2Fg%2F11x1s59q5p!19sChIJm5Cxb3iT3zgRMZJVU0FI0ns?authuser=0&hl=en&rclk=1,"Mental Health Clinic, Islamabad"
60,rapidhealingmedicals_33.616116_73.086108,Rapid Healing Medical Services-Islamabad Clinic,"Rapid Healing Medical Services-Islamabad Clinic
4.4(14)
Psychologist
Open â‹… Closes 7â€¯PM Â· +92 336 1820007",Psychologist,Open,33.6161162,73.086108,https://www.google.com/maps/place/Rapid+Healing+Medical+Services-Islamabad+Clinic/data=!4m7!3m6!1s0x38dfbfe77b6af223:0xabddc83fde9e436f!8m2!3d33.6161162!4d73.086108!16s%2Fg%2F11jr6hpnh6!19sChIJI_Jqe-e_3zgRb0Oe3j_I3as?authuser=0&hl=en&rclk=1,"Mental Health Clinic, Islamabad"
61,psychiatristassistpr_33.713320_73.163975,Psychiatrist / Assist.Prof. Dr Hafiz sultan Muhammad MBBS-FCPS- Caring Ways Rehab and Psychiatric center Islamabad,"Psychiatrist / Assist.Prof. Dr Hafiz sultan Muhammad MBBS-FCPS- Caring Ways Rehab and Psychiatric center Islamabad
4.2(5)
Mental health clinic Â· House no 3, Zakria street, Muzafar Khan road
Open 24 hours Â· +92 314 1570722",Mental health clinic,Open 24 hours,33.7133203,73.1639752,https://www.google.com/maps/place/Psychiatrist+%2F+Assist.Prof.+Dr+Hafiz+sultan+Muhammad+MBBS-FCPS-+Caring+Ways+Rehab+and+Psychiatric+center+Islamabad/data=!4m7!3m6!1s0x38dfc186c28036f7:0xdee97bbf620cd2d6!8m2!3d33.7133203!4d73.1639752!16s%2Fg%2F11l38zml4v!19sChIJ9zaAwobB3zgR1tIMYr976d4?authuser=0&hl=en&rclk=1,"Mental Health Clinic, Islamabad"
62,alirehabcenterislama_33.633030_73.136666,Ali Rehab Center Islamabad-ARCI | Best Addiction & Psychiatric Hospital | & Best Rehab in Islamabad |Mental Health Matters|,"Ali Rehab Center Islamabad-ARCI | Best Addiction & Psychiatric Hospital | & Best Rehab in Islamabad |Mental Health Matters|
4.9(223)
Rehabilitation center Â· î¤´ Â· House 1, Garden, Street no 3 Ghauri
Open 24 hours Â· +92 322 5252212",Rehabilitation center,Open 24 hours,33.6330304,73.1366658,https://www.google.com/maps/place/Ali+Rehab+Center+Islamabad-ARCI+%7C+Best+Addiction+%26+Psychiatric+Hospital+%7C+%26+Best+Rehab+in+Islamabad+%7CMental+Health+Matters%7C/data=!4m7!3m6!1s0x38dfebb1b1b2f443:0x45306261f2a39a0b!8m2!3d33.6330304!4d73.1366658!16s%2Fg%2F11h_6xhhv6!19sChIJQ_SysbHr3zgRC5qj8mFiMEU?authuser=0&hl=en&rclk=1,"Mental Health Clinic, Islamabad"
63,abidchpsychologistth_33.570251_73.194192,Abid Ch Psychologist- The New Life Naval Anchorage Islamabad,"Abid Ch Psychologist- The New Life Naval Anchorage Islamabad
4.9(81)
Mental health clinic Â· House 8 Road E
Open â‹… Closes 9â€¯PM Â· +92 307 7850808",Mental health clinic,Open,33.5702513,73.1941916,https://www.google.com/maps/place/Abid+Ch+Psychologist-+The+New+Life+Naval+Anchorage+Islamabad/data=!4m7!3m6!1s0x38dfeff13eb412b7:0x462d7a1089428587!8m2!3d33.5702513!4d73.1941916!16s%2Fg%2F11t83lwrlq!19sChIJtxK0PvHv3zgRh4VCiRB6LUY?authuser=0&hl=en&rclk=1,"Mental Health Clinic, Islamabad"
64,psychlounge_33.675166_73.072112,Psych Lounge,"Psych Lounge
5.0(8)
Mental health service Â· House 20, Street 65
Open â‹… Closes 8â€¯PM Â· +92 333 8333397",Mental health service,Open,33.6751661,73.0721116,https://www.google.com/maps/place/Psych+Lounge/data=!4m7!3m6!1s0x38df952f6272b585:0xbe80cc7898658186!8m2!3d33.6751661!4d73.0721116!16s%2Fg%2F11wbxxb6j6!19sChIJhbVyYi-V3zgRhoFlmHjMgL4?authuser=0&hl=en&rclk=1,"Mental Health Clinic, Islamabad"
65,neurobridgementalhea_33.519416_73.088100,NeuroBridge Mental Health Services,"NeuroBridge Mental Health Services
5.0(4)
Mental health service Â· Shop no 7-E, Ground Floor, Block 7, Business Bay
Open 24 hours Â· +92 335 5630395",Mental health service,Open 24 hours,33.5194165,73.0880999,https://www.google.com/maps/place/NeuroBridge+Mental+Health+Services/data=!4m7!3m6!1s0x38dfbd683817b1d3:0x3d805b3e5fa2fc25!8m2!3d33.5194165!4d73.0880999!16s%2Fg%2F11w4wmrxc2!19sChIJ07EXOGi93zgRJfyiXz5bgD0?authuser=0&hl=en&rclk=1,"Mental Health Clinic, Islamabad"
66,psychologyexperts_33.669256_72.990622,Psychology Experts,"Psychology Experts
4.9(29)
Mental health service Â· 74
Open 24 hours Â· +92 309 5926068",Mental health service,Open 24 hours,33.6692556,72.9906222,https://www.google.com/maps/place/Psychology+Experts/data=!4m7!3m6!1s0x38df950b497037b3:0x757b97f13c10eb36!8m2!3d33.6692556!4d72.9906222!16s%2Fg%2F11k4t75y02!19sChIJszdwSQuV3zgRNusQPPGXe3U?authuser=0&hl=en&rclk=1,"Mental Health Clinic, Islamabad"
67,pehchaanclinic_33.710968_73.041057,Pehchaan Clinic,"Pehchaan Clinic
4.9(51)
Medical Center Â· î¤´ Â· 2nd floor, Pakland Medical Centre
Open â‹… Closes 9â€¯PM Â· +92 315 2780873",Medical Center,Open,33.7109677,73.0410567,https://www.google.com/maps/place/Pehchaan+Clinic/data=!4m7!3m6!1s0x38dfbf58b14b0f51:0x388686e073bb9c6f!8m2!3d33.7109677!4d73.0410567!16s%2Fg%2F11vj42nwhh!19sChIJUQ9LsVi_3zgRb5y7c-CGhjg?authuser=0&hl=en&rclk=1,"Mental Health Clinic, Islamabad"
68,thenewliferehabpsych_33.565061_73.140612,The New Life Rehab & Psychiatric Center Islamabad,"The New Life Rehab & Psychiatric Center Islamabad
4.7(166)
Rehabilitation center Â· House 107, Street 22, Main PWD Rd, near SSL School
Open 24 hours Â· +92 333 7749772",Rehabilitation center,Open 24 hours,33.5650613,73.1406119,https://www.google.com/maps/place/The+New+Life+Rehab+%26+Psychiatric+Center+Islamabad/data=!4m7!3m6!1s0x38dfed89a42aaaf9:0x2290f122e5d762da!8m2!3d33.5650613!4d73.1406119!16s%2Fg%2F11t57gs19p!19sChIJ-aoqpInt3zgR2mLX5SLxkCI?authuser=0&hl=en&rclk=1,"Mental Health Clinic, Islamabad"
69,farhatjanpsychologis_33.564307_73.148501,"Farhat Jan Psychologist (Member of APA, ISSUP & ANZMH) (Ph.D Scholar)","Farhat Jan Psychologist (Member of APA, ISSUP & ANZMH) (Ph.D Scholar)
4.9(446)
Psychologist Â· î¤´ Â· Street 3
Open â‹… Closes 8:30â€¯PM Â· +92 336 9580236",Psychologist,Open,33.5643074,73.1485008,"https://www.google.com/maps/place/Farhat+Jan+Psychologist+%28Member+of+APA,+ISSUP+%26+ANZMH%29+%28Ph.D+Scholar%29/data=!4m7!3m6!1s0x38dfed9bf44137eb:0xb8187adca7100e4d!8m2!3d33.5643074!4d73.1485008!16s%2Fg%2F11t1bm_gqz!19sChIJ6zdB9Jvt3zgRTQ4Qp9x6GLg?authuser=0&hl=en&rclk=1","Mental Health Clinic, Islamabad"
70,mhspsychotherapybeha_33.693447_73.013620,MHS Psychotherapy Behavior Therapy Speech Therapy Physiotherapy Services,"MHS Psychotherapy Behavior Therapy Speech Therapy Physiotherapy Services
5.0(16)
Psychotherapist Â· î¤´ Â· D PlazaØŒ, opposite Fatima Jinnah ParkØŒ
Open â‹… Closes 9â€¯PM Â· +92 311 0979070",Psychotherapist,Open,33.6934471,73.0136201,https://www.google.com/maps/place/MHS+Psychotherapy+Behavior+Therapy+Speech+Therapy+Physiotherapy+Services/data=!4m7!3m6!1s0x38dfed85fcaf095f:0x35b429488de5c377!8m2!3d33.6934471!4d73.0136201!16s%2Fg%2F11s745p3sk!19sChIJXwmv_IXt3zgRd8PljUgptDU?authuser=0&hl=en&rclk=1,"Mental Health Clinic, Islamabad"
71,psychaffinityrehabil_33.699940_73.146192,Psychaffinity | Rehabilitation Center | Top Rehab center in Islamabad - Pakistan,"Psychaffinity | Rehabilitation Center | Top Rehab center in Islamabad - Pakistan
4.9(41)
Rehabilitation center Â· î¤´ Â· House No. 1, Kiyani Street Lakhwal
Open 24 hours Â· +92 302 5437982",Rehabilitation center,Open 24 hours,33.6999398,73.1461915,https://www.google.com/maps/place/Psychaffinity+%7C+Rehabilitation+Center+%7C+Top+Rehab+center+in+Islamabad+-+Pakistan/data=!4m7!3m6!1s0x38df952f292bb429:0x7af919b839c03a6f!8m2!3d33.6999398!4d73.1461915!16s%2Fg%2F11h4tq01hz!19sChIJKbQrKS-V3zgRbzrAObgZ-Xo?authuser=0&hl=en&rclk=1,"Mental Health Clinic, Islamabad"
72,drrizwantajpsychiatr_33.696966_73.051200,Dr. Rizwan Taj Psychiatry Clinic,"Dr. Rizwan Taj Psychiatry Clinic
3.4(130)
Psychiatrist Â· Markaz Rd
Closed â‹… Opens 5â€¯PM Â· +92 331 5644446",Psychiatrist,Closed,33.6969661,73.0511997,https://www.google.com/maps/place/Dr.+Rizwan+Taj+Psychiatry+Clinic/data=!4m7!3m6!1s0x38dfbfc88d951d4b:0x7b20c8de0b2cca91!8m2!3d33.6969661!4d73.0511997!16s%2Fg%2F11c32p5g3g!19sChIJSx2Vjci_3zgRkcosC97IIHs?authuser=0&hl=en&rclk=1,"Mental Health Clinic, Islamabad"
73,bepositivementalheal_33.677733_72.780765,Be Positive Mental Healthcare Service,"Be Positive Mental Healthcare Service
5.0(1)
Mental health service Â· 3236, Street:, 102 B-17
Closes soon â‹… 3â€¯PM â‹… Opens 9â€¯PM Fri Â· +92 323 5408903",Mental health service,Closes soon,33.6777329,72.7807645,https://www.google.com/maps/place/Be+Positive+Mental+Healthcare+Service/data=!4m7!3m6!1s0x38dfa3e568155b93:0x4ba0bb7eafc21bc!8m2!3d33.6777329!4d72.7807645!16s%2Fg%2F11vks4sh48!19sChIJk1sVaOWj3zgRvCH86rcLugQ?authuser=0&hl=en&rclk=1,"Mental Health Clinic, Islamabad"
74,msasmafaridclinicalp_33.575440_73.198172,Ms. Asma Farid Clinical Psychologist | New Soch Rehab Centre Islamabad,"Ms. Asma Farid Clinical Psychologist | New Soch Rehab Centre Islamabad
5.0(30)
Psychologist Â· House # 6, Street 12 Main Road
Open â‹… Closes 8â€¯PM Â· +92 315 9491681",Psychologist,Open,33.5754397,73.198172,https://www.google.com/maps/place/Ms.+Asma+Farid+Clinical+Psychologist+%7C+New+Soch+Rehab+Centre+Islamabad/data=!4m7!3m6!1s0x97d3df12109579:0x6761c0153e5543b4!8m2!3d33.5754397!4d73.198172!16s%2Fg%2F11stszzq05!19sChIJeZUQEt_TlwARtENVPhXAYWc?authuser=0&hl=en&rclk=1,"Mental Health Clinic, Islamabad"
75,thesunrisehealingdru_33.568423_73.133912,The Sunrise Healing Drug rehabilitation and psychiatric treatment center | best drug rehab in Islamabad,"The Sunrise Healing Drug rehabilitation and psychiatric treatment center | best drug rehab in Islamabad
5.0(56)
Addiction treatment center Â· House # 948 Street c9
Open 24 hours Â· +92 318 7681580",Addiction treatment center,Open 24 hours,33.5684229,73.1339119,https://www.google.com/maps/place/The+Sunrise+Healing+Drug+rehabilitation+and+psychiatric+treatment+center+%7C+best+drug+rehab+in+Islamabad/data=!4m7!3m6!1s0x38dfed7dbbd1fee1:0x82ed248f7ca79545!8m2!3d33.5684229!4d73.1339119!16s%2Fg%2F11jz65hw0s!19sChIJ4f7Ru33t3zgRRZWnfI8k7YI?authuser=0&hl=en&rclk=1,"Mental Health Clinic, Islamabad"
76,mhsphysiotherapyspee_33.722512_73.082228,MHS Physiotherapy Speech Therapy & Psychology Clinic,"MHS Physiotherapy Speech Therapy & Psychology Clinic
4.7(174)
Physical therapy clinic Â· Office No 12 Huma Plaza
Open â‹… Closes 9â€¯PM Â· +92 311 0979070",Physical therapy clinic,Open,33.7225119,73.0822276,https://www.google.com/maps/place/MHS+Physiotherapy+Speech+Therapy+%26+Psychology+Clinic/data=!4m7!3m6!1s0x38df95156aaaaab1:0x3ec18d3a9a0eb9f5!8m2!3d33.7225119!4d73.0822276!16s%2Fg%2F11hb28zf7j!19sChIJsaqqahWV3zgR9bkOmjqNwT4?authuser=0&hl=en&rclk=1,"Mental Health Clinic, Islamabad"
77,drmaryamhmubbasharps_33.641558_73.076250,Dr Maryam H Mubbashar Psychiatrist,"Dr Maryam H Mubbashar Psychiatrist
4.6(197)
Psychiatric hospital Â· î¤´ Â· left turn, 103/105-D St 1, off 6th Road, behind Midway Centrum plaza
Open 24 hours Â· +92 51 4425533",Psychiatric hospital,Open 24 hours,33.6415579,73.0762501,https://www.google.com/maps/place/Dr+Maryam+H+Mubbashar+Psychiatrist/data=!4m7!3m6!1s0x38df95262d5e89dd:0x44d1a8fb9bb26370!8m2!3d33.6415579!4d73.0762501!16s%2Fg%2F12mkwhkk2!19sChIJ3YleLSaV3zgRcGOym_uo0UQ?authuser=0&hl=en&rclk=1,"Mental Health Clinic, Islamabad"
78,smallstepslearningce_33.551408_73.139035,Small Steps Learning Centre (Pvt.) Ltd.,"Small Steps Learning Centre (Pvt.) Ltd.
4.7(46)
Mental health service Â· LG-9 Bahria Heights ll Ext, Bahira Town, phase 6, Islamabad The Health Professionals, Near MCB Islamic Bank Phase 6
Open â‹… Closes 7â€¯PM Â· +92 300 6558749",Mental health service,Open,33.551408,73.1390346,https://www.google.com/maps/place/Small+Steps+Learning+Centre+%28Pvt.%29+Ltd./data=!4m7!3m6!1s0x38dfed62401de2a5:0xcf2cbf9e323b5615!8m2!3d33.551408!4d73.1390346!16s%2Fg%2F11fpn_spzd!19sChIJpeIdQGLt3zgRFVY7Mp6_LM8?authuser=0&hl=en&rclk=1,"Mental Health Clinic, Islamabad"
79,betteryouclinic_33.682866_73.243268,Better You Clinic,"Better You Clinic
5.0(20)
Mental health service Â· Lower ground floor Sultan plaza
Open â‹… Closes 5:30â€¯PM Â· +92 51 6122170",Mental health service,Open,33.6828658,73.2432676,https://www.google.com/maps/place/Better+You+Clinic/data=!4m7!3m6!1s0x38dfe9544c4bf5d5:0xe73b84cd953bd7c9!8m2!3d33.6828658!4d73.2432676!16s%2Fg%2F11s8c1qrbn!19sChIJ1fVLTFTp3zgRydc7lc2EO-c?authuser=0&hl=en&rclk=1,"Mental Health Clinic, Islamabad"
80,hinashealthymindclin_33.550872_73.122845,Hina's HealthyMind Clinic,"Hina's HealthyMind Clinic
5.0(1)
Mental health clinic Â· 29-D, inside Dr Feroze Clear Skin, Mind & Body Laser Clinic
Open â‹… Closes 7â€¯PM Â· +92 323 5262262",Mental health clinic,Open,33.5508722,73.1228446,https://www.google.com/maps/place/Hina%27s+HealthyMind+Clinic/data=!4m7!3m6!1s0x38dfbf55035d2011:0xeb20e9f2ca261d36!8m2!3d33.5508722!4d73.1228446!16s%2Fg%2F11hdfq3ww6!19sChIJESBdA1W_3zgRNh0myvLpIOs?authuser=0&hl=en&rclk=1,"Mental Health Clinic, Islamabad"
81,wajahclinic_33.722678_73.077906,Wajah Clinic,"Wajah Clinic
5.0(1)
Mental health clinic
Open â‹… Closes 5â€¯PM Â· +92 333 7708886",Mental health clinic,Open,33.7226781,73.0779065,https://www.google.com/maps/place/Wajah+Clinic/data=!4m7!3m6!1s0x38dfbf923d1fed77:0x62437b136bbb428e!8m2!3d33.7226781!4d73.0779065!16s%2Fg%2F11rxxk93xf!19sChIJd-0fPZK_3zgRjkK7axN7Q2I?authuser=0&hl=en&rclk=1,"Mental Health Clinic, Islamabad"
82,psycareclinic_33.537567_73.156675,PsyCare Clinic,"PsyCare Clinic
5.0(3)
Mental health clinic Â· 3rd Floor, Plaza no. 77, Commercial Area
Open â‹… Closes 6â€¯PM Â· +92 300 0349929",Mental health clinic,Open,33.5375667,73.156675,https://www.google.com/maps/place/PsyCare+Clinic/data=!4m7!3m6!1s0x38dfedd2ede41883:0x42409a7b143ad4f6!8m2!3d33.5375667!4d73.156675!16s%2Fg%2F11sfrxs14_!19sChIJgxjk7dLt3zgR9tQ6FHuaQEI?authuser=0&hl=en&rclk=1,"Mental Health Clinic, Islamabad"
83,sumerabhatticlinical_33.564611_73.140212,"Sumera Bhatti, Clinical Psychologist, Islamabad Mind Therapy","Sumera Bhatti, Clinical Psychologist, Islamabad Mind Therapy
5.0(10)
Psychologist Â· House# 115, St#19 Pakistan Town Phase 2 Rd
Open 24 hours Â· +92 331 7443330",Psychologist,Open 24 hours,33.5646109,73.1402122,"https://www.google.com/maps/place/Sumera+Bhatti,+Clinical+Psychologist,+Islamabad+Mind+Therapy/data=!4m7!3m6!1s0x38dfbfb092bc4db3:0xcecb6e8ebad275a6!8m2!3d33.5646109!4d73.1402122!16s%2Fg%2F11w2bk2541!19sChIJs028krC_3zgRpnXSuo5uy84?authuser=0&hl=en&rclk=1","Mental Health Clinic, Islamabad"
84,subhenaz_33.562286_73.128429,Subh-e-Naz,"Subh-e-Naz
4.9(40)
Psychologist Â· Main PWD Rd, near Bahria Town
Open â‹… Closes 8â€¯PM Â· +92 334 8754314",Psychologist,Open,33.5622862,73.1284289,https://www.google.com/maps/place/Subh-e-Naz/data=!4m7!3m6!1s0x38dfed077f8f529b:0x3a0fe8614bf2c831!8m2!3d33.5622862!4d73.1284289!16s%2Fg%2F11fjzbt21p!19sChIJm1KPfwft3zgRMcjyS2HoDzo?authuser=0&hl=en&rclk=1,"Mental Health Clinic, Islamabad"
85,horiyasheikh_33.711561_73.039804,Horiya Sheikh,"Horiya Sheikh
5.0(9)
Mental health clinic Â· Basement Hyzer, Dental Clinic, Ayub Market, G1, Center Plaza N-14
Open â‹… Closes 8â€¯PM Â· +92 334 0016172",Mental health clinic,Open,33.7115606,73.039804,https://www.google.com/maps/place/Horiya+Sheikh/data=!4m7!3m6!1s0x38dfbfdd8a23b985:0x3041933ce2920288!8m2!3d33.7115606!4d73.039804!16s%2Fg%2F11vlz6ytfp!19sChIJhbkjit2_3zgRiAKS4jyTQTA?authuser=0&hl=en&rclk=1,"Mental Health Clinic, Islamabad"
86,islamabadnewsochaddi_33.564409_73.139882,Islamabad New Soch Addiction And Rehabilitation Centre,"Islamabad New Soch Addiction And Rehabilitation Centre
5.0(14)
Mental health clinic Â· Street 20 Main PWD Rd
Open 24 hours Â· +92 316 5551124",Mental health clinic,Open 24 hours,33.5644087,73.1398824,https://www.google.com/maps/place/Islamabad+New+Soch+Addiction+And+Rehabilitation+Centre/data=!4m7!3m6!1s0x38dfed548fc5fdad:0xdc2d083c9841cef5!8m2!3d33.5644087!4d73.1398824!16s%2Fg%2F11v653wfsk!19sChIJrf3Fj1Tt3zgR9c5BmDwILdw?authuser=0&hl=en&rclk=1,"Mental Health Clinic, Islamabad"
87,healinghousepsychiat_33.640596_73.054772,"Healing House Psychiatric Clinic,Drug Detoxification and Rehabilitation Centre","Healing House Psychiatric Clinic,Drug Detoxification and Rehabilitation Centre
4.9(78)
Rehabilitation center Â· î¤´ Â· House 230, near Holy Family Hospital
Open 24 hours Â· +92 337 4806917",Rehabilitation center,Open 24 hours,33.6405961,73.0547715,"https://www.google.com/maps/place/Healing+House+Psychiatric+Clinic,Drug+Detoxification+and+Rehabilitation+Centre/data=!4m7!3m6!1s0x38df959bbfd92a13:0x90bd3fe03754fd9e!8m2!3d33.6405961!4d73.0547715!16s%2Fg%2F11rspsznr3!19sChIJEyrZv5uV3zgRnv1UN-A_vZA?authuser=0&hl=en&rclk=1","Mental Health Clinic, Islamabad"
88,therealhealth_33.696894_73.051305,The Real Health,"The Real Health
4.8(68)
Rehabilitation center Â· î¤´ Â· Second floor. Doctor plaza, IDC Building, G8 Markaz, Markaz Rd
Open 24 hours Â· +92 333 5303130",Rehabilitation center,Open 24 hours,33.6968941,73.0513054,https://www.google.com/maps/place/The+Real+Health/data=!4m7!3m6!1s0x38dfbf0a1d6d75c5:0xe2e0c100385d126c!8m2!3d33.6968941!4d73.0513054!16s%2Fg%2F11q83ynbhn!19sChIJxXVtHQq_3zgRbBJdOADB4OI?authuser=0&hl=en&rclk=1,"Mental Health Clinic, Islamabad"
89,drasadtamizuddinniza_33.710747_73.040610,Dr Asad Tamizuddin Nizami - Nizami Health Care Islamabad,"Dr Asad Tamizuddin Nizami - Nizami Health Care Islamabad
4.6(9)
Mental health service Â· P26R+76X
Closed â‹… Opens 4â€¯PM Fri Â· +92 332 6060000",Mental health service,Closed,33.710747,73.0406098,https://www.google.com/maps/place/Dr+Asad+Tamizuddin+Nizami+-+Nizami+Health+Care+Islamabad/data=!4m7!3m6!1s0x38dfbfe1e9daee19:0x655285179b1968f6!8m2!3d33.710747!4d73.0406098!16s%2Fg%2F11jcn0y1dl!19sChIJGe7a6eG_3zgR9mgZmxeFUmU?authuser=0&hl=en&rclk=1,"Mental Health Clinic, Islamabad"
90,drasadhussainconsult_33.624650_72.973066,"Dr Asad Hussain Consultant Psychiatrist, Head of Department and Director of Clinical Informatics","Dr Asad Hussain Consultant Psychiatrist, Head of Department and Director of Clinical Informatics
5.0(1)
Mental health service Â· Quaid-e-Azam International Hospital
Open â‹… Closes 6â€¯PM Â· +92 334 5563766",Mental health service,Open,33.6246497,72.9730664,"https://www.google.com/maps/place/Dr+Asad+Hussain+Consultant+Psychiatrist,+Head+of+Department+and+Director+of+Clinical+Informatics/data=!4m7!3m6!1s0x38df97d8658c0edd:0x605f544140dffdbd!8m2!3d33.6246497!4d72.9730664!16s%2Fg%2F11w3xt2nj5!19sChIJ3Q6MZdiX3zgRvf3fQEFUX2A?authuser=0&hl=en&rclk=1","Mental Health Clinic, Islamabad"
91,bestrehabcenterinisl_33.693005_73.037870,Best Rehab Center in islamabad Healing Hub Rehab Pakistan,"Best Rehab Center in islamabad Healing Hub Rehab Pakistan
5.0(33)
Mental health clinic Â· î¤´ Â· House 193 Street 74
Open 24 hours Â· +92 340 4638238",Mental health clinic,Open 24 hours,33.6930047,73.0378704,https://www.google.com/maps/place/Best+Rehab+Center+in+islamabad+Healing+Hub+Rehab+Pakistan/data=!4m7!3m6!1s0x38dfeb2d72cc2603:0xbbd87223bcf91739!8m2!3d33.6930047!4d73.0378704!16s%2Fg%2F11sdq3zt9c!19sChIJAybMci3r3zgRORf5vCNy2Ls?authuser=0&hl=en&rclk=1,"Mental Health Clinic, Islamabad"
92,kiranaamirclinicalps_33.663053_73.080783,Kiran Aamir - Clinical Psychologist,"Kiran Aamir - Clinical Psychologist
4.9(35)
Psychologist Â· î¤´ Â· Suit # 992, Street 92
Open 24 hours Â· +92 300 9823852",Psychologist,Open 24 hours,33.6630531,73.0807827,https://www.google.com/maps/place/Kiran+Aamir+-+Clinical+Psychologist/data=!4m7!3m6!1s0x38df95c336906265:0x835a7106e243b104!8m2!3d33.6630531!4d73.0807827!16s%2Fg%2F11fkwd0tny!19sChIJZWKQNsOV3zgRBLFD4gZxWoM?authuser=0&hl=en&rclk=1,"Mental Health Clinic, Islamabad"
93,edenhealthservices_33.618903_73.157360,Eden Health Services,"Eden Health Services
5.0(15)
Rehabilitation center Â· Plot no 79/c, near Ali Akbar chowk
Open 24 hours Â· +92 331 3331925",Rehabilitation center,Open 24 hours,33.6189031,73.1573601,https://www.google.com/maps/place/Eden+Health+Services/data=!4m7!3m6!1s0x38dfebff8c588be5:0x4e5ee6779b23a8ee!8m2!3d33.6189031!4d73.1573601!16s%2Fg%2F11rpvnzn75!19sChIJ5YtYjP_r3zgR7qgjm3fmXk4?authuser=0&hl=en&rclk=1,"Mental Health Clinic, Islamabad"
94,mentalhealthislamaba_33.648415_73.040688,Mental Health Islamabad,"Mental Health Islamabad
No reviews
Psychologist Â· Basement # 10, Makkah Plaza
Closed â‹… Opens 3â€¯PM Fri Â· +92 301 9554158",Psychologist,Closed,33.6484153,73.0406876,https://www.google.com/maps/place/Mental+Health+Islamabad/data=!4m7!3m6!1s0x38df95ffbd71f8af:0x345282b4c7c5b3b7!8m2!3d33.6484153!4d73.0406876!16s%2Fg%2F11rs9pft5s!19sChIJr_hxvf-V3zgRt7PFx7SCUjQ?authuser=0&hl=en&rclk=1,"Mental Health Clinic, Islamabad"
95,muhammadrehabilatati_33.630032_73.114522,Muhammad Rehabilatation Centre,"Muhammad Rehabilatation Centre
5.0(1)
Mental health service Â· Main Ghouri Garden Gulzar Marriage Hall, Islamabad Near Khanna Pull, Lehtrar Road, Islamabad Private Sector
Open 24 hours Â· +92 315 1447967",Mental health service,Open 24 hours,33.6300315,73.1145222,https://www.google.com/maps/place/Muhammad+Rehabilatation+Centre/data=!4m7!3m6!1s0x38dfeb31d89fbf1f:0x257430ac1dffbbc8!8m2!3d33.6300315!4d73.1145222!16s%2Fg%2F11k4qw9hh3!19sChIJH7-f2DHr3zgRyLv_HawwdCU?authuser=0&hl=en&rclk=1,"Mental Health Clinic, Islamabad"
96,sairaalicounsellorps_33.536729_73.156624,Saira Ali - Counsellor Psychologist | Psychotherapist & Certified Life Coach.,"Saira Ali - Counsellor Psychologist | Psychotherapist & Certified Life Coach.
4.8(323)
Psychologist Â· î¤´ Â· 3A / 53, south commercial
Open 24 hours Â· +92 333 3111534",Psychologist,Open 24 hours,33.5367292,73.1566236,https://www.google.com/maps/place/Saira+Ali+-+Counsellor+Psychologist+%7C+Psychotherapist+%26+Certified+Life+Coach./data=!4m7!3m6!1s0x38dfed3ec29dfe23:0xf4dcb0afd3c562a3!8m2!3d33.5367292!4d73.1566236!16s%2Fg%2F11mw6w8yfz!19sChIJI_6dwj7t3zgRo2LF06-w3PQ?authuser=0&hl=en&rclk=1,"Mental Health Clinic, Islamabad"
97,clinicalpsychologist_33.559524_73.107182,clinical psychologist Saima Batool,"clinical psychologist Saima Batool
5.0(5)
Mental health service
Open 24 hours",Mental health service,Open 24 hours,33.5595243,73.1071822,https://www.google.com/maps/place/clinical+psychologist+Saima+Batool/data=!4m7!3m6!1s0x38dfeb071586f785:0x5303cb106b409bd6!8m2!3d33.5595243!4d73.1071822!16s%2Fg%2F11v3x9w2nv!19sChIJhfeGFQfr3zgR1ptAaxDLA1M?authuser=0&hl=en&rclk=1,"Mental Health Clinic, Islamabad"
98,wellnesspsychologica_33.515506_73.084393,Wellness Psychological and Rehabilitation Center,"Wellness Psychological and Rehabilitation Center
5.0(25)
Rehabilitation center Â· Shop # LG-6B Paradigm Heights Eiffel tower Commercial
Open â‹… Closes 7â€¯PM Â· +92 311 5332674",Rehabilitation center,Open,33.5155058,73.0843926,https://www.google.com/maps/place/Wellness+Psychological+and+Rehabilitation+Center/data=!4m7!3m6!1s0x38df9328ea226c45:0xa8745198f40fe714!8m2!3d33.5155058!4d73.0843926!16s%2Fg%2F11sgz5yn74!19sChIJRWwi6iiT3zgRFOcP9JhRdKg?authuser=0&hl=en&rclk=1,"Mental Health Clinic, Islamabad"
99,integratedhealthserv_33.696450_73.050915,Integrated Health Services (IHS),"Integrated Health Services (IHS)
4.6(66)
Hospital
Open 24 hours Â· +92 51 111 362 867",Hospital,Open 24 hours,33.6964496,73.0509147,https://www.google.com/maps/place/Integrated+Health+Services+%28IHS%29/data=!4m7!3m6!1s0x38dfbfc894e8029b:0xfa1b648aa4daf439!8m2!3d33.6964496!4d73.0509147!16s%2Fg%2F11dxq_v0jq!19sChIJmwLolMi_3zgROfTapIpkG_o?authuser=0&hl=en&rclk=1,"Mental Health Clinic, Islamabad"
100,houseofwellness_33.530553_73.132655,House of Wellness,"House of Wellness
4.8(80)
Mental health service Â· î¤´ Â· EastØŒ 3rd Floor, 8th Plaza, Sector A Jinnah BoulevardØŒ G T RoadØŒ
Open â‹… Closes 6â€¯PM Â· +92 335 5555469",Mental health service,Open,33.5305531,73.1326549,https://www.google.com/maps/place/House+of+Wellness/data=!4m7!3m6!1s0x38dfecf8156ab493:0xaddf9319798de0f3!8m2!3d33.5305531!4d73.1326549!16s%2Fg%2F11f4262ww7!19sChIJk7RqFfjs3zgR8-CNeRmT360?authuser=0&hl=en&rclk=1,"Mental Health Clinic, Islamabad"
101,rawalrehabilitationc_33.631837_73.136245,"Rawal Rehabilitation Center & Carring House Islamabad, Pakistan","Rawal Rehabilitation Center & Carring House Islamabad, Pakistan
5.0(19)
Mental health clinic Â· 56 B, Street 05 Ghouri Garden Main Rd
Open 24 hours Â· +92 333 1179900",Mental health clinic,Open 24 hours,33.6318372,73.1362453,"https://www.google.com/maps/place/Rawal+Rehabilitation+Center+%26+Carring+House+Islamabad,+Pakistan/data=!4m7!3m6!1s0x38dfeb0056759b7f:0x912a9080ce1eff8d!8m2!3d33.6318372!4d73.1362453!16s%2Fg%2F11y3bts1jx!19sChIJf5t1VgDr3zgRjf8ezoCQKpE?authuser=0&hl=en&rclk=1","Mental Health Clinic, Islamabad"
102,departmentofpsychiat_33.711750_73.070618,Department of Psychiatry Federal Government Polyclinic,"Department of Psychiatry Federal Government Polyclinic
5.0(1)
Mental health service Â· P36C+M5V
Closed â‹… Opens 9â€¯AM Fri Â· +92 51 9252470",Mental health service,Closed,33.7117501,73.0706179,https://www.google.com/maps/place/Department+of+Psychiatry+Federal+Government+Polyclinic/data=!4m7!3m6!1s0x38dfbf06701ffdad:0x52c571d8a5b406c9!8m2!3d33.7117501!4d73.0706179!16s%2Fg%2F11s3d5dbs0!19sChIJrf0fcAa_3zgRyQa0pdhxxVI?authuser=0&hl=en&rclk=1,"Mental Health Clinic, Islamabad"
103,clinicalpsychologist_33.667697_73.075207,Clinical Psychologist Laiba,"Clinical Psychologist Laiba
5.0(34)
Psychologist Â· galleria
+92 310 5000459",Psychologist,,33.6676974,73.0752068,https://www.google.com/maps/place/Clinical+Psychologist+Laiba/data=!4m7!3m6!1s0x38df959c73713193:0xd17cf0eafc27ccfe!8m2!3d33.6676974!4d73.0752068!16s%2Fg%2F11l2xz7kx6!19sChIJkzFxc5yV3zgR_swn_OrwfNE?authuser=0&hl=en&rclk=1,"Mental Health Clinic, Islamabad"
104,psysobiakhateebfamil_30.362957_68.996698,Psy Sobia Khateeb Family Clinic,"Psy Sobia Khateeb Family Clinic
4.9(19)
Mental health service
Open 24 hours Â· +92 336 1057339",Mental health service,Open 24 hours,30.3629572,68.9966984,https://www.google.com/maps/place/Psy+Sobia+Khateeb+Family+Clinic/data=!4m7!3m6!1s0x38dff3c1f2229831:0x69bc3a48fd124f47!8m2!3d30.3629572!4d68.9966984!16s%2Fg%2F11rx33by4y!19sChIJMZgi8sHz3zgRR08S_Ug6vGk?authuser=0&hl=en&rclk=1,"Mental Health Clinic, Islamabad"
105,healthrehabclinic_33.629133_73.113556,Health Rehab Clinic,"Health Rehab Clinic
5.0(17)
Mental health service Â· J4H7+MC3, Khanna Pul
Open 24 hours Â· +92 312 0786641",Mental health service,Open 24 hours,33.6291327,73.1135555,https://www.google.com/maps/place/Health+Rehab+Clinic/data=!4m7!3m6!1s0x38dfeb00269c44f9:0x8e03f2d0ed81ff47!8m2!3d33.6291327!4d73.1135555!16s%2Fg%2F11m5trplbr!19sChIJ-UScJgDr3zgRR_-B7dDyA44?authuser=0&hl=en&rclk=1,"Mental Health Clinic, Islamabad"
106,drmiqbalkhanpsychiat_33.708044_73.152912,Dr. M. Iqbal Khan Psychiatrist - HDRC,"Dr. M. Iqbal Khan Psychiatrist - HDRC
5.0(4)
Psychiatrist Â· Main Jinnah Rd, opposite to Shami Property Dealers, near Al-Farooq Masjid
Open â‹… Closes 9â€¯PM Â· +92 346 1947599",Psychiatrist,Open,33.7080444,73.1529122,https://www.google.com/maps/place/Dr.+M.+Iqbal+Khan+Psychiatrist+-+HDRC/data=!4m7!3m6!1s0x38dfc152dc5a6829:0x59ca00497116e480!8m2!3d33.7080444!4d73.1529122!16s%2Fg%2F11kr6_msqk!19sChIJKWha3FLB3zgRgOQWcUkAylk?authuser=0&hl=en&rclk=1,"Mental Health Clinic, Islamabad"
107,psychologicalwellbei_33.620653_73.086234,"Psychological Wellbeing Islamabad | Psychologist and Counselors | Individuals, Couples and Relationship Counseling","Psychological Wellbeing Islamabad | Psychologist and Counselors | Individuals, Couples and Relationship Counseling
5.0(50)
Psychologist
Open 24 hours Â· +92 302 1900145",Psychologist,Open 24 hours,33.6206526,73.0862337,"https://www.google.com/maps/place/Psychological+Wellbeing+Islamabad+%7C+Psychologist+and+Counselors+%7C+Individuals,+Couples+and+Relationship+Counseling/data=!4m7!3m6!1s0x858151eb951377bb:0x73a56b47a6082d2c!8m2!3d33.6206526!4d73.0862337!16s%2Fg%2F11vzy2wkzm!19sChIJu3cTletRgYURLC0IpkdrpXM?authuser=0&hl=en&rclk=1","Mental Health Clinic, Islamabad"
108,drsyedazharalinewlif_33.565005_73.140663,Dr. Syed Azhar Ali -New Life Rehab Psychiatrist Consultant in Islamabad,"Dr. Syed Azhar Ali -New Life Rehab Psychiatrist Consultant in Islamabad
5.0(17)
Psychiatrist Â· House 106 Street 19 Pakistan Town Phase 2, Street Number 19
+92 323 8999561",Psychiatrist,,33.5650048,73.1406627,https://www.google.com/maps/place/Dr.+Syed+Azhar+Ali+-New+Life+Rehab+Psychiatrist+Consultant+in+Islamabad/data=!4m7!3m6!1s0x38dfedb8a9e119a3:0xb8159f2e2e23c15!8m2!3d33.5650048!4d73.1406627!16s%2Fg%2F11t6_sq4fy!19sChIJoxnhqbjt3zgRFTzi4vJZgQs?authuser=0&hl=en&rclk=1,"Mental Health Clinic, Islamabad"
109,psychologicalcounsel_33.641518_73.061425,Psychological counseling center,"Psychological counseling center
5.0(481)
Psychologist Â· ï•Š Â· 817, F block, main Holy Family Hospital Road, opposite Punjab College for Women
Closed â‹… Opens 6â€¯PM Â· +92 301 5385510",Psychologist,Closed,33.6415177,73.0614246,https://www.google.com/maps/place/Psychological+counseling+center/data=!4m7!3m6!1s0x38df95b5f6fe8d0d:0x11c0fe0ed39e6f22!8m2!3d33.6415177!4d73.0614246!16s%2Fg%2F11fktgkkm7!19sChIJDY3-9rWV3zgRIm-e0w7-wBE?authuser=0&hl=en&rclk=1,"Mental Health Clinic, Islamabad"
110,hrchayatrehabclinici_33.718884_73.172027,HRC Hayat Rehab Clinic Islamabad,"HRC Hayat Rehab Clinic Islamabad
4.9(176)
Mental health clinic Â· î¤´ Â· Bilal St
Open 24 hours Â· +92 331 5500090",Mental health clinic,Open 24 hours,33.7188839,73.1720265,https://www.google.com/maps/place/HRC+Hayat+Rehab+Clinic+Islamabad/data=!4m7!3m6!1s0x38dfc19bfff5aa3b:0x57e07ebc5111cc21!8m2!3d33.7188839!4d73.1720265!16s%2Fg%2F11q1t258zl!19sChIJO6r1_5vB3zgRIcwRUbx-4Fc?authuser=0&hl=en&rclk=1,"Mental Health Clinic, Islamabad"
111,theeclecticcounselin_33.698987_73.048552,The Eclectic Counseling Center Islamabad,"The Eclectic Counseling Center Islamabad
4.9(11)
Psychologist Â· Allah Dad Plaza, Flat No 8 block 19
+92 333 4215688",Psychologist,,33.6989867,73.0485523,https://www.google.com/maps/place/The+Eclectic+Counseling+Center+Islamabad/data=!4m7!3m6!1s0x38dfbf1a8548262f:0xbb3a27ee50be25ea!8m2!3d33.6989867!4d73.0485523!16s%2Fg%2F11rs064v8v!19sChIJLyZIhRq_3zgR6iW-UO4nOrs?authuser=0&hl=en&rclk=1,"Mental Health Clinic, Islamabad"
112,msbhealingclinic_33.529488_73.163284,MSB Healing clinic,"MSB Healing clinic
5.0(1)
Psychologist Â· G5H7+Q8V",Psychologist,,33.529488,73.1632837,https://www.google.com/maps/place/MSB+Healing+clinic/data=!4m7!3m6!1s0x38dfede1985918bd:0x97945660525a4d27!8m2!3d33.529488!4d73.1632837!16s%2Fg%2F11r9mdvlmp!19sChIJvRhZmOHt3zgRJ01aUmBWlJc?authuser=0&hl=en&rclk=1,"Mental Health Clinic, Islamabad"
113,drammadhassanconsult_33.598162_73.045467,Dr Ammad Hassan Consultant Psychiatrist,"Dr Ammad Hassan Consultant Psychiatrist
5.0(32)
Mental health clinic Â· î¤´ Â· Mehfooz, Medics, Road
Closed â‹… Opens 5:30â€¯PM Â· +92 334 2958727",Mental health clinic,Closed,33.5981618,73.0454672,https://www.google.com/maps/place/Dr+Ammad+Hassan+Consultant+Psychiatrist/data=!4m7!3m6!1s0x38dfbfbfcbe8f0d9:0x826f03b5c3e54cfe!8m2!3d33.5981618!4d73.0454672!16s%2Fg%2F11pvgxmr21!19sChIJ2fDoy7-_3zgR_kzlw7UDb4I?authuser=0&hl=en&rclk=1,"Mental Health Clinic, Islamabad"
114,muhammadusmanclinica_33.735427_73.071066,Muhammad Usman - Clinical Psychologist,"Muhammad Usman - Clinical Psychologist
5.0(4)
Mental health service Â· House # 11, Hill Rd
Closed â‹… Opens 4â€¯PM Â· +92 343 1530366",Mental health service,Closed,33.735427,73.0710661,https://www.google.com/maps/place/Muhammad+Usman+-+Clinical+Psychologist/data=!4m7!3m6!1s0x38dfbf34a29e3403:0xbcc491f9124e337e!8m2!3d33.735427!4d73.0710661!16s%2Fg%2F11sqk7rs4m!19sChIJAzSeojS_3zgRfjNOEvmRxLw?authuser=0&hl=en&rclk=1,"Mental Health Clinic, Islamabad"
115,draliyakhalidpsychia_33.710520_73.041911,Dr Aliya Khalid Psychiatrist,"Dr Aliya Khalid Psychiatrist
4.3(37)
Psychiatrist Â· î¤´ Â· Ali Medical Center, Basement Room 5
Closed â‹… Opens 11â€¯AM Fri Â· +92 332 2221555",Psychiatrist,Closed,33.71052,73.041911,https://www.google.com/maps/place/Dr+Aliya+Khalid+Psychiatrist/data=!4m7!3m6!1s0x38dfbfd9e2f52c25:0xb5d39b5afef95921!8m2!3d33.71052!4d73.041911!16s%2Fg%2F11qnvpmnxb!19sChIJJSz14tm_3zgRIVn5_lqb07U?authuser=0&hl=en&rclk=1,"Mental Health Clinic, Islamabad"
117,healthcaringrehabcen_33.633513_73.131635,Health Caring Rehab Center Islamabad HCRC Best Addiction & Psychiatric Hospital Best Rehab in Islamabad Mental Health Issues,"Health Caring Rehab Center Islamabad HCRC Best Addiction & Psychiatric Hospital Best Rehab in Islamabad Mental Health Issues
4.5(23)
Addiction treatment center Â· î¤´ Â· J4MJ+CM2, Burma Bridge
Open 24 hours Â· +92 318 8520056",Addiction treatment center,Open 24 hours,33.6335135,73.1316352,https://www.google.com/maps/place/Health+Caring+Rehab+Center+Islamabad+HCRC+Best+Addiction+%26+Psychiatric+Hospital+Best+Rehab+in+Islamabad+Mental+Health+Issues/data=!4m7!3m6!1s0x38dfeb4badda0e61:0x2a9ee94c46e62303!8m2!3d33.6335135!4d73.1316352!16s%2Fg%2F11t6gbb0m8!19sChIJYQ7arUvr3zgRAyPmRkzpnio?authuser=0&hl=en&rclk=1,"Mental Health Clinic, Islamabad"
118,rehabcenterinislamab_33.660273_72.989600,Rehab center in Islamabad Kiran Rehab Center,"Rehab center in Islamabad Kiran Rehab Center
5.0(29)
Mental health clinic
Open 24 hours Â· +92 314 1570722",Mental health clinic,Open 24 hours,33.6602732,72.9895999,https://www.google.com/maps/place/Rehab+center+in+Islamabad+Kiran+Rehab+Center/data=!4m7!3m6!1s0x38df977d0b0da46d:0x92b067b1a398a00!8m2!3d33.6602732!4d72.9895999!16s%2Fg%2F11h1hw3128!19sChIJbaQNC32X3zgRAIo5GnsGKwk?authuser=0&hl=en&rclk=1,"Mental Health Clinic, Islamabad"
119,mssyedazahragillanic_33.649890_72.976527,Ms. Syeda Zahra Gillani (Clinical Psychologist),"Ms. Syeda Zahra Gillani (Clinical Psychologist)
5.0(7)
Psychologist Â· Capital International Hospital, Street 3 Service Rd, adjacent to g13
Open â‹… Closes 5â€¯PM Â· +92 315 3515555",Psychologist,Open,33.6498902,72.9765265,https://www.google.com/maps/place/Ms.+Syeda+Zahra+Gillani+%28Clinical+Psychologist%29/data=!4m7!3m6!1s0x38df972664a8b9fb:0x1716d68704cd1cc0!8m2!3d33.6498902!4d72.9765265!16s%2Fg%2F11vzz1md07!19sChIJ-7moZCaX3zgRwBzNBIfWFhc?authuser=0&hl=en&rclk=1,"Mental Health Clinic, Islamabad"
120,drfazalurrehmanneuro_33.722313_73.059901,Dr Fazal ur Rehman Neuro Psychiatrist,"Dr Fazal ur Rehman Neuro Psychiatrist
5.0(18)
Psychiatrist Â· ChenOne Store
Closed â‹… Opens 4â€¯PM Â· +92 333 7855606",Psychiatrist,Closed,33.7223129,73.0599011,https://www.google.com/maps/place/Dr+Fazal+ur+Rehman+Neuro+Psychiatrist/data=!4m7!3m6!1s0x38dfbfcb409c7fb1:0x463831c3381cf83d!8m2!3d33.7223129!4d73.0599011!16s%2Fg%2F11sfb1jll5!19sChIJsX-cQMu_3zgRPfgcOMMxOEY?authuser=0&hl=en&rclk=1,"Mental Health Clinic, Islamabad"
121,alfalahhealthcenter_33.657284_72.992582,Alfalah Health Center,"Alfalah Health Center
5.0(1)
Mental health service Â· î¤´ Â· MX4V+W28",Mental health service,,33.6572838,72.9925815,https://www.google.com/maps/place/Alfalah+Health+Center/data=!4m7!3m6!1s0x38df97a22818708d:0xe2a1deca9e37e15f!8m2!3d33.6572838!4d72.9925815!16s%2Fg%2F11ff4ts8h1!19sChIJjXAYKKKX3zgRX-E3nsreoeI?authuser=0&hl=en&rclk=1,"Mental Health Clinic, Islamabad"
122,therapywithzubia_33.695931_73.013124,Therapy with Zubia,"Therapy with Zubia
4.9(26)
Psychologist Â· Service Rd E
Closes soon â‹… 3â€¯PM â‹… Opens 10â€¯AM Fri Â· +92 306 1555992",Psychologist,Closes soon,33.6959311,73.0131236,https://www.google.com/maps/place/Therapy+with+Zubia/data=!4m7!3m6!1s0x38dfbf70a90137e1:0x6904f20b4edd8815!8m2!3d33.6959311!4d73.0131236!16s%2Fg%2F11vkm68xst!19sChIJ4TcBqXC_3zgRFYjdTgvyBGk?authuser=0&hl=en&rclk=1,"Mental Health Clinic, Islamabad"
123,mindcare_30.362957_68.996698,Mind Care,"Mind Care
No reviews
Psychiatrist
Open â‹… Closes 5â€¯PM Â· +86 188 6294 4662",Psychiatrist,Open,30.3629572,68.9966984,https://www.google.com/maps/place/Mind+Care/data=!4m7!3m6!1s0x38df95e08baba1a5:0x3ac889003cfe8972!8m2!3d30.3629572!4d68.9966984!16s%2Fg%2F11ny0vz7n5!19sChIJpaGri-CV3zgRcon-PACJyDo?authuser=0&hl=en&rclk=1,"Mental Health Clinic, Islamabad"
124,homenursingpatientsc_33.716945_73.064870,Home Nursing Patients Care Services Islamabad & Rawalpindi,"Home Nursing Patients Care Services Islamabad & Rawalpindi
5.0(11)
Nursing home Â· H8/1
Open 24 hours Â· +92 305 7882422",Nursing home,Open 24 hours,33.716945,73.0648701,https://www.google.com/maps/place/Home+Nursing+Patients+Care+Services+Islamabad+%26+Rawalpindi/data=!4m7!3m6!1s0x861d40cda8af5049:0x6e54048f7f6208d6!8m2!3d33.716945!4d73.0648701!16s%2Fg%2F11w3rbgg31!19sChIJSVCvqM1AHYYR1ghif48EVG4?authuser=0&hl=en&rclk=1,"Mental Health Clinic, Islamabad"
125,curelinkhealthcare_33.628908_73.062067,Curelink Healthcare,"Curelink Healthcare
4.7(282)
Psychiatric hospital Â· î¤´ Â· P, 1059 Asghar Mall Rd, opposite grand avenue, opposite Grand Avenue Hall
Open â‹… Closes 8â€¯PM Â· +92 51 4570743",Psychiatric hospital,Open,33.6289084,73.062067,https://www.google.com/maps/place/Curelink+Healthcare/data=!4m7!3m6!1s0x38df94e708b28b95:0x61b33b01f1923dc5!8m2!3d33.6289084!4d73.062067!16s%2Fg%2F11c7vts7p1!19sChIJlYuyCOeU3zgRxT2S8QE7s2E?authuser=0&hl=en&rclk=1,"Mental Health Clinic, Islamabad"
126,physiopsychrehabcent_33.669398_72.999912,Physio & Psych Rehab Center,"Physio & Psych Rehab Center
5.0(20)
Physical therapy clinic Â· î¤´ Â· Office 28,3rd Floor, Al Rehmat Mall, Markaz, near Tehzeeb Bakers
Open â‹… Closes 9â€¯PM Â· +92 333 5960075",Physical therapy clinic,Open,33.6693979,72.9999122,https://www.google.com/maps/place/Physio+%26+Psych+Rehab+Center/data=!4m7!3m6!1s0x38df9539e7876793:0x4487fa2aae409c1b!8m2!3d33.6693979!4d72.9999122!16s%2Fg%2F11wjqt2vk7!19sChIJk2eH5zmV3zgRG5xArir6h0Q?authuser=0&hl=en&rclk=1,"Mental Health Clinic, Islamabad"
127,dranwarulhaqpsychiat_33.722158_73.081802,Dr. Anwar ul Haq Psychiatrist Clinic,"Dr. Anwar ul Haq Psychiatrist Clinic
4.2(5)
Mental health service Â· Basement East, Plot No 19-A, Pak Plaza Islamabad
Closed â‹… Opens 10â€¯AM Tue Â· +92 306 1234578",Mental health service,Closed,33.7221576,73.0818024,https://www.google.com/maps/place/Dr.+Anwar+ul+Haq+Psychiatrist+Clinic/data=!4m7!3m6!1s0x38dfbf33d7b34c2f:0xe49babf1021778e0!8m2!3d33.7221576!4d73.0818024!16s%2Fg%2F11t5dbcw89!19sChIJL0yz1zO_3zgR4HgXAvGrm-Q?authuser=0&hl=en&rclk=1,"Mental Health Clinic, Islamabad"
128,islamabadrehabandcar_33.567427_73.154942,Islamabad Rehab And Caring Center,"Islamabad Rehab And Caring Center
4.9(123)
Rehabilitation center Â· î¤´ Â· Main Double Road, Opposite IDC, near PSO Petrol Pump
Open 24 hours Â· +92 333 6954507",Rehabilitation center,Open 24 hours,33.567427,73.1549423,https://www.google.com/maps/place/Islamabad+Rehab+And+Caring+Center/data=!4m7!3m6!1s0x38dfed4ed3cad877:0x53a306aec6d7185f!8m2!3d33.567427!4d73.1549423!16s%2Fg%2F11h6l_vjzs!19sChIJd9jK007t3zgRXxjXxq4Go1M?authuser=0&hl=en&rclk=1,"Mental Health Clinic, Islamabad"
129,natashashaukatclinic_33.720986_73.079717,Natasha Shaukat Clinical Psychologist,"Natasha Shaukat Clinical Psychologist
5.0(44)
Psychologist Â· 96, west khyber plaza, AKM Fazl-ul-Haq Rd
Closed â‹… Opens 3â€¯PM Â· +92 300 6777593",Psychologist,Closed,33.7209861,73.0797173,https://www.google.com/maps/place/Natasha+Shaukat+Clinical+Psychologist/data=!4m7!3m6!1s0x38dfbfa2daaaaab3:0x35aa9804090526c4!8m2!3d33.7209861!4d73.0797173!16s%2Fg%2F11gf4nlpfh!19sChIJs6qq2qK_3zgRxCYFCQSYqjU?authuser=0&hl=en&rclk=1,"Mental Health Clinic, Islamabad"
130,drharmainpsychologis_33.686981_73.164191,Dr Harmain(psychologist),"Dr Harmain(psychologist)
5.0(1)
Psychologist Â· House Number 1, Rehara House, New, Jinnah Ave
Open 24 hours Â· +92 333 4456631",Psychologist,Open 24 hours,33.686981,73.1641912,https://www.google.com/maps/place/Dr+Harmain%28psychologist%29/data=!4m7!3m6!1s0x38dfebe7676acf1d:0x73d282f055c9277!8m2!3d33.686981!4d73.1641912!16s%2Fg%2F11h6xlycll!19sChIJHc9qZ-fr3zgRd5JcBS8oPQc?authuser=0&hl=en&rclk=1,"Mental Health Clinic, Islamabad"
131,drsalahuddinbaburmen_33.703710_72.979163,Dr Salahuddin Babur Mental Health Services,"Dr Salahuddin Babur Mental Health Services
4.3(3)
Hospital Â· î¤´ Â· PX3H+FMM
Open 24 hours Â· +92 335 5754123",Hospital,Open 24 hours,33.7037099,72.9791634,https://www.google.com/maps/place/Dr+Salahuddin+Babur+Mental+Health+Services/data=!4m7!3m6!1s0x38dfbdcfae630409:0x2586a32ab1c3e713!8m2!3d33.7037099!4d72.9791634!16s%2Fg%2F11gdqgdzcp!19sChIJCQRjrs-93zgRE-fDsSqjhiU?authuser=0&hl=en&rclk=1,"Mental Health Clinic, Islamabad"
132,herohealthcare_33.566239_73.156202,Hero Health Care,"Hero Health Care
5.0(511)
Mental health clinic Â· î¤´ Â· Plot no 16, Shalimar Rd
Open 24 hours",Mental health clinic,Open 24 hours,33.566239,73.1562017,https://www.google.com/maps/place/Hero+Health+Care/data=!4m7!3m6!1s0x38dfed42d9d3cfa3:0x67d80b28e7b7a5bb!8m2!3d33.566239!4d73.1562017!16s%2Fg%2F11hz7fd1kq!19sChIJo8_T2ULt3zgRu6W35ygL2Gc?authuser=0&hl=en&rclk=1,"Mental Health Clinic, Islamabad"
133,ammentalhealthcenter_33.642201_73.043145,A&M Mental Health Center,"A&M Mental Health Center
No reviews
Mental health service Â· 2321 Gali 70",Mental health service,,33.642201,73.043145,https://www.google.com/maps/place/A%26M+Mental+Health+Center/data=!4m7!3m6!1s0x38df95649c8f6c13:0xfc57c287f205ccc6!8m2!3d33.642201!4d73.043145!16s%2Fg%2F11vbp34ynp!19sChIJE2yPnGSV3zgRxswF8ofCV_w?authuser=0&hl=en&rclk=1,"Mental Health Clinic, Islamabad"
134,sanausmanpsycologist_33.522065_73.154848,Sana Usman Psycologist,"Sana Usman Psycologist
5.0(1)
Psychologist Â· 1st Floor, Plaza 40, Al Ghurair GIGA, Dr. Mahnoor Dental & Aesthetic Clinic, Westeria Rd
Open 24 hours Â· +92 319 5808396",Psychologist,Open 24 hours,33.5220655,73.1548476,https://www.google.com/maps/place/Sana+Usman+Psycologist/data=!4m7!3m6!1s0x38dfed004be302a3:0x8419cec38a6e1d18!8m2!3d33.5220655!4d73.1548476!16s%2Fg%2F11vxydfnh2!19sChIJowLjSwDt3zgRGB1uisPOGYQ?authuser=0&hl=en&rclk=1,"Mental Health Clinic, Islamabad"
135,thetreehouseproffare_33.601714_73.028213,The Tree House Prof. Fareed Minhas & Dr. Ayesha Minhas Psychiatry Clinic,"The Tree House Prof. Fareed Minhas & Dr. Ayesha Minhas Psychiatry Clinic
3.5(72)
Psychiatric hospital Â· 132, Lane 1, Main Peshawar Rd
Open â‹… Closes 4â€¯PM Â· +92 301 5405727",Psychiatric hospital,Open,33.6017135,73.0282131,https://www.google.com/maps/place/The+Tree+House+Prof.+Fareed+Minhas+%26+Dr.+Ayesha+Minhas+Psychiatry+Clinic/data=!4m7!3m6!1s0x38df95965aae15d9:0x94ab8b55a753111d!8m2!3d33.6017135!4d73.0282131!16s%2Fg%2F11g9mj1d1n!19sChIJ2RWuWpaV3zgRHRFTp1WLq5Q?authuser=0&hl=en&rclk=1,"Mental Health Clinic, Islamabad"
136,aamnahshah_33.645267_72.964111,Aamnah shah,"Aamnah shah
5.0(3)
Psychologist Â· 108
Open â‹… Closes 6â€¯PM Â· +92 333 2857154",Psychologist,Open,33.6452668,72.9641111,https://www.google.com/maps/place/Aamnah+shah/data=!4m7!3m6!1s0x38df97efc1f1fb15:0x5609f21da2bf4121!8m2!3d33.6452668!4d72.9641111!16s%2Fg%2F11v9ch6njq!19sChIJFfvxwe-X3zgRIUG_oh3yCVY?authuser=0&hl=en&rclk=1,"Mental Health Clinic, Islamabad"
137,ambreeninsights_33.651090_73.202994,Ambreen Insights,"Ambreen Insights
5.0(1)
Psychologist Â· House no 833 street no 13 phase 1 Frash
Open 24 hours Â· +92 314 1968506",Psychologist,Open 24 hours,33.6510897,73.2029935,https://www.google.com/maps/place/Ambreen+Insights/data=!4m7!3m6!1s0x38dfe955baa8ff31:0xf38d4a5199dc4e2c!8m2!3d33.6510897!4d73.2029935!16s%2Fg%2F11vdqmd_pr!19sChIJMf-oulXp3zgRLE7cmVFKjfM?authuser=0&hl=en&rclk=1,"Mental Health Clinic, Islamabad"
138,drrumessaiqbal_33.520845_73.091924,Dr Rumessa Iqbal,"Dr Rumessa Iqbal
5.0(30)
Psychiatrist Â· Irshad Memorial Hospital
Open â‹… Closes 5â€¯PM Â· +92 309 5221434",Psychiatrist,Open,33.5208453,73.0919239,https://www.google.com/maps/place/Dr+Rumessa+Iqbal/data=!4m7!3m6!1s0x38dfede63b4be075:0xde1465ae30fe3969!8m2!3d33.5208453!4d73.0919239!16s%2Fg%2F11ybxg_wb1!19sChIJdeBLO-bt3zgRaTn-MK5lFN4?authuser=0&hl=en&rclk=1,"Mental Health Clinic, Islamabad"
139,assiclinic_33.637333_72.927271,assi clinic,"assi clinic
5.0(1)
Mental health clinic Â· JWPG+WWJ, GT Rd
+92 336 5901802",Mental health clinic,,33.6373331,72.9272713,https://www.google.com/maps/place/assi+clinic/data=!4m7!3m6!1s0x38df9779df1ad1dd:0x62d2f945c191a99e!8m2!3d33.6373331!4d72.9272713!16s%2Fg%2F11jm53nwkl!19sChIJ3dEa33mX3zgRnqmRwUX50mI?authuser=0&hl=en&rclk=1,"Mental Health Clinic, Islamabad"
140,theafterhourstherapi_33.722582_73.178396,The After Hours Therapist (Psychologist),"The After Hours Therapist (Psychologist)
5.0(17)
Psychotherapist Â· House no, 10 Hill View Rd
Closed â‹… Opens 8â€¯PM Â· +92 312 2253056",Psychotherapist,Closed,33.7225819,73.1783961,https://www.google.com/maps/place/The+After+Hours+Therapist+%28Psychologist%29/data=!4m7!3m6!1s0x38dfbf8af418533b:0xf5a9c8d41d59ee4a!8m2!3d33.7225819!4d73.1783961!16s%2Fg%2F11fpg7srcv!19sChIJO1MY9Iq_3zgRSu5ZHdTIqfU?authuser=0&hl=en&rclk=1,"Mental Health Clinic, Islamabad"
141,askanoccupationalthe_33.697058_72.970469,"Ask an occupational therapist (AOT), Special Education Services","Ask an occupational therapist (AOT), Special Education Services
4.6(22)
Mental health service Â· î¤´ Â· House No, 272 Main Double Rd, near to masjid Quba
Open â‹… Closes 5â€¯PM Â· +92 336 1996947",Mental health service,Open,33.6970578,72.9704688,"https://www.google.com/maps/place/Ask+an+occupational+therapist+%28AOT%29,+Special+Education+Services/data=!4m7!3m6!1s0x38dfbde9bf3e7631:0x65ef592cd9e0cff6!8m2!3d33.6970578!4d72.9704688!16s%2Fg%2F11q3rgqdq8!19sChIJMXY-v-m93zgR9s_g2SxZ72U?authuser=0&hl=en&rclk=1","Mental Health Clinic, Islamabad"
142,khadijatanveer_33.520738_73.108782,Khadija Tanveer,"Khadija Tanveer
4.9(99)
Medical clinic Â· Classic Homes Plot43, First Floor, Asif Arcade, Mini commercial
Open â‹… Closes 9â€¯PM Â· +92 336 1356555",Medical clinic,Open,33.5207382,73.1087819,https://www.google.com/maps/place/Khadija+Tanveer/data=!4m7!3m6!1s0x38dfed7db51739f9:0xd0bf64923ca5b77a!8m2!3d33.5207382!4d73.1087819!16s%2Fg%2F11rnchzj2g!19sChIJ-TkXtX3t3zgRerelPJJkv9A?authuser=0&hl=en&rclk=1,"Mental Health Clinic, Islamabad"
143,headofficewellbeingc_33.617679_73.121360,"Head Office Well Being Center by Naila Rizwan ( Speech therapist, Speech therapy & behavior therapist in Rawalpindi )","Head Office Well Being Center by Naila Rizwan ( Speech therapist, Speech therapy & behavior therapist in Rawalpindi )
4.1(35)
Wellness center Â· î¤´ Â· Mid City ApartmentsØŒ Khokhar Road, near Quaid E Azam Monument
Open â‹… Closes 6â€¯PM Â· +92 321 9545195",Wellness center,Open,33.6176788,73.1213605,"https://www.google.com/maps/place/Head+Office+Well+Being+Center+by+Naila+Rizwan+%28+Speech+therapist,+Speech+therapy+%26+behavior+therapist+in+Rawalpindi+%29/data=!4m7!3m6!1s0x38dfebe7e2b05421:0xe0dec5f5cfe67720!8m2!3d33.6176788!4d73.1213605!16s%2Fg%2F11fk8f2mgr!19sChIJIVSw4ufr3zgRIHfmz_XF3uA?authuser=0&hl=en&rclk=1","Mental Health Clinic, Islamabad"
144,rehabcenterinislamab_33.714733_73.154987,Rehab Center in Islamabad Akbar Rehab Clinic and Phycatri Center Islamabad,"Rehab Center in Islamabad Akbar Rehab Clinic and Phycatri Center Islamabad
4.9(85)
Mental health clinic Â· Maple St, Bani Gala, Islamabad, Islamabad Capital Territory Mohmand
Open 24 hours Â· +92 327 5566640",Mental health clinic,Open 24 hours,33.7147328,73.154987,https://www.google.com/maps/place/Rehab+Center+in+Islamabad+Akbar+Rehab+Clinic+and+Phycatri+Center+Islamabad/data=!4m7!3m6!1s0x38dfe9e0c6410119:0x1fcd65fc86d56714!8m2!3d33.7147328!4d73.154987!16s%2Fg%2F11w8slslhl!19sChIJGQFBxuDp3zgRFGfVhvxlzR8?authuser=0&hl=en&rclk=1,"Mental Health Clinic, Islamabad"
145,spiremedicalrehabili_33.564428_73.126578,Spire Medical & Rehabilitation Center,"Spire Medical & Rehabilitation Center
5.0(10)
Medical Center Â· î¤´ Â· 5
Open â‹… Closes 9â€¯PM Â· +92 330 2592597",Medical Center,Open,33.5644277,73.1265778,https://www.google.com/maps/place/Spire+Medical+%26+Rehabilitation+Center/data=!4m7!3m6!1s0x38dfed58f6848b0b:0x656c0a50acdd2174!8m2!3d33.5644277!4d73.1265778!16s%2Fg%2F11hdsmjwwp!19sChIJC4uE9ljt3zgRdCHdrFAKbGU?authuser=0&hl=en&rclk=1,"Mental Health Clinic, Islamabad"
146,mentaldrugservices_33.721830_73.050236,MENTAL & DRUG SERVICES,"MENTAL & DRUG SERVICES
5.0(1)
Mental health clinic Â· RANA MARKET F7/2
+92 337 6000666",Mental health clinic,,33.7218297,73.0502357,https://www.google.com/maps/place/MENTAL+%26+DRUG+SERVICES/data=!4m7!3m6!1s0x38dfbff3d5b6e977:0x756abc2b5a87ccbf!8m2!3d33.7218297!4d73.0502357!16s%2Fg%2F11h22xhyfq!19sChIJd-m21fO_3zgRv8yHWiu8anU?authuser=0&hl=en&rclk=1,"Mental Health Clinic, Islamabad"
147,zaramaqboolpsychothe_33.691870_73.000525,Zara Maqbool-Psychotherapist/Marriage Counsellor/ Individual & Couple Therapy in Islamabad,"Zara Maqbool-Psychotherapist/Marriage Counsellor/ Individual & Couple Therapy in Islamabad
4.8(27)
Psychotherapist Â· î¤´ Â· House # 300 Street 8
Open â‹… Closes 7â€¯PM Â· +92 322 8420877",Psychotherapist,Open,33.6918698,73.0005254,https://www.google.com/maps/place/Zara+Maqbool-Psychotherapist%2FMarriage+Counsellor%2F+Individual+%26+Couple+Therapy+in+Islamabad/data=!4m7!3m6!1s0x38df95dc2b5edf15:0xe24e90b0b82baaec!8m2!3d33.6918698!4d73.0005254!16s%2Fg%2F11h7q_jz77!19sChIJFd9eK9yV3zgR7KoruLCQTuI?authuser=0&hl=en&rclk=1,"Mental Health Clinic, Islamabad"
148,peacerehabilitationc_33.643608_73.195000,Peace Rehabilitation Centre,"Peace Rehabilitation Centre
5.0(3)
Mental health service Â· î¤´ Â· J5VW+C2R CNG, Lehtrar Road Alipur Near Alipur
Open 24 hours Â· +92 333 9213674",Mental health service,Open 24 hours,33.6436083,73.1950001,https://www.google.com/maps/place/Peace+Rehabilitation+Centre/data=!4m7!3m6!1s0x38dfe956fe43a165:0xd1a36e07cb7bc248!8m2!3d33.6436083!4d73.1950001!16s%2Fg%2F11ls_gxld7!19sChIJZaFD_lbp3zgRSMJ7ywduo9E?authuser=0&hl=en&rclk=1,"Mental Health Clinic, Islamabad"
149,rasheedpsychiatryhos_33.613333_72.991398,Rasheed Psychiatry Hospital and Rehabilitation Rawalpindi,"Rasheed Psychiatry Hospital and Rehabilitation Rawalpindi
4.5(8)
Mental health clinic Â· Mahboob Butt St
Closed â‹… Opens 5â€¯PM Â· +92 301 5238930",Mental health clinic,Closed,33.613333,72.9913984,https://www.google.com/maps/place/Rasheed+Psychiatry+Hospital+and+Rehabilitation+Rawalpindi/data=!4m7!3m6!1s0x38df969d096e7c25:0xfa6512283c0ee511!8m2!3d33.613333!4d72.9913984!16s%2Fg%2F11cs3247s4!19sChIJJXxuCZ2W3zgREeUOPCgSZfo?authuser=0&hl=en&rclk=1,"Mental Health Clinic, Islamabad"
150,tnithenewinceptionfe_33.565004_73.144216,TNI - The New Inception - Female Rehab Center Islamabad,"TNI - The New Inception - Female Rehab Center Islamabad
4.9(40)
Mental health clinic Â· Plot # 75 Pakistan Town Phase 2 Rd
Open 24 hours Â· +92 318 4815494",Mental health clinic,Open 24 hours,33.5650041,73.144216,https://www.google.com/maps/place/TNI+-+The+New+Inception+-+Female+Rehab+Center+Islamabad/data=!4m7!3m6!1s0x38df95e3c1ed9e1d:0x2026b1275d58f9e0!8m2!3d33.5650041!4d73.144216!16s%2Fg%2F11jyzl5cq7!19sChIJHZ7tweOV3zgR4PlYXSexJiA?authuser=0&hl=en&rclk=1,"Mental Health Clinic, Islamabad"
151,pakistaninstituteofm_33.561393_73.085594,Pakistan Institute of Mental Health (PIMH),"Pakistan Institute of Mental Health (PIMH)
4.5(81)
Hospital Â· PIMH, Adjacent to Royal Palace Hotel, Opposite Ayub Park Main GT Road Chaklala Cant, Cant
Open 24 hours Â· +92 318 5082866",Hospital,Open 24 hours,33.5613934,73.0855935,https://www.google.com/maps/place/Pakistan+Institute+of+Mental+Health+%28PIMH%29/data=!4m7!3m6!1s0x38df931056b360db:0xf955c13268174523!8m2!3d33.5613934!4d73.0855935!16s%2Fg%2F11v0sqcjly!19sChIJ22CzVhCT3zgRI0UXaDLBVfk?authuser=0&hl=en&rclk=1,"Mental Health Clinic, Islamabad"
152,rapidhealingmedicals_33.632077_73.069645,Rapid Healing Medical Services-Rawalpindi Clinic,"Rapid Healing Medical Services-Rawalpindi Clinic
4.3(52)
Psychologist Â· î¤´ Â· 4th-B Rd
Open â‹… Closes 8:30â€¯PM Â· +92 336 1820007",Psychologist,Open,33.6320771,73.0696453,https://www.google.com/maps/place/Rapid+Healing+Medical+Services-Rawalpindi+Clinic/data=!4m7!3m6!1s0x38dfbf3eb7ea05dd:0x8e993d93a7204ece!8m2!3d33.6320771!4d73.0696453!16s%2Fg%2F11fmdc61w4!19sChIJ3QXqtz6_3zgRzk4gp5M9mY4?authuser=0&hl=en&rclk=1,"Mental Health Clinic, Islamabad"
153,sunriserecoveryrehab_33.639131_72.914443,Sunrise Recovery Rehab,"Sunrise Recovery Rehab
5.0(2)
Mental health service Â· House 415 Main Rd No 4
+92 333 9040005",Mental health service,,33.6391313,72.9144433,https://www.google.com/maps/place/Sunrise+Recovery+Rehab/data=!4m7!3m6!1s0x38df970769a7e467:0xbcfde244b563a49f!8m2!3d33.6391313!4d72.9144433!16s%2Fg%2F11fpmspq4j!19sChIJZ-SnaQeX3zgRn6RjtUTi_bw?authuser=0&hl=en&rclk=1,"Mental Health Clinic, Islamabad"
154,msnatashafazalmember_33.564876_73.126059,"Ms.Natasha Fazal (Member APA,ACPA,ISSUP,ANZMH) UK Certified | Clinical Psychologist","Ms.Natasha Fazal (Member APA,ACPA,ISSUP,ANZMH) UK Certified | Clinical Psychologist
4.9(425)
Psychologist Â· î¤´ Â· Main PWD Rd
Closed â‹… Opens 5:30â€¯PM Â· +92 335 0466607",Psychologist,Closed,33.564876,73.126059,"https://www.google.com/maps/place/Ms.Natasha+Fazal+%28Member+APA,ACPA,ISSUP,ANZMH%29+UK+Certified+%7C+Clinical+Psychologist/data=!4m7!3m6!1s0x38dfed0fe4c24d8d:0x7186fe41ffbc2916!8m2!3d33.564876!4d73.126059!16s%2Fg%2F11mhr1svmb!19sChIJjU3C5A_t3zgRFim8_0H-hnE?authuser=0&hl=en&rclk=1","Mental Health Clinic, Islamabad"
155,hoslaaddictionpsychi_33.664932_73.153088,Hosla Addiction & Psychiatric Treatment Centre,"Hosla Addiction & Psychiatric Treatment Centre
5.0(2)
Mental health clinic Â· Main Park Rd
+92 335 2321144",Mental health clinic,,33.6649321,73.1530882,https://www.google.com/maps/place/Hosla+Addiction+%26+Psychiatric+Treatment+Centre/data=!4m7!3m6!1s0x38dfebfc4d0ccff3:0x4b73a02511da3444!8m2!3d33.6649321!4d73.1530882!16s%2Fg%2F11rmn9zht0!19sChIJ888MTfzr3zgRRDTaESWgc0s?authuser=0&hl=en&rclk=1,"Mental Health Clinic, Islamabad"
