Index,Place Id,Name,Address,Category,Status,Latitude,Longitude,Link,SearchKeyword
1,na_noloc,,,,,,,,"Optician, Islamabad"
5,eyeshopoptician_33.729248_73.075817,Eye Shop Optician,,Optician,Open,33.7292485,73.0758171,https://www.google.com/maps/place/Eye+Shop+Optician/data=!4m7!3m6!1s0x38dfbf7761945a47:0xb2afdc028c9eb0c2!8m2!3d33.7292485!4d73.0758171!16s%2Fg%2F11f146vz1z!19sChIJR1qUYXe_3zgRwrCejALcr7I?authuser=0&hl=en&rclk=1,"Optician, Islamabad"
37,hassanoptical_33.690100_73.032742,Hassan Optical,"Hassan Optical
4.9(260)
Optician ·  · Plot No. 31-A, United Plaza
Open ⋅ Closes 10 PM · +92 51 2284810",Optician,Open,33.6901005,73.0327425,https://www.google.com/maps/place/Hassan+Optical/data=!4m7!3m6!1s0x38dfbe310578902b:0x137012252d037260!8m2!3d33.6901005!4d73.0327425!16s%2Fg%2F11c328wvc1!19sChIJK5B4BTG-3zgRYHIDLSUScBM?authuser=0&hl=en&rclk=1,"Optician, Islamabad"
38,tanweeroptical_33.716464_73.085436,Tanweer optical,"Tanweer optical
4.5(58)
Optician · Shop 7, Melody Market, Civic Centre, 8 Shaheed-e-Millat Rd
Open ⋅ Closes 9:15 PM · +92 332 0007734",Optician,Open,33.7164644,73.0854364,https://www.google.com/maps/place/Tanweer+optical/data=!4m7!3m6!1s0x38dfbf87d1a60dbf:0x758c073d82f96f1a!8m2!3d33.7164644!4d73.0854364!16s%2Fg%2F12mkzcfm5!19sChIJvw2m0Ye_3zgRGm_5gj0HjHU?authuser=0&hl=en&rclk=1,"Optician, Islamabad"
39,blueyeopticalshopisl_33.711581_73.041459,Blueye Optical Shop Islamabad,"Blueye Optical Shop Islamabad
5.0(20)
Optician · umer centre f-8 markez near IDC /ali medical centre
Open ⋅ Closes 10 PM · +92 51 2817023",Optician,Open,33.711581,73.041459,https://www.google.com/maps/place/Blueye+Optical+Shop+Islamabad/data=!4m7!3m6!1s0x38dfbfad398a8b35:0x8dee5c9ee2664ddc!8m2!3d33.711581!4d73.041459!16s%2Fg%2F11bxf3q53t!19sChIJNYuKOa2_3zgR3E1m4p5c7o0?authuser=0&hl=en&rclk=1,"Optician, Islamabad"
40,eyelinksopticians_33.684394_73.042072,EYE LINKS OPTICIANS,"EYE LINKS OPTICIANS
4.9(68)
Optician · BLOCK #40,SHOP#3, Industrial and Trading centre, Street 55
Open ⋅ Closes 11:15 PM · +92 332 5549997",Optician,Open,33.6843937,73.0420723,https://www.google.com/maps/place/EYE+LINKS+OPTICIANS/data=!4m7!3m6!1s0x38dfbfd3a9810b0d:0x1fcef96fc3a94690!8m2!3d33.6843937!4d73.0420723!16s%2Fg%2F1pzt6k903!19sChIJDQuBqdO_3zgRkEapw2_5zh8?authuser=0&hl=en&rclk=1,"Optician, Islamabad"
41,masoodopticalisaprem_33.721089_73.058644,"Masood Optical is a premier eyewear retailer located in the heart of Jinnah Super Market. As qualified opticians,","Masood Optical is a premier eyewear retailer located in the heart of Jinnah Super Market. As qualified opticians,
4.6(26)
Optician · Block 12E, Bhittai Rd
Open ⋅ Closes 9:30 PM · +92 51 2650111",Optician,Open,33.7210893,73.0586445,"https://www.google.com/maps/place/Masood+Optical+is+a+premier+eyewear+retailer+located+in+the+heart+of+Jinnah+Super+Market.+As+qualified+opticians,/data=!4m7!3m6!1s0x38dfbfa0cdb9f471:0x4d49ad4cad9b0062!8m2!3d33.7210893!4d73.0586445!16s%2Fg%2F11xnrd01k!19sChIJcfS5zaC_3zgRYgCbrUytSU0?authuser=0&hl=en&rclk=1","Optician, Islamabad"
42,clarityoptiks_33.720237_73.073904,CLARITY OPTIKS,"CLARITY OPTIKS
4.9(91)
Optician · Clarity Optics, 7th Ave
Open ⋅ Closes 9:30 PM · +92 51 2726687",Optician,Open,33.7202366,73.0739042,https://www.google.com/maps/place/CLARITY+OPTIKS/data=!4m7!3m6!1s0x38dfbf1712fc824f:0xc7241461d5bbdd0b!8m2!3d33.7202366!4d73.0739042!16s%2Fg%2F11fhz1329w!19sChIJT4L8Ehe_3zgRC9271WEUJMc?authuser=0&hl=en&rclk=1,"Optician, Islamabad"
43,opticzone_33.669338_72.998602,Optic Zone,"Optic Zone
4.6(11)
Optician · SHOP G3, SARDAR ARCADE, 2 G11
Open ⋅ Closes 11 PM · +92 302 5057000",Optician,Open,33.6693383,72.9986016,https://www.google.com/maps/place/Optic+Zone/data=!4m7!3m6!1s0x38df95ff30c9410b:0x8991596509030361!8m2!3d33.6693383!4d72.9986016!16s%2Fg%2F12mkwb5bv!19sChIJC0HJMP-V3zgRYQMDCWVZkYk?authuser=0&hl=en&rclk=1,"Optician, Islamabad"
44,masoodopticalco_33.716544_73.085617,Masood Optical Co.,"Masood Optical Co.
4.4(57)
Optician · Civic Centre, Shaheed-e-Millat Rd, Melody Market, G-6
Open ⋅ Closes 9 PM · +92 51 8743300",Optician,Open,33.7165445,73.0856168,https://www.google.com/maps/place/Masood+Optical+Co./data=!4m7!3m6!1s0x38dfbf87daf340bb:0x4a770524a69cecfb!8m2!3d33.7165445!4d73.0856168!16s%2Fg%2F12mkzhysp!19sChIJu0Dz2oe_3zgR--ycpiQFd0o?authuser=0&hl=en&rclk=1,"Optician, Islamabad"
45,dwatsonoptician_33.731297_73.074995,D. Watson Optician,"D. Watson Optician
4.5(12)
Optician · Shop # 6 # Block # 12-c
Open ⋅ Closes 10:30 PM · +92 51 2652647",Optician,Open,33.7312968,73.0749946,https://www.google.com/maps/place/D.+Watson+Optician/data=!4m7!3m6!1s0x38dfbfa747bf3e9f:0x56775e0c2269e5e7!8m2!3d33.7312968!4d73.0749946!16s%2Fg%2F11g6_w986n!19sChIJnz6_R6e_3zgR5-VpIgxed1Y?authuser=0&hl=en&rclk=1,"Optician, Islamabad"
46,glassmithbygulzariop_33.689587_73.032131,Glassmith by Gulzari Optics,"Glassmith by Gulzari Optics
4.5(207)
Optician ·  · Shop 11, Shalimar Plaza
Open ⋅ Closes 5 PM · +92 51 2251712",Optician,Open,33.6895874,73.0321306,https://www.google.com/maps/place/Glassmith+by+Gulzari+Optics/data=!4m7!3m6!1s0x38dfbe310774eb91:0x5e50867012b60b1c!8m2!3d33.6895874!4d73.0321306!16s%2Fg%2F12mkzcb9k!19sChIJket0BzG-3zgRHAu2EnCGUF4?authuser=0&hl=en&rclk=1,"Optician, Islamabad"
47,gabaoptical_33.694343_73.013033,GABA Optical,"GABA Optical
4.3(15)
Optician · Mustafa Mansion, Sumbal Rd
Open ⋅ Closes 11:55 PM · +92 310 1002576",Optician,Open,33.6943434,73.0130334,https://www.google.com/maps/place/GABA+Optical/data=!4m7!3m6!1s0x38dfbf4dc032ecd1:0xf66a19e957e4a4fa!8m2!3d33.6943434!4d73.0130334!16s%2Fg%2F11gxvs45rp!19sChIJ0ewywE2_3zgR-qTkV-kZavY?authuser=0&hl=en&rclk=1,"Optician, Islamabad"
48,maximeyesvision_33.656232_73.055686,Maximeyes Vision,"Maximeyes Vision
5.0(14)
Optician · shop #1, Jawa Center, Plot 3L markaz
Open ⋅ Closes 9 PM · +92 345 5174321",Optician,Open,33.6562318,73.0556865,https://www.google.com/maps/place/Maximeyes+Vision/data=!4m7!3m6!1s0x38df951321940aaf:0xb3cb930d211f9e42!8m2!3d33.6562318!4d73.0556865!16s%2Fg%2F12mkwb01w!19sChIJrwqUIROV3zgRQp4fIQ2Ty7M?authuser=0&hl=en&rclk=1,"Optician, Islamabad"
49,eyelinksopticiansb6i_33.666652_73.073279,Eye Links Opticians B-6 I-8 Markaz,"Eye Links Opticians B-6 I-8 Markaz
4.6(42)
Optician · B-6 plot 44 zaki center I-8 Markaz, near Habibi Restaurant parking straight road from
Open ⋅ Closes 10:30 PM · +92 333 5191897",Optician,Open,33.6666525,73.0732791,https://www.google.com/maps/place/Eye+Links+Opticians+B-6+I-8+Markaz/data=!4m7!3m6!1s0x38df9545b4339315:0xbba04878ccf69d06!8m2!3d33.6666525!4d73.0732791!16s%2Fg%2F11cn_j3cvz!19sChIJFZMztEWV3zgRBp32zHhIoLs?authuser=0&hl=en&rclk=1,"Optician, Islamabad"
50,masoodopticalf10mark_33.696402_73.011393,Masood Optical F-10 Markaz,"Masood Optical F-10 Markaz
4.5(28)
Optician · Infront of
Open ⋅ Closes 9:30 PM · +92 51 8743355",Optician,Open,33.6964019,73.0113933,https://www.google.com/maps/place/Masood+Optical+F-10+Markaz/data=!4m7!3m6!1s0x38dfbf09bfd0b5a5:0x438e9adb5255b0e7!8m2!3d33.6964019!4d73.0113933!16s%2Fg%2F11h229cbn8!19sChIJpbXQvwm_3zgR57BVUtuajkM?authuser=0&hl=en&rclk=1,"Optician, Islamabad"
51,blinkoptics_33.645265_72.964564,Blink Optics,"Blink Optics
4.8(32)
Optician · Qadri Arcade, Shop # 11 Street 108, near Anwar Hospital
Open ⋅ Closes 10 PM · +92 313 5007397",Optician,Open,33.6452653,72.9645639,https://www.google.com/maps/place/Blink+Optics/data=!4m7!3m6!1s0x38df97942737d675:0x3bd7f0d48ced97b0!8m2!3d33.6452653!4d72.9645639!16s%2Fg%2F11h8j43n4d!19sChIJddY3J5SX3zgRsJftjNTw1zs?authuser=0&hl=en&rclk=1,"Optician, Islamabad"
52,optiker_33.518864_73.087399,Optiker,"Optiker
5.0(155)
Optician · Business Bay, Shop No. 5B,Sector F, DHA Phase
Open ⋅ Closes 11 PM · +92 310 5005200",Optician,Open,33.518864,73.0873993,https://www.google.com/maps/place/Optiker/data=!4m7!3m6!1s0x38df93a93b56aacf:0xad08ccf463fd8204!8m2!3d33.518864!4d73.0873993!16s%2Fg%2F11j904xvlz!19sChIJz6pWO6mT3zgRBIL9Y_TMCK0?authuser=0&hl=en&rclk=1,"Optician, Islamabad"
53,opticianeaglevision_33.711893_73.040929,OPTICIAN EAGLE VISION,"OPTICIAN EAGLE VISION
4.9(65)
Optician ·  · Shop no 2، Panther plaza، Markaz
Open ⋅ Closes 9 PM",Optician,Open,33.711893,73.0409289,https://www.google.com/maps/place/OPTICIAN+EAGLE+VISION/data=!4m7!3m6!1s0x38dfbf8a95f00001:0x1f0dff9f7cac2d7e!8m2!3d33.711893!4d73.0409289!16s%2Fg%2F11g6566_65!19sChIJAQDwlYq_3zgRfi2sfJ__DR8?authuser=0&hl=en&rclk=1,"Optician, Islamabad"
54,grandoptikaopticssho_33.696418_73.012172,Grand Optika - Optics Shop in Islamabad,"Grand Optika - Optics Shop in Islamabad
5.0(15)
Optician · Shop# 3 Ground Floor, Plot, 7K, next to Old Books N Books
Open ⋅ Closes 11 PM · +92 51 8448644",Optician,Open,33.6964182,73.0121716,https://www.google.com/maps/place/Grand+Optika+-+Optics+Shop+in+Islamabad/data=!4m7!3m6!1s0x38dfbfad4790f507:0x70a3854dd8cbf372!8m2!3d33.6964182!4d73.0121716!16s%2Fg%2F11vkks7578!19sChIJB_WQR62_3zgRcvPL2E2Fo3A?authuser=0&hl=en&rclk=1,"Optician, Islamabad"
55,eyepoint_33.520582_73.089886,EYE POINT,"EYE POINT
4.9(60)
Optician · G3CQ+6XJ
Open ⋅ Closes 11 PM · +92 51 8990716",Optician,Open,33.5205817,73.0898862,https://www.google.com/maps/place/EYE+POINT/data=!4m7!3m6!1s0x38dfedf00f354319:0x7c8609c482120016!8m2!3d33.5205817!4d73.0898862!16s%2Fg%2F11mhh461g3!19sChIJGUM1D_Dt3zgRFgASgsQJhnw?authuser=0&hl=en&rclk=1,"Optician, Islamabad"
56,droptics_33.690232_73.030689,Dr.Optics,"Dr.Optics
5.0(25)
Optician · Awami Trade center 1A lower Ground
Open ⋅ Closes 10:30 PM · +92 332 6666975",Optician,Open,33.6902318,73.0306887,https://www.google.com/maps/place/Dr.Optics/data=!4m7!3m6!1s0x38dfbf1f893baf9f:0x7cbb20f9b79a0dae!8m2!3d33.6902318!4d73.0306887!16s%2Fg%2F11s18830v2!19sChIJn687iR-_3zgRrg2at_kgu3w?authuser=0&hl=en&rclk=1,"Optician, Islamabad"
57,zeevisionoptics_33.645425_72.963899,Zee Vision Optics,"Zee Vision Optics
4.9(32)
Optician ·  · JXW7+5H6, Street 110
Open ⋅ Closes 11 PM · +92 300 9148414",Optician,Open,33.645425,72.9638992,https://www.google.com/maps/place/Zee+Vision+Optics/data=!4m7!3m6!1s0x38df963f4b4e62e9:0x3dc91d1166b0c9b!8m2!3d33.645425!4d72.9638992!16s%2Fg%2F11bccgb33b!19sChIJ6WJOSz-W3zgRmwxrFtGR3AM?authuser=0&hl=en&rclk=1,"Optician, Islamabad"
58,glassmithbygulzariop_33.683042_72.988655,Glassmith by Gulzari Optics,"Glassmith by Gulzari Optics
4.8(42)
Optician ·  · Shop 5, Lord trade centre, Hilal road, Markaz
Open ⋅ Closes 5 PM · +92 51 2113847",Optician,Open,33.683042,72.9886555,https://www.google.com/maps/place/Glassmith+by+Gulzari+Optics/data=!4m7!3m6!1s0x38dfbde37393ecf9:0xc1ad9d2dfd60c3dc!8m2!3d33.683042!4d72.9886555!16s%2Fg%2F11cs018q4j!19sChIJ-eyTc-O93zgR3MNg_S2drcE?authuser=0&hl=en&rclk=1,"Optician, Islamabad"
59,sardaroptics_33.716498_73.085522,Sardar Optics,"Sardar Optics
4.9(18)
Optician · Old Cinema Building, Melody Market
Open ⋅ Closes 10 PM · +92 315 6558302",Optician,Open,33.7164975,73.0855216,https://www.google.com/maps/place/Sardar+Optics/data=!4m7!3m6!1s0x38dfbf056ee689a1:0xa47a3f15f9f61f2f!8m2!3d33.7164975!4d73.0855216!16s%2Fg%2F11rwjlz_3_!19sChIJoYnmbgW_3zgRLx_2-RU_eqQ?authuser=0&hl=en&rclk=1,"Optician, Islamabad"
60,gulzariopticalcentre_33.714810_73.067472,Gulzari Optical Centre,"Gulzari Optical Centre
4.0(4)
Optician · AK Fazal-ul, Mehmood Plaza, Haq Rd
Open ⋅ Closes 8 PM · +92 51 2344312",Optician,Open,33.7148104,73.0674717,https://www.google.com/maps/place/Gulzari+Optical+Centre/data=!4m7!3m6!1s0x38dfbf99b5fe7941:0xb56c9bbb121fce41!8m2!3d33.7148104!4d73.0674717!16s%2Fg%2F11x9gbc3b!19sChIJQXn-tZm_3zgRQc4fErubbLU?authuser=0&hl=en&rclk=1,"Optician, Islamabad"
61,ivisionoptical_33.681315_73.155360,I VISION OPTICAL,"I VISION OPTICAL
5.0(17)
Optician · Shop number 06 ground floor Al Farooq plaza 2 Newmal, main Jinnah Ave
Open ⋅ Closes 9 PM · +92 301 5139136",Optician,Open,33.6813148,73.1553601,https://www.google.com/maps/place/I+VISION+OPTICAL/data=!4m7!3m6!1s0x38dfeba5d7137783:0x5d49bd1c1f0bec84!8m2!3d33.6813148!4d73.1553601!16s%2Fg%2F11wmxkwcm2!19sChIJg3cT16Xr3zgRhOwLHxy9SV0?authuser=0&hl=en&rclk=1,"Optician, Islamabad"
62,tantiopticsheadoffic_33.729174_73.074492,Tanti Optics - Head Office,"Tanti Optics - Head Office
4.9(12)
Optician ·  · Shaukat Plaza, School Rd, F-6 Markaz, F-6
Open ⋅ Closes 9 PM · +92 51 2271731",Optician,Open,33.7291742,73.0744921,https://www.google.com/maps/place/Tanti+Optics+-+Head+Office/data=!4m7!3m6!1s0x38dfbf776b3abb39:0xdc87d768495326f1!8m2!3d33.7291742!4d73.0744921!16s%2Fg%2F12mkw899x!19sChIJObs6a3e_3zgR8SZTSWjXh9w?authuser=0&hl=en&rclk=1,"Optician, Islamabad"
63,eyecareoptics_33.646061_73.035551,Eye Care Optics,"Eye Care Optics
4.0(2)
Optician · Shop#3-B, Shaheen Plaza, Korang Road
Open ⋅ Closes 10:15 PM · +92 314 5523593",Optician,Open,33.6460611,73.0355514,https://www.google.com/maps/place/Eye+Care+Optics/data=!4m7!3m6!1s0x38df95a6644430df:0xc8a39bac2ea3d201!8m2!3d33.6460611!4d73.0355514!16s%2Fg%2F12mkzcg2w!19sChIJ3zBEZKaV3zgRAdKjLqybo8g?authuser=0&hl=en&rclk=1,"Optician, Islamabad"
64,eoptics_33.668396_72.996871,E Optics,"E Optics
5.0(13)
Optician ·  · silvercity Plaza
Open ⋅ Closes 11:30 PM · +92 313 7786156",Optician,Open,33.6683956,72.9968706,https://www.google.com/maps/place/E+Optics/data=!4m7!3m6!1s0x38df95f50e3dacd9:0x34fa8db8ab946152!8m2!3d33.6683956!4d72.9968706!16s%2Fg%2F11jgnqf9pm!19sChIJ2aw9DvWV3zgRUmGUq7iN-jQ?authuser=0&hl=en&rclk=1,"Optician, Islamabad"
65,theocularstore_33.683036_72.988655,The Ocular Store,"The Ocular Store
5.0(25)
Optician · shop #5, Lord Trade Centre
Open ⋅ Closes 5 PM · +92 345 8929662",Optician,Open,33.6830357,72.9886552,https://www.google.com/maps/place/The+Ocular+Store/data=!4m7!3m6!1s0x38dfbdb0e268e8e7:0xa1c4907a9c66bf0c!8m2!3d33.6830357!4d72.9886552!16s%2Fg%2F11vjpxs82z!19sChIJ5-ho4rC93zgRDL9mnHqQxKE?authuser=0&hl=en&rclk=1,"Optician, Islamabad"
66,raysoptics_33.689585_73.032182,Rays Optics,"Rays Optics
5.0(23)
Optician · Shop no. 1, 1st Floor, Dubai barra market
Open ⋅ Closes 10:30 PM · +92 333 7030306",Optician,Open,33.6895851,73.0321823,https://www.google.com/maps/place/Rays+Optics/data=!4m7!3m6!1s0x38dfbf9ab5fa48f1:0x71a722487a3e861f!8m2!3d33.6895851!4d73.0321823!16s%2Fg%2F11sk9x2ydz!19sChIJ8Uj6tZq_3zgRH4Y-ekgip3E?authuser=0&hl=en&rclk=1,"Optician, Islamabad"
67,tantiopticscollectio_33.694252_73.012847,Tanti Optics & Collection,"Tanti Optics & Collection
3.5(22)
Optician · Shop no 1, Mustafa Mansion, Sumbal Rd
Open ⋅ Closes 10 PM · +92 51 2299606",Optician,Open,33.694252,73.0128474,https://www.google.com/maps/place/Tanti+Optics+%26+Collection/data=!4m7!3m6!1s0x38dfbe14cf41ae8d:0x74de2c90508406d7!8m2!3d33.694252!4d73.0128474!16s%2Fg%2F12mkzk7lh!19sChIJja5BzxS-3zgR1waEUJAs3nQ?authuser=0&hl=en&rclk=1,"Optician, Islamabad"
68,emiratesoptics_33.668506_72.996666,Emirates Optics,"Emirates Optics
4.7(14)
Optician · Shop # B16, G, silver city plaza, 11 Markaz
Open ⋅ Closes 11 PM · +92 300 4839895",Optician,Open,33.6685061,72.996666,https://www.google.com/maps/place/Emirates+Optics/data=!4m7!3m6!1s0x38df954a1780be4d:0xa5885d447a7b173f!8m2!3d33.6685061!4d72.996666!16s%2Fg%2F11fks8pk8t!19sChIJTb6AF0qV3zgRPxd7ekRdiKU?authuser=0&hl=en&rclk=1,"Optician, Islamabad"
69,syedsonsoptical2aabp_33.707733_73.088758,"SYED SONS OPTICAL 2, Aabpara Market, Rehman Arcade, Aabpara Market Islamabad Pakistan","SYED SONS OPTICAL 2, Aabpara Market, Rehman Arcade, Aabpara Market Islamabad Pakistan
5.0(4)
Optician · Shop-1 Basement، Rahman Arcade
Open ⋅ Closes 10 PM · +92 333 5251442",Optician,Open,33.7077326,73.0887583,"https://www.google.com/maps/place/SYED+SONS+OPTICAL+2,+Aabpara+Market,+Rehman+Arcade,+Aabpara+Market+Islamabad+Pakistan/data=!4m7!3m6!1s0x38dfc1ade39cce7f:0x46caefb72ed443e2!8m2!3d33.7077326!4d73.0887583!16s%2Fg%2F11ng6d0g0j!19sChIJf86c463B3zgR4kPULrfvykY?authuser=0&hl=en&rclk=1","Optician, Islamabad"
70,glassesgallery_33.642819_72.952739,Glasses Gallery,"Glasses Gallery
5.0(1)
Optician · Valley-1 Plaza Shop4, Street 14
Open ⋅ Closes 9 PM · +92 327 5780177",Optician,Open,33.6428187,72.9527394,https://www.google.com/maps/place/Glasses+Gallery/data=!4m7!3m6!1s0x38df97a9ae2cdb05:0x2bf771df73a13248!8m2!3d33.6428187!4d72.9527394!16s%2Fg%2F11ts3hd7fb!19sChIJBdssrqmX3zgRSDKhc99x9ys?authuser=0&hl=en&rclk=1,"Optician, Islamabad"
71,opticseleven_33.619442_73.141184,Optics Eleven,"Optics Eleven
5.0(25)
Optician · J49R+QFF, Ghori Town Rd
Open ⋅ Closes 10 PM · +92 311 1611100",Optician,Open,33.619442,73.1411839,https://www.google.com/maps/place/Optics+Eleven/data=!4m7!3m6!1s0x38dfebb653ada799:0x70d774a715b354e0!8m2!3d33.619442!4d73.1411839!16s%2Fg%2F11t0srygmz!19sChIJmaetU7br3zgR4FSzFad013A?authuser=0&hl=en&rclk=1,"Optician, Islamabad"
72,gulzariopticalcentre_33.667691_72.997425,Gulzari Optical Centre,"Gulzari Optical Centre
3.6(15)
Optician · MX9W+3XF, Al Anayat Mall
Open ⋅ Closes 9 PM · +92 51 2363532",Optician,Open,33.6676911,72.9974247,https://www.google.com/maps/place/Gulzari+Optical+Centre/data=!4m7!3m6!1s0x38df95fee5fd7e2f:0x5bb7378ad4b7ff0d!8m2!3d33.6676911!4d72.9974247!16s%2Fg%2F11hbk586nq!19sChIJL3795f6V3zgRDf-31Io3t1s?authuser=0&hl=en&rclk=1,"Optician, Islamabad"
73,hajiusmansonsopticia_33.565793_73.130220,Haji Usman & Sons Opticians PWD Branch,"Haji Usman & Sons Opticians PWD Branch
4.0(29)
Optician · 342
Open ⋅ Closes 10 PM · +92 51 5170789",Optician,Open,33.5657929,73.1302196,https://www.google.com/maps/place/Haji+Usman+%26+Sons+Opticians+PWD+Branch/data=!4m7!3m6!1s0x38dfed0e91f2b01f:0x159623f88ea4467d!8m2!3d33.5657929!4d73.1302196!16s%2Fg%2F11mtjf0n5z!19sChIJH7DykQ7t3zgRfUakjvgjlhU?authuser=0&hl=en&rclk=1,"Optician, Islamabad"
74,zafaroptics_33.689999_73.030711,Zafar Optics,"Zafar Optics
4.4(16)
Optician · Shop#34 Lower Ground Floor, Awami trade center, markaz
Open ⋅ Closes 10 PM · +92 51 2284981",Optician,Open,33.689999,73.0307113,https://www.google.com/maps/place/Zafar+Optics/data=!4m7!3m6!1s0x38dfbe31069f6c07:0xbb10e89a1c6de21d!8m2!3d33.689999!4d73.0307113!16s%2Fg%2F12mkw96kq!19sChIJB2yfBjG-3zgRHeJtHJroELs?authuser=0&hl=en&rclk=1,"Optician, Islamabad"
75,dwatsonoptician_33.707808_73.050776,D.Watson Optician,"D.Watson Optician
2.4(37)
Optician
Open ⋅ Closes 11 PM · +92 51 8438111",Optician,Open,33.7078075,73.0507756,https://www.google.com/maps/place/D.Watson+Optician/data=!4m7!3m6!1s0x38dfbfb0f2c249bb:0xc6e3b79a20ee7a3e!8m2!3d33.7078075!4d73.0507756!16s%2Fg%2F11cn16w7k6!19sChIJu0nC8rC_3zgRPnruIJq348Y?authuser=0&hl=en&rclk=1,"Optician, Islamabad"
76,glassmithbygulzariop_33.633004_72.922756,Glassmith By Gulzari Optics,"Glassmith By Gulzari Optics
4.7(24)
Optician · Capital Tower Plaza, Shope No 6, Khayaban-e-kashmir
Open ⋅ Closes 11 PM · +92 51 2308381",Optician,Open,33.6330037,72.9227559,https://www.google.com/maps/place/Glassmith+By+Gulzari+Optics/data=!4m7!3m6!1s0x38df970ede0455ab:0xf8162fff33419635!8m2!3d33.6330037!4d72.9227559!16s%2Fg%2F11qph3_j_9!19sChIJq1UE3g6X3zgRNZZBM_8vFvg?authuser=0&hl=en&rclk=1,"Optician, Islamabad"
77,opticgallery_33.611444_72.868761,Optic Gallery,"Optic Gallery
4.8(8)
Optician
Open ⋅ Closes 10 PM · +92 334 3621045",Optician,Open,33.6114439,72.8687613,https://www.google.com/maps/place/Optic+Gallery/data=!4m7!3m6!1s0x38df990053ffa469:0x6d42dd3628bb0537!8m2!3d33.6114439!4d72.8687613!16s%2Fg%2F11lds4fcv6!19sChIJaaT_UwCZ3zgRNwW7KDbdQm0?authuser=0&hl=en&rclk=1,"Optician, Islamabad"
78,shaheenoptics_33.729883_73.075518,Shaheen Optics,"Shaheen Optics
4.4(9)
Optician · Block 12, School Rd, F-6 Markaz, F-6
Open ⋅ Closes 11 PM · +92 51 2271666",Optician,Open,33.729883,73.075518,https://www.google.com/maps/place/Shaheen+Optics/data=!4m7!3m6!1s0x38dfbf775cd93433:0xf24a4b3d9c25cd21!8m2!3d33.729883!4d73.075518!16s%2Fg%2F12mkw8szm!19sChIJMzTZXHe_3zgRIc0lnD1LSvI?authuser=0&hl=en&rclk=1,"Optician, Islamabad"
79,eyemaxoptical_33.570968_73.176394,EYEMAX OPTICAL,"EYEMAX OPTICAL
4.4(21)
Optometrist · civic centre Ali Al Murtaza, Street
Open ⋅ Closes 10 PM · +92 345 5726826",Optometrist,Open,33.5709675,73.176394,https://www.google.com/maps/place/EYEMAX+OPTICAL/data=!4m7!3m6!1s0x38dfed7143b436f5:0x82e42b09512ac9a6!8m2!3d33.5709675!4d73.176394!16s%2Fg%2F11hzbv8wy8!19sChIJ9Ta0Q3Ht3zgRpskqUQkr5II?authuser=0&hl=en&rclk=1,"Optician, Islamabad"
80,diversooptics_33.684625_72.986378,Diverso Optics,"Diverso Optics
4.1(14)
Optician · F, Select Center Plot, 11 Street 29
Open ⋅ Closes 10 PM · +92 51 2228354",Optician,Open,33.6846253,72.9863775,https://www.google.com/maps/place/Diverso+Optics/data=!4m7!3m6!1s0x38dfbde41396ab67:0xe8e9acecc1ebd59b!8m2!3d33.6846253!4d72.9863775!16s%2Fg%2F12mkzj1_5!19sChIJZ6uWE-S93zgRm9Xrweys6eg?authuser=0&hl=en&rclk=1,"Optician, Islamabad"
81,syedsonsopticaloffic_33.706848_73.068291,Syed Sons Optical official,"Syed Sons Optical official
4.1(14)
Optician · Sitara Market, Block C-3, G-7, G-7 Markaz
Open ⋅ Closes 10 PM · +92 51 2620150",Optician,Open,33.7068477,73.0682908,https://www.google.com/maps/place/Syed+Sons+Optical+official/data=!4m7!3m6!1s0x38dfbf943f56acf9:0x92c74a82fafaecae!8m2!3d33.7068477!4d73.0682908!16s%2Fg%2F12mkz7ht6!19sChIJ-axWP5S_3zgRruz6-oJKx5I?authuser=0&hl=en&rclk=1,"Optician, Islamabad"
82,shaheenoptics_33.707762_73.050243,Shaheen Optics,"Shaheen Optics
3.9(14)
Optician · P352+435, Khyber Plaza, AKM Fazal-ul-Haq Rd, Block I, Blue Area
Open 24 hours · +92 51 2271666",Optician,Open 24 hours,33.707762,73.0502433,https://www.google.com/maps/place/Shaheen+Optics/data=!4m7!3m6!1s0x38dfbfbbac32955f:0x78d2305291038089!8m2!3d33.707762!4d73.0502433!16s%2Fg%2F12mkw8v01!19sChIJX5UyrLu_3zgRiYADkVIw0ng?authuser=0&hl=en&rclk=1,"Optician, Islamabad"
83,alsafaoptics_33.562276_73.147589,Al-Safa Optics,"Al-Safa Optics
5.0(1)
Optician · 3
Open ⋅ Closes 11 PM · +92 348 8959807",Optician,Open,33.5622762,73.147589,https://www.google.com/maps/place/Al-Safa+Optics/data=!4m7!3m6!1s0x38dfedbb2cd4f621:0x8e0f66029d4fae84!8m2!3d33.5622762!4d73.147589!16s%2Fg%2F11fq9l5_x9!19sChIJIfbULLvt3zgRhK5PnQJmD44?authuser=0&hl=en&rclk=1,"Optician, Islamabad"
84,theeyecare_33.629769_73.116521,The Eye Care,"The Eye Care
4.7(13)
Optician · Aqeel Plaza, Khanna Pul
Open ⋅ Closes 10 PM · +92 51 2617428",Optician,Open,33.6297687,73.1165209,https://www.google.com/maps/place/The+Eye+Care/data=!4m7!3m6!1s0x38dfeb03b7494a1f:0xa8a48cd50867afe4!8m2!3d33.6297687!4d73.1165209!16s%2Fg%2F11fj9rdxc5!19sChIJH0pJtwPr3zgR5K9nCNWMpKg?authuser=0&hl=en&rclk=1,"Optician, Islamabad"
85,albasaropticsandeyec_33.696497_73.011127,Al-Basar Optics and Eye Care,"Al-Basar Optics and Eye Care
5.0(3)
Optician · House No, 7 Street 57
Open ⋅ Closes 9 PM · +92 51 2223025",Optician,Open,33.696497,73.011127,https://www.google.com/maps/place/Al-Basar+Optics+and+Eye+Care/data=!4m7!3m6!1s0x38dfbf5983206d57:0xe76ec7379f98bd55!8m2!3d33.696497!4d73.011127!16s%2Fg%2F11hdy6gpp7!19sChIJV20gg1m_3zgRVb2YnzfHbuc?authuser=0&hl=en&rclk=1,"Optician, Islamabad"
86,pearloptics_33.564208_73.150928,Pearl Optics,"Pearl Optics
4.8(14)
Optician · H572+M9M
Open ⋅ Closes 10 PM · +92 347 5022934",Optician,Open,33.564208,73.1509279,https://www.google.com/maps/place/Pearl+Optics/data=!4m7!3m6!1s0x38dfec4cf273bf63:0xf7bb667c22318f25!8m2!3d33.564208!4d73.1509279!16s%2Fg%2F11hd9fvg19!19sChIJY79z8kzs3zgRJY8xInxmu_c?authuser=0&hl=en&rclk=1,"Optician, Islamabad"
87,delhioptical_33.716542_73.085611,Delhi Optical,"Delhi Optical
4.2(6)
Optician · Civic Centre, Shaheed-e-Millat Rd, Melody Market, G-6
Open ⋅ Closes 9 PM · +92 51 2873865",Optician,Open,33.7165417,73.0856114,https://www.google.com/maps/place/Delhi+Optical/data=!4m7!3m6!1s0x38dfbf87db40f857:0xf349235067f6095e!8m2!3d33.7165417!4d73.0856114!16s%2Fg%2F12mkz5vpn!19sChIJV_hA24e_3zgRXgn2Z1AjSfM?authuser=0&hl=en&rclk=1,"Optician, Islamabad"
88,zahidabdulwahidoptic_33.669296_72.998490,Zahid & Abdul Wahid Optics,"Zahid & Abdul Wahid Optics
4.2(14)
Optician · Sardar Arcade, Shop B-6, G-11 Markaz, G-11
Open ⋅ Closes 10 PM · +92 333 5316809",Optician,Open,33.6692957,72.9984898,https://www.google.com/maps/place/Zahid+%26+Abdul+Wahid+Optics/data=!4m7!3m6!1s0x38df95ff3a0c7d3d:0x2a3f2a7718034c34!8m2!3d33.6692957!4d72.9984898!16s%2Fg%2F12mkw88x2!19sChIJPX0MOv-V3zgRNEwDGHcqPyo?authuser=0&hl=en&rclk=1,"Optician, Islamabad"
89,faiqoptics_33.689233_73.031383,Faiq Optics,"Faiq Optics
5.0(8)
Optician · Asad plaza, near javaid baker basement Basement
Open ⋅ Closes 9:30 PM · +92 300 5087068",Optician,Open,33.6892327,73.0313834,https://www.google.com/maps/place/Faiq+Optics/data=!4m7!3m6!1s0x38dfbe3107d9b999:0xd19bba28506d0495!8m2!3d33.6892327!4d73.0313834!16s%2Fg%2F12mkwb4nr!19sChIJmbnZBzG-3zgRlQRtUCi6m9E?authuser=0&hl=en&rclk=1,"Optician, Islamabad"
90,optichouse_33.668148_72.997148,Optic House,"Optic House
5.0(6)
Optician · Al Anayat Mall
Open ⋅ Closes 11 PM · +92 307 2360132",Optician,Open,33.6681478,72.9971482,https://www.google.com/maps/place/Optic+House/data=!4m7!3m6!1s0x38df95f10a61f60b:0x8b55a607da58bda5!8m2!3d33.6681478!4d72.9971482!16s%2Fg%2F11t51ds3rp!19sChIJC_ZhCvGV3zgRpb1Y2gemVYs?authuser=0&hl=en&rclk=1,"Optician, Islamabad"
91,noir_33.668764_73.076645,NOIR,"NOIR
5.0(10)
Optician · Shop no-3a galleria palaza
Open ⋅ Closes 10 PM · +92 348 6664666",Optician,Open,33.6687641,73.0766446,https://www.google.com/maps/place/NOIR/data=!4m7!3m6!1s0x38df95547344afad:0xa9365d8c40f1a486!8m2!3d33.6687641!4d73.0766446!16s%2Fg%2F11s9dm5vmn!19sChIJra9Ec1SV3zgRhqTxQIxdNqk?authuser=0&hl=en&rclk=1,"Optician, Islamabad"
92,islamabadoptics_33.690185_73.031789,Islamabad optics,"Islamabad optics
5.0(3)
Optician · Mehran Plaza, near Abdullah Bin Masood
Open ⋅ Closes 10 PM",Optician,Open,33.6901853,73.031789,https://www.google.com/maps/place/Islamabad+optics/data=!4m7!3m6!1s0x38dfbf6445317c81:0xe015fa6fd81b2b7e!8m2!3d33.6901853!4d73.031789!16s%2Fg%2F11f87n3mrr!19sChIJgXwxRWS_3zgRfisb2G_6FeA?authuser=0&hl=en&rclk=1,"Optician, Islamabad"
93,optimaoptics_33.716837_73.084742,Optima Optics,"Optima Optics
4.8(9)
Optician · Melody Market, Civic Centre, Municipal Rd
Open ⋅ Closes 9:30 PM · +92 51 2876225",Optician,Open,33.7168372,73.0847418,https://www.google.com/maps/place/Optima+Optics/data=!4m7!3m6!1s0x38dfbf8633699d95:0x3acfea775730a08d!8m2!3d33.7168372!4d73.0847418!16s%2Fg%2F12mkw9xfw!19sChIJlZ1pM4a_3zgRjaAwV3fqzzo?authuser=0&hl=en&rclk=1,"Optician, Islamabad"
94,brandedoptical_33.693340_73.039776,Branded optical,"Branded optical
5.0(1)
Optician · M2VQ+8WJ
Open 24 hours · +92 310 7159669",Optician,Open 24 hours,33.6933397,73.0397755,https://www.google.com/maps/place/Branded+optical/data=!4m7!3m6!1s0x38dfbf7110a53d45:0x9e49031d81eab12b!8m2!3d33.6933397!4d73.0397755!16s%2Fg%2F11sw3k5fkc!19sChIJRT2lEHG_3zgRK7HqgR0DSZ4?authuser=0&hl=en&rclk=1,"Optician, Islamabad"
95,emiratesoptics_33.682875_72.988460,Emirates Optics,"Emirates Optics
3.9(13)
Optician · Lords Trade Centre, Plot 17, Hilal Rd S
Open ⋅ Closes 11 PM",Optician,Open,33.6828749,72.9884603,https://www.google.com/maps/place/Emirates+Optics/data=!4m7!3m6!1s0x38dfbde376add5f3:0x1d04a3745a2e5209!8m2!3d33.6828749!4d72.9884603!16s%2Fg%2F11xhh_ks3!19sChIJ89WtduO93zgRCVIuWnSjBB0?authuser=0&hl=en&rclk=1,"Optician, Islamabad"
96,khurshidbhaichasmayw_33.689916_73.032439,Khurshid Bhai Chasmay Walay,"Khurshid Bhai Chasmay Walay
3.8(15)
Optician · Shalimar Plaza
Open ⋅ Closes 10 PM · +92 51 2853405",Optician,Open,33.689916,73.0324395,https://www.google.com/maps/place/Khurshid+Bhai+Chasmay+Walay/data=!4m7!3m6!1s0x38dfbe3108af5ac1:0xcfd9e1905c85fe83!8m2!3d33.689916!4d73.0324395!16s%2Fg%2F11h0j7kc6!19sChIJwVqvCDG-3zgRg_6FXJDh2c8?authuser=0&hl=en&rclk=1,"Optician, Islamabad"
97,nooroptics_33.707342_73.088523,Noor Optics,"Noor Optics
5.0(3)
Optician · Aabpara Market, 662 Khayaban-e-Suhrwardy Rd
Open ⋅ Closes 9 PM · +92 334 4230889",Optician,Open,33.7073423,73.0885233,https://www.google.com/maps/place/Noor+Optics/data=!4m7!3m6!1s0x38dfc075667c5c77:0xa238608a67f2d707!8m2!3d33.7073423!4d73.0885233!16s%2Fg%2F12mkzc60m!19sChIJd1x8ZnXA3zgRB9fyZ4pgOKI?authuser=0&hl=en&rclk=1,"Optician, Islamabad"
98,alrehmanoptics_33.646111_73.035523,Al-Rehman Optics,"Al-Rehman Optics
5.0(4)
Optician · Shop # 2A, Shaheen Plaza
Open ⋅ Closes 10 PM · +92 300 5518289",Optician,Open,33.6461108,73.0355228,https://www.google.com/maps/place/Al-Rehman+Optics/data=!4m7!3m6!1s0x38dfed304edb06f3:0x74f15f8b1871b675!8m2!3d33.6461108!4d73.0355228!16s%2Fg%2F11pv28x507!19sChIJ8wbbTjDt3zgRdbZxGItf8XQ?authuser=0&hl=en&rclk=1,"Optician, Islamabad"
99,winoptics_33.645726_72.963740,Win Optics,"Win Optics
5.0(3)
Optician · Zam Zam Arcade, Street 110
Open ⋅ Closes 11 PM · +92 51 8311951",Optician,Open,33.6457263,72.9637399,https://www.google.com/maps/place/Win+Optics/data=!4m7!3m6!1s0x38df9798e279528b:0x376af6d9187d91ce!8m2!3d33.6457263!4d72.9637399!16s%2Fg%2F11jqvjtscm!19sChIJi1J54piX3zgRzpF9GNn2ajc?authuser=0&hl=en&rclk=1,"Optician, Islamabad"
100,classicopticseyecare_33.562834_73.148299,Classic Optics & Eye Care,"Classic Optics & Eye Care
5.0(1)
Optician · H47X+243
Open 24 hours · +92 334 1675353",Optician,Open 24 hours,33.562834,73.148299,https://www.google.com/maps/place/Classic+Optics+%26+Eye+Care/data=!4m7!3m6!1s0x38dfed34103e31ff:0x628a0baa2807c72d!8m2!3d33.562834!4d73.148299!16s%2Fg%2F11j_0hpyfr!19sChIJ_zE-EDTt3zgRLccHKKoLimI?authuser=0&hl=en&rclk=1,"Optician, Islamabad"
101,syedsonsoptical_33.645349_73.175400,Syed sons optical,"Syed sons optical
5.0(6)
Optician · near begum jan hospital
Open ⋅ Closes 12 AM · +92 312 5200085",Optician,Open,33.6453489,73.1754005,https://www.google.com/maps/place/Syed+sons+optical/data=!4m7!3m6!1s0x38dfeb25938b0b65:0xea07c07ab70b1e16!8m2!3d33.6453489!4d73.1754005!16s%2Fg%2F11n0d6wh_7!19sChIJZQuLkyXr3zgRFh4Lt3rAB-o?authuser=0&hl=en&rclk=1,"Optician, Islamabad"
102,imageoptics_33.676037_73.014117,Image Optics,"Image Optics
5.0(2)
Optician · Shop 5B, Super Plaza
Open ⋅ Closes 10 PM · +92 300 9882700",Optician,Open,33.6760375,73.0141168,https://www.google.com/maps/place/Image+Optics/data=!4m7!3m6!1s0x38dfbe1fabc8c7c3:0x2569a3a1b7b0f081!8m2!3d33.6760375!4d73.0141168!16s%2Fg%2F11b6b38qh8!19sChIJw8fIqx--3zgRgfCwt6GjaSU?authuser=0&hl=en&rclk=1,"Optician, Islamabad"
103,fineoptico_33.644937_73.174937,Fine Optico,"Fine Optico
4.8(4)
Optician · J5VF+XXQ Alipur, opposite begam jan hospital
Open ⋅ Closes 8 PM · +92 333 9954135",Optician,Open,33.6449375,73.1749375,https://www.google.com/maps/place/Fine+Optico/data=!4m7!3m6!1s0x38dfebd110238803:0xe6cb47d70ff4621f!8m2!3d33.6449375!4d73.1749375!16s%2Fg%2F11cn31nn3g!19sChIJA4gjENHr3zgRH2L0D9dHy-Y?authuser=0&hl=en&rclk=1,"Optician, Islamabad"
104,nextleveloptics_33.694336_73.012991,Next Level Optics,"Next Level Optics
4.4(7)
Optician · Basement Shop # 03, Mustafa Mansion Sumbal Road, Markaz
Open ⋅ Closes 12 AM · +92 51 4718484",Optician,Open,33.6943355,73.0129906,https://www.google.com/maps/place/Next+Level+Optics/data=!4m7!3m6!1s0x38dfbfca99f34649:0x3ab2ccab53a6ea48!8m2!3d33.6943355!4d73.0129906!16s%2Fg%2F11vq9tcsyq!19sChIJSUbzmcq_3zgRSOqmU6vMsjo?authuser=0&hl=en&rclk=1,"Optician, Islamabad"
105,jinnahopticsandheari_33.709597_73.056535,"Jinnah Optics and Hearing Aids_ Eyeglasses, Children's Eyeglasses, Sunglasses, Contact Lenses, Hearing AId Store","Jinnah Optics and Hearing Aids_ Eyeglasses, Children's Eyeglasses, Sunglasses, Contact Lenses, Hearing AId Store
4.8(38)
Optician · Jameel Sweets، Shop # 1 Panorama Center Near, Jinnah Ave
Open ⋅ Closes 9:30 PM · +92 300 9377701",Optician,Open,33.7095966,73.056535,"https://www.google.com/maps/place/Jinnah+Optics+and+Hearing+Aids_+Eyeglasses,+Children%27s+Eyeglasses,+Sunglasses,+Contact+Lenses,+Hearing+AId+Store/data=!4m7!3m6!1s0x38dfbf43b63a5289:0x9d35c07d83585c4d!8m2!3d33.7095966!4d73.056535!16s%2Fg%2F11ffm0166n!19sChIJiVI6tkO_3zgRTVxYg33ANZ0?authuser=0&hl=en&rclk=1","Optician, Islamabad"
106,masoodoptics_33.570563_73.143687,Masood Optics,"Masood Optics
4.3(47)
Store ·  · H4CV+6FF
Open now · +92 51 5155934",Store,Open now,33.5705625,73.1436875,https://www.google.com/maps/place/Masood+Optics/data=!4m7!3m6!1s0x38dfed8649b3ceef:0x906ee5033165df4d!8m2!3d33.5705625!4d73.1436875!16s%2Fg%2F11j4s31ypg!19sChIJ786zSYbt3zgRTd9lMQPlbpA?authuser=0&hl=en&rclk=1,"Optician, Islamabad"
107,droptics_33.646406_73.036094,Dr Optics,"Dr Optics
5.0(2)
Optician · Shop No-11
Open ⋅ Closes 10:30 PM · +92 51 4444640",Optician,Open,33.6464055,73.0360935,https://www.google.com/maps/place/Dr+Optics/data=!4m7!3m6!1s0x38df95bdb0c8035d:0xa9620d99249fc07e!8m2!3d33.6464055!4d73.0360935!16s%2Fg%2F11tn09jqkx!19sChIJXQPIsL2V3zgRfsCfJJkNYqk?authuser=0&hl=en&rclk=1,"Optician, Islamabad"
108,visionstyleoptical_33.563756_73.133634,VISION STYLE OPTICAL,"VISION STYLE OPTICAL
4.9(7)
Optician · Shop LG-06 Nawaz Archade NPF O-9
Open ⋅ Closes 9:30 PM · +92 312 5154491",Optician,Open,33.5637556,73.1336336,https://www.google.com/maps/place/VISION+STYLE+OPTICAL/data=!4m7!3m6!1s0x38dfedcf46ff8543:0xda46c239d11f5135!8m2!3d33.5637556!4d73.1336336!16s%2Fg%2F11qr2pvpt4!19sChIJQ4X_Rs_t3zgRNVEf0TnCRto?authuser=0&hl=en&rclk=1,"Optician, Islamabad"
109,kashmiropticalcentre_33.642688_73.203937,Kashmir Optical Centre,"Kashmir Optical Centre
5.0(2)
Optician · J6V3+3H
Open ⋅ Closes 10 PM · +92 345 5558143",Optician,Open,33.6426875,73.2039375,https://www.google.com/maps/place/Kashmir+Optical+Centre/data=!4m7!3m6!1s0x38dfe928adeec26d:0xf99fb3ca11b83318!8m2!3d33.6426875!4d73.2039375!16s%2Fg%2F11spg2nmn0!19sChIJbcLurSjp3zgRGDO4Ecqzn_k?authuser=0&hl=en&rclk=1,"Optician, Islamabad"
110,tanweeroptical_33.703812_72.979506,TANWEER OPTICAL,"TANWEER OPTICAL
3.6(5)
Optician · E-11/3 markaz, Street 36, shop # 4, opposite tcs courier office
Open ⋅ Closes 10:30 PM · +92 332 3898562",Optician,Open,33.7038121,72.9795058,https://www.google.com/maps/place/TANWEER+OPTICAL/data=!4m7!3m6!1s0x38dfbd8e5166b30b:0x3f5a0384ac75a08c!8m2!3d33.7038121!4d72.9795058!16s%2Fg%2F11mp9cn093!19sChIJC7NmUY693zgRjKB1rIQDWj8?authuser=0&hl=en&rclk=1,"Optician, Islamabad"
111,tanweeropticalpwd_33.575452_73.151271,Tanweer Optical PWD,"Tanweer Optical PWD
4.5(10)
Optician ·  · Street Number 1, ground floor yahya pwd near habibi restaurant, Lahore-Islamabad Motorway
Open ⋅ Closes 9:30 PM · +92 51 5957140",Optician,Open,33.5754521,73.1512712,https://www.google.com/maps/place/Tanweer+Optical+PWD/data=!4m7!3m6!1s0x38dfec45ca1d895f:0xfb658cc03c642296!8m2!3d33.5754521!4d73.1512712!16s%2Fg%2F11dxq2d33h!19sChIJX4kdykXs3zgRliJkPMCMZfs?authuser=0&hl=en&rclk=1,"Optician, Islamabad"
112,visionoptik_33.707248_73.049381,Vision Optik,"Vision Optik
3.8(16)
Optician · The Centaurus Mall, Jinnah Avenue
Open ⋅ Closes 11 PM · +92 312 9789781",Optician,Open,33.707248,73.0493812,https://www.google.com/maps/place/Vision+Optik/data=!4m7!3m6!1s0x38dfbfb11d8aa60d:0xde603be4739affc3!8m2!3d33.707248!4d73.0493812!16s%2Fg%2F11c1rts6v2!19sChIJDaaKHbG_3zgRw_-ac-Q7YN4?authuser=0&hl=en&rclk=1,"Optician, Islamabad"
113,rizwanoptics_33.650221_72.971129,Rizwan Optics,"Rizwan Optics
5.0(2)
Optician · MX2C+3FJ, Street 149
Open ⋅ Closes 9:30 PM · +92 313 5138589",Optician,Open,33.6502213,72.9711287,https://www.google.com/maps/place/Rizwan+Optics/data=!4m7!3m6!1s0x38df9615dd83672d:0x62deeaf0cc05246d!8m2!3d33.6502213!4d72.9711287!16s%2Fg%2F11gbkvj5pl!19sChIJLWeD3RWW3zgRbSQFzPDq3mI?authuser=0&hl=en&rclk=1,"Optician, Islamabad"
114,eliteeyeoptics_33.702882_72.948750,ELITE EYE OPTICS,"ELITE EYE OPTICS
5.0(4)
Optician · Shop no LG-21, Usman centre, markaz
Open ⋅ Closes 10 PM · +92 51 2750246",Optician,Open,33.7028824,72.9487502,https://www.google.com/maps/place/ELITE+EYE+OPTICS/data=!4m7!3m6!1s0x38dfbd8e9ca3545d:0x4630c802b4a4fa1c!8m2!3d33.7028824!4d72.9487502!16s%2Fg%2F11wj5c5hfg!19sChIJXVSjnI693zgRHPqktALIMEY?authuser=0&hl=en&rclk=1,"Optician, Islamabad"
115,shabbiroptics_33.711509_73.041090,SHABBIR OPTICS,"SHABBIR OPTICS
5.0(5)
Optician · Shop: 2, Opp Meezan Bank, Crystal Arcade, 13-E
Open ⋅ Closes 9 PM · +92 300 5321771",Optician,Open,33.7115091,73.0410905,https://www.google.com/maps/place/SHABBIR+OPTICS/data=!4m7!3m6!1s0x38dfbfb6484f6e8d:0x4f8a39116b633d5f!8m2!3d33.7115091!4d73.0410905!16s%2Fg%2F11svm8n2ck!19sChIJjW5PSLa_3zgRXz1jaxE5ik8?authuser=0&hl=en&rclk=1,"Optician, Islamabad"
116,sadatopticalcentergo_33.643457_73.162501,Sadat optical center (G optix),"Sadat optical center (G optix)
5.0(3)
Optician · J5V7+92J, Lehtrar Rd
Open ⋅ Closes 9 PM · +92 313 5256684",Optician,Open,33.6434575,73.1625006,https://www.google.com/maps/place/Sadat+optical+center+%28G+optix%29/data=!4m7!3m6!1s0x38dfeb61b9adbc85:0xf687f0f1220f9f52!8m2!3d33.6434575!4d73.1625006!16s%2Fg%2F11p0gc4f9m!19sChIJhbytuWHr3zgRUp8PIvHwh_Y?authuser=0&hl=en&rclk=1,"Optician, Islamabad"
117,khurshidbhaichashmay_33.575065_73.151202,KHURSHID BHAI CHASHMAY WALAY PWD,"KHURSHID BHAI CHASHMAY WALAY PWD
3.8(11)
Optician · 3
Open ⋅ Closes 10 PM · +92 51 5421197",Optician,Open,33.5750645,73.1512024,https://www.google.com/maps/place/KHURSHID+BHAI+CHASHMAY+WALAY+PWD/data=!4m7!3m6!1s0x38dfed1063a716b7:0x1906ed868d24d9ea!8m2!3d33.5750645!4d73.1512024!16s%2Fg%2F11fgkrvl20!19sChIJtxanYxDt3zgR6tkkjYbtBhk?authuser=0&hl=en&rclk=1,"Optician, Islamabad"
118,azaopticsshop_33.683151_72.987995,AZA Optics Shop,"AZA Optics Shop
4.1(9)
Optician · Al-Karam Shopping Center
Open ⋅ Closes 10 PM · +92 331 2545999",Optician,Open,33.6831512,72.9879949,https://www.google.com/maps/place/AZA+Optics+Shop/data=!4m7!3m6!1s0x38dfbdc5d6185035:0x7cf77cf2ed4701bc!8m2!3d33.6831512!4d72.9879949!16s%2Fg%2F11rr4r835c!19sChIJNVAY1sW93zgRvAFH7fJ893w?authuser=0&hl=en&rclk=1,"Optician, Islamabad"
119,opticsamdha2islamaba_33.530928_73.157388,Optics AM DHA 2 Islamabad,"Optics AM DHA 2 Islamabad
3.0(2)
Optician · G5J4+9XC, Street 1
Open ⋅ Closes 11 PM · +92 300 9378938",Optician,Open,33.5309279,73.1573876,https://www.google.com/maps/place/Optics+AM+DHA+2+Islamabad/data=!4m7!3m6!1s0x38dfedeb68394679:0xdc9cbfb08522e395!8m2!3d33.5309279!4d73.1573876!16s%2Fg%2F11l29y257f!19sChIJeUY5aOvt3zgRleMihbC_nNw?authuser=0&hl=en&rclk=1,"Optician, Islamabad"
120,ainakoptical_33.573673_73.148591,Ainak Optical,"Ainak Optical
4.0(2)
Optician · shop no 2 plot no 22 block A main PWD road
Open ⋅ Closes 10 PM · +92 51 5421196",Optician,Open,33.5736732,73.1485913,https://www.google.com/maps/place/Ainak+Optical/data=!4m7!3m6!1s0x38dfec456ecb0ca1:0x2f4d7a118436bff0!8m2!3d33.5736732!4d73.1485913!16s%2Fg%2F11dxq57z2n!19sChIJoQzLbkXs3zgR8L82hBF6TS8?authuser=0&hl=en&rclk=1,"Optician, Islamabad"
121,hassanoptics_33.686608_72.830132,Hassan optics,"Hassan optics
5.0(1)
Optician · garden, Shop no 3 paragon hieghts, b17 Multi, near multi clup
Open ⋅ Closes 10 PM · +92 343 6994711",Optician,Open,33.6866079,72.8301318,https://www.google.com/maps/place/Hassan+optics/data=!4m7!3m6!1s0x38dfa3ac243f5597:0x37b76154a4003e73!8m2!3d33.6866079!4d72.8301318!16s%2Fg%2F11vwlpzl8v!19sChIJl1U_JKyj3zgRcz4ApFRhtzc?authuser=0&hl=en&rclk=1,"Optician, Islamabad"
122,maximeyesvision_33.571950_73.146275,Maximeyes Vision,"Maximeyes Vision
5.0(3)
Optician · 10 Central Rd
Open ⋅ Closes 9:30 PM · +92 51 4447177",Optician,Open,33.5719497,73.1462753,https://www.google.com/maps/place/Maximeyes+Vision/data=!4m7!3m6!1s0x38dfec500438cf9f:0x5554dc8f1ef5eaaa!8m2!3d33.5719497!4d73.1462753!16s%2Fg%2F1tpf5j2n!19sChIJn884BFDs3zgRqur1Ho_cVFU?authuser=0&hl=en&rclk=1,"Optician, Islamabad"
123,imranoptics_33.669154_72.997308,Imran Optics,"Imran Optics
5.0(2)
Optician · Shop 1i, shah Nawaz plaza
Open ⋅ Closes 10 PM · +92 312 7497111",Optician,Open,33.6691537,72.9973079,https://www.google.com/maps/place/Imran+Optics/data=!4m7!3m6!1s0x38df9543760dd8c5:0xae7c9dc911025d6c!8m2!3d33.6691537!4d72.9973079!16s%2Fg%2F11jsf3b489!19sChIJxdgNdkOV3zgRbF0CEcmdfK4?authuser=0&hl=en&rclk=1,"Optician, Islamabad"
124,faheemopticalshop_33.522178_73.093700,Faheem optical shop,"Faheem optical shop
4.0(4)
Optician · Bahria Expy
Open ⋅ Closes 10 PM · +92 313 7133002",Optician,Open,33.5221784,73.0937003,https://www.google.com/maps/place/Faheem+optical+shop/data=!4m7!3m6!1s0x38dfedcc006035ef:0x7cc1aa2c7032e2f!8m2!3d33.5221784!4d73.0937003!16s%2Fg%2F11rhqwm4gh!19sChIJ7zVgAMzt3zgRLy4Dx6IazAc?authuser=0&hl=en&rclk=1,"Optician, Islamabad"
125,realoptix_33.565812_73.130062,Real Optix,"Real Optix
4.1(21)
Optician · First Floor Al-Haseeb Plaza
+92 51 8356756",Optician,,33.5658125,73.1300625,https://www.google.com/maps/place/Real+Optix/data=!4m7!3m6!1s0x38dfecf943f0371f:0x1227a66245339a49!8m2!3d33.5658125!4d73.1300625!16s%2Fg%2F11f116c59j!19sChIJHzfwQ_ns3zgRSZozRWKmJxI?authuser=0&hl=en&rclk=1,"Optician, Islamabad"
126,weoptics_33.567195_73.138386,We Optics,"We Optics
4.8(4)
Optician · Al Kuwait Arcade, phase 2
Open ⋅ Closes 10 PM · +92 51 2374631",Optician,Open,33.5671948,73.1383856,https://www.google.com/maps/place/We+Optics/data=!4m7!3m6!1s0x38dfed498601985d:0xe26b23baf86435d2!8m2!3d33.5671948!4d73.1383856!16s%2Fg%2F11fn4w6kb2!19sChIJXZgBhknt3zgR0jVk-Loja-I?authuser=0&hl=en&rclk=1,"Optician, Islamabad"
127,eyecareoptics_33.689662_73.032371,Eye Care Optics,"Eye Care Optics
5.0(4)
Optician · Shalimar Plaza, G-9 Markaz, G-9
+92 51 2251680",Optician,,33.6896618,73.0323712,https://www.google.com/maps/place/Eye+Care+Optics/data=!4m7!3m6!1s0x38dfbe3107d2edbd:0xd9a21bdcbdd2c03c!8m2!3d33.6896618!4d73.0323712!16s%2Fg%2F12mkw8px_!19sChIJve3SBzG-3zgRPMDSvdwbotk?authuser=0&hl=en&rclk=1,"Optician, Islamabad"
128,ahmedoptical_33.638586_73.112260,Ahmed Optical,"Ahmed Optical
5.0(2)
Optician · J4Q6+CWJ, Dr Saleem Street, near Ahla Hadees Masjid Zia Masjid
Open ⋅ Closes 10:30 PM · +92 333 8489830",Optician,Open,33.6385862,73.1122598,https://www.google.com/maps/place/Ahmed+Optical/data=!4m7!3m6!1s0x38dfbfb29b696443:0xed641f066926c6f1!8m2!3d33.6385862!4d73.1122598!16s%2Fg%2F11v14h0xdf!19sChIJQ2Rpm7K_3zgR8cYmaQYfZO0?authuser=0&hl=en&rclk=1,"Optician, Islamabad"
129,bestoneoptics_33.488540_73.073035,Best One Optics,"Best One Optics
4.9(23)
Optician · At Rajas united height 9 Roots Commercial bahira town phase 8
Open 24 hours · +92 318 5900064",Optician,Open 24 hours,33.4885404,73.0730345,https://www.google.com/maps/place/Best+One+Optics/data=!4m7!3m6!1s0x38df8d5b828cc431:0x445f2a3405990510!8m2!3d33.4885404!4d73.0730345!16s%2Fg%2F11wh33yy4x!19sChIJMcSMgluN3zgREAWZBTQqX0Q?authuser=0&hl=en&rclk=1,"Optician, Islamabad"
130,kbcwkhurshidbhaichas_33.739599_73.181791,KBCW khurshid bhai chashmay walay front of police station bhara kahu islamabad,"KBCW khurshid bhai chashmay walay front of police station bhara kahu islamabad
5.0(8)
Optician · P5QJ+RPM, Simly Dam Road
Open ⋅ Closes 10 PM · +92 51 2160766",Optician,Open,33.7395992,73.1817914,https://www.google.com/maps/place/KBCW+khurshid+bhai+chashmay+walay+front+of+police+station+bhara+kahu+islamabad/data=!4m7!3m6!1s0x38dfc1a617605e89:0xe5472870b47ec7df!8m2!3d33.7395992!4d73.1817914!16s%2Fg%2F11p65rsj6s!19sChIJiV5gF6bB3zgR38d-tHAoR-U?authuser=0&hl=en&rclk=1,"Optician, Islamabad"
131,kashanoptics_33.689693_73.032360,Kashan Optics,"Kashan Optics
5.0(4)
Optician · Karachi company, shop 3, shalimar plaza
Open ⋅ Closes 10 PM · +92 336 5139673",Optician,Open,33.6896928,73.0323603,https://www.google.com/maps/place/Kashan+Optics/data=!4m7!3m6!1s0x38dfbf153856a18b:0xa7889d8c36b0c3fc!8m2!3d33.6896928!4d73.0323603!16s%2Fg%2F11fjsdqj49!19sChIJi6FWOBW_3zgR_MOwNoydiKc?authuser=0&hl=en&rclk=1,"Optician, Islamabad"
132,opticscastle_33.661613_73.066685,Optics Castle,"Optics Castle
3.5(6)
Optician · Mughal Market, Service Rd, I-8-1, I-8
Open ⋅ Closes 8 PM · +92 51 4438181",Optician,Open,33.6616128,73.0666852,https://www.google.com/maps/place/Optics+Castle/data=!4m7!3m6!1s0x38df9540537afa35:0xbca700558572900!8m2!3d33.6616128!4d73.0666852!16s%2Fg%2F12mkzk5dz!19sChIJNfp6U0CV3zgRAClXWAVwygs?authuser=0&hl=en&rclk=1,"Optician, Islamabad"
133,khalidoptico_33.648759_72.910596,Khalid Optico,"Khalid Optico
5.0(1)
Optician · JWX6+G65
Open ⋅ Closes 8 PM · +92 334 9101128",Optician,Open,33.6487588,72.9105959,https://www.google.com/maps/place/Khalid+Optico/data=!4m7!3m6!1s0x38df9731b13ab143:0xe0c09dab190aae69!8m2!3d33.6487588!4d72.9105959!16s%2Fg%2F11ks2sx26s!19sChIJQ7E6sTGX3zgRaa4KGaudwOA?authuser=0&hl=en&rclk=1,"Optician, Islamabad"
134,mrealoptics_33.524886_73.147028,M.Real Optics,"M.Real Optics
5.0(1)
Optician
Open ⋅ Closes 10 PM · +92 51 4918098",Optician,Open,33.5248855,73.1470276,https://www.google.com/maps/place/M.Real+Optics/data=!4m7!3m6!1s0x38dfedee7f4d05c9:0xa5c7ef889374a6e5!8m2!3d33.5248855!4d73.1470276!16s%2Fg%2F11snfd2zdh!19sChIJyQVNf-7t3zgR5aZ0k4jvx6U?authuser=0&hl=en&rclk=1,"Optician, Islamabad"
135,panoosoptics_33.558096_73.135491,Panoos optics,"Panoos optics
4.9(51)
Optician ·  · Shop no .15, Fortune Arcade
Open ⋅ Closes 11 PM · +92 345 5104650",Optician,Open,33.5580963,73.1354907,https://www.google.com/maps/place/Panoos+optics/data=!4m7!3m6!1s0x38dfed5d465fb9c7:0xffec31f5a3d9993c!8m2!3d33.5580963!4d73.1354907!16s%2Fg%2F11whgczw0r!19sChIJx7lfRl3t3zgRPJnZo_Ux7P8?authuser=0&hl=en&rclk=1,"Optician, Islamabad"
136,dwatsonopticsf10_33.696438_73.012938,D.WATSON OPTICS F-10,"D.WATSON OPTICS F-10
3.8(24)
Sunglasses store
Open ⋅ Closes 10 PM · +92 51 2222810",Sunglasses store,Open,33.696438,73.012938,https://www.google.com/maps/place/D.WATSON+OPTICS+F-10/data=!4m7!3m6!1s0x38dfbfba7da67425:0x4e5c7922ac762a63!8m2!3d33.696438!4d73.012938!16s%2Fg%2F11h8k3ybt1!19sChIJJXSmfbq_3zgRYyp2rCJ5XE4?authuser=0&hl=en&rclk=1,"Optician, Islamabad"
137,ameenoptics_33.680858_73.154700,AMEEN OPTICS,"AMEEN OPTICS
5.0(1)
Optician · NEW MAL, ALFAROOQ PLAZA HBL BASEMENT, Kuri Road
Open ⋅ Closes 9:30 PM · +92 317 5524423",Optician,Open,33.6808577,73.1546999,https://www.google.com/maps/place/AMEEN+OPTICS/data=!4m7!3m6!1s0x38dfeb76254846b5:0x3595d66be2c976d3!8m2!3d33.6808577!4d73.1546999!16s%2Fg%2F11ll7h5kk5!19sChIJtUZIJXbr3zgR03bJ4mvWlTU?authuser=0&hl=en&rclk=1,"Optician, Islamabad"
138,hamzaopticsg13_33.645297_72.964184,Hamza Optics G13,"Hamza Optics G13
4.4(8)
Optician · Hamza Optics, Decent Arcade, Street 108
Open ⋅ Closes 10 PM · +92 317 5232589",Optician,Open,33.6452968,72.964184,https://www.google.com/maps/place/Hamza+Optics+G13/data=!4m7!3m6!1s0x38df963f4e1233bd:0xff7b6b6a0590fa89!8m2!3d33.6452968!4d72.964184!16s%2Fg%2F1jkz50vgy!19sChIJvTMSTj-W3zgRifqQBWpre_8?authuser=0&hl=en&rclk=1,"Optician, Islamabad"
139,alrehmanoptics_33.668389_72.997295,Al-Rehman Optics,"Al-Rehman Optics
4.2(5)
Optician ·  · Shah Nawaz Plaza Shop 10, Basement
Open ⋅ Closes 11:30 PM",Optician,Open,33.6683892,72.9972948,https://www.google.com/maps/place/Al-Rehman+Optics/data=!4m7!3m6!1s0x38df95ff1c391517:0x965a36add058f6e8!8m2!3d33.6683892!4d72.9972948!16s%2Fg%2F12mkzjzm5!19sChIJFxU5HP-V3zgR6PZY0K02WpY?authuser=0&hl=en&rclk=1,"Optician, Islamabad"
140,khushioptics_33.664993_73.154515,Khushi Optics,"Khushi Optics
5.0(7)
Optician · Ahsan Shopping Center M583+2Q2 Chatta Road, Main bazar, near Shifa Dental Clinic
Open ⋅ Closes 11 PM · +92 333 5192807",Optician,Open,33.664993,73.1545145,https://www.google.com/maps/place/Khushi+Optics/data=!4m7!3m6!1s0x38dfeb5fa284dcbd:0x2ac61abb77081f53!8m2!3d33.664993!4d73.1545145!16s%2Fg%2F11ppm7hd_b!19sChIJvdyEol_r3zgRUx8Id7saxio?authuser=0&hl=en&rclk=1,"Optician, Islamabad"
141,questvision_33.689177_73.211546,Quest Vision,"Quest Vision
5.0(1)
Optician · M6Q6+MH
Open ⋅ Closes 11 PM · +92 343 5479842",Optician,Open,33.6891775,73.2115457,https://www.google.com/maps/place/Quest+Vision/data=!4m7!3m6!1s0x38dfe9000576a923:0x69de8e0b8e08243c!8m2!3d33.6891775!4d73.2115457!16s%2Fg%2F11w7dm54l5!19sChIJI6l2BQDp3zgRPCQIjguO3mk?authuser=0&hl=en&rclk=1,"Optician, Islamabad"
142,abdullahoptics_33.643329_73.108603,Abdullah Optics,"Abdullah Optics
5.0(4)
Optician · J4V5+8CQ, Razaq Valley Rd
Open ⋅ Closes 10 PM · +92 333 5394419",Optician,Open,33.6433292,73.1086033,https://www.google.com/maps/place/Abdullah+Optics/data=!4m7!3m6!1s0x38dfeb68d37b5a41:0xd43e9eceb58fe20c!8m2!3d33.6433292!4d73.1086033!16s%2Fg%2F11fm_c1q7q!19sChIJQVp702jr3zgRDOKPtc6ePtQ?authuser=0&hl=en&rclk=1,"Optician, Islamabad"
