Index,Place Id,Name,Address,Category,Status,Latitude,Longitude,Link,SearchKeyword
1,na_noloc,,,,,,,,"Pharmacy, Islamabad"
5,dwatsonchemistf6mark_33.729701_73.075424,D.WATSON CHEMIST F-6 MARKAZ,,Pharmacy,Open,33.7297008,73.0754236,https://www.google.com/maps/place/D.WATSON+CHEMIST+F-6+MARKAZ/data=!4m7!3m6!1s0x38dfbf775cc17be5:0xbe2ed3739e338621!8m2!3d33.7297008!4d73.0754236!16s%2Fg%2F1wcxbgb2!19sChIJ5XvBXHe_3zgRIYYznnPTLr4?authuser=0&hl=en&rclk=1,"Pharmacy, Islamabad"
37,mehmoodpharmacy_33.711679_73.041427,Mehmood Pharmacy,"Mehmood Pharmacy
3.6(15)
Pharmacy · P26R+MHF, Kohistan Rd
Open ⋅ Closes 12 AM",Pharmacy,Open,33.7116786,73.0414266,https://www.google.com/maps/place/Mehmood+Pharmacy/data=!4m7!3m6!1s0x38dfbfad3ad080a5:0xdb8d5d3030e3960!8m2!3d33.7116786!4d73.0414266!16s%2Fg%2F11cm6j5wpv!19sChIJpYDQOq2_3zgRYDkOA9PVuA0?authuser=0&hl=en&rclk=1,"Pharmacy, Islamabad"
38,alrehmatpharmacy_33.571534_73.176391,Al Rehmat Pharmacy,"Al Rehmat Pharmacy
4.8(87)
Pharmacy · Liaquat Ave
Open ⋅ Closes 1 AM · +92 51 5964143",Pharmacy,Open,33.5715335,73.1763907,https://www.google.com/maps/place/Al+Rehmat+Pharmacy/data=!4m7!3m6!1s0x38dfed82750dcb3d:0x45406b3ce243d7f9!8m2!3d33.5715335!4d73.1763907!16s%2Fg%2F11sgqz0_d8!19sChIJPcsNdYLt3zgR-ddD4jxrQEU?authuser=0&hl=en&rclk=1,"Pharmacy, Islamabad"
39,luckypharmacy_33.675827_73.013755,Lucky Pharmacy,"Lucky Pharmacy
4.3(32)
Pharmacy · M2G7+8GJ, Bela Rd
Open ⋅ Closes 12 AM · +92 51 6133233",Pharmacy,Open,33.6758272,73.013755,https://www.google.com/maps/place/Lucky+Pharmacy/data=!4m7!3m6!1s0x38dfbe1e55cc2629:0xbe48580bba230d4b!8m2!3d33.6758272!4d73.013755!16s%2Fg%2F1tjff6h0!19sChIJKSbMVR6-3zgRSw0jugtYSL4?authuser=0&hl=en&rclk=1,"Pharmacy, Islamabad"
40,shaheenchemistcosmet_33.708933_73.055365,Shaheen Chemist & Cosmetics,"Shaheen Chemist & Cosmetics
4.1(113)
Pharmacy ·  · Din Pavallions Plaza, Jinnah Ave
Open ⋅ Closes 12 AM · +92 333 7805798",Pharmacy,Open,33.7089326,73.0553648,https://www.google.com/maps/place/Shaheen+Chemist+%26+Cosmetics/data=!4m7!3m6!1s0x38dfbfbbab763b39:0xa0a5678fb3810fb0!8m2!3d33.7089326!4d73.0553648!16s%2Fg%2F1td4snhq!19sChIJOTt2q7u_3zgRsA-Bs49npaA?authuser=0&hl=en&rclk=1,"Pharmacy, Islamabad"
41,dwatsonchemistf10mar_33.696252_73.012942,D. Watson Chemist F-10 Markaz,"D. Watson Chemist F-10 Markaz
4.1(415)
Pharmacy ·  · Street 7D
Open ⋅ Closes 12 AM · +92 51 2215784",Pharmacy,Open,33.6962516,73.0129417,https://www.google.com/maps/place/D.+Watson+Chemist+F-10+Markaz/data=!4m7!3m6!1s0x38dfbe6b158ee389:0x252aaeebe811707c!8m2!3d33.6962516!4d73.0129417!16s%2Fg%2F11dymm56c8!19sChIJieOOFWu-3zgRfHAR6OuuKiU?authuser=0&hl=en&rclk=1,"Pharmacy, Islamabad"
42,dwatsonpharmacy_33.615468_73.138649,D.WATSON PHARMACY,"D.WATSON PHARMACY
3.9(151)
Pharmacy · Ghauri Town Phase 5-A, Plot 26,27 Zohaib Arcade
Open ⋅ Closes 1 AM · +92 51 2157564",Pharmacy,Open,33.6154682,73.1386485,https://www.google.com/maps/place/D.WATSON+PHARMACY/data=!4m7!3m6!1s0x38dfebb62483883d:0xb1a65ad42f50feac!8m2!3d33.6154682!4d73.1386485!16s%2Fg%2F11fp3vyj1x!19sChIJPYiDJLbr3zgRrP5QL9RaprE?authuser=0&hl=en&rclk=1,"Pharmacy, Islamabad"
43,nuskhapharmacy_33.570889_73.176375,Nuskha Pharmacy,"Nuskha Pharmacy
4.9(32)
Pharmacy · Shop#3, Al Murtaza Arcade
Open ⋅ Closes 11 PM",Pharmacy,Open,33.5708893,73.1763747,https://www.google.com/maps/place/Nuskha+Pharmacy/data=!4m7!3m6!1s0x38dfed81ba6b577f:0xe247ccda061689ae!8m2!3d33.5708893!4d73.1763747!16s%2Fg%2F11hm5y3_mv!19sChIJf1druoHt3zgRrokWBtrMR-I?authuser=0&hl=en&rclk=1,"Pharmacy, Islamabad"
44,medxpharmacy_33.706145_73.086526,Med-X Pharmacy,"Med-X Pharmacy
4.3(23)
Pharmacy ·  · Shop No. 04,05,06,07, Plot, 15 Khayaban-e-Suhrwardy
Open ⋅ Closes 12 AM · +92 323 9195951",Pharmacy,Open,33.7061451,73.0865264,https://www.google.com/maps/place/Med-X+Pharmacy/data=!4m7!3m6!1s0x38dfbfea444f8481:0x5e17929a83db3b3f!8m2!3d33.7061451!4d73.0865264!16s%2Fg%2F11mv_2ms0n!19sChIJgYRPROq_3zgRPzvbg5qSF14?authuser=0&hl=en&rclk=1,"Pharmacy, Islamabad"
45,shaheenchemist_33.699194_73.048815,Shaheen Chemist,"Shaheen Chemist
4.1(89)
Pharmacy · Allah Dad Plaza, Markaz Rd
Open ⋅ Closes 1 AM · +92 51 2252215",Pharmacy,Open,33.6991939,73.0488153,https://www.google.com/maps/place/Shaheen+Chemist/data=!4m7!3m6!1s0x38dfbfc9d1ce94e1:0x549deca7538bcd9e!8m2!3d33.6991939!4d73.0488153!16s%2Fg%2F1tp06gtr!19sChIJ4ZTO0cm_3zgRns2LU6fsnVQ?authuser=0&hl=en&rclk=1,"Pharmacy, Islamabad"
46,medxpharmacy_33.669184_73.073893,Med-X Pharmacy,"Med-X Pharmacy
4.6(45)
Pharmacy
Open ⋅ Closes 12 AM · +92 51 4864549",Pharmacy,Open,33.6691844,73.0738928,https://www.google.com/maps/place/Med-X+Pharmacy/data=!4m7!3m6!1s0x38df954516816441:0x560ae8b79c72d0c8!8m2!3d33.6691844!4d73.0738928!16s%2Fg%2F11g6r24b36!19sChIJQWSBFkWV3zgRyNBynLfoClY?authuser=0&hl=en&rclk=1,"Pharmacy, Islamabad"
47,dwatsonchemist_33.645820_72.964309,D-Watson Chemist,"D-Watson Chemist
3.8(157)
Pharmacy · 
Open ⋅ Closes 12 AM · +92 51 2306848",Pharmacy,Open,33.6458197,72.9643094,https://www.google.com/maps/place/D-Watson+Chemist/data=!4m7!3m6!1s0x38df976883796ebd:0x8349d9eb40d9411!8m2!3d33.6458197!4d72.9643094!16s%2Fg%2F11j0brb027!19sChIJvW55g2iX3zgREZQNtJ6dNAg?authuser=0&hl=en&rclk=1,"Pharmacy, Islamabad"
48,najeebpharmacye113_33.703118_72.978995,Najeeb Pharmacy E-11/3,"Najeeb Pharmacy E-11/3
4.3(104)
Pharmacy · Paris Arcade street no 36 shop no 1, 23 Street 51
Open 24 hours · +92 51 2318039",Pharmacy,Open 24 hours,33.7031183,72.9789955,https://www.google.com/maps/place/Najeeb+Pharmacy+E-11%2F3/data=!4m7!3m6!1s0x38dfbdcfaea47527:0x559427a732cf0afd!8m2!3d33.7031183!4d72.9789955!16s%2Fg%2F12mkz7rp1!19sChIJJ3Wkrs-93zgR_QrPMqcnlFU?authuser=0&hl=en&rclk=1,"Pharmacy, Islamabad"
49,maroofpharmacy_33.697695_73.011966,Maroof Pharmacy,"Maroof Pharmacy
4.0(22)
Pharmacy ·  · M2X6+3QG
Open 24 hours · +92 330 5562211",Pharmacy,Open 24 hours,33.6976948,73.0119663,https://www.google.com/maps/place/Maroof+Pharmacy/data=!4m7!3m6!1s0x38dfbe6b9c5a62cb:0x89b72b1ef19008c4!8m2!3d33.6976948!4d73.0119663!16s%2Fg%2F11rvtj9qb!19sChIJy2JanGu-3zgRxAiQ8R4rt4k?authuser=0&hl=en&rclk=1,"Pharmacy, Islamabad"
50,pakistanpharmacy_33.698845_73.048117,Pakistan Pharmacy,"Pakistan Pharmacy
4.0(50)
Pharmacy · M2XX+G6Q, Markaz Rd
Open 24 hours · +92 51 2340024",Pharmacy,Open 24 hours,33.6988446,73.0481168,https://www.google.com/maps/place/Pakistan+Pharmacy/data=!4m7!3m6!1s0x38dfbfc82d233bbf:0x39d93d1f9a4a5dd7!8m2!3d33.6988446!4d73.0481168!16s%2Fg%2F11clt0x6rw!19sChIJvzsjLci_3zgR111Kmh892Tk?authuser=0&hl=en&rclk=1,"Pharmacy, Islamabad"
51,islamabadpharmacy_33.646828_73.218769,ISLAMABAD PHARMACY,"ISLAMABAD PHARMACY
4.4(7)
Pharmacy · Near Nawab Bakers, Thanda Pani, Lehtrar Rd
Open ⋅ Closes 12 AM · +92 316 5777666",Pharmacy,Open,33.6468277,73.2187693,https://www.google.com/maps/place/ISLAMABAD+PHARMACY/data=!4m7!3m6!1s0x38dfe9ef77931225:0x32446fc747d8019d!8m2!3d33.6468277!4d73.2187693!16s%2Fg%2F11mvq0x077!19sChIJJRKTd-_p3zgRnQHYR8dvRDI?authuser=0&hl=en&rclk=1,"Pharmacy, Islamabad"
52,omerpharmacy_33.696991_73.051271,Omer Pharmacy,"Omer Pharmacy
5.0(2)
Pharmacy · 12-A Lower ground Floor, CBC Plaza, near PSO Pump, G-8 Markaz G 8 Markaz G-8, Islamabad, Islamabad Capital Territory 44080 G-8 Markaz Islamabad - G
Open 24 hours · +92 332 8881743",Pharmacy,Open 24 hours,33.6969906,73.0512707,https://www.google.com/maps/place/Omer+Pharmacy/data=!4m7!3m6!1s0x38dfbf86872ee58b:0x56242e112f8aa940!8m2!3d33.6969906!4d73.0512707!16s%2Fg%2F11ww6bj1yv!19sChIJi-Uuh4a_3zgRQKmKLxEuJFY?authuser=0&hl=en&rclk=1,"Pharmacy, Islamabad"
53,dlightpharmacy_33.708688_73.055937,D-Light Pharmacy,"D-Light Pharmacy
4.1(35)
Pharmacy · Khyber Plaza, AKM Fazl-ul-Haq Rd
Open 24 hours · +92 51 2347363",Pharmacy,Open 24 hours,33.7086875,73.0559375,https://www.google.com/maps/place/D-Light+Pharmacy/data=!4m7!3m6!1s0x38dfbfbba8ca80e1:0x73268a4d58e72ecc!8m2!3d33.7086875!4d73.0559375!16s%2Fg%2F11xhx58g4!19sChIJ4YDKqLu_3zgRzC7nWE2KJnM?authuser=0&hl=en&rclk=1,"Pharmacy, Islamabad"
54,lemonpharmacycosmeti_33.684266_73.041694,Lemon Pharmacy Cosmetics,"Lemon Pharmacy Cosmetics
4.3(12)
Pharmacy ·  · I & T Center, STREET 55, BLOCK 44, SHOP 3
Open ⋅ Closes 12 AM · +92 51 2808026",Pharmacy,Open,33.6842663,73.0416941,https://www.google.com/maps/place/Lemon+Pharmacy+Cosmetics/data=!4m7!3m6!1s0x38dfbf0fa3c39f63:0xdad7cd0fe33cef88!8m2!3d33.6842663!4d73.0416941!16s%2Fg%2F11q1lwfy52!19sChIJY5_Dow-_3zgRiO884w_N19o?authuser=0&hl=en&rclk=1,"Pharmacy, Islamabad"
55,accesspharmacy_33.667992_73.075569,Access Pharmacy,"Access Pharmacy
3.6(22)
Pharmacy · EOBI PLAZA
Open ⋅ Closes 3 AM · +92 333 5341516",Pharmacy,Open,33.6679917,73.0755688,https://www.google.com/maps/place/Access+Pharmacy/data=!4m7!3m6!1s0x38df95edf4a17003:0xcb59fc5738b60425!8m2!3d33.6679917!4d73.0755688!16s%2Fg%2F11hffw29c6!19sChIJA3Ch9O2V3zgRJQS2OFf8Wcs?authuser=0&hl=en&rclk=1,"Pharmacy, Islamabad"
56,alhamdpharmacy_33.571046_73.178013,Al-Hamd Pharmacy,"Al-Hamd Pharmacy
5.0(5)
Pharmacy · Shop No.1, Ground Floor, Jinnah Emporium
Open ⋅ Closes 10 PM · +92 307 5751313",Pharmacy,Open,33.5710463,73.1780132,https://www.google.com/maps/place/Al-Hamd+Pharmacy/data=!4m7!3m6!1s0x38dfedceab5791f3:0xb2212d6fabf0ef2!8m2!3d33.5710463!4d73.1780132!16s%2Fg%2F11qnlpqzgl!19sChIJ85FXq87t3zgR8g6_-tYSIgs?authuser=0&hl=en&rclk=1,"Pharmacy, Islamabad"
57,d1pharmacy_33.674978_73.066796,D-1 Pharmacy,"D-1 Pharmacy
2.5(2)
Pharmacy · M3G8+2P3
Open ⋅ Closes 11 PM",Pharmacy,Open,33.6749781,73.0667957,https://www.google.com/maps/place/D-1+Pharmacy/data=!4m7!3m6!1s0x38df951c026849cf:0xeb560c8971b2ff6f!8m2!3d33.6749781!4d73.0667957!16s%2Fg%2F11l24hnvt4!19sChIJz0loAhyV3zgRb_-ycYkMVus?authuser=0&hl=en&rclk=1,"Pharmacy, Islamabad"
58,medicalstore_33.693013_73.059032,Medical Store,"Medical Store
3.8(16)
Pharmacy · Khumrial Centre, St 22, G-8-4, G-8
+92 317 3824809",Pharmacy,,33.6930126,73.0590319,https://www.google.com/maps/place/Medical+Store/data=!4m7!3m6!1s0x38dfbfc377699507:0x342e468cb3703140!8m2!3d33.6930126!4d73.0590319!16s%2Fg%2F12mkzc9mg!19sChIJB5Vpd8O_3zgRQDFws4xGLjQ?authuser=0&hl=en&rclk=1,"Pharmacy, Islamabad"
59,pharmacy_33.655543_72.963478,Pharmacy,"Pharmacy
3.1(8)
Pharmacy ·  · MX47+699
Open ⋅ Closes 10 PM · +92 333 5150997",Pharmacy,Open,33.6555425,72.963478,https://www.google.com/maps/place/Pharmacy/data=!4m7!3m6!1s0x38df9624ab994bad:0x2f6ec97f30b196a8!8m2!3d33.6555425!4d72.963478!16s%2Fg%2F11fzf0sk9n!19sChIJrUuZqySW3zgRqJaxMH_Jbi8?authuser=0&hl=en&rclk=1,"Pharmacy, Islamabad"
60,zbpharmacy_33.570312_73.143651,ZB PHARMACY,"ZB PHARMACY
2.9(15)
Pharmacy · Main Double Rd
Open 24 hours · +92 312 5423333",Pharmacy,Open 24 hours,33.5703124,73.1436507,https://www.google.com/maps/place/ZB+PHARMACY/data=!4m7!3m6!1s0x38dfedd3f03cef4b:0xb42dfeb02506e0ff!8m2!3d33.5703124!4d73.1436507!16s%2Fg%2F11r97t0vjs!19sChIJS-888NPt3zgR_-AGJbD-LbQ?authuser=0&hl=en&rclk=1,"Pharmacy, Islamabad"
61,danishpharmacy_33.655695_73.054248,Danish Pharmacy,"Danish Pharmacy
4.0(4)
Pharmacy · Spinzer Plaza, Warsak Rd
Open ⋅ Closes 11:59 PM · +92 51 4430777",Pharmacy,Open,33.6556952,73.0542478,https://www.google.com/maps/place/Danish+Pharmacy/data=!4m7!3m6!1s0x38df95cef6ab372d:0xf4f7a8fe47c7fa37!8m2!3d33.6556952!4d73.0542478!16s%2Fg%2F11h7prymq7!19sChIJLTer9s6V3zgRN_rHR_6o9_Q?authuser=0&hl=en&rclk=1,"Pharmacy, Islamabad"
62,almeherpharmacy_33.662863_72.990246,Al Meher Pharmacy,"Al Meher Pharmacy
5.0(1)
Pharmacy · Shop No 2, Malik Market, Service Road South, near Awami Hotel
Open ⋅ Closes 11 PM · +92 316 1543107",Pharmacy,Open,33.662863,72.9902455,https://www.google.com/maps/place/Al+Meher+Pharmacy/data=!4m7!3m6!1s0x38df9745a7d969d7:0xd0bcfb1957077315!8m2!3d33.662863!4d72.9902455!16s%2Fg%2F11tsxsmxbx!19sChIJ12nZp0WX3zgRFXMHVxn7vNA?authuser=0&hl=en&rclk=1,"Pharmacy, Islamabad"
63,alnoorpharmacy_33.651480_72.952984,Al Noor Pharmacy,"Al Noor Pharmacy
5.0(3)
Pharmacy · 21-24 Street 49
Open ⋅ Closes 10 PM · +92 314 5424682",Pharmacy,Open,33.6514799,72.9529836,https://www.google.com/maps/place/Al+Noor+Pharmacy/data=!4m7!3m6!1s0x38df97b4dde97589:0xcb5699a796663336!8m2!3d33.6514799!4d72.9529836!16s%2Fg%2F11sn2lsls8!19sChIJiXXp3bSX3zgRNjNmlqeZVss?authuser=0&hl=en&rclk=1,"Pharmacy, Islamabad"
64,abbasipharmacy_33.699022_73.049454,Abbasi Pharmacy,"Abbasi Pharmacy
4.3(3)
Pharmacy · Shop 6، Zeeshan Plaza, Markaz Rd، near PSO petrol pump
Open ⋅ Closes 10 PM · +92 300 5522986",Pharmacy,Open,33.6990218,73.0494536,https://www.google.com/maps/place/Abbasi+Pharmacy/data=!4m7!3m6!1s0x38dfbfc834926f6b:0x7fea64fe0f503fef!8m2!3d33.6990218!4d73.0494536!16s%2Fg%2F12mkwhmn6!19sChIJa2-SNMi_3zgR7z9QD_5k6n8?authuser=0&hl=en&rclk=1,"Pharmacy, Islamabad"
65,alhabibpharmacy_33.721199_73.079760,Al-Habib Pharmacy,"Al-Habib Pharmacy
4.2(13)
Pharmacy · P3CH+FWC، Mushtaq Mansion Service Road,, AKM Fazl-ul-Haq Rd
Open ⋅ Closes 11 PM · +92 51 2805341",Pharmacy,Open,33.7211994,73.0797597,https://www.google.com/maps/place/Al-Habib+Pharmacy/data=!4m7!3m6!1s0x38dfbf838fc0eded:0x9ceacb1682666c26!8m2!3d33.7211994!4d73.0797597!16s%2Fg%2F11b6z0661l!19sChIJ7e3Aj4O_3zgRJmxmghbL6pw?authuser=0&hl=en&rclk=1,"Pharmacy, Islamabad"
66,almuslimpharmacy_33.684918_73.042979,Al Muslim Pharmacy,"Al Muslim Pharmacy
4.8(19)
Pharmacy · M2MV+X59, Street 55
Open now · +92 51 2325019",Pharmacy,Open now,33.6849184,73.0429786,https://www.google.com/maps/place/Al+Muslim+Pharmacy/data=!4m7!3m6!1s0x38dfbffd253fd9ed:0x57983e1bc0374a8c!8m2!3d33.6849184!4d73.0429786!16s%2Fg%2F11f5vcd26b!19sChIJ7dk_Jf2_3zgRjEo3wBs-mFc?authuser=0&hl=en&rclk=1,"Pharmacy, Islamabad"
67,aveenpharmacy_33.701305_72.968795,Aveen Pharmacy,"Aveen Pharmacy
4.0(1)
Pharmacy · Shop No 12, Lower Ground, E-11/2, Magnum Arcade
Open ⋅ Closes 11 PM · +92 51 2762061",Pharmacy,Open,33.7013053,72.9687953,https://www.google.com/maps/place/Aveen+Pharmacy/data=!4m7!3m6!1s0x38dfbdabd6f2a681:0xcd049715aa815db2!8m2!3d33.7013053!4d72.9687953!16s%2Fg%2F11tbwf_9v2!19sChIJgaby1qu93zgRsl2BqhWXBM0?authuser=0&hl=en&rclk=1,"Pharmacy, Islamabad"
68,mpakistanpharmacy_33.575402_73.143579,M.Pakistan pharmacy,"M.Pakistan pharmacy
4.7(16)
Pharmacy · Shop # 4 ground floor, Hamza Plaza, Central Rd
Open ⋅ Closes 11:30 PM · +92 51 6126729",Pharmacy,Open,33.5754021,73.1435793,https://www.google.com/maps/place/M.Pakistan+pharmacy/data=!4m7!3m6!1s0x38dfec5ba6552e55:0x7eb78d1eccc335dc!8m2!3d33.5754021!4d73.1435793!16s%2Fg%2F11fxb88hfy!19sChIJVS5Vplvs3zgR3DXDzB6Nt34?authuser=0&hl=en&rclk=1,"Pharmacy, Islamabad"
69,enayapharmacy_33.703680_72.947089,Enaya Pharmacy,"Enaya Pharmacy
4.8(21)
Pharmacy · Plot 1, Zarpa Arcade, Shop No B1
Open ⋅ Closes 12 AM · +92 51 2706270",Pharmacy,Open,33.7036801,72.9470894,https://www.google.com/maps/place/Enaya+Pharmacy/data=!4m7!3m6!1s0x38dfbdb2f41f3e79:0xd2f2b7f972ea1190!8m2!3d33.7036801!4d72.9470894!16s%2Fg%2F11v3pf4xlk!19sChIJeT4f9LK93zgRkBHqcvm38tI?authuser=0&hl=en&rclk=1,"Pharmacy, Islamabad"
70,javedmedicospharmacy_33.720146_73.054481,Javed medicos pharmacy,"Javed medicos pharmacy
3.5(17)
Pharmacy · P3C3+3Q5
+92 51 2650868",Pharmacy,,33.720146,73.0544806,https://www.google.com/maps/place/Javed+medicos+pharmacy/data=!4m7!3m6!1s0x38dfbfc36002fb2d:0xb70046134a85d17c!8m2!3d33.720146!4d73.0544806!16s%2Fg%2F11fm1x8k9s!19sChIJLfsCYMO_3zgRfNGFShNGALc?authuser=0&hl=en&rclk=1,"Pharmacy, Islamabad"
71,ghoripharmacy_33.699027_73.049352,Ghori Pharmacy,"Ghori Pharmacy
5.0(1)
Pharmacy · Shop # 11 Zeshan Plaza
Open 24 hours · +92 51 2855762",Pharmacy,Open 24 hours,33.6990274,73.0493519,https://www.google.com/maps/place/Ghori+Pharmacy/data=!4m7!3m6!1s0x38dfbf08a761a357:0x1c3866b0d18f5f5!8m2!3d33.6990274!4d73.0493519!16s%2Fg%2F11fnt96qv0!19sChIJV6Nhpwi_3zgR9fUYDWuGwwE?authuser=0&hl=en&rclk=1,"Pharmacy, Islamabad"
72,greenpharmacyenclave_33.688754_73.210635,Green Pharmacy Enclave,"Green Pharmacy Enclave
4.3(13)
Pharmacy · 41 Urban Blvd
Open 24 hours · +92 306 4447633",Pharmacy,Open 24 hours,33.6887542,73.2106353,https://www.google.com/maps/place/Green+Pharmacy+Enclave/data=!4m7!3m6!1s0x38dfe9be21e8f1db:0xdeabf8e3e436fadb!8m2!3d33.6887542!4d73.2106353!16s%2Fg%2F11qzcs19jd!19sChIJ2_HoIb7p3zgR2_o25OP4q94?authuser=0&hl=en&rclk=1,"Pharmacy, Islamabad"
73,carelinepharmacy_33.522177_73.093668,Care Line + Pharmacy,"Care Line + Pharmacy
3.9(9)
Pharmacy · Shop No 15-A, Ground Floor, Business Bay Avenue
Open ⋅ Closes 3 AM · +92 333 0514192",Pharmacy,Open,33.5221771,73.0936681,https://www.google.com/maps/place/Care+Line+%2B+Pharmacy/data=!4m7!3m6!1s0x38dfed1486b7ec1f:0xb24ab0e8a98c4772!8m2!3d33.5221771!4d73.0936681!16s%2Fg%2F11jlgcj9d0!19sChIJH-y3hhTt3zgRckeMqeiwSrI?authuser=0&hl=en&rclk=1,"Pharmacy, Islamabad"
74,primehealingpharmacy_33.565027_73.152290,prime Healing Pharmacy,"prime Healing Pharmacy
4.7(14)
Pharmacy · Shope no G 4, paris business centre",Pharmacy,,33.5650275,73.1522898,https://www.google.com/maps/place/prime+Healing+Pharmacy/data=!4m7!3m6!1s0x38dfed006d5997b3:0x6147bc220f46bec2!8m2!3d33.5650275!4d73.1522898!16s%2Fg%2F11wvfnpppf!19sChIJs5dZbQDt3zgRwr5GDyK8R2E?authuser=0&hl=en&rclk=1,"Pharmacy, Islamabad"
75,alipharmacy_33.675473_73.014313,Ali Pharmacy,"Ali Pharmacy
3.0(1)
Pharmacy · Shop 3, Paradise Plaza, 4 Bela Rd
Open ⋅ Closes 11 PM · +92 51 2353553",Pharmacy,Open,33.6754731,73.0143129,https://www.google.com/maps/place/Ali+Pharmacy/data=!4m7!3m6!1s0x38dfbfa3c0502187:0x3d8eeeddd8074a92!8m2!3d33.6754731!4d73.0143129!16s%2Fg%2F11v0_zngbk!19sChIJhyFQwKO_3zgRkkoH2N3ujj0?authuser=0&hl=en&rclk=1,"Pharmacy, Islamabad"
76,kashmirpharmacy_33.698987_73.048552,Kashmir Pharmacy,"Kashmir Pharmacy
3.4(13)
Pharmacy · Shop No. 2-B, Allah Dad Plaza
Open ⋅ Closes 12 AM",Pharmacy,Open,33.6989867,73.0485523,https://www.google.com/maps/place/Kashmir+Pharmacy/data=!4m7!3m6!1s0x38dfbf9c82035137:0xf2b6a4a86adcacdf!8m2!3d33.6989867!4d73.0485523!16s%2Fg%2F11nfw45qpq!19sChIJN1EDgpy_3zgR36zcaqiktvI?authuser=0&hl=en&rclk=1,"Pharmacy, Islamabad"
77,taryaaqpharmacyhomed_33.677819_73.016847,"Taryaaq Pharmacy ( Home Delivery Available, WhatsApp your Prescription)","Taryaaq Pharmacy ( Home Delivery Available, WhatsApp your Prescription)
4.5(38)
Pharmacy · Basement Floor, Alfarooq Plaza, 8-9 Sawan Rd
Open ⋅ Closes 12 AM · +92 300 8556606",Pharmacy,Open,33.6778194,73.0168466,"https://www.google.com/maps/place/Taryaaq+Pharmacy+%28+Home+Delivery+Available,+WhatsApp+your+Prescription%29/data=!4m7!3m6!1s0x38dfbf00204ad2e3:0x838e13c6015a374f!8m2!3d33.6778194!4d73.0168466!16s%2Fg%2F11vs_00671!19sChIJ49JKIAC_3zgRTzdaAcYTjoM?authuser=0&hl=en&rclk=1","Pharmacy, Islamabad"
78,shaheenchemisti8mark_33.667365_73.075329,Shaheen Chemist I-8 Markaz,"Shaheen Chemist I-8 Markaz
4.3(1,255)
Pharmacy ·  · Time Square Plaza
Open ⋅ Closes 1 AM · +92 51 4938118",Pharmacy,Open,33.6673652,73.0753292,https://www.google.com/maps/place/Shaheen+Chemist+I-8+Markaz/data=!4m7!3m6!1s0x38df95458e97813f:0xb5f0722222b74857!8m2!3d33.6673652!4d73.0753292!16s%2Fg%2F11bzrgc0_c!19sChIJP4GXjkWV3zgRV0i3IiJy8LU?authuser=0&hl=en&rclk=1,"Pharmacy, Islamabad"
79,leafcarepharmacy_33.688048_72.819609,Leaf Care Pharmacy,"Leaf Care Pharmacy
3.4(19)
Pharmacy · Ground Floor CPEC Arcade, B-1 Markaz, MR11
Open ⋅ Closes 12 AM · +92 332 9469093",Pharmacy,Open,33.6880477,72.8196093,https://www.google.com/maps/place/Leaf+Care+Pharmacy/data=!4m7!3m6!1s0x38dfa3c668748151:0xf8a30c3536061b02!8m2!3d33.6880477!4d72.8196093!16s%2Fg%2F11rd49fky6!19sChIJUYF0aMaj3zgRAhsGNjUMo_g?authuser=0&hl=en&rclk=1,"Pharmacy, Islamabad"
80,waltonpharmacyi10_33.648287_73.040510,Walton Pharmacy I-10,"Walton Pharmacy I-10
4.6(71)
Pharmacy · 
Open ⋅ Closes 12:30 AM · +92 300 6862448",Pharmacy,Open,33.6482869,73.0405098,https://www.google.com/maps/place/Walton+Pharmacy+I-10/data=!4m7!3m6!1s0x38df95a7621d61c5:0x5cdb1feeec3135ff!8m2!3d33.6482869!4d73.0405098!16s%2Fg%2F12mkzhz1l!19sChIJxWEdYqeV3zgR_zUx7O4f21w?authuser=0&hl=en&rclk=1,"Pharmacy, Islamabad"
81,dwatsoni10markaz_33.646627_73.036484,D Watson I-10 Markaz,"D Watson I-10 Markaz
4.2(236)
Pharmacy · Korang Road
Open ⋅ Closes 12 AM · +92 51 4867777",Pharmacy,Open,33.6466267,73.0364839,https://www.google.com/maps/place/D+Watson+I-10+Markaz/data=!4m7!3m6!1s0x38df95768b231e99:0x1058909df0ba869e!8m2!3d33.6466267!4d73.0364839!16s%2Fg%2F11hyhjjt07!19sChIJmR4ji3aV3zgRnoa68J2QWBA?authuser=0&hl=en&rclk=1,"Pharmacy, Islamabad"
82,riteaidpharmacy_33.645053_72.963569,Rite Aid Pharmacy,"Rite Aid Pharmacy
4.7(31)
Pharmacy ·  · JXW7+2CG, Street 162
Open ⋅ Closes 12:30 AM · +92 370 1323084",Pharmacy,Open,33.6450527,72.9635692,https://www.google.com/maps/place/Rite+Aid+Pharmacy/data=!4m7!3m6!1s0x38df9638ada8b95f:0x6741133fc7dce4e!8m2!3d33.6450527!4d72.9635692!16s%2Fg%2F11c1p6gcd4!19sChIJX7morTiW3zgRTs59_DMRdAY?authuser=0&hl=en&rclk=1,"Pharmacy, Islamabad"
83,pillzpharmacy_33.601410_73.157091,Pillz Pharmacy,"Pillz Pharmacy
4.8(35)
Pharmacy · Samama Gulberg
Open ⋅ Closes 3 AM · +92 315 7290000",Pharmacy,Open,33.6014102,73.157091,https://www.google.com/maps/place/Pillz+Pharmacy/data=!4m7!3m6!1s0x38dfed146492fc11:0xe475381c143568c0!8m2!3d33.6014102!4d73.157091!16s%2Fg%2F11qq4dcy3w!19sChIJEfySZBTt3zgRwGg1FBw4deQ?authuser=0&hl=en&rclk=1,"Pharmacy, Islamabad"
84,bspharmacyg15_33.633556_72.923162,B&S Pharmacy G-15,"B&S Pharmacy G-15
4.6(13)
Pharmacy ·  · Lower Ground, Khyber, St 4
Open ⋅ Closes 11:45 PM · +92 51 2304627",Pharmacy,Open,33.6335556,72.9231621,https://www.google.com/maps/place/B%26S+Pharmacy+G-15/data=!4m7!3m6!1s0x38df97bdfe3f7655:0xf28a30662b22ed44!8m2!3d33.6335556!4d72.9231621!16s%2Fg%2F11df3p69q5!19sChIJVXY__r2X3zgRRO0iK2YwivI?authuser=0&hl=en&rclk=1,"Pharmacy, Islamabad"
85,friendspharmacy_33.722708_73.082177,Friends Pharmacy,"Friends Pharmacy
4.2(5)
Pharmacy · Shop No. 1-A, Ground Floor, 21-E, Huma Plaza, AKM Fazl-ul-Haq Rd
Open ⋅ Closes 12 AM · +92 334 5162191",Pharmacy,Open,33.7227082,73.0821773,https://www.google.com/maps/place/Friends+Pharmacy/data=!4m7!3m6!1s0x38dfbff41f2bbd35:0xb5ac79fc46f8e529!8m2!3d33.7227082!4d73.0821773!16s%2Fg%2F11sk8cll0v!19sChIJNb0rH_S_3zgRKeX4Rvx5rLU?authuser=0&hl=en&rclk=1,"Pharmacy, Islamabad"
86,islamabadpharmacy_33.696769_73.050770,Islamabad Pharmacy,"Islamabad Pharmacy
5.0(4)
Pharmacy · Shop No.4 Ground floor, Time square plaza, plot No.12-G/1
Open ⋅ Closes 11 PM · +92 333 5571182",Pharmacy,Open,33.696769,73.0507704,https://www.google.com/maps/place/Islamabad+Pharmacy/data=!4m7!3m6!1s0x38dfbf0015a903c3:0x20be37a2cd70b562!8m2!3d33.696769!4d73.0507704!16s%2Fg%2F11y5wjcfsc!19sChIJwwOpFQC_3zgRYrVwzaI3viA?authuser=0&hl=en&rclk=1,"Pharmacy, Islamabad"
87,medicentpharmacy_33.547459_73.136976,Medicent pharmacy,"Medicent pharmacy
5.0(17)
Pharmacy ·  · marina, Medicent plaza 44 bahria, Corniche Road
Open ⋅ Closes 10 PM · +92 331 5154484",Pharmacy,Open,33.5474591,73.1369761,https://www.google.com/maps/place/Medicent+pharmacy/data=!4m7!3m6!1s0x38dfed6f77ce6265:0x4d4e17a660f931b7!8m2!3d33.5474591!4d73.1369761!16s%2Fg%2F11q2x2phlw!19sChIJZWLOd2_t3zgRtzH5YKYXTk0?authuser=0&hl=en&rclk=1,"Pharmacy, Islamabad"
88,dwatsonchemistbluear_33.708921_73.055395,D.WATSON CHEMIST BLUE AREA,"D.WATSON CHEMIST BLUE AREA
4.2(479)
Pharmacy ·  · KHYBER PLAZA, Street 30
Open ⋅ Closes 1 AM · +92 51 8444479",Pharmacy,Open,33.7089212,73.0553945,https://www.google.com/maps/place/D.WATSON+CHEMIST+BLUE+AREA/data=!4m7!3m6!1s0x38dfbfdef1cd8a4f:0xde203c5003893d3d!8m2!3d33.7089212!4d73.0553945!16s%2Fg%2F11sps_6svj!19sChIJT4rN8d6_3zgRPT2JA1A8IN4?authuser=0&hl=en&rclk=1,"Pharmacy, Islamabad"
89,najeebpharmacyf11_33.682952_72.988597,Najeeb Pharmacy F-11,"Najeeb Pharmacy F-11
3.9(74)
Pharmacy · Hilal Rd
Open 24 hours · +92 51 2107575",Pharmacy,Open 24 hours,33.6829517,72.9885966,https://www.google.com/maps/place/Najeeb+Pharmacy+F-11/data=!4m7!3m6!1s0x38dfbde37390bd13:0xd4af4a6d90ff22bf!8m2!3d33.6829517!4d72.9885966!16s%2Fg%2F11dxh_fcgd!19sChIJE72Qc-O93zgRvyL_kG1Kr9Q?authuser=0&hl=en&rclk=1,"Pharmacy, Islamabad"
90,almuslimpharmacy_33.699772_72.973948,AL MUSLIM PHARMACY,"AL MUSLIM PHARMACY
4.4(22)
Pharmacy · Landmark Plaza, Street 44
Open ⋅ Closes 1:30 AM · +92 51 2304848",Pharmacy,Open,33.6997718,72.973948,https://www.google.com/maps/place/AL+MUSLIM+PHARMACY/data=!4m7!3m6!1s0x38dfbd9638ea9fe1:0xdd06728b47c38c8c!8m2!3d33.6997718!4d72.973948!16s%2Fg%2F11nnrwzdng!19sChIJ4Z_qOJa93zgRjIzDR4tyBt0?authuser=0&hl=en&rclk=1,"Pharmacy, Islamabad"
91,sehatpharmacy_33.708742_73.055885,Sehat Pharmacy,"Sehat Pharmacy
4.5(2)
Pharmacy · Shop No 2, Khyber plaza 2, G-15 Markaz
Open 24 hours",Pharmacy,Open 24 hours,33.7087416,73.0558845,https://www.google.com/maps/place/Sehat+Pharmacy/data=!4m7!3m6!1s0x38dfbfe24755ca9d:0xe7d5e953f0389f92!8m2!3d33.7087416!4d73.0558845!16s%2Fg%2F11qp23_hc3!19sChIJncpVR-K_3zgRkp848FPp1ec?authuser=0&hl=en&rclk=1,"Pharmacy, Islamabad"
92,epharmacy_33.717899_73.073471,ePharmacy,"ePharmacy
4.5(26)
Pharmacy · Ground Floor, Office Tower, 44 East Fazal e Haq Rd
Open 24 hours · +92 51 8841020",Pharmacy,Open 24 hours,33.7178986,73.0734711,https://www.google.com/maps/place/ePharmacy/data=!4m7!3m6!1s0x38dfbf0077cd224b:0x2ed07f5352cff018!8m2!3d33.7178986!4d73.0734711!16s%2Fg%2F11qnvl2kcl!19sChIJSyLNdwC_3zgRGPDPUlN_0C4?authuser=0&hl=en&rclk=1,"Pharmacy, Islamabad"
93,citypharmacy_33.698125_73.050500,City Pharmacy,"City Pharmacy
3.3(9)
Pharmacy ·  · PSO Pump، General Apartments
Open 24 hours · +92 51 2340128",Pharmacy,Open 24 hours,33.6981246,73.0504998,https://www.google.com/maps/place/City+Pharmacy/data=!4m7!3m6!1s0x38dfbf54090cd4d9:0x5c3994acd4349665!8m2!3d33.6981246!4d73.0504998!16s%2Fg%2F11j7b_02gr!19sChIJ2dQMCVS_3zgRZZY01KyUOVw?authuser=0&hl=en&rclk=1,"Pharmacy, Islamabad"
94,tahirpharmacy_33.686755_72.836336,Tahir Pharmacy,"Tahir Pharmacy
4.5(48)
Pharmacy · B17, Lower Ground, Ak hieghts, near Safa cafe, Mini Markaz
Open ⋅ Closes 12 AM · +92 322 8881025",Pharmacy,Open,33.6867549,72.8363361,https://www.google.com/maps/place/Tahir+Pharmacy/data=!4m7!3m6!1s0x38dfa362c046f3c1:0x68f3ed506b3659c3!8m2!3d33.6867549!4d72.8363361!16s%2Fg%2F11j1nh4946!19sChIJwfNGwGKj3zgRw1k2a1Dt82g?authuser=0&hl=en&rclk=1,"Pharmacy, Islamabad"
95,najeebpharmacye112_33.699954_72.972996,Najeeb pharmacy E-11/2,"Najeeb pharmacy E-11/2
4.2(111)
Pharmacy · Street 45 Khalid Bin Waleed Rd
Open 24 hours · +92 51 2318030",Pharmacy,Open 24 hours,33.699954,72.972996,https://www.google.com/maps/place/Najeeb+pharmacy+E-11%2F2/data=!4m7!3m6!1s0x38dfbd87d298706f:0x9e350756e7bd651!8m2!3d33.699954!4d72.972996!16s%2Fg%2F11jbhqr9pn!19sChIJb3CY0oe93zgRUdZ7bnVQ4wk?authuser=0&hl=en&rclk=1,"Pharmacy, Islamabad"
96,iqbalpharmacy_33.650326_72.971394,Iqbal Pharmacy,"Iqbal Pharmacy
5.0(12)
Pharmacy · Street no 149 Sector
Open ⋅ Closes 10 PM · +92 51 2154555",Pharmacy,Open,33.6503265,72.9713936,https://www.google.com/maps/place/Iqbal+Pharmacy/data=!4m7!3m6!1s0x38df97faed5f8db3:0x13642958d3149faf!8m2!3d33.6503265!4d72.9713936!16s%2Fg%2F11nybj3ft9!19sChIJs41f7fqX3zgRr58U01gpZBM?authuser=0&hl=en&rclk=1,"Pharmacy, Islamabad"
97,maxmedicos_33.519897_73.087527,Max Medicos,"Max Medicos
4.1(25)
Pharmacy · North Commercial D, Bahria Expy
Open ⋅ Closes 12 AM · +92 300 8108329",Pharmacy,Open,33.5198966,73.0875268,https://www.google.com/maps/place/Max+Medicos/data=!4m7!3m6!1s0x38df935c0b4efdc1:0xcf9da349e10033f8!8m2!3d33.5198966!4d73.0875268!16s%2Fg%2F11qsslp18f!19sChIJwf1OC1yT3zgR-DMA4Umjnc8?authuser=0&hl=en&rclk=1,"Pharmacy, Islamabad"
98,barqpharmacy_33.653379_73.016353,BARQ PHARMACY,"BARQ PHARMACY
3.7(15)
Pharmacy · opposite PAEC General Hospital
Open ⋅ Closes 9 PM · +92 51 8912082",Pharmacy,Open,33.6533789,73.0163528,https://www.google.com/maps/place/BARQ+PHARMACY/data=!4m7!3m6!1s0x38df95d1b1880543:0x15a8311fae1353fe!8m2!3d33.6533789!4d73.0163528!16s%2Fg%2F11nwx7_yfv!19sChIJQwWIsdGV3zgR_lMTrh8xqBU?authuser=0&hl=en&rclk=1,"Pharmacy, Islamabad"
99,alrehaabpharmacy_33.729488_73.075132,Al Rehaab Pharmacy,"Al Rehaab Pharmacy
4.9(25)
Pharmacy · 1st floor,Plot # 11, Block B,F-6 markaz,super market
Open ⋅ Closes 11:30 PM · +92 51 2726922",Pharmacy,Open,33.7294881,73.075132,https://www.google.com/maps/place/Al+Rehaab+Pharmacy/data=!4m7!3m6!1s0x38dfbff6b9b935ff:0xee401f05d0875fd2!8m2!3d33.7294881!4d73.075132!16s%2Fg%2F11ss87l32f!19sChIJ_zW5ufa_3zgR0l-H0AUfQO4?authuser=0&hl=en&rclk=1,"Pharmacy, Islamabad"
100,downtownpharmacyf10m_33.697556_73.011087,Downtown Pharmacy-F10 Markaz,"Downtown Pharmacy-F10 Markaz
4.7(15)
Pharmacy · Maroof International Hospital, Ground floor Insaf Plaza, Markaz, in front of Emergency gate
Open ⋅ Closes 11:30 PM · +92 51 4718632",Pharmacy,Open,33.6975565,73.0110871,https://www.google.com/maps/place/Downtown+Pharmacy-F10+Markaz/data=!4m7!3m6!1s0x38dfbf6e4b34e36f:0x2d77e7cffd434794!8m2!3d33.6975565!4d73.0110871!16s%2Fg%2F11kpld1lv0!19sChIJb-M0S26_3zgRlEdD_c_ndy0?authuser=0&hl=en&rclk=1,"Pharmacy, Islamabad"
101,hameedpharmacy_33.711203_73.037854,Hameed Pharmacy,"Hameed Pharmacy
3.7(19)
Pharmacy · Shehnaz Plaza, Plot, 14-Y Johar Rd
Open ⋅ Closes 11 PM · +92 51 8485644",Pharmacy,Open,33.7112032,73.0378542,https://www.google.com/maps/place/Hameed+Pharmacy/data=!4m7!3m6!1s0x38dfbe52f0b9d443:0xc0f1f99b408a0586!8m2!3d33.7112032!4d73.0378542!16s%2Fg%2F11zbqqcbp!19sChIJQ9S58FK-3zgRhgWKQJv58cA?authuser=0&hl=en&rclk=1,"Pharmacy, Islamabad"
102,khalidpharmacy_33.684812_73.042937,KHALID PHARMACY,"KHALID PHARMACY
4.1(11)
Pharmacy
Open ⋅ Closes 2 AM · +92 51 2261212",Pharmacy,Open,33.6848125,73.0429375,https://www.google.com/maps/place/KHALID+PHARMACY/data=!4m7!3m6!1s0x38dfbfff3b14a8a5:0x5c7ad6a0c6a63c98!8m2!3d33.6848125!4d73.0429375!16s%2Fg%2F11fcmc3512!19sChIJpagUO_-_3zgRmDymxqDWelw?authuser=0&hl=en&rclk=1,"Pharmacy, Islamabad"
103,waheedchemistoptics_33.699121_73.048635,Waheed Chemist & Optics,"Waheed Chemist & Optics
4.3(113)
Pharmacy ·  · M2XX+JFR, Markaz Rd
Open ⋅ Closes 12 AM · +92 51 2260703",Pharmacy,Open,33.6991215,73.0486346,https://www.google.com/maps/place/Waheed+Chemist+%26+Optics/data=!4m7!3m6!1s0x38dfbfc9c4e9d999:0x4bc932adb5543879!8m2!3d33.6991215!4d73.0486346!16s%2Fg%2F1thf6ynt!19sChIJmdnpxMm_3zgReThUta0yyUs?authuser=0&hl=en&rclk=1,"Pharmacy, Islamabad"
104,yashfipharmacy_33.534917_73.170945,Yashfi Pharmacy,"Yashfi Pharmacy
4.2(19)
Pharmacy · J, Street 22
Open 24 hours · +92 301 7777322",Pharmacy,Open 24 hours,33.5349168,73.170945,https://www.google.com/maps/place/Yashfi+Pharmacy/data=!4m7!3m6!1s0x38dfed7ed509f95f:0x74266b74193cfc80!8m2!3d33.5349168!4d73.170945!16s%2Fg%2F11d_tls3hq!19sChIJX_kJ1X7t3zgRgPw8GXRrJnQ?authuser=0&hl=en&rclk=1,"Pharmacy, Islamabad"
105,primepharmacyandopti_33.616125_73.137640,Prime Pharmacy AND Optics,"Prime Pharmacy AND Optics
4.4(20)
Pharmacy
Open ⋅ Closes 1 AM · +92 51 2157753",Pharmacy,Open,33.6161253,73.1376402,https://www.google.com/maps/place/Prime+Pharmacy+AND+Optics/data=!4m7!3m6!1s0x38dfeb6360957663:0x9a983bd031accae1!8m2!3d33.6161253!4d73.1376402!16s%2Fg%2F11h7c_5trx!19sChIJY3aVYGPr3zgR4cqsMdA7mJo?authuser=0&hl=en&rclk=1,"Pharmacy, Islamabad"
106,alaminpharmacy_33.668385_72.997243,Al-Amin pharmacy,"Al-Amin pharmacy
4.3(10)
Pharmacy · Shah Nawaz Plaza, Shop 4, Plot 11, Sachal Sarmast Rd, G-11 Markaz, G-11
Open ⋅ Closes 12 AM · +92 345 5106697",Pharmacy,Open,33.6683853,72.9972434,https://www.google.com/maps/place/Al-Amin+pharmacy/data=!4m7!3m6!1s0x38df95ff1b135e3f:0xc3e1750345a09710!8m2!3d33.6683853!4d72.9972434!16s%2Fg%2F1jkxntn5z!19sChIJP14TG_-V3zgREJegRQN14cM?authuser=0&hl=en&rclk=1,"Pharmacy, Islamabad"
107,shaheenchemist_33.669321_73.000151,Shaheen Chemist,"Shaheen Chemist
4.2(1,107)
Pharmacy ·  · M292+P3C
Open ⋅ Closes 1 AM · +92 51 2360246",Pharmacy,Open,33.6693209,73.0001512,https://www.google.com/maps/place/Shaheen+Chemist/data=!4m7!3m6!1s0x38df95f8db82c109:0x9cfd1bc97169daeb!8m2!3d33.6693209!4d73.0001512!16s%2Fg%2F11f2wmbkpl!19sChIJCcGC2_iV3zgR69ppcckb_Zw?authuser=0&hl=en&rclk=1,"Pharmacy, Islamabad"
108,medigreenmartpharmac_33.630772_72.879313,MediGreen Mart/Pharmacy,"MediGreen Mart/Pharmacy
4.7(14)
Pharmacy · Shop # 5, Victoria Heights, opposite Bilal Mosque
Open ⋅ Closes 10 PM · +92 334 5029475",Pharmacy,Open,33.6307721,72.8793128,https://www.google.com/maps/place/MediGreen+Mart%2FPharmacy/data=!4m7!3m6!1s0x38df983e43d76c6f:0xcd4d7fd92dfd8332!8m2!3d33.6307721!4d72.8793128!16s%2Fg%2F11c5sq92_s!19sChIJb2zXQz6Y3zgRMoP9Ldl_Tc0?authuser=0&hl=en&rclk=1,"Pharmacy, Islamabad"
109,imranpharmacy_33.704211_73.055764,Imran Pharmacy,"Imran Pharmacy
2.7(19)
Pharmacy · 3
Open ⋅ Closes 9 PM · +92 51 9262538",Pharmacy,Open,33.7042109,73.0557638,https://www.google.com/maps/place/Imran+Pharmacy/data=!4m7!3m6!1s0x38dfbf0fdd628eed:0x4a7f7e52605c24bc!8m2!3d33.7042109!4d73.0557638!16s%2Fg%2F11flbdyjvg!19sChIJ7Y5i3Q-_3zgRvCRcYFJ-f0o?authuser=0&hl=en&rclk=1,"Pharmacy, Islamabad"
110,najeebpharmacyg134_33.650576_72.971680,Najeeb Pharmacy G-13/4,"Najeeb Pharmacy G-13/4
3.1(19)
Pharmacy · G, Punjab Market،, Street 138, G 13/4 Attique plaza, 13/4
Open 24 hours · +92 51 2154700",Pharmacy,Open 24 hours,33.6505764,72.9716796,https://www.google.com/maps/place/Najeeb+Pharmacy+G-13%2F4/data=!4m7!3m6!1s0x38df979d957a2937:0xd344abcd7ecc5815!8m2!3d33.6505764!4d72.9716796!16s%2Fg%2F11kj7106_1!19sChIJNyl6lZ2X3zgRFVjMfs2rRNM?authuser=0&hl=en&rclk=1,"Pharmacy, Islamabad"
111,shifapharmacy_33.675249_73.066401,Shifa Pharmacy,"Shifa Pharmacy
4.0(50)
Pharmacy ·  · Pitras Bukhari Rd, H-8/4
Open ⋅ Closes 12 AM · +92 51 8464646",Pharmacy,Open,33.6752489,73.0664009,https://www.google.com/maps/place/Shifa+Pharmacy/data=!4m7!3m6!1s0x38df955dd7e569ed:0x970dc4715258254d!8m2!3d33.6752489!4d73.0664009!16s%2Fg%2F1tltkrby!19sChIJ7Wnl112V3zgRTSVYUnHEDZc?authuser=0&hl=en&rclk=1,"Pharmacy, Islamabad"
112,kamranpharmacy_33.675976_73.013764,Kamran pharmacy,"Kamran pharmacy
4.4(7)
Pharmacy · Hill view plaza
Open ⋅ Closes 1 AM · +92 331 5337666",Pharmacy,Open,33.6759764,73.0137644,https://www.google.com/maps/place/Kamran+pharmacy/data=!4m7!3m6!1s0x38dfbf98ca922e1d:0x2c213ea73368d6ff!8m2!3d33.6759764!4d73.0137644!16s%2Fg%2F11rn5jwc2v!19sChIJHS6Sypi_3zgR_9ZoM6c-ISw?authuser=0&hl=en&rclk=1,"Pharmacy, Islamabad"
113,binhayyanpharmacy_33.711728_73.038265,Bin-Hayyan Pharmacy,"Bin-Hayyan Pharmacy
4.1(10)
Pharmacy · Shop # 4,5 Ground Floor Pacific Centre
Open 24 hours · +92 51 2744703",Pharmacy,Open 24 hours,33.7117284,73.0382654,https://www.google.com/maps/place/Bin-Hayyan+Pharmacy/data=!4m7!3m6!1s0x38dfbfc3113d58b7:0x32f34621a2f075f0!8m2!3d33.7117284!4d73.0382654!16s%2Fg%2F11pv637z6g!19sChIJt1g9EcO_3zgR8HXwoiFG8zI?authuser=0&hl=en&rclk=1,"Pharmacy, Islamabad"
114,yourspharmacy_33.613080_73.130654,Yours Pharmacy,"Yours Pharmacy
3.3(20)
Pharmacy · Hussain and Ali Plaza, Ghori Town Rd
Open ⋅ Closes 11 PM · +92 319 1675104",Pharmacy,Open,33.6130803,73.1306541,https://www.google.com/maps/place/Yours+Pharmacy/data=!4m7!3m6!1s0x38dfeb79dd1610dd:0xd79641525f51d92a!8m2!3d33.6130803!4d73.1306541!16s%2Fg%2F11b6_sq9gj!19sChIJ3RAW3Xnr3zgRKtlRX1JBltc?authuser=0&hl=en&rclk=1,"Pharmacy, Islamabad"
115,alrazzaqpharmacyg131_33.645014_72.963596,AL-RAZZAQ PHARMACY G13/1 ISLAMABAD,"AL-RAZZAQ PHARMACY G13/1 ISLAMABAD
5.0(3)
Pharmacy · Rabica Centire
Open ⋅ Closes 3 AM · +92 330 5626653",Pharmacy,Open,33.6450136,72.9635961,https://www.google.com/maps/place/AL-RAZZAQ+PHARMACY+G13%2F1+ISLAMABAD/data=!4m7!3m6!1s0x38df973c4f11ab0b:0x2ce3623008fa3fa5!8m2!3d33.6450136!4d72.9635961!16s%2Fg%2F11l76rk_98!19sChIJC6sRTzyX3zgRpT_6CDBi4yw?authuser=0&hl=en&rclk=1,"Pharmacy, Islamabad"
116,healerspharmacy_33.675555_73.013984,Healer's Pharmacy,"Healer's Pharmacy
3.4(9)
Pharmacy · M2G7+6HH
Open 24 hours · +92 51 2353592",Pharmacy,Open 24 hours,33.6755554,73.0139844,https://www.google.com/maps/place/Healer%27s+Pharmacy/data=!4m7!3m6!1s0x38dfbe1fad259199:0x8b2ef78e214e5f7e!8m2!3d33.6755554!4d73.0139844!16s%2Fg%2F11g8k8jwz9!19sChIJmZElrR--3zgRfl9OIY73Los?authuser=0&hl=en&rclk=1,"Pharmacy, Islamabad"
117,saifpharmacy_33.716254_73.084756,Saif Pharmacy,"Saif Pharmacy
4.6(11)
Pharmacy · Shop 13, Block, Melody Market, Mohammadia Plaza, 4 Municipal Rd
Open ⋅ Closes 12 AM · +92 51 2824550",Pharmacy,Open,33.7162539,73.0847562,https://www.google.com/maps/place/Saif+Pharmacy/data=!4m7!3m6!1s0x38dfbf87d3554575:0x9d4b969bd8e9c01a!8m2!3d33.7162539!4d73.0847562!16s%2Fg%2F12mkw809l!19sChIJdUVV04e_3zgRGsDp2JuWS50?authuser=0&hl=en&rclk=1,"Pharmacy, Islamabad"
118,cspharmacy_33.656437_72.966824,CS Pharmacy®,"CS Pharmacy®
4.9(16)
Pharmacy · 3 Street 169
Open ⋅ Closes 12 AM · +92 311 5187836",Pharmacy,Open,33.6564371,72.9668244,https://www.google.com/maps/place/CS+Pharmacy%C2%AE/data=!4m7!3m6!1s0x38df95c47adff3c7:0xc5a64b7492a9250a!8m2!3d33.6564371!4d72.9668244!16s%2Fg%2F11sy031bw6!19sChIJx_PfesSV3zgRCiWpknRLpsU?authuser=0&hl=en&rclk=1,"Pharmacy, Islamabad"
119,dwatsonb17islamabad_33.688033_72.829400,D. Watson B-17 Islamabad,"D. Watson B-17 Islamabad
3.7(47)
Pharmacy · PLOT B-17, Royal Signature
Open ⋅ Closes 12 AM · +92 51 8952106",Pharmacy,Open,33.688033,72.8293998,https://www.google.com/maps/place/D.+Watson+B-17+Islamabad/data=!4m7!3m6!1s0x38dfa3007fe35e95:0xcd0ef816be3f208f!8m2!3d33.688033!4d72.8293998!16s%2Fg%2F11ln4n0fdv!19sChIJlV7jfwCj3zgRjyA_vhb4Ds0?authuser=0&hl=en&rclk=1,"Pharmacy, Islamabad"
120,imranpharmacy_33.649291_73.046644,Imran Pharmacy,"Imran Pharmacy
3.6(7)
Pharmacy · 133 Street 31
Open ⋅ Closes 12 AM · +92 51 4443996",Pharmacy,Open,33.6492915,73.0466439,https://www.google.com/maps/place/Imran+Pharmacy/data=!4m7!3m6!1s0x38df950eca1682cb:0xbca7248169b879b4!8m2!3d33.6492915!4d73.0466439!16s%2Fg%2F1v62g0kx!19sChIJy4IWyg6V3zgRtHm4aYEkp7w?authuser=0&hl=en&rclk=1,"Pharmacy, Islamabad"
121,carepharmacy_33.653949_73.205087,Care Pharmacy,"Care Pharmacy
5.0(3)
Pharmacy · M634+H2G
Open 24 hours",Pharmacy,Open 24 hours,33.6539488,73.205087,https://www.google.com/maps/place/Care+Pharmacy/data=!4m7!3m6!1s0x38dfe922337c0f2b:0xcaaa2961c5e025ff!8m2!3d33.6539488!4d73.205087!16s%2Fg%2F11lgfhl8xk!19sChIJKw98MyLp3zgR_yXgxWEpqso?authuser=0&hl=en&rclk=1,"Pharmacy, Islamabad"
122,tahirpharmacy_33.658846_72.855427,Tahir Pharmacy,"Tahir Pharmacy
4.7(19)
Pharmacy · D17, Islamabad arcade, opposite family & children park, near zee mart
Open ⋅ Closes 12 AM · +92 324 8881025",Pharmacy,Open,33.6588456,72.8554266,https://www.google.com/maps/place/Tahir+Pharmacy/data=!4m7!3m6!1s0x38dfa322089a1111:0x3466a31d84dfb1be!8m2!3d33.6588456!4d72.8554266!16s%2Fg%2F11pkbm7kys!19sChIJERGaCCKj3zgRvrHfhB2jZjQ?authuser=0&hl=en&rclk=1,"Pharmacy, Islamabad"
123,greenpluspharmacie_33.633463_72.923216,Green Plus Pharmacie,"Green Plus Pharmacie
4.8(9)
Pharmacy · Shop No. 8, 9, 10 Khayber 4 Plaza Sector
Open ⋅ Closes 1 AM · +92 51 8897460",Pharmacy,Open,33.6334625,72.9232162,https://www.google.com/maps/place/Green+Plus+Pharmacie/data=!4m7!3m6!1s0x38df9788bd448c4d:0x8d9818fe615cce3a!8m2!3d33.6334625!4d72.9232162!16s%2Fg%2F11rjbzw4j0!19sChIJTYxEvYiX3zgROs5cYf4YmI0?authuser=0&hl=en&rclk=1,"Pharmacy, Islamabad"
124,hfpharmacyandcosmeti_33.648753_73.223004,HF Pharmacy and Cosmetics,"HF Pharmacy and Cosmetics
4.9(10)
Pharmacy · J6XF+G62, Thanda Pani, Lehtrar Rd
Open ⋅ Closes 11 PM · +92 331 5800752",Pharmacy,Open,33.6487531,73.2230044,https://www.google.com/maps/place/HF+Pharmacy+and+Cosmetics/data=!4m7!3m6!1s0x38dfe9cfaa7478c1:0xa28823d5ade8fe64!8m2!3d33.6487531!4d73.2230044!16s%2Fg%2F11h4kwkqq0!19sChIJwXh0qs_p3zgRZP7ordUjiKI?authuser=0&hl=en&rclk=1,"Pharmacy, Islamabad"
125,apharmacyamedicalcen_33.690442_73.031177,A-PHARMACY & A Medical Centre,"A-PHARMACY & A Medical Centre
4.0(1)
Pharmacy
Open ⋅ Closes 10 PM · +92 51 2285758",Pharmacy,Open,33.6904424,73.0311766,https://www.google.com/maps/place/A-PHARMACY+%26+A+Medical+Centre/data=!4m7!3m6!1s0x38dfbf82dd496841:0xdce69499993fffa4!8m2!3d33.6904424!4d73.0311766!16s%2Fg%2F11ks15vvz3!19sChIJQWhJ3YK_3zgRpP8_mZmU5tw?authuser=0&hl=en&rclk=1,"Pharmacy, Islamabad"
126,denovomedicalstore_33.680334_73.022642,Denovo Medical Store,"Denovo Medical Store
4.3(16)
Pharmacy · M2JF+43J
Open ⋅ Closes 10 PM · +92 334 1107504",Pharmacy,Open,33.6803344,73.0226424,https://www.google.com/maps/place/Denovo+Medical+Store/data=!4m7!3m6!1s0x38dfbe23f9bb2729:0xa2f4933b10d733b5!8m2!3d33.6803344!4d73.0226424!16s%2Fg%2F11g6s83jp6!19sChIJKSe7-SO-3zgRtTPXEDuT9KI?authuser=0&hl=en&rclk=1,"Pharmacy, Islamabad"
127,islamabadpharmapharm_33.707936_73.038066,Islamabad Pharma Pharmacy and Healthcare Centre,"Islamabad Pharma Pharmacy and Healthcare Centre
4.0(5)
Pharmacy · 12 Street 44
Open 24 hours · +92 332 9407614",Pharmacy,Open 24 hours,33.7079356,73.0380657,https://www.google.com/maps/place/Islamabad+Pharma+Pharmacy+and+Healthcare+Centre/data=!4m7!3m6!1s0x38dfa3da25b7a01b:0xe49f711cb29ad9dc!8m2!3d33.7079356!4d73.0380657!16s%2Fg%2F11qn10y2p_!19sChIJG6C3Jdqj3zgR3Nmashxxn-Q?authuser=0&hl=en&rclk=1,"Pharmacy, Islamabad"
128,tahirpharmacy_33.517177_73.084955,Tahir Pharmacy,"Tahir Pharmacy
4.3(43)
Pharmacy · AAA Riveria, Plot no 100 A, Springs Commercial, Quid Chowk Phase, 7
Open ⋅ Closes 3 AM · +92 51 8489915",Pharmacy,Open,33.5171766,73.0849554,https://www.google.com/maps/place/Tahir+Pharmacy/data=!4m7!3m6!1s0x38df932d2abbe5cd:0xd97b7356c94a6aa!8m2!3d33.5171766!4d73.0849554!16s%2Fg%2F11y35hyb9_!19sChIJzeW7Ki2T3zgRqqaUbDW3lw0?authuser=0&hl=en&rclk=1,"Pharmacy, Islamabad"
129,kamranpharmacy_33.568344_73.139107,Kamran pharmacy,"Kamran pharmacy
4.8(13)
Pharmacy · Main PWD Rd
Open 24 hours · +92 51 5407041",Pharmacy,Open 24 hours,33.5683442,73.1391073,https://www.google.com/maps/place/Kamran+pharmacy/data=!4m7!3m6!1s0x38dfedb1d2070389:0x374198445af02b77!8m2!3d33.5683442!4d73.1391073!16s%2Fg%2F11tsr1x4b_!19sChIJiQMH0rHt3zgRdyvwWkSYQTc?authuser=0&hl=en&rclk=1,"Pharmacy, Islamabad"
130,bestcarepharmacy_33.531848_73.114763,Best Care Pharmacy,"Best Care Pharmacy
4.7(39)
Pharmacy · Bahria Ave
Open ⋅ Closes 1 AM · +92 315 5341111",Pharmacy,Open,33.5318479,73.1147633,https://www.google.com/maps/place/Best+Care+Pharmacy/data=!4m7!3m6!1s0x38dfeddbfab05485:0x4958360e07106581!8m2!3d33.5318479!4d73.1147633!16s%2Fg%2F11scxb74nx!19sChIJhVSw-tvt3zgRgWUQBw42WEk?authuser=0&hl=en&rclk=1,"Pharmacy, Islamabad"
131,sessnapharmacy_33.687670_72.830550,Sessna Pharmacy,"Sessna Pharmacy
4.2(14)
Pharmacy · Plot 29, Khushbagh Plaza, shop number 3 & 4, MR-5
Open ⋅ Closes 11 PM · +92 333 8954366",Pharmacy,Open,33.6876699,72.8305504,https://www.google.com/maps/place/Sessna+Pharmacy/data=!4m7!3m6!1s0x38dfa3b6f5251f87:0x2b4eb6d99b5ccb98!8m2!3d33.6876699!4d72.8305504!16s%2Fg%2F11hmq80dcv!19sChIJhx8l9baj3zgRmMtcm9m2Tis?authuser=0&hl=en&rclk=1,"Pharmacy, Islamabad"
132,hareempharmacy_33.717914_73.073233,HAREEM PHARMACY,"HAREEM PHARMACY
4.2(9)
Pharmacy · Office no 7 3rd floor, Aaly Plaza, SHOP#3 7th Ave
Open ⋅ Closes 11 PM · +92 51 2342225",Pharmacy,Open,33.7179145,73.0732333,https://www.google.com/maps/place/HAREEM+PHARMACY/data=!4m7!3m6!1s0x38dfbfed22817f69:0x84e8ffadb92c40f5!8m2!3d33.7179145!4d73.0732333!16s%2Fg%2F11h6v0ljw6!19sChIJaX-BIu2_3zgR9UAsua3_6IQ?authuser=0&hl=en&rclk=1,"Pharmacy, Islamabad"
133,alharampharmacyi10ma_33.646494_73.037081,"AlHaram Pharmacy, I-10 Markaz","AlHaram Pharmacy, I-10 Markaz
5.0(8)
Pharmacy · J2WP+HRW
Open ⋅ Closes 12 AM · +92 307 5788748",Pharmacy,Open,33.6464942,73.037081,"https://www.google.com/maps/place/AlHaram+Pharmacy,+I-10+Markaz/data=!4m7!3m6!1s0x38df9589c8202791:0xddd6dc8009d336cd!8m2!3d33.6464942!4d73.037081!16s%2Fg%2F11lkfzrcfn!19sChIJkScgyImV3zgRzTbTCYDc1t0?authuser=0&hl=en&rclk=1","Pharmacy, Islamabad"
134,minahilpharmacy_33.705380_73.068285,Minahil Pharmacy,"Minahil Pharmacy
4.8(12)
Pharmacy · Koshar plaza
Open ⋅ Closes 1 AM · +92 51 2606816",Pharmacy,Open,33.7053804,73.0682845,https://www.google.com/maps/place/Minahil+Pharmacy/data=!4m7!3m6!1s0x38dfbf948ea17189:0x3a3e7fdb9f9b5dd0!8m2!3d33.7053804!4d73.0682845!16s%2Fg%2F11c6z25srp!19sChIJiXGhjpS_3zgR0F2bn9t_Pjo?authuser=0&hl=en&rclk=1,"Pharmacy, Islamabad"
135,healtherapharmacy_33.711108_73.041361,Health Era Pharmacy,"Health Era Pharmacy
4.7(3)
Pharmacy · Kiran Plaza, Ground Floor, Plot 13-B, F-8 Markaz, F-8, Islamabad, ICT
Open ⋅ Closes 10 PM · +92 51 2251212",Pharmacy,Open,33.7111082,73.0413609,https://www.google.com/maps/place/Health+Era+Pharmacy/data=!4m7!3m6!1s0x38dfbfad478b2623:0x761e9a085688d735!8m2!3d33.7111082!4d73.0413609!16s%2Fg%2F11xz2xp0n!19sChIJIyaLR62_3zgRNdeIVgiaHnY?authuser=0&hl=en&rclk=1,"Pharmacy, Islamabad"
136,dwatsonchemistandsup_33.633688_72.922813,D.Watson Chemist and Superstore,"D.Watson Chemist and Superstore
3.8(69)
Pharmacy · 
Open ⋅ Closes 11:30 PM · +92 51 2743000",Pharmacy,Open,33.6336875,72.9228125,https://www.google.com/maps/place/D.Watson+Chemist+and+Superstore/data=!4m7!3m6!1s0x38df978527e3c1bf:0x81b1dd7c715931fd!8m2!3d33.6336875!4d72.9228125!16s%2Fg%2F11tp4j7plz!19sChIJv8HjJ4WX3zgR_TFZcXzdsYE?authuser=0&hl=en&rclk=1,"Pharmacy, Islamabad"
137,alsalehapharmacy_33.646455_73.036540,Al-Saleha Pharmacy,"Al-Saleha Pharmacy
3.9(17)
Pharmacy · J2WP+HJM, Sohni Rd
Open ⋅ Closes 11 PM · +92 51 4102892",Pharmacy,Open,33.6464547,73.0365396,https://www.google.com/maps/place/Al-Saleha+Pharmacy/data=!4m7!3m6!1s0x38df95eeae83fc47:0x9cd2d0acc8e4afd7!8m2!3d33.6464547!4d73.0365396!16s%2Fg%2F11fkqhl6nf!19sChIJR_yDru6V3zgR16_kyKzQ0pw?authuser=0&hl=en&rclk=1,"Pharmacy, Islamabad"
138,medigreenpharmacy_33.711679_73.041427,Medigreen Pharmacy,"Medigreen Pharmacy
3.7(7)
Pharmacy · Kohistan Rd
Open ⋅ Closes 12 AM · +92 311 5056348",Pharmacy,Open,33.7116786,73.0414266,https://www.google.com/maps/place/Medigreen+Pharmacy/data=!4m7!3m6!1s0x38dfbf564b571cb3:0x144e648bb9441b81!8m2!3d33.7116786!4d73.0414266!16s%2Fg%2F11nh2p9621!19sChIJsxxXS1a_3zgRgRtEuYtkThQ?authuser=0&hl=en&rclk=1,"Pharmacy, Islamabad"
139,alipharmacyg9markaz_33.689564_73.031359,Ali Pharmacy G9 Markaz,"Ali Pharmacy G9 Markaz
2.6(10)
Pharmacy · M2QJ+RGH
Open ⋅ Closes 12 AM · +92 51 2251708",Pharmacy,Open,33.6895638,73.0313591,https://www.google.com/maps/place/Ali+Pharmacy+G9+Markaz/data=!4m7!3m6!1s0x38dfbe30feadeff7:0xb29494a6e6942043!8m2!3d33.6895638!4d73.0313591!16s%2Fg%2F1hhwqykm4!19sChIJ9--t_jC-3zgRQyCU5qaUlLI?authuser=0&hl=en&rclk=1,"Pharmacy, Islamabad"
140,medcurepharmacy_33.697064_73.050908,Med Cure pharmacy,"Med Cure pharmacy
4.9(9)
Pharmacy · G, G 8 markaz medicine plaza shop no 1'2, 8
Open ⋅ Closes 12:30 AM · +92 51 8350880",Pharmacy,Open,33.6970644,73.0509077,https://www.google.com/maps/place/Med+Cure+pharmacy/data=!4m7!3m6!1s0x38dfbfa72b847d19:0xb755354585b8c040!8m2!3d33.6970644!4d73.0509077!16s%2Fg%2F11shc_rk56!19sChIJGX2EK6e_3zgRQMC4hUU1Vbc?authuser=0&hl=en&rclk=1,"Pharmacy, Islamabad"
141,alhamdpharmacy_33.717382_73.083896,Al-Hamd Pharmacy,"Al-Hamd Pharmacy
3.8(5)
Pharmacy · Ground Floor, Mir Square
Open ⋅ Closes 3 AM · +92 51 2603331",Pharmacy,Open,33.7173822,73.0838963,https://www.google.com/maps/place/Al-Hamd+Pharmacy/data=!4m7!3m6!1s0x38dfbf42789f3c21:0xbf9ebfd0c52db4a!8m2!3d33.7173822!4d73.0838963!16s%2Fg%2F11rcl6ss7w!19sChIJITyfeEK_3zgRSttSDP3r-Qs?authuser=0&hl=en&rclk=1,"Pharmacy, Islamabad"
142,healthwirepharmacy_33.570372_73.143362,Healthwire Pharmacy,"Healthwire Pharmacy
2.5(16)
Pharmacy · Main Double Rd
Open 24 hours · +92 311 1155955",Pharmacy,Open 24 hours,33.5703718,73.1433625,https://www.google.com/maps/place/Healthwire+Pharmacy/data=!4m7!3m6!1s0x38dfede363d84381:0x58a1b779cf9a32d0!8m2!3d33.5703718!4d73.1433625!16s%2Fg%2F11k5474klv!19sChIJgUPYY-Pt3zgR0DKaz3m3oVg?authuser=0&hl=en&rclk=1,"Pharmacy, Islamabad"
143,msonspharmacycosmeti_33.569274_73.201178,M.Son's Pharmacy & Cosmetics,"M.Son's Pharmacy & Cosmetics
4.4(13)
Pharmacy · Haramain Plaza, Street 2
Open ⋅ Closes 1 AM · +92 323 9519846",Pharmacy,Open,33.5692736,73.2011778,https://www.google.com/maps/place/M.Son%27s+Pharmacy+%26+Cosmetics/data=!4m7!3m6!1s0x38dfef5234154ad3:0xb4ef681a2607bf10!8m2!3d33.5692736!4d73.2011778!16s%2Fg%2F11t4wt6278!19sChIJ00oVNFLv3zgREL8HJhpo77Q?authuser=0&hl=en&rclk=1,"Pharmacy, Islamabad"
144,sinapharmacy_33.694806_73.013914,Sina Pharmacy,"Sina Pharmacy
3.9(9)
Pharmacy · M2V7+WHF, Sumbal Rd
Open ⋅ Closes 12 AM · +92 51 2297085",Pharmacy,Open,33.6948058,73.0139137,https://www.google.com/maps/place/Sina+Pharmacy/data=!4m7!3m6!1s0x38dfbe152a64cfbd:0x7d22418f5b2edbe8!8m2!3d33.6948058!4d73.0139137!16s%2Fg%2F1hc8fb_1n!19sChIJvc9kKhW-3zgR6NsuW49BIn0?authuser=0&hl=en&rclk=1,"Pharmacy, Islamabad"
145,kulsoominternational_33.718149_73.072947,Kulsoom International Hospital Pharmacy,"Kulsoom International Hospital Pharmacy
3.8(84)
Pharmacy ·  · kulsoom plaza، 2020 Jinnah Ave
Open 24 hours · +92 51 8446666",Pharmacy,Open 24 hours,33.7181489,73.0729473,https://www.google.com/maps/place/Kulsoom+International+Hospital+Pharmacy/data=!4m7!3m6!1s0x38dfbfd42c6ab185:0x7248c923deed9ad3!8m2!3d33.7181489!4d73.0729473!16s%2Fg%2F11fcvb88gp!19sChIJhbFqLNS_3zgR05rt3iPJSHI?authuser=0&hl=en&rclk=1,"Pharmacy, Islamabad"
146,dmartpharmacy_33.704057_72.980261,D.Mart Pharmacy,"D.Mart Pharmacy
5.0(4)
Pharmacy · Omni Arcade, Markaz
Open ⋅ Closes 12 AM · +92 333 7376622",Pharmacy,Open,33.7040569,72.9802608,https://www.google.com/maps/place/D.Mart+Pharmacy/data=!4m7!3m6!1s0x38dfbd6b656b80fb:0xb33c84b59e36c25e!8m2!3d33.7040569!4d72.9802608!16s%2Fg%2F11vdbsgxx_!19sChIJ-4BrZWu93zgRXsI2nrWEPLM?authuser=0&hl=en&rclk=1,"Pharmacy, Islamabad"
147,wecarepharmacy_33.648494_73.040465,We Care Pharmacy,"We Care Pharmacy
4.3(6)
Pharmacy · Shop 5,6, Shaukat Plaza, Korang Road, near Faysal Bank
Open ⋅ Closes 1 AM · +92 334 4932273",Pharmacy,Open,33.6484942,73.0404647,https://www.google.com/maps/place/We+Care+Pharmacy/data=!4m7!3m6!1s0x38df950007390883:0xfc3b7279b74a590c!8m2!3d33.6484942!4d73.0404647!16s%2Fg%2F11ld8k6_pj!19sChIJgwg5BwCV3zgRDFlKt3lyO_w?authuser=0&hl=en&rclk=1,"Pharmacy, Islamabad"
148,organixpharmacy_33.537030_73.156876,Organix Pharmacy,"Organix Pharmacy
5.0(3)
Pharmacy · Plot 43, Ground Floor, Street 1A Iqbal Boulevard
Open ⋅ Closes 11:30 PM · +92 302 5993333",Pharmacy,Open,33.5370298,73.1568763,https://www.google.com/maps/place/Organix+Pharmacy/data=!4m7!3m6!1s0x38dfed8da163f2a1:0xedf4773b44d16a99!8m2!3d33.5370298!4d73.1568763!16s%2Fg%2F11qzc8_yk0!19sChIJofJjoY3t3zgRmWrRRDt39O0?authuser=0&hl=en&rclk=1,"Pharmacy, Islamabad"
149,alrehmanpharmacy_33.571620_73.136483,Al Rehman Pharmacy,"Al Rehman Pharmacy
5.0(1)
Pharmacy · Shop No. 1, Barkat Plaza
Open ⋅ Closes 11 PM · +92 332 5063036",Pharmacy,Open,33.5716204,73.136483,https://www.google.com/maps/place/Al+Rehman+Pharmacy/data=!4m7!3m6!1s0x38dfed25fd10198f:0x6dd5958f70743bd9!8m2!3d33.5716204!4d73.136483!16s%2Fg%2F11rxnwmx38!19sChIJjxkQ_SXt3zgR2Tt0cI-V1W0?authuser=0&hl=en&rclk=1,"Pharmacy, Islamabad"
150,royalpharmacy_33.525291_73.156335,Royal Pharmacy,"Royal Pharmacy
3.6(5)
Pharmacy · G5G4+4G8, Lane 17
Open ⋅ Closes 12 AM · +92 333 5555070",Pharmacy,Open,33.5252911,73.1563352,https://www.google.com/maps/place/Royal+Pharmacy/data=!4m7!3m6!1s0x38dfede5f7e698b7:0x1f301c307a458491!8m2!3d33.5252911!4d73.1563352!16s%2Fg%2F11k4b8sn7d!19sChIJt5jm9-Xt3zgRkYRFejAcMB8?authuser=0&hl=en&rclk=1,"Pharmacy, Islamabad"
151,razapharmacyi10marka_33.646774_73.036564,Raza Pharmacy I-10 Markaz Islamabad,"Raza Pharmacy I-10 Markaz Islamabad
5.0(1)
Pharmacy · Rahmat Business center I-10 Markaz Near Main, Chambeli Rd
Open ⋅ Closes 11:30 PM · +92 51 4436676",Pharmacy,Open,33.6467739,73.0365638,https://www.google.com/maps/place/Raza+Pharmacy+I-10+Markaz+Islamabad/data=!4m7!3m6!1s0x38df95a65812d67f:0x8bc23762bedfc115!8m2!3d33.6467739!4d73.0365638!16s%2Fg%2F12mkz8j7q!19sChIJf9YSWKaV3zgRFcHfvmI3wos?authuser=0&hl=en&rclk=1,"Pharmacy, Islamabad"
152,newislamabadpharmacy_33.711675_73.040882,New Islamabad Pharmacy,"New Islamabad Pharmacy
5.0(3)
Pharmacy · Royal Inn Plaza، Shop No. 01, Block 16, Kohistan Rd
+92 51 2850827",Pharmacy,,33.7116747,73.040882,https://www.google.com/maps/place/New+Islamabad+Pharmacy/data=!4m7!3m6!1s0x38dfbfa55a37c3b1:0x20bdafbe63c497a9!8m2!3d33.7116747!4d73.040882!16s%2Fg%2F11fqn7qd26!19sChIJscM3WqW_3zgRqZfEY76vvSA?authuser=0&hl=en&rclk=1,"Pharmacy, Islamabad"
153,shaheenchemistpwd_33.572482_73.147276,Shaheen Chemist PWD,"Shaheen Chemist PWD
4.1(78)
Pharmacy ·  · Main PWD Rd
Open ⋅ Closes 1 AM · +92 51 6102894",Pharmacy,Open,33.5724815,73.1472763,https://www.google.com/maps/place/Shaheen+Chemist+PWD/data=!4m7!3m6!1s0x38dfec45579177db:0xc5c0e954d8973d03!8m2!3d33.5724815!4d73.1472763!16s%2Fg%2F11hbspn4st!19sChIJ23eRV0Xs3zgRAz2X2FTpwMU?authuser=0&hl=en&rclk=1,"Pharmacy, Islamabad"
154,allatifpharmacy_33.530808_73.160573,Al Latif Pharmacy,"Al Latif Pharmacy
4.0(91)
Pharmacy · Plaza #29. Akhter Arcade, Jinnah Boulevard
Open ⋅ Closes 2 AM · +92 51 5418574",Pharmacy,Open,33.5308085,73.1605727,https://www.google.com/maps/place/Al+Latif+Pharmacy/data=!4m7!3m6!1s0x38dfedf47a226c2d:0x95be901a9c55c328!8m2!3d33.5308085!4d73.1605727!16s%2Fg%2F11j0h8t15f!19sChIJLWwievTt3zgRKMNVnBqQvpU?authuser=0&hl=en&rclk=1,"Pharmacy, Islamabad"
155,medzonepharmacy_33.702706_72.948077,Medzone Pharmacy,"Medzone Pharmacy
4.6(20)
Pharmacy · shop no 5, centre plaza, 6
Open 24 hours · +92 331 5552205",Pharmacy,Open 24 hours,33.7027065,72.9480772,https://www.google.com/maps/place/Medzone+Pharmacy/data=!4m7!3m6!1s0x38dfbd4d8c3bd489:0xf1d8e354c815db77!8m2!3d33.7027065!4d72.9480772!16s%2Fg%2F11vpy2vrvz!19sChIJidQ7jE293zgRd9sVyFTj2PE?authuser=0&hl=en&rclk=1,"Pharmacy, Islamabad"
