Index,Place Id,Name,Address,Category,Status,Latitude,Longitude,Link,SearchKeyword
1,na_noloc,,,,,,,,"Store, Islamabad"
5,metroislamabadstore_33.639918_73.026167,METRO Islamabad Store,,Grocery store,Open,33.6399179,73.0261665,https://www.google.com/maps/place/METRO+Islamabad+Store/data=!4m7!3m6!1s0x38df95b111b61cd7:0x2613048254d87137!8m2!3d33.6399179!4d73.0261665!16s%2Fg%2F11c51w48nq!19sChIJ1xy2EbGV3zgRN3HYVIIEEyY?authuser=0&hl=en&rclk=1,"Store, Islamabad"
37,islamabadelectronics_33.720607_73.077462,Islamabad Electronics,"Islamabad Electronics
4.7(45)
Electronics store · Shop #3-B, Old Duty Free Plaza, Block # 11 Jinnah Ave
Open ⋅ Closes 9 PM · +92 300 8554277",Electronics store,Open,33.7206073,73.0774625,https://www.google.com/maps/place/Islamabad+Electronics/data=!4m7!3m6!1s0x38dfbf8ecf7c1d1b:0x88b0bb068f3f808d!8m2!3d33.7206073!4d73.0774625!16s%2Fg%2F11kmvf2_qn!19sChIJGx18z46_3zgRjYA_jwa7sIg?authuser=0&hl=en&rclk=1,"Store, Islamabad"
38,albalaghislamicstore_33.678189_73.016757,AlBalagh Islamic Store G10 Islamabad البلاغ جی ٹین اسلام آباد,"AlBalagh Islamic Store G10 Islamabad البلاغ جی ٹین اسلام آباد
4.3(314)
Religious goods store ·  · Shop18, Adnan Plaza Sawan Road, Markaz, near Post Office & Babri Masjid
Open ⋅ Closes 10 PM · +92 300 5511552",Religious goods store,Open,33.678189,73.0167574,https://www.google.com/maps/place/AlBalagh+Islamic+Store+G10+Islamabad+%D8%A7%D9%84%D8%A8%D9%84%D8%A7%D8%BA+%D8%AC%DB%8C+%D9%B9%DB%8C%D9%86+%D8%A7%D8%B3%D9%84%D8%A7%D9%85+%D8%A2%D8%A8%D8%A7%D8%AF%E2%80%AD/data=!4m7!3m6!1s0x38dfbe21dfe18365:0x8aae3b12ab78626b!8m2!3d33.678189!4d73.0167574!16s%2Fg%2F11clwn96v6!19sChIJZYPh3yG-3zgRa2J4qxI7roo?authuser=0&hl=en&rclk=1,"Store, Islamabad"
39,mstore_33.699880_72.973640,M Store,"M Store
4.5(1,479)
Grocery store ·  · plot # 14, ground floor، Al Memar Tower
Open ⋅ Closes 4 AM · +92 51 2305629",Grocery store,Open,33.69988,72.97364,https://www.google.com/maps/place/M+Store/data=!4m7!3m6!1s0x38dfbdc624e125ff:0xbdce789428fa64b3!8m2!3d33.69988!4d72.97364!16s%2Fg%2F1hhh_9r7m!19sChIJ_yXhJMa93zgRs2T6KJR4zr0?authuser=0&hl=en&rclk=1,"Store, Islamabad"
40,metromall_33.639917_73.026051,Metro Mall,"Metro Mall
4.1(384)
Clothing store ·  · I 11/4, Korang Road
Open ⋅ Closes 10 PM",Clothing store,Open,33.6399166,73.026051,https://www.google.com/maps/place/Metro+Mall/data=!4m7!3m6!1s0x38df95a671739b87:0xfe331c1472b64418!8m2!3d33.6399166!4d73.026051!16s%2Fg%2F11c1qxjfk5!19sChIJh5tzcaaV3zgRGES2chQcM_4?authuser=0&hl=en&rclk=1,"Store, Islamabad"
41,friendscorporationfr_33.720096_73.077825,Friends Corporation – Friends Mega Store (Blue Area),"Friends Corporation – Friends Mega Store (Blue Area)
4.1(869)
Electronics store · AK, AKM Fazl-ul-Haq Rd
Open ⋅ Closes 9 PM · +92 304 8444499",Electronics store,Open,33.720096,73.077825,https://www.google.com/maps/place/Friends+Corporation+%E2%80%93+Friends+Mega+Store+%28Blue+Area%29/data=!4m7!3m6!1s0x38dfbf849f11946d:0x4ffc892fad39b345!8m2!3d33.720096!4d73.077825!16s%2Fg%2F11xlnp9fv!19sChIJbZQRn4S_3zgRRbM5rS-J_E8?authuser=0&hl=en&rclk=1,"Store, Islamabad"
42,islamabadsuperstore_33.677277_72.985799,Islamabad Super Store,"Islamabad Super Store
4.3(35)
General store ·  · Ali Market, St 9, F-11-1, F-11, 3
Open ⋅ Closes 11 PM · +92 51 2214226",General store,Open,33.6772769,72.9857993,https://www.google.com/maps/place/Islamabad+Super+Store/data=!4m7!3m6!1s0x38dfbdfba1bbddcf:0x1e6a575e4a1cee1b!8m2!3d33.6772769!4d72.9857993!16s%2Fg%2F12mkzc55r!19sChIJz927ofu93zgRG-4cSl5Xah4?authuser=0&hl=en&rclk=1,"Store, Islamabad"
43,mssuperstore_33.712625_73.040478,M & S Super Store,"M & S Super Store
4.3(40)
Grocery store · Aghaz Plaza, Shop 4, Plot 16-G, Kohistan Rd, F-8 Markaz, F-8, Islamabad, ICT
Open ⋅ Closes 11 PM · +92 51 2817150",Grocery store,Open,33.7126246,73.0404779,https://www.google.com/maps/place/M+%26+S+Super+Store/data=!4m7!3m6!1s0x38dfbe532b3f0e99:0xfa75e07d2f25cb56!8m2!3d33.7126246!4d73.0404779!16s%2Fg%2F11x9gb189!19sChIJmQ4_K1O-3zgRVsslL33gdfo?authuser=0&hl=en&rclk=1,"Store, Islamabad"
44,islamabadgeneralstor_33.683138_72.988114,Islamabad general store,"Islamabad general store
4.4(33)
Supermarket · shop no 5, trade centre
Open 24 hours · +92 51 2113030",Supermarket,Open 24 hours,33.6831375,72.9881144,https://www.google.com/maps/place/Islamabad+general+store/data=!4m7!3m6!1s0x38dfbda6323eabf3:0x6c81b88cdc383ed9!8m2!3d33.6831375!4d72.9881144!16s%2Fg%2F11t9g_4tt1!19sChIJ86s-Mqa93zgR2T443Iy4gWw?authuser=0&hl=en&rclk=1,"Store, Islamabad"
45,labelsislamabad_33.721479_73.059061,Labels Islamabad,"Labels Islamabad
4.0(41)
Clothing store · 13Y,Chaudhary Plaza, Next to PSO Pump, Bhittai Road,F-7 Markaz, Islamabad
Open ⋅ Closes 9 PM · +92 51 8437941",Clothing store,Open,33.721479,73.059061,https://www.google.com/maps/place/Labels+Islamabad/data=!4m7!3m6!1s0x38dfbf75997704e1:0xeddc5db04e302df5!8m2!3d33.721479!4d73.059061!16s%2Fg%2F11b6gm9k2f!19sChIJ4QR3mXW_3zgR9S0wTrBd3O0?authuser=0&hl=en&rclk=1,"Store, Islamabad"
46,daynitesuperstorezuu_33.677774_73.016740,Day Nite Super Store (ZuuCart app delivery),"Day Nite Super Store (ZuuCart app delivery)
4.4(608)
Grocery store · 
Open ⋅ Closes 1 AM · +92 51 2353700",Grocery store,Open,33.6777744,73.01674,https://www.google.com/maps/place/Day+Nite+Super+Store+%28ZuuCart+app+delivery%29/data=!4m7!3m6!1s0x38dfbe1f5e16dd6f:0x82fda6f70b6d4c97!8m2!3d33.6777744!4d73.01674!16s%2Fg%2F11g71b9pgy!19sChIJb90WXh--3zgRl0xtC_em_YI?authuser=0&hl=en&rclk=1,"Store, Islamabad"
47,kayalislamabad_33.730551_73.079166,"Kayal, Islamabad","Kayal, Islamabad
4.4(36)
Women's clothing store · 1 Agha Khan Rd
Open ⋅ Closes 9 PM · +92 51 8440038",Women's clothing store,Open,33.7305509,73.079166,"https://www.google.com/maps/place/Kayal,+Islamabad/data=!4m7!3m6!1s0x38dfbf9c8548e4c3:0xf90d9963d10a67b8!8m2!3d33.7305509!4d73.079166!16s%2Fg%2F11b6bv1k9x!19sChIJw-RIhZy_3zgRuGcK0WOZDfk?authuser=0&hl=en&rclk=1","Store, Islamabad"
48,esajees_33.735648_73.078579,Esajee's,"Esajee's
4.3(1,564)
Supermarket ·  · Shop # 9, Kohsar Market, Sector
Open ⋅ Closes 6 PM ⋅ Reopens 6:45 PM · +92 51 2874352",Supermarket,Open,33.735648,73.0785794,https://www.google.com/maps/place/Esajee%27s/data=!4m7!3m6!1s0x38dfbf7adeb1018b:0xa884518a6f351a4f!8m2!3d33.735648!4d73.0785794!16s%2Fg%2F1tk1xf84!19sChIJiwGx3nq_3zgRTxo1b4pRhKg?authuser=0&hl=en&rclk=1,"Store, Islamabad"
49,onedollarstorefactor_33.706079_73.086125,One Dollar Store Factory Outlet,"One Dollar Store Factory Outlet
3.9(128)
Discount store · P34P+CCQ
Open ⋅ Closes 11 PM",Discount store,Open,33.7060794,73.0861247,https://www.google.com/maps/place/One+Dollar+Store+Factory+Outlet/data=!4m7!3m6!1s0x38dfbf8ad0e71a45:0xd03d087830685c5c!8m2!3d33.7060794!4d73.0861247!16s%2Fg%2F11f0_dwkgt!19sChIJRRrn0Iq_3zgRXFxoMHgIPdA?authuser=0&hl=en&rclk=1,"Store, Islamabad"
50,gigamallislamabad_33.521111_73.158519,Giga Mall Islamabad.,"Giga Mall Islamabad.
4.5(46,534)
Shopping mall ·  · Main Grand Trunk Rd, Defense Housing Authority
Brand-name shopping, dining & movies
Open ⋅ Closes 11 PM · +92 51 8491040",Shopping mall,Open,33.5211113,73.1585192,https://www.google.com/maps/place/Giga+Mall+Islamabad./data=!4m7!3m6!1s0x38dfed736df2ee2b:0xd2c18a69157f1c54!8m2!3d33.5211113!4d73.1585192!16s%2Fg%2F1z44bhl9_!19sChIJK-7ybXPt3zgRVBx_FWmKwdI?authuser=0&hl=en&rclk=1,"Store, Islamabad"
51,nikeflagshipstoreisl_33.710761_73.058777,Nike Flagship Store Islamabad,"Nike Flagship Store Islamabad
4.0(428)
Shoe store · Shop# 3-4, Sardar Beagum Plaza, Jinnah Ave، near Domino's Pizza
Mainstay for athletic apparel & footwear
Open ⋅ Closes 10:30 AM Fri · +92 51 2347157",Shoe store,Open,33.7107614,73.0587774,https://www.google.com/maps/place/Nike+Flagship+Store+Islamabad/data=!4m7!3m6!1s0x38dfbfbcbdaf7dcb:0x3c68befa31414abd!8m2!3d33.7107614!4d73.0587774!16s%2Fg%2F1pp2vkqr6!19sChIJy32vvby_3zgRvUpBMfq-aDw?authuser=0&hl=en&rclk=1,"Store, Islamabad"
52,dollarstoreg9_33.690274_73.031273,Dollar Store G-9,"Dollar Store G-9
4.1(187)
Discount store ·  · Lower Ground Awami Trade Center
Open ⋅ Closes 10 PM",Discount store,Open,33.6902737,73.0312732,https://www.google.com/maps/place/Dollar+Store+G-9/data=!4m7!3m6!1s0x38dfbe30ef2c17e3:0xc7f9e6c8235a4529!8m2!3d33.6902737!4d73.0312732!16s%2Fg%2F11c58w_t0y!19sChIJ4xcs7zC-3zgRKUVaI8jm-cc?authuser=0&hl=en&rclk=1,"Store, Islamabad"
53,dxsportsfitnessshopi_33.668429_72.996849,DX Sports & Fitness Shop Islamabad,"DX Sports & Fitness Shop Islamabad
4.3(60)
Sports accessories wholesaler · 19B, Silver City Plaza, MARKAZ
Open ⋅ Closes 5:30 PM ⋅ Reopens 9 PM · +92 300 9508214",Sports accessories wholesaler,Open,33.6684286,72.9968488,https://www.google.com/maps/place/DX+Sports+%26+Fitness+Shop+Islamabad/data=!4m7!3m6!1s0x38df959572b7751b:0xd232cbb6022688d0!8m2!3d33.6684286!4d72.9968488!16s%2Fg%2F11h6m52lgp!19sChIJG3W3cpWV3zgR0IgmArbLMtI?authuser=0&hl=en&rclk=1,"Store, Islamabad"
54,lulusarstoreislamaba_33.731594_73.078884,Lulusar store Islamabad,"Lulusar store Islamabad
4.2(81)
Clothing store · School Rd, near shell pump
Open ⋅ Closes 10 PM · +92 305 2553434",Clothing store,Open,33.7315943,73.0788839,https://www.google.com/maps/place/Lulusar+store+Islamabad/data=!4m7!3m6!1s0x38dfbfa63ccf9823:0xc9e201b064f6e69b!8m2!3d33.7315943!4d73.0788839!16s%2Fg%2F11sghj5wpr!19sChIJI5jPPKa_3zgRm-b2ZLAB4sk?authuser=0&hl=en&rclk=1,"Store, Islamabad"
55,saudasulfgrocerystor_33.684782_72.986486,Sauda Sulf Grocery Store,"Sauda Sulf Grocery Store
4.2(110)
Grocery store · Lower Ground Floor, Select Center
Open ⋅ Closes 11 PM · +92 328 5966532",Grocery store,Open,33.684782,72.9864865,https://www.google.com/maps/place/Sauda+Sulf+Grocery+Store/data=!4m7!3m6!1s0x38dfbde413cb5261:0x45f7486e2a13ade5!8m2!3d33.684782!4d72.9864865!16s%2Fg%2F1232kxtkf!19sChIJYVLLE-S93zgR5a0TKm5I90U?authuser=0&hl=en&rclk=1,"Store, Islamabad"
58,islamabadstore_33.730140_73.077516,Islamabad Store,"Islamabad Store
4.0(4)
Gift shop · Block B, Super Market, Agha Khan Rd
Open ⋅ Closes 10 PM · +92 300 5197837",Gift shop,Open,33.7301399,73.0775158,https://www.google.com/maps/place/Islamabad+Store/data=!4m7!3m6!1s0x38dfbf00493975d9:0xb8f345d2998e30f9!8m2!3d33.7301399!4d73.0775158!16s%2Fg%2F11wqn_cb6q!19sChIJ2XU5SQC_3zgR-TCOmdJF87g?authuser=0&hl=en&rclk=1,"Store, Islamabad"
59,onedollarstore_33.712438_73.037188,One Dollar store,"One Dollar store
4.0(502)
Discount store
Open ⋅ Closes 11 PM · +92 322 6540833",Discount store,Open,33.7124375,73.0371875,https://www.google.com/maps/place/One+Dollar+store/data=!4m7!3m6!1s0x38dfbfa7afc17651:0x9338f530daf6f51f!8m2!3d33.7124375!4d73.0371875!16s%2Fg%2F11hz_m34zf!19sChIJUXbBr6e_3zgRH_X22jD1OJM?authuser=0&hl=en&rclk=1,"Store, Islamabad"
60,islamabadcashcarryic_33.718475_73.085461,Islamabad Cash & Carry / ICC,"Islamabad Cash & Carry / ICC
4.3(713)
Supermarket ·  · melody market, near General Post Office
Open ⋅ Closes 10 PM · +92 334 0502623",Supermarket,Open,33.7184751,73.0854612,https://www.google.com/maps/place/Islamabad+Cash+%26+Carry+%2F+ICC/data=!4m7!3m6!1s0x38dfbf4ec7fa7b7f:0x558883ae276db0ac!8m2!3d33.7184751!4d73.0854612!16s%2Fg%2F11h8f_py9q!19sChIJf3v6x06_3zgRrLBtJ66DiFU?authuser=0&hl=en&rclk=1,"Store, Islamabad"
61,quickgroceryshopping_33.644692_73.021152,Quick Grocery Shopping,"Quick Grocery Shopping
4.3(85)
Grocery store ·  · Plot 31, main Faqir Aipee Road
Open ⋅ Closes 11 PM · +92 300 5668000",Grocery store,Open,33.6446917,73.0211521,https://www.google.com/maps/place/Quick+Grocery+Shopping/data=!4m7!3m6!1s0x38df9511ca7e79b5:0x7503935182df6938!8m2!3d33.6446917!4d73.0211521!16s%2Fg%2F11t7z86bn5!19sChIJtXl-yhGV3zgROGnfglGTA3U?authuser=0&hl=en&rclk=1,"Store, Islamabad"
62,islamabadmart_33.658329_72.855883,islamabad Mart,"islamabad Mart
3.8(47)
Grocery store · MV54+89J
Open ⋅ Closes 10 PM · +92 318 5112979",Grocery store,Open,33.6583293,72.8558829,https://www.google.com/maps/place/islamabad+Mart/data=!4m7!3m6!1s0x38dfa38dfc2e9f65:0xf6df2feb78e60140!8m2!3d33.6583293!4d72.8558829!16s%2Fg%2F11hf7sw97g!19sChIJZZ8u_I2j3zgRQAHmeOsv3_Y?authuser=0&hl=en&rclk=1,"Store, Islamabad"
63,emporiumislamabad_33.698389_73.011404,Emporium Islamabad,"Emporium Islamabad
4.0(28)
Shopping mall ·  · 10A
Open ⋅ Closes 10 PM · +92 300 5172434",Shopping mall,Open,33.6983886,73.0114044,https://www.google.com/maps/place/Emporium+Islamabad/data=!4m7!3m6!1s0x38dfbf6b10ee3fc9:0x9a15f93293d24e0e!8m2!3d33.6983886!4d73.0114044!16s%2Fg%2F11t7s_xq6p!19sChIJyT_uEGu_3zgRDk7SkzL5FZo?authuser=0&hl=en&rclk=1,"Store, Islamabad"
64,pakistangeneralstore_33.737296_73.206908,Pakistan General Store,"Pakistan General Store
4.3(118)
Grocery store · Seri Chowk
Open ⋅ Closes 10:30 PM · +92 313 5361976",Grocery store,Open,33.737296,73.2069083,https://www.google.com/maps/place/Pakistan+General+Store/data=!4m7!3m6!1s0x38dfc36787537cad:0xa056496627c8f26b!8m2!3d33.737296!4d73.2069083!16s%2Fg%2F11r2pv5xn5!19sChIJrXxTh2fD3zgRa_LIJ2ZJVqA?authuser=0&hl=en&rclk=1,"Store, Islamabad"
65,centralstorenarcisla_33.675771_73.131400,"Central Store, NARC, Islamabad","Central Store, NARC, Islamabad
3.9(41)
Store · M4GJ+8H2
Open ⋅ Closes 5 PM",Store,Open,33.675771,73.1313997,"https://www.google.com/maps/place/Central+Store,+NARC,+Islamabad/data=!4m7!3m6!1s0x38dfea89053cf533:0xfbf1d38203d2a42a!8m2!3d33.675771!4d73.1313997!16s%2Fg%2F11bxfv40xt!19sChIJM_U8BYnq3zgRKqTSA4LT8fs?authuser=0&hl=en&rclk=1","Store, Islamabad"
66,alternatestore_33.695945_73.013212,Alternate Store,"Alternate Store
4.6(9)
Sportswear store · East, Main F-10 Markaz, Main Double Rd, near Bank Al-Falah
Open ⋅ Closes 11 PM · +92 51 8446916",Sportswear store,Open,33.6959453,73.0132117,https://www.google.com/maps/place/Alternate+Store/data=!4m7!3m6!1s0x38dfbf5b55144ddb:0x358af257a96c2245!8m2!3d33.6959453!4d73.0132117!16s%2Fg%2F11pf8g4x19!19sChIJ200UVVu_3zgRRSJsqVfyijU?authuser=0&hl=en&rclk=1,"Store, Islamabad"
67,almasoodislamicstore_33.711577_73.039790,Al-Masood Islamic Store,"Al-Masood Islamic Store
4.3(99)
Book store ·  · Basment Shop 5, Umar Plaza
Open ⋅ Closes 8:30 PM · +92 51 2261356",Book store,Open,33.7115769,73.0397898,https://www.google.com/maps/place/Al-Masood+Islamic+Store/data=!4m7!3m6!1s0x38dfbfad47aee711:0x7b1c94a6c9182871!8m2!3d33.7115769!4d73.0397898!16s%2Fg%2F11xd59kn3!19sChIJEeeuR62_3zgRcSgYyaaUHHs?authuser=0&hl=en&rclk=1,"Store, Islamabad"
68,zubaidasgracobabysho_33.683836_72.986746,"Zubaida's Graco Babyshop – F11 MARKAZ, ISLAMABAD","Zubaida's Graco Babyshop – F11 MARKAZ, ISLAMABAD
3.9(89)
Baby store · Besides Standard Chartered Bank, Savoy Arcade, Lower Ground, besides, Plot # 21 Hilal Rd
Open ⋅ Closes 10 PM · +92 345 0022348",Baby store,Open,33.6838361,72.9867457,"https://www.google.com/maps/place/Zubaida%27s+Graco+Babyshop+%E2%80%93+F11+MARKAZ,+ISLAMABAD/data=!4m7!3m6!1s0x38dfbde47a5f2205:0x8711403dd18c706d!8m2!3d33.6838361!4d72.9867457!16s%2Fg%2F11c5_q34q5!19sChIJBSJfeuS93zgRbXCM0T1AEYc?authuser=0&hl=en&rclk=1","Store, Islamabad"
69,samsungoutletislamab_33.711800_73.041135,Samsung Outlet Islamabad,"Samsung Outlet Islamabad
4.5(352)
Outlet store ·  · Ground floor, Royal Inn Plaza, Kohistan Rd
Open ⋅ Closes 10 PM · +92 333 5777792",Outlet store,Open,33.7117998,73.0411355,https://www.google.com/maps/place/Samsung+Outlet+Islamabad/data=!4m7!3m6!1s0x38dfbfad2fe47385:0xea2fcacb2778fb4f!8m2!3d33.7117998!4d73.0411355!16s%2Fg%2F11cs1wk148!19sChIJhXPkL62_3zgRT_t4J8vKL-o?authuser=0&hl=en&rclk=1,"Store, Islamabad"
70,miofficialstore_33.714368_73.066513,Mi Official Store,"Mi Official Store
4.2(205)
Cell phone store ·  · Black Horse Plaza, Shop No. 05 Ali Complex, Akm Fazal-e-Haq Road
Open ⋅ Closes 10 PM · +92 334 8502766",Cell phone store,Open,33.7143676,73.0665131,https://www.google.com/maps/place/Mi+Official+Store/data=!4m7!3m6!1s0x38dfbf5d35c91033:0x67d1926c85a1fc91!8m2!3d33.7143676!4d73.0665131!16s%2Fg%2F11c1s2r9d2!19sChIJMxDJNV2_3zgRkfyhhWyS0Wc?authuser=0&hl=en&rclk=1,"Store, Islamabad"
71,fonestore_33.714242_73.066393,FONE STORE,"FONE STORE
4.3(39)
Electronics store · Shop#09, Black Horse Plaza, Ali Complex, Fazl-e-Haq Road
Open ⋅ Closes 10 PM · +92 51 2344399",Electronics store,Open,33.7142418,73.0663931,https://www.google.com/maps/place/FONE+STORE/data=!4m7!3m6!1s0x38dfbf30de2631e3:0x9b90a42c36f1ac28!8m2!3d33.7142418!4d73.0663931!16s%2Fg%2F11f9hr_6kj!19sChIJ4zEm3jC_3zgRKKzxNiykkJs?authuser=0&hl=en&rclk=1,"Store, Islamabad"
72,deluxestoreislamabad_33.668086_73.078463,Deluxe store Islamabad,"Deluxe store Islamabad
5.0(1)
Store
Open 24 hours · +92 331 4437773",Store,Open 24 hours,33.6680864,73.0784634,https://www.google.com/maps/place/Deluxe+store+Islamabad/data=!4m7!3m6!1s0x38dfeb59712c89a9:0xd0014e9dd7e081f5!8m2!3d33.6680864!4d73.0784634!16s%2Fg%2F11x1l9fv85!19sChIJqYkscVnr3zgR9YHg151OAdA?authuser=0&hl=en&rclk=1,"Store, Islamabad"
73,gamestoreislamabad_33.720632_73.054862,Game Store Islamabad,"Game Store Islamabad
4.4(509)
Video game store · MCB Bank, Safa Gold Mall, King Arcade Plaza Mid Caltex Petrol Pump and safa gold mall College Road, MARKAZ
Open ⋅ Closes 11 PM · +92 336 2002640",Video game store,Open,33.7206323,73.0548624,https://www.google.com/maps/place/Game+Store+Islamabad/data=!4m7!3m6!1s0x38dfbfb61c6e95d5:0xd366e50b1cb02ea0!8m2!3d33.7206323!4d73.0548624!16s%2Fg%2F11fhtw_x50!19sChIJ1ZVuHLa_3zgRoC6wHAvlZtM?authuser=0&hl=en&rclk=1,"Store, Islamabad"
74,mobileempireg9markaz_33.690792_73.032528,Mobile Empire G9 Markaz Islamabad,"Mobile Empire G9 Markaz Islamabad
4.5(80)
Cell phone store · Shop 16 Ground floor Paragon Centre Mangla Rd, Markaz
Open ⋅ Closes 10 PM · +92 300 9797672",Cell phone store,Open,33.6907921,73.032528,https://www.google.com/maps/place/Mobile+Empire+G9+Markaz+Islamabad/data=!4m7!3m6!1s0x38dfbe313d3d61e7:0x72e128e164b12d60!8m2!3d33.6907921!4d73.032528!16s%2Fg%2F12mkw9rtd!19sChIJ52E9PTG-3zgRYC2xZOEo4XI?authuser=0&hl=en&rclk=1,"Store, Islamabad"
75,onlyyesblueareaoutle_33.714575_73.065993,Only Yes Blue Area Outlet,"Only Yes Blue Area Outlet
4.1(67)
Clothing store · P378+R9H, Umer Plaza, Jinnah Ave
Open ⋅ Closes 10 PM · +92 51 2344078",Clothing store,Open,33.714575,73.0659934,https://www.google.com/maps/place/Only+Yes+Blue+Area+Outlet/data=!4m7!3m6!1s0x38dfbf983fb459f3:0x5991198f240b6e22!8m2!3d33.714575!4d73.0659934!16s%2Fg%2F12mkw9xqx!19sChIJ81m0P5i_3zgRIm4LJI8ZkVk?authuser=0&hl=en&rclk=1,"Store, Islamabad"
76,punjabricestore_33.689788_73.031672,Punjab Rice Store,"Punjab Rice Store
4.6(160)
Grocery store · M2QJ+WM7, Allah Wala Plaza, Rohtas Rd
Open ⋅ Closes 8:30 PM · +92 51 2262175",Grocery store,Open,33.6897881,73.0316715,https://www.google.com/maps/place/Punjab+Rice+Store/data=!4m7!3m6!1s0x38dfbf208063133b:0xec196b1af0c479a5!8m2!3d33.6897881!4d73.0316715!16s%2Fg%2F11h3l0nyw0!19sChIJOxNjgCC_3zgRpXnE8BprGew?authuser=0&hl=en&rclk=1,"Store, Islamabad"
77,asharstorese11_33.696819_72.969017,ASHAR STORES E 11,"ASHAR STORES E 11
2.9(48)
Clothing store · 2 Main Double Rd
Open ⋅ Closes 10 PM · +92 51 2305247",Clothing store,Open,33.6968193,72.969017,https://www.google.com/maps/place/ASHAR+STORES+E+11/data=!4m7!3m6!1s0x38dfbde9a29be061:0xeb5c064c87b089f7!8m2!3d33.6968193!4d72.969017!16s%2Fg%2F11r2gs1jn_!19sChIJYeCboum93zgR94mwh0wGXOs?authuser=0&hl=en&rclk=1,"Store, Islamabad"
78,applestorepk_33.699777_72.973490,Apple.store.pk,"Apple.store.pk
4.4(194)
Cell phone store · Shop no. 2,3, Karsaaz Tower II
Open ⋅ Closes 12:30 AM · +92 302 5018696",Cell phone store,Open,33.6997768,72.97349,https://www.google.com/maps/place/Apple.store.pk/data=!4m7!3m6!1s0x38dfbdb386ff29cf:0xf82d723766d6b4b9!8m2!3d33.6997768!4d72.97349!16s%2Fg%2F11ll8hsffx!19sChIJzyn_hrO93zgRubTWZjdyLfg?authuser=0&hl=en&rclk=1,"Store, Islamabad"
79,minisoi8markazislama_33.667994_73.075806,Miniso I-8 Markaz Islamabad,"Miniso I-8 Markaz Islamabad
3.8(55)
Cosmetics store · Plot # 17,18
Open ⋅ Closes 11 PM · +92 343 5367536",Cosmetics store,Open,33.6679937,73.0758062,https://www.google.com/maps/place/Miniso+I-8+Markaz+Islamabad/data=!4m7!3m6!1s0x38df950fb78282a7:0xb9a7002a7c3d1f0!8m2!3d33.6679937!4d73.0758062!16s%2Fg%2F11fr6sy5_c!19sChIJp4KCtw-V3zgR8NHDpwJwmgs?authuser=0&hl=en&rclk=1,"Store, Islamabad"
80,menustore_33.689638_73.033297,Menu Store,"Menu Store
4.0(30)
Meat processor · M2QM+V83
Open ⋅ Closes 9:30 PM · +92 51 2284837",Meat processor,Open,33.6896375,73.0332973,https://www.google.com/maps/place/Menu+Store/data=!4m7!3m6!1s0x38dfbe319fe15b49:0x6b5fa6bf3ad4aa77!8m2!3d33.6896375!4d73.0332973!16s%2Fg%2F11c2pkdsp4!19sChIJSVvhnzG-3zgRd6rUOr-mX2s?authuser=0&hl=en&rclk=1,"Store, Islamabad"
81,alsyedmobilesgadgets_33.666729_73.073557,Al Syed Mobiles & Gadgets i-8 Markaz Islamabad,"Al Syed Mobiles & Gadgets i-8 Markaz Islamabad
4.8(101)
Cell phone store
Open ⋅ Closes 11 PM · +92 333 5147779",Cell phone store,Open,33.6667293,73.0735574,https://www.google.com/maps/place/Al+Syed+Mobiles+%26+Gadgets+i-8+Markaz+Islamabad/data=!4m7!3m6!1s0x38df9545c9d0fd65:0x3fac5ff1652a7901!8m2!3d33.6667293!4d73.0735574!16s%2Fg%2F1tzlxb93!19sChIJZf3QyUWV3zgRAXkqZfFfrD8?authuser=0&hl=en&rclk=1,"Store, Islamabad"
82,imagef10markazislama_33.696705_73.012612,Image - F-10 Markaz - Islamabad,"Image - F-10 Markaz - Islamabad
4.1(27)
Women's clothing store · Pak Plaza
Open ⋅ Closes 10 PM · +92 51 8739054",Women's clothing store,Open,33.696705,73.0126115,https://www.google.com/maps/place/Image+-+F-10+Markaz+-+Islamabad/data=!4m7!3m6!1s0x38dfbff083da6be3:0x221935261569e37f!8m2!3d33.696705!4d73.0126115!16s%2Fg%2F11q46l4tc8!19sChIJ42vag_C_3zgRf-NpFSY1GSI?authuser=0&hl=en&rclk=1,"Store, Islamabad"
83,gamestopislamabadpsn_33.666739_73.075953,Game Stop Islamabad & PSN Gift Card Store,"Game Stop Islamabad & PSN Gift Card Store
4.8(12)
Shopping mall ·  · Pak Land Business Centre, Markaz
Open ⋅ Closes 10 PM · +92 305 6916224",Shopping mall,Open,33.6667391,73.0759528,https://www.google.com/maps/place/Game+Stop+Islamabad+%26+PSN+Gift+Card+Store/data=!4m7!3m6!1s0x38dfbfcf470931e1:0xbf9e4a3e298f495f!8m2!3d33.6667391!4d73.0759528!16s%2Fg%2F11ny23n9gh!19sChIJ4TEJR8-_3zgRX0mPKT5Knr8?authuser=0&hl=en&rclk=1,"Store, Islamabad"
84,downtownchildrenclot_33.721476_73.057234,Downtown Children Clothing Store,"Downtown Children Clothing Store
4.2(248)
Clothing store ·  · P3C4+HVX
Open ⋅ Closes 10 PM",Clothing store,Open,33.7214763,73.0572337,https://www.google.com/maps/place/Downtown+Children+Clothing+Store/data=!4m7!3m6!1s0x38dfbfa7389f277b:0xcfd46df1d8035668!8m2!3d33.7214763!4d73.0572337!16s%2Fg%2F11c1q42mv8!19sChIJeyefOKe_3zgRaFYD2PFt1M8?authuser=0&hl=en&rclk=1,"Store, Islamabad"
85,muhammadimachineryst_33.689983_73.053299,Muhammadi Machinery Store,"Muhammadi Machinery Store
4.2(60)
Appliance store · I & T Center, Block# 52
Open ⋅ Closes 5 PM · +92 51 2331812",Appliance store,Open,33.6899828,73.053299,https://www.google.com/maps/place/Muhammadi+Machinery+Store/data=!4m7!3m6!1s0x38dfbfc54c5d9cd3:0x8fa3c43a94486dbb!8m2!3d33.6899828!4d73.053299!16s%2Fg%2F12mkwb0pr!19sChIJ05xdTMW_3zgRu21IlDrEo48?authuser=0&hl=en&rclk=1,"Store, Islamabad"
86,islamabadgrocerystor_33.640296_72.911658,Islamabad Grocery Store - Online Grocery Store in Islamabad & Rawalpindi,"Islamabad Grocery Store - Online Grocery Store in Islamabad & Rawalpindi
4.8(10)
Grocery delivery service · Main rd no 4, sector f-15/1
Open ⋅ Closes 10 PM · +92 314 8969059",Grocery delivery service,Open,33.6402962,72.9116576,https://www.google.com/maps/place/Islamabad+Grocery+Store+-+Online+Grocery+Store+in+Islamabad+%26+Rawalpindi/data=!4m7!3m6!1s0x38df97b52daab393:0xdb0cdb18b883714c!8m2!3d33.6402962!4d72.9116576!16s%2Fg%2F11vqz12dd2!19sChIJk7OqLbWX3zgRTHGDuBjbDNs?authuser=0&hl=en&rclk=1,"Store, Islamabad"
87,utilitystoreg7_33.706069_73.067940,Utility Store G-7,"Utility Store G-7
4.0(89)
Grocery store ·  · OFFICE 1 ,FLOOR 3RD
Open ⋅ Closes 8 PM",Grocery store,Open,33.7060687,73.0679399,https://www.google.com/maps/place/Utility+Store+G-7/data=!4m7!3m6!1s0x38dfbf944ed14d01:0xc4d2922f670fa91d!8m2!3d33.7060687!4d73.0679399!16s%2Fg%2F11c1tch7bt!19sChIJAU3RTpS_3zgRHakPZy-S0sQ?authuser=0&hl=en&rclk=1,"Store, Islamabad"
88,imransportstoysandba_33.688900_73.032953,IMRAN SPORTS (Toys and Baby Items Shop),"IMRAN SPORTS (Toys and Baby Items Shop)
3.9(66)
Sporting goods store · Oposit utility store parking, Rose Plaza, Parking lot
Open ⋅ Closes 10:30 PM · +92 51 2263746",Sporting goods store,Open,33.6888996,73.032953,https://www.google.com/maps/place/IMRAN+SPORTS+%28Toys+and+Baby+Items+Shop%29/data=!4m7!3m6!1s0x38dfbe31bd1ec221:0x4f6a28f35ec53aab!8m2!3d33.6888996!4d73.032953!16s%2Fg%2F12mkznykm!19sChIJIcIevTG-3zgRqzrFXvMoak8?authuser=0&hl=en&rclk=1,"Store, Islamabad"
89,islamabadsuperstore_33.663187_73.084187,Islamabad super store,"Islamabad super store
5.0(9)
Market · M37M+7MJ، Faizabad Road
Open ⋅ Closes 10:30 PM · +92 345 6170668",Market,Open,33.6631875,73.0841875,https://www.google.com/maps/place/Islamabad+super+store/data=!4m7!3m6!1s0x38df95e869144671:0x31f229fffa4588a9!8m2!3d33.6631875!4d73.0841875!16s%2Fg%2F11v656md5_!19sChIJcUYUaeiV3zgRqYhF-v8p8jE?authuser=0&hl=en&rclk=1,"Store, Islamabad"
90,shams_33.729373_73.074938,Shams,"Shams
4.3(1,530)
Supermarket ·  · B-8 School Rd
Open ⋅ Closes 10 PM · +92 51 2826859",Supermarket,Open,33.7293731,73.0749379,https://www.google.com/maps/place/Shams/data=!4m7!3m6!1s0x38dfbf776a536ce9:0x789c4592e4973969!8m2!3d33.7293731!4d73.0749379!16s%2Fg%2F1tkrk548!19sChIJ6WxTane_3zgRaTmX5JJFnHg?authuser=0&hl=en&rclk=1,"Store, Islamabad"
91,storebyarj_33.696412_73.011366,Store By Arj,"Store By Arj
4.3(9)
Gift shop · Store by Arj, Capital trade Center
Open ⋅ Closes 10 PM · +92 320 5000330",Gift shop,Open,33.6964122,73.0113656,https://www.google.com/maps/place/Store+By+Arj/data=!4m7!3m6!1s0x38dfbd674c614b09:0x7bcdc715a93b2237!8m2!3d33.6964122!4d73.0113656!16s%2Fg%2F11hfpspth6!19sChIJCUthTGe93zgRNyI7qRXHzXs?authuser=0&hl=en&rclk=1,"Store, Islamabad"
92,homestore_33.696855_72.987937,@home store,"@home store
4.4(32)
Furniture store ·  · Service road
Open ⋅ Closes 9 PM · +92 333 5550610",Furniture store,Open,33.6968551,72.9879367,https://www.google.com/maps/place/%27@home+store%27/data=!4m7!3m6!1s0x38dfbda47f8f8cf7:0x75be9427ba4c993e!8m2!3d33.6968551!4d72.9879367!16s%2Fg%2F11lkys5__q!19sChIJ94yPf6S93zgRPplMuieUvnU?authuser=0&hl=en&rclk=1,"Store, Islamabad"
93,dollarstore_33.708134_73.050467,Dollar Store,"Dollar Store
4.5(25)
Store · 4
Open ⋅ Closes 10 PM",Store,Open,33.7081336,73.0504674,https://www.google.com/maps/place/Dollar+Store/data=!4m7!3m6!1s0x38dfbf4200d4021b:0x6b12dce8b51c1156!8m2!3d33.7081336!4d73.0504674!16s%2Fg%2F11hyq_z57j!19sChIJGwLUAEK_3zgRVhEctejcEms?authuser=0&hl=en&rclk=1,"Store, Islamabad"
94,mobilestore_33.695893_73.013501,Mobile Store,"Mobile Store
4.0(16)
Store · F10-East, Service Road،
Open ⋅ Closes 11 PM · +92 345 5415552",Store,Open,33.6958928,73.013501,https://www.google.com/maps/place/Mobile+Store/data=!4m7!3m6!1s0x38dfbfa35afdbc8d:0x36a214b7b85e8f19!8m2!3d33.6958928!4d73.013501!16s%2Fg%2F11fplypmcs!19sChIJjbz9WqO_3zgRGY9euLcUojY?authuser=0&hl=en&rclk=1,"Store, Islamabad"
95,umarhomestore_33.720119_73.076560,Umar Home Store,"Umar Home Store
4.3(100)
Electronics store · Rizwan Plaza, Shop 1 Unit 9
Open ⋅ Closes 9 PM · +92 51 8730136",Electronics store,Open,33.7201186,73.0765598,https://www.google.com/maps/place/Umar+Home+Store/data=!4m7!3m6!1s0x38dfbf870dbffa13:0xc4213c1c515272aa!8m2!3d33.7201186!4d73.0765598!16s%2Fg%2F11ghs3bczf!19sChIJE_q_DYe_3zgRqnJSURw8IcQ?authuser=0&hl=en&rclk=1,"Store, Islamabad"
96,djistorepk_33.709954_73.058203,DJI Store.PK,"DJI Store.PK
4.4(283)
Camera store · Shop No 2, Ground Floor, Asif Plaza, AKM Fazl-ul-Haq Road, Blue Area, Islamabad, Islamabad Capital Territory 44000 Blue
Open ⋅ Closes 10 PM · +92 331 5200374",Camera store,Open,33.709954,73.0582029,https://www.google.com/maps/place/DJI+Store.PK/data=!4m7!3m6!1s0x38df95cf873cf2c7:0xc8d32195c3a210b2!8m2!3d33.709954!4d73.0582029!16s%2Fg%2F11fk3dg12m!19sChIJx_I8h8-V3zgRshCiw5Uh08g?authuser=0&hl=en&rclk=1,"Store, Islamabad"
97,alrehaabdepartmentst_33.729273_73.075028,ALREHAAB DEPARTMENT STORE,"ALREHAAB DEPARTMENT STORE
4.5(15)
Store · United Bakery Building
Open ⋅ Closes 11 PM · +92 51 2726922",Store,Open,33.7292728,73.0750282,https://www.google.com/maps/place/ALREHAAB+DEPARTMENT+STORE/data=!4m7!3m6!1s0x38dfbfd368011f29:0x758cb68b56f4548d!8m2!3d33.7292728!4d73.0750282!16s%2Fg%2F11tc213q67!19sChIJKR8BaNO_3zgRjVT0Vou2jHU?authuser=0&hl=en&rclk=1,"Store, Islamabad"
98,mallofpakistan_33.704834_73.199853,Mall of Pakistan,"Mall of Pakistan
4.5(6)
Grocery store · P53X+WWQ
Open ⋅ Closes 7 PM · +92 331 2176504",Grocery store,Open,33.7048338,73.1998527,https://www.google.com/maps/place/Mall+of+Pakistan/data=!4m7!3m6!1s0x38dfc338eefd27c3:0xb6f1ce70a13d73b8!8m2!3d33.7048338!4d73.1998527!16s%2Fg%2F11h56qjkd9!19sChIJwyf97jjD3zgRuHM9oXDO8bY?authuser=0&hl=en&rclk=1,"Store, Islamabad"
99,fragrancestoreislama_33.698370_73.011386,Fragrance Store Islamabad | Lattafa Store | Surrati Store | Armaf | Afnan Store,"Fragrance Store Islamabad | Lattafa Store | Surrati Store | Armaf | Afnan Store
5.0(27)
Perfume store · Kiosk#1 first floor, emporium mall
Open ⋅ Closes 10:10 PM · +92 336 5390004",Perfume store,Open,33.6983701,73.0113856,https://www.google.com/maps/place/Fragrance+Store+Islamabad+%7C+Lattafa+Store+%7C+Surrati+Store+%7C+Armaf+%7C+Afnan+Store/data=!4m7!3m6!1s0x38dfbf7ccac6e869:0xe23f4e089695a912!8m2!3d33.6983701!4d73.0113856!16s%2Fg%2F11v41fnskz!19sChIJaejGyny_3zgREqmVlghOP-I?authuser=0&hl=en&rclk=1,"Store, Islamabad"
100,utilitystore_33.738457_73.192213,Utility Store,"Utility Store
4.2(66)
Grocery store · P5QR+9VP
Open ⋅ Closes 9 PM",Grocery store,Open,33.7384567,73.1922135,https://www.google.com/maps/place/Utility+Store/data=!4m7!3m6!1s0x38dfc358b321327b:0xae4fe4a3f37529b2!8m2!3d33.7384567!4d73.1922135!16s%2Fg%2F11j6j7vt25!19sChIJezIhs1jD3zgRsil186PkT64?authuser=0&hl=en&rclk=1,"Store, Islamabad"
101,irshadvarietycentrec_33.689136_73.032028,Irshad Variety Centre (Cosmetics and Newborn Items),"Irshad Variety Centre (Cosmetics and Newborn Items)
3.9(59)
Cosmetics store · M2QJ+MQF Parking lot, Ahmed Centre, Rohtas Rd, G-9 Markaz, G-9
Open ⋅ Closes 10 PM · +92 51 2252831",Cosmetics store,Open,33.689136,73.0320277,https://www.google.com/maps/place/Irshad+Variety+Centre+%28Cosmetics+and+Newborn+Items%29/data=!4m7!3m6!1s0x38dfbe31abbb1c17:0xf21c0257692fee1!8m2!3d33.689136!4d73.0320277!16s%2Fg%2F12mkzj2__!19sChIJFxy7qzG-3zgR4f6SdiXAIQ8?authuser=0&hl=en&rclk=1,"Store, Islamabad"
102,haierstoreislamabad_33.720125_73.077628,Haier Store Islamabad,"Haier Store Islamabad
4.3(25)
Electronics store · Shop # 2, Bewal Plaza, Blue, near punjab college
Open ⋅ Closes 9 PM · +92 51 2805216",Electronics store,Open,33.7201252,73.0776284,https://www.google.com/maps/place/Haier+Store+Islamabad/data=!4m7!3m6!1s0x38dfbff847477943:0x90c456246464a730!8m2!3d33.7201252!4d73.0776284!16s%2Fg%2F11krdp7cx9!19sChIJQ3lHR_i_3zgRMKdkZCRWxJA?authuser=0&hl=en&rclk=1,"Store, Islamabad"
103,islamabadmobilemobil_33.714297_73.066459,Islamabad Mobile MOBILO,"Islamabad Mobile MOBILO
3.8(40)
Cell phone store
Open ⋅ Closes 11 PM · +92 335 5288846",Cell phone store,Open,33.7142972,73.0664588,https://www.google.com/maps/place/Islamabad+Mobile+MOBILO/data=!4m7!3m6!1s0x38dfbf9837524a97:0xa90081f5d9928f28!8m2!3d33.7142972!4d73.0664588!16s%2Fg%2F1yfprs1t5!19sChIJl0pSN5i_3zgRKI-S2fWBAKk?authuser=0&hl=en&rclk=1,"Store, Islamabad"
104,islamabadgeneralstor_33.706136_73.037263,Islamabad General Store,"Islamabad General Store
No reviews
General store
Open ⋅ Closes 10 PM · +92 333 5513462",General store,Open,33.7061355,73.0372631,https://www.google.com/maps/place/Islamabad+General+Store/data=!4m7!3m6!1s0x38dfbe4c541d7a11:0x1444b7e1ab756fe3!8m2!3d33.7061355!4d73.0372631!16s%2Fg%2F11xcwpywx!19sChIJEXodVEy-3zgR4291q-G3RBQ?authuser=0&hl=en&rclk=1,"Store, Islamabad"
105,saleemsonspaintshard_33.685880_73.045409,Saleem Sons Paints & Hardware Store,"Saleem Sons Paints & Hardware Store
4.2(75)
Hardware store ·  · Saleem Sons Paints & Hardware, Shop#1, Najam Square, I&T Centre, Street#54,, Sector# G-9/4
Open ⋅ Closes 7 PM · +92 51 2850237",Hardware store,Open,33.68588,73.045409,https://www.google.com/maps/place/Saleem+Sons+Paints+%26+Hardware+Store/data=!4m7!3m6!1s0x38dfbfd3b69be781:0x628ce2c9c4602ebe!8m2!3d33.68588!4d73.045409!16s%2Fg%2F11bxf8szp4!19sChIJgeebttO_3zgRvi5gxMnijGI?authuser=0&hl=en&rclk=1,"Store, Islamabad"
106,f7markazislamabad_33.720029_73.055317,F-7 Markaz islamabad,"F-7 Markaz islamabad
4.6(17)
Women's clothing store ·  · P3C4+248",Women's clothing store,,33.7200288,73.0553168,https://www.google.com/maps/place/F-7+Markaz+islamabad/data=!4m7!3m6!1s0x38dfbf4f05e04149:0x7f6a3d0f9fc40235!8m2!3d33.7200288!4d73.0553168!16s%2Fg%2F11s1gsgs4v!19sChIJSUHgBU-_3zgRNQLEnw89an8?authuser=0&hl=en&rclk=1,"Store, Islamabad"
107,perfumesshopinislama_33.707685_73.049963,Perfumes Shop in Islamabad - Scents N Stories - Centaurus Mall,"Perfumes Shop in Islamabad - Scents N Stories - Centaurus Mall
4.8(132)
Perfume store · 3rd Floor, 4 Jinnah Avenue
Open ⋅ Closes 11 PM · +92 315 2006515",Perfume store,Open,33.7076847,73.0499625,https://www.google.com/maps/place/Perfumes+Shop+in+Islamabad+-+Scents+N+Stories+-+Centaurus+Mall/data=!4m7!3m6!1s0x38dfbf9d553e31e3:0xbd0f5e159d754c9d!8m2!3d33.7076847!4d73.0499625!16s%2Fg%2F11vf31kj0s!19sChIJ4zE-VZ2_3zgRnUx1nRVeD70?authuser=0&hl=en&rclk=1,"Store, Islamabad"
108,margallasanitarystor_33.682445_73.039296,Margalla Sanitary Store,"Margalla Sanitary Store
4.3(23)
Stationery store · I & T Center, Street 54
Open ⋅ Closes 8 PM · +92 333 5180180",Stationery store,Open,33.6824451,73.0392956,https://www.google.com/maps/place/Margalla+Sanitary+Store/data=!4m7!3m6!1s0x38dfbe2bec7ba26f:0x586b8434ca3db91b!8m2!3d33.6824451!4d73.0392956!16s%2Fg%2F12mkwj6sn!19sChIJb6J77Cu-3zgRG7k9yjSEa1g?authuser=0&hl=en&rclk=1,"Store, Islamabad"
109,pumaflagshipstoreisl_33.711135_73.059222,Puma Flagship Store Islamabad,"Puma Flagship Store Islamabad
3.0(2)
Sportswear store · Shop no 4 Saddar Bagum Plaza
Open ⋅ Closes 11 PM · +92 51 2120140",Sportswear store,Open,33.7111345,73.0592222,https://www.google.com/maps/place/Puma+Flagship+Store+Islamabad/data=!4m7!3m6!1s0x38dfbfa75b4519a5:0x906a898e2afb71ba!8m2!3d33.7111345!4d73.0592222!16s%2Fg%2F11jz4d_094!19sChIJpRlFW6e_3zgRunH7Ko6JapA?authuser=0&hl=en&rclk=1,"Store, Islamabad"
110,islamabadsanitarysto_33.687918_73.049329,Islamabad Sanitary Store,"Islamabad Sanitary Store
4.1(79)
Bathroom supply store · I&T Centre Plot 78,Shop#01, Street 14
Open ⋅ Closes 8 PM · +92 51 2252670",Bathroom supply store,Open,33.6879184,73.0493285,https://www.google.com/maps/place/Islamabad+Sanitary+Store/data=!4m7!3m6!1s0x38dfbfd1caafd235:0x133ced8a4b944820!8m2!3d33.6879184!4d73.0493285!16s%2Fg%2F12mkzjj8y!19sChIJNdKvytG_3zgRIEiUS4rtPBM?authuser=0&hl=en&rclk=1,"Store, Islamabad"
111,sapphirecentaurusmal_33.707877_73.049793,SAPPHIRE Centaurus Mall Islamabad,"SAPPHIRE Centaurus Mall Islamabad
4.1(717)
Clothing store ·  · Centaurus Mall, 1st Floor, Shop #117
Open ⋅ Closes 11 PM · +92 51 2701510",Clothing store,Open,33.7078766,73.0497927,https://www.google.com/maps/place/SAPPHIRE+Centaurus+Mall+Islamabad/data=!4m7!3m6!1s0x38dfbfb0f3312ccf:0xe163dcecf984386c!8m2!3d33.7078766!4d73.0497927!16s%2Fg%2F11clz1pmz4!19sChIJzywx87C_3zgRbDiE-ezcY-E?authuser=0&hl=en&rclk=1,"Store, Islamabad"
112,islamabadsupermart_33.736175_73.182013,Islamabad Super Mart,"Islamabad Super Mart
4.7(27)
Grocery store · P5PJ+FRC
Open now · +92 300 5818284",Grocery store,Open now,33.7361754,73.1820134,https://www.google.com/maps/place/Islamabad+Super+Mart/data=!4m7!3m6!1s0x38dfc10ca0db952d:0x691f18ed789b4232!8m2!3d33.7361754!4d73.1820134!16s%2Fg%2F11rc9sqk91!19sChIJLZXboAzB3zgRMkKbeO0YH2k?authuser=0&hl=en&rclk=1,"Store, Islamabad"
113,glitchgamingzoneesto_33.668796_73.076083,Glitch Gaming Zone & E-Store,"Glitch Gaming Zone & E-Store
4.6(137)
Game store ·  · Rose 1 Plaza
Open 24 hours · +92 332 5455207",Game store,Open 24 hours,33.6687962,73.0760829,https://www.google.com/maps/place/Glitch+Gaming+Zone+%26+E-Store/data=!4m7!3m6!1s0x38df957bdb0f537f:0xee9fe725c33e136a!8m2!3d33.6687962!4d73.0760829!16s%2Fg%2F11nmrwhlg4!19sChIJf1MP23uV3zgRahM-wyXnn-4?authuser=0&hl=en&rclk=1,"Store, Islamabad"
114,shalimarelectricstor_33.687374_73.048284,Shalimar Electric Store,"Shalimar Electric Store
4.5(46)
Electronics store · I&T Centre, Block 81, St 14, G-8-1, G-8
Open ⋅ Closes 7 PM · +92 51 2335537",Electronics store,Open,33.6873741,73.0482842,https://www.google.com/maps/place/Shalimar+Electric+Store/data=!4m7!3m6!1s0x38dfbfd1bbfd5d39:0xa6a015f6593aa9b1!8m2!3d33.6873741!4d73.0482842!16s%2Fg%2F12mkzj310!19sChIJOV39u9G_3zgRsak6WfYVoKY?authuser=0&hl=en&rclk=1,"Store, Islamabad"
115,maktabatulmadinahisl_33.669751_73.001705,Maktaba-tul-Madinah Islamabad,"Maktaba-tul-Madinah Islamabad
4.7(51)
Book store ·  · M292+WM4, Shabbir Sharif Road
Open ⋅ Closes 7 PM · +92 314 5208663",Book store,Open,33.6697509,73.0017046,https://www.google.com/maps/place/Maktaba-tul-Madinah+Islamabad/data=!4m7!3m6!1s0x38df95f8fc09195d:0x86596137abe941fb!8m2!3d33.6697509!4d73.0017046!16s%2Fg%2F11f15lq937!19sChIJXRkJ_PiV3zgR-0HpqzdhWYY?authuser=0&hl=en&rclk=1,"Store, Islamabad"
116,thewoolshop_33.676533_73.015474,THE WOOL Shop,"THE WOOL Shop
4.3(30)
Yarn store · M2G8+J59
Open ⋅ Closes 10 PM · +92 346 5057858",Yarn store,Open,33.6765331,73.0154743,https://www.google.com/maps/place/THE+WOOL+Shop/data=!4m7!3m6!1s0x38dfbf7a2521eef3:0x7d7b4e7cca34709!8m2!3d33.6765331!4d73.0154743!16s%2Fg%2F11k_4tmv18!19sChIJ8-4hJXq_3zgRCUejzOe01wc?authuser=0&hl=en&rclk=1,"Store, Islamabad"
117,shopshopsupermarket_33.669020_73.075080,Shop & Shop Super Market,"Shop & Shop Super Market
3.8(4)
General store · Anlque Arcade, I-8 Markaz, I-8, Islamabad, ICT
Open ⋅ Closes 10 PM",General store,Open,33.66902,73.07508,https://www.google.com/maps/place/Shop+%26+Shop+Super+Market/data=!4m7!3m6!1s0x38df954570268a01:0xe293df015593b19c!8m2!3d33.66902!4d73.07508!16s%2Fg%2F11xbq9bwb!19sChIJAYomcEWV3zgRnLGTVQHfk-I?authuser=0&hl=en&rclk=1,"Store, Islamabad"
118,thebrands_33.712822_73.062802,The Brands,"The Brands
3.1(8)
Clothing store · P377+44F, Al-Malik Centre, Jinnah Ave, Block H, Blue Area, Islamabad, ICT
Open ⋅ Closes 9 PM · +92 51 2277959",Clothing store,Open,33.7128219,73.0628022,https://www.google.com/maps/place/The+Brands/data=!4m7!3m6!1s0x38dfbfa2b511f6f3:0xf8ee4d63a9f3fd87!8m2!3d33.7128219!4d73.0628022!16s%2Fg%2F11xlnp9fy!19sChIJ8_YRtaK_3zgRh_3zqWNN7vg?authuser=0&hl=en&rclk=1,"Store, Islamabad"
119,exhibitislamabadmult_33.729025_73.075437,Exhibit Islamabad multidesigner store,"Exhibit Islamabad multidesigner store
5.0(2)
Clothing store · P3HG+J57 Roomy Signature Hotel
Open ⋅ Closes 11:26 PM · +92 317 4449115",Clothing store,Open,33.7290254,73.0754371,https://www.google.com/maps/place/Exhibit+Islamabad+multidesigner+store/data=!4m7!3m6!1s0x38dfbf00727a24fb:0x2b5b3e0d3b64981f!8m2!3d33.7290254!4d73.0754371!16s%2Fg%2F11vplxb82l!19sChIJ-yR6cgC_3zgRH5hkOw0-Wys?authuser=0&hl=en&rclk=1,"Store, Islamabad"
120,omegaboutiqueislamab_33.720283_73.073718,OMEGA Boutique - Islamabad,"OMEGA Boutique - Islamabad
4.0(22)
Watch store · New Era Watches, G - 9 Beverly Centre, Jinnah Ave
High-end Swiss watches & accessories
Open ⋅ Closes 8 PM · +92 51 2814078",Watch store,Open,33.720283,73.073718,https://www.google.com/maps/place/OMEGA+Boutique+-+Islamabad/data=!4m7!3m6!1s0x38dfbf9c852dac11:0xffcc1f9512833918!8m2!3d33.720283!4d73.073718!16s%2Fg%2F11g6htgtr6!19sChIJEawthZy_3zgRGDmDEpUfzP8?authuser=0&hl=en&rclk=1,"Store, Islamabad"
121,israrsuperstore_33.721553_73.051551,Israr Super Store,"Israr Super Store
3.7(20)
Supermarket · Shop 4, Block 6, Rana Market, F-7, Islamabad, ICT, Street 20
Open ⋅ Closes 10:30 PM · +92 300 7222182",Supermarket,Open,33.721553,73.0515514,https://www.google.com/maps/place/Israr+Super+Store/data=!4m7!3m6!1s0x38dfbfa81b287e09:0x7360b237c5152fd1!8m2!3d33.721553!4d73.0515514!16s%2Fg%2F11x9_8nm5!19sChIJCX4oG6i_3zgR0S8VxTeyYHM?authuser=0&hl=en&rclk=1,"Store, Islamabad"
122,gofreshmeatshopf6mar_33.729283_73.075260,"Go Fresh Meat Shop F-6 Markaz, Islamabad","Go Fresh Meat Shop F-6 Markaz, Islamabad
3.6(20)
Meat products store · Behind United Bakers
Open ⋅ Closes 8 PM · +92 51 2823314",Meat products store,Open,33.729283,73.07526,"https://www.google.com/maps/place/Go+Fresh+Meat+Shop+F-6+Markaz,+Islamabad/data=!4m7!3m6!1s0x38dfbf7767cc4201:0x6a224f90fd2c33f9!8m2!3d33.729283!4d73.07526!16s%2Fg%2F11fzb21_hp!19sChIJAULMZ3e_3zgR-TMs_ZBPImo?authuser=0&hl=en&rclk=1","Store, Islamabad"
123,onestopshopbiggestst_33.680096_73.249285,One stop Shop - Biggest store in Bahria Enclave,"One stop Shop - Biggest store in Bahria Enclave
4.4(10)
Grocery store · Ground Floor, The Galleria Mall
Open ⋅ Closes 11 PM · +92 319 9302181",Grocery store,Open,33.6800962,73.2492845,https://www.google.com/maps/place/One+stop+Shop+-+Biggest+store+in+Bahria+Enclave/data=!4m7!3m6!1s0x38dfe90028222c49:0x30b22df4e0f5d6d0!8m2!3d33.6800962!4d73.2492845!16s%2Fg%2F11vtb7bg8n!19sChIJSSwiKADp3zgR0Nb14PQtsjA?authuser=0&hl=en&rclk=1,"Store, Islamabad"
124,appleeyesapplestore_33.713977_73.065819,Apple Eyes (Apple Store),"Apple Eyes (Apple Store)
4.7(95)
Cell phone store ·  · Unit#3, Rehman Plaza, 75 East Fazal-e-Haq Road
Open ⋅ Closes 11 PM · +92 300 6562064",Cell phone store,Open,33.7139766,73.0658191,https://www.google.com/maps/place/Apple+Eyes+%28Apple+Store%29/data=!4m7!3m6!1s0x38dfbff2aea8585d:0x4de2c07ee75e595a!8m2!3d33.7139766!4d73.0658191!16s%2Fg%2F11pv5r7w4p!19sChIJXViorvK_3zgRWlle537A4k0?authuser=0&hl=en&rclk=1,"Store, Islamabad"
125,samsungofficialstore_33.721812_73.057812,Samsung official Store,"Samsung official Store
4.4(41)
Cell phone store
Open ⋅ Closes 10 PM · +92 333 5172950",Cell phone store,Open,33.7218125,73.0578125,https://www.google.com/maps/place/Samsung+official+Store/data=!4m7!3m6!1s0x38dfbf676ee03b81:0x5533ea828f79162c!8m2!3d33.7218125!4d73.0578125!16s%2Fg%2F11hxvph3rd!19sChIJgTvgbme_3zgRLBZ5j4LqM1U?authuser=0&hl=en&rclk=1,"Store, Islamabad"
126,skechersflagshipstor_33.710788_73.058851,SKECHERS Flagship Store ISLAMABAD (PENTA SPORTS),"SKECHERS Flagship Store ISLAMABAD (PENTA SPORTS)
4.0(18)
Shoe store · Shop#01 , Sardar Beagum Plaza, Jinnah Ave, near Domino's Pizza
Open ⋅ Closes 11 PM · +92 51 2120140",Shoe store,Open,33.7107882,73.0588509,https://www.google.com/maps/place/SKECHERS+Flagship+Store+ISLAMABAD+%28PENTA+SPORTS%29/data=!4m7!3m6!1s0x38dfbf09e09c1151:0x75832ef046df8d75!8m2!3d33.7107882!4d73.0588509!16s%2Fg%2F11rd3lxsvm!19sChIJURGc4Am_3zgRdY3fRvAug3U?authuser=0&hl=en&rclk=1,"Store, Islamabad"
127,savemartpakistan_33.667830_73.076115,Save Mart Pakistan,"Save Mart Pakistan
4.2(940)
Supermarket · EOBI Plaza, Plot # 17,18
Open ⋅ Closes 11 PM · +92 51 8482270",Supermarket,Open,33.6678295,73.0761154,https://www.google.com/maps/place/Save+Mart+Pakistan/data=!4m7!3m6!1s0x38df95ebea8635d1:0xefb515003fbd26af!8m2!3d33.6678295!4d73.0761154!16s%2Fg%2F11j84vg1dq!19sChIJ0TWG6uuV3zgRrya9PwAVte8?authuser=0&hl=en&rclk=1,"Store, Islamabad"
128,newislamabaddiscount_33.640135_73.134214,New Islamabad discount store,"New Islamabad discount store
4.3(3)
General store · A27
Open now · +92 335 5531858",General store,Open now,33.6401347,73.1342137,https://www.google.com/maps/place/New+Islamabad+discount+store/data=!4m7!3m6!1s0x38dfeb13ac5a0257:0xb5b6938bab9a52e!8m2!3d33.6401347!4d73.1342137!16s%2Fg%2F11sk82731s!19sChIJVwJarBPr3zgRLqW5ujhpWws?authuser=0&hl=en&rclk=1,"Store, Islamabad"
129,mastermoltyfoamcompa_33.710471_73.058119,Master MoltyFoam Company Outlet Islamabad,"Master MoltyFoam Company Outlet Islamabad
3.9(371)
Mattress store ·  · Chanab Center, 104 E Jinnah Ave
Open 24 hours · +92 51 2347072",Mattress store,Open 24 hours,33.7104715,73.0581191,https://www.google.com/maps/place/Master+MoltyFoam+Company+Outlet+Islamabad/data=!4m7!3m6!1s0x38dfbfbb65cb2e83:0x20f373ac77bf0a2c!8m2!3d33.7104715!4d73.0581191!16s%2Fg%2F12vqwggt5!19sChIJgy7LZbu_3zgRLAq_d6xz8yA?authuser=0&hl=en&rclk=1,"Store, Islamabad"
130,machiveapplestoreini_33.712238_73.062413,Mac Hive Apple Store in Islamabad,"Mac Hive Apple Store in Islamabad
5.0(55)
Computer store · Shop#3A, Lower Ground Floor, Adeel Plaza, AKM Fazl-ul-Haq Rd
Open ⋅ Closes 8 PM · +92 333 1547278",Computer store,Open,33.712238,73.0624131,https://www.google.com/maps/place/Mac+Hive+Apple+Store+in+Islamabad/data=!4m7!3m6!1s0x38dfbf671c62174d:0x8b1d6ad302c0d77b!8m2!3d33.712238!4d73.0624131!16s%2Fg%2F11flph_8k9!19sChIJTRdiHGe_3zgRe9fAAtNqHYs?authuser=0&hl=en&rclk=1,"Store, Islamabad"
131,artplanetislamabadha_33.721985_73.059108,Art Planet Islamabad (Handmade Rugs & Kilims).,"Art Planet Islamabad (Handmade Rugs & Kilims).
4.9(209)
Carpet store ·  · Shop# 11-12, Address of Art planet :, Block 13-J Markaz, next to Generations & Fish Shop, beside PSO PUMP
Open ⋅ Closes 10 PM · +92 51 2650701",Carpet store,Open,33.7219848,73.0591077,https://www.google.com/maps/place/Art+Planet+Islamabad+%28Handmade+Rugs+%26+Kilims%29./data=!4m7!3m6!1s0x38dfbfa0b9cca349:0xad5bb9999bd12491!8m2!3d33.7219848!4d73.0591077!16s%2Fg%2F11g8b57pql!19sChIJSaPMuaC_3zgRkSTRm5m5W60?authuser=0&hl=en&rclk=1,"Store, Islamabad"
132,mastermoltyfoamcompa_33.694803_73.013865,Master MoltyFoam Company Outlet Islamabad,"Master MoltyFoam Company Outlet Islamabad
4.2(42)
Mattress store ·  · Gul Plaza F10 Markaz Sumbal Road, Main double Road
Open 24 hours · +92 51 4718879",Mattress store,Open 24 hours,33.6948029,73.0138654,https://www.google.com/maps/place/Master+MoltyFoam+Company+Outlet+Islamabad/data=!4m7!3m6!1s0x38dfbfa17c956c1d:0xad9fecf6073abce7!8m2!3d33.6948029!4d73.0138654!16s%2Fg%2F1hm27fj0x!19sChIJHWyVfKG_3zgR57w6B_bsn60?authuser=0&hl=en&rclk=1,"Store, Islamabad"
133,tclflagshipstoreisla_33.705991_73.051079,TCL Flagship Store Islamabad,"TCL Flagship Store Islamabad
4.6(91)
Electronics store · Elysium Tower, 3
Open ⋅ Closes 8:30 PM · +92 51 8748090",Electronics store,Open,33.705991,73.0510787,https://www.google.com/maps/place/TCL+Flagship+Store+Islamabad/data=!4m7!3m6!1s0x38dfbf5be08a3f5f:0x65749abf21268438!8m2!3d33.705991!4d73.0510787!16s%2Fg%2F11j48dw4sh!19sChIJXz-K4Fu_3zgROIQmIb-adGU?authuser=0&hl=en&rclk=1,"Store, Islamabad"
134,islamabadsports_33.720539_73.056393,Islamabad Sports,"Islamabad Sports
4.9(143)
Sporting goods store · JJ'Z PLAZA, Jinnah Super
Open ⋅ Closes 11 PM · +92 334 5012880",Sporting goods store,Open,33.720539,73.0563935,https://www.google.com/maps/place/Islamabad+Sports/data=!4m7!3m6!1s0x38dfbfedd22b4701:0xbd5bf221a8c2e961!8m2!3d33.720539!4d73.0563935!16s%2Fg%2F11t7b_dy54!19sChIJAUcr0u2_3zgRYenCqCHyW70?authuser=0&hl=en&rclk=1,"Store, Islamabad"
135,midwaygrocerystore_33.683150_72.988075,Midway Grocery Store,"Midway Grocery Store
3.7(34)
Grocery store ·  · 16 Hilal Rd
Open ⋅ Closes 12 AM · +92 349 4949376",Grocery store,Open,33.6831498,72.9880749,https://www.google.com/maps/place/Midway+Grocery+Store/data=!4m7!3m6!1s0x38dfbde37841ebe5:0x68ce0bbfe805154e!8m2!3d33.6831498!4d72.9880749!16s%2Fg%2F1tx_4r3_!19sChIJ5etBeOO93zgRThUF6L8Lzmg?authuser=0&hl=en&rclk=1,"Store, Islamabad"
139,baigapaintshardwares_33.685320_73.044258,Baiga Paints & Hardware Store,"Baiga Paints & Hardware Store
4.3(50)
Hardware store · 14 Street 54
Open ⋅ Closes 8 PM · +92 51 2851007",Hardware store,Open,33.6853203,73.0442575,https://www.google.com/maps/place/Baiga+Paints+%26+Hardware+Store/data=!4m7!3m6!1s0x38dfbf636d56e01f:0x62f6b5f94bbd334e!8m2!3d33.6853203!4d73.0442575!16s%2Fg%2F11gsbdgrnn!19sChIJH-BWbWO_3zgRTjO9S_m19mI?authuser=0&hl=en&rclk=1,"Store, Islamabad"
140,tshopbytexitechislam_33.682401_73.031316,T-Shop by Texitech Islamabad,"T-Shop by Texitech Islamabad
4.9(36)
Computer store · Ground Floor, Arshad Nouman Arcade, Street 36, Ideal Market
Open ⋅ Closes 5 PM · +92 335 8282017",Computer store,Open,33.6824009,73.0313157,https://www.google.com/maps/place/T-Shop+by+Texitech+Islamabad/data=!4m7!3m6!1s0x38dfbf522476d177:0x738751f82273c7c9!8m2!3d33.6824009!4d73.0313157!16s%2Fg%2F11pcth3_d_!19sChIJd9F2JFK_3zgRycdzIvhRh3M?authuser=0&hl=en&rclk=1,"Store, Islamabad"
141,alfatahf11_33.683136_72.990757,Al-Fatah F-11,"Al-Fatah F-11
4.2(1,073)
Hypermarket ·  · Aura Square, Major Rd
Open ⋅ Closes 11 PM · +92 313 4744442",Hypermarket,Open,33.683136,72.9907565,https://www.google.com/maps/place/Al-Fatah+F-11/data=!4m7!3m6!1s0x38dfbde9cd35c65d:0x1785dce1ebe48a5!8m2!3d33.683136!4d72.9907565!16s%2Fg%2F11rfmz3vy3!19sChIJXcY1zem93zgRpUi-Hs5deAE?authuser=0&hl=en&rclk=1,"Store, Islamabad"
142,islamabadcomissionsh_33.550188_73.201914,islamabad comission shop,"islamabad comission shop
5.0(4)
Supermarket · G5WV+V2M
Open ⋅ Closes 8 PM · +92 51 4485704",Supermarket,Open,33.5501876,73.2019144,https://www.google.com/maps/place/islamabad+comission+shop/data=!4m7!3m6!1s0x38dfef46f2f4007d:0xdf66a89b79d3f5f7!8m2!3d33.5501876!4d73.2019144!16s%2Fg%2F11t31427b6!19sChIJfQD08kbv3zgR9_XTeZuoZt8?authuser=0&hl=en&rclk=1,"Store, Islamabad"
1,na_noloc,,,,,,,,"Store, Islamabad"
5,metroislamabadstore_33.639918_73.026167,METRO Islamabad Store,,Grocery store,Open,33.6399179,73.0261665,https://www.google.com/maps/place/METRO+Islamabad+Store/data=!4m7!3m6!1s0x38df95b111b61cd7:0x2613048254d87137!8m2!3d33.6399179!4d73.0261665!16s%2Fg%2F11c51w48nq!19sChIJ1xy2EbGV3zgRN3HYVIIEEyY?authuser=0&hl=en&rclk=1,"Store, Islamabad"
37,islamabadelectronics_33.720607_73.077462,Islamabad Electronics,"Islamabad Electronics
4.7(45)
Electronics store · Shop #3-B, Old Duty Free Plaza, Block # 11 Jinnah Ave
Open ⋅ Closes 9 PM · +92 300 8554277",Electronics store,Open,33.7206073,73.0774625,https://www.google.com/maps/place/Islamabad+Electronics/data=!4m7!3m6!1s0x38dfbf8ecf7c1d1b:0x88b0bb068f3f808d!8m2!3d33.7206073!4d73.0774625!16s%2Fg%2F11kmvf2_qn!19sChIJGx18z46_3zgRjYA_jwa7sIg?authuser=0&hl=en&rclk=1,"Store, Islamabad"
38,albalaghislamicstore_33.678189_73.016757,AlBalagh Islamic Store G10 Islamabad البلاغ جی ٹین اسلام آباد,"AlBalagh Islamic Store G10 Islamabad البلاغ جی ٹین اسلام آباد
4.3(314)
Religious goods store ·  · Shop18, Adnan Plaza Sawan Road, Markaz, near Post Office & Babri Masjid
Open ⋅ Closes 10 PM · +92 300 5511552",Religious goods store,Open,33.678189,73.0167574,https://www.google.com/maps/place/AlBalagh+Islamic+Store+G10+Islamabad+%D8%A7%D9%84%D8%A8%D9%84%D8%A7%D8%BA+%D8%AC%DB%8C+%D9%B9%DB%8C%D9%86+%D8%A7%D8%B3%D9%84%D8%A7%D9%85+%D8%A2%D8%A8%D8%A7%D8%AF%E2%80%AD/data=!4m7!3m6!1s0x38dfbe21dfe18365:0x8aae3b12ab78626b!8m2!3d33.678189!4d73.0167574!16s%2Fg%2F11clwn96v6!19sChIJZYPh3yG-3zgRa2J4qxI7roo?authuser=0&hl=en&rclk=1,"Store, Islamabad"
39,mstore_33.699880_72.973640,M Store,"M Store
4.5(1,479)
Grocery store ·  · plot # 14, ground floor، Al Memar Tower
Open ⋅ Closes 4 AM · +92 51 2305629",Grocery store,Open,33.69988,72.97364,https://www.google.com/maps/place/M+Store/data=!4m7!3m6!1s0x38dfbdc624e125ff:0xbdce789428fa64b3!8m2!3d33.69988!4d72.97364!16s%2Fg%2F1hhh_9r7m!19sChIJ_yXhJMa93zgRs2T6KJR4zr0?authuser=0&hl=en&rclk=1,"Store, Islamabad"
40,metromall_33.639917_73.026051,Metro Mall,"Metro Mall
4.1(384)
Clothing store ·  · I 11/4, Korang Road
Open ⋅ Closes 10 PM",Clothing store,Open,33.6399166,73.026051,https://www.google.com/maps/place/Metro+Mall/data=!4m7!3m6!1s0x38df95a671739b87:0xfe331c1472b64418!8m2!3d33.6399166!4d73.026051!16s%2Fg%2F11c1qxjfk5!19sChIJh5tzcaaV3zgRGES2chQcM_4?authuser=0&hl=en&rclk=1,"Store, Islamabad"
41,friendscorporationfr_33.720096_73.077825,Friends Corporation – Friends Mega Store (Blue Area),"Friends Corporation – Friends Mega Store (Blue Area)
4.1(869)
Electronics store · AK, AKM Fazl-ul-Haq Rd
Open ⋅ Closes 9 PM · +92 304 8444499",Electronics store,Open,33.720096,73.077825,https://www.google.com/maps/place/Friends+Corporation+%E2%80%93+Friends+Mega+Store+%28Blue+Area%29/data=!4m7!3m6!1s0x38dfbf849f11946d:0x4ffc892fad39b345!8m2!3d33.720096!4d73.077825!16s%2Fg%2F11xlnp9fv!19sChIJbZQRn4S_3zgRRbM5rS-J_E8?authuser=0&hl=en&rclk=1,"Store, Islamabad"
42,khasstoreislamabadpw_33.573082_73.148406,Khas Store Islamabad - PWD,"Khas Store Islamabad - PWD
4.0(154)
Clothing store · 24-D Main PWD Rd
Open ⋅ Closes 10 PM · +92 321 9434712",Clothing store,Open,33.5730819,73.1484061,https://www.google.com/maps/place/Khas+Store+Islamabad+-+PWD/data=!4m7!3m6!1s0x38dfec456641e99f:0x8b9a109b1d492802!8m2!3d33.5730819!4d73.1484061!16s%2Fg%2F11b75mh21v!19sChIJn-lBZkXs3zgRAihJHZsQmos?authuser=0&hl=en&rclk=1,"Store, Islamabad"
43,islamabadsuperstore_33.677277_72.985799,Islamabad Super Store,"Islamabad Super Store
4.3(35)
General store ·  · Ali Market, St 9, F-11-1, F-11, 3
Open ⋅ Closes 11 PM · +92 51 2214226",General store,Open,33.6772769,72.9857993,https://www.google.com/maps/place/Islamabad+Super+Store/data=!4m7!3m6!1s0x38dfbdfba1bbddcf:0x1e6a575e4a1cee1b!8m2!3d33.6772769!4d72.9857993!16s%2Fg%2F12mkzc55r!19sChIJz927ofu93zgRG-4cSl5Xah4?authuser=0&hl=en&rclk=1,"Store, Islamabad"
44,mssuperstore_33.712625_73.040478,M & S Super Store,"M & S Super Store
4.3(40)
Grocery store · Aghaz Plaza, Shop 4, Plot 16-G, Kohistan Rd, F-8 Markaz, F-8, Islamabad, ICT
Open ⋅ Closes 11 PM · +92 51 2817150",Grocery store,Open,33.7126246,73.0404779,https://www.google.com/maps/place/M+%26+S+Super+Store/data=!4m7!3m6!1s0x38dfbe532b3f0e99:0xfa75e07d2f25cb56!8m2!3d33.7126246!4d73.0404779!16s%2Fg%2F11x9gb189!19sChIJmQ4_K1O-3zgRVsslL33gdfo?authuser=0&hl=en&rclk=1,"Store, Islamabad"
45,islamabadgeneralstor_33.683138_72.988114,Islamabad general store,"Islamabad general store
4.4(33)
Supermarket · shop no 5, trade centre
Open 24 hours · +92 51 2113030",Supermarket,Open 24 hours,33.6831375,72.9881144,https://www.google.com/maps/place/Islamabad+general+store/data=!4m7!3m6!1s0x38dfbda6323eabf3:0x6c81b88cdc383ed9!8m2!3d33.6831375!4d72.9881144!16s%2Fg%2F11t9g_4tt1!19sChIJ86s-Mqa93zgR2T443Iy4gWw?authuser=0&hl=en&rclk=1,"Store, Islamabad"
46,labelsislamabad_33.721479_73.059061,Labels Islamabad,"Labels Islamabad
4.0(41)
Clothing store · 13Y,Chaudhary Plaza, Next to PSO Pump, Bhittai Road,F-7 Markaz, Islamabad
Open ⋅ Closes 9 PM · +92 51 8437941",Clothing store,Open,33.721479,73.059061,https://www.google.com/maps/place/Labels+Islamabad/data=!4m7!3m6!1s0x38dfbf75997704e1:0xeddc5db04e302df5!8m2!3d33.721479!4d73.059061!16s%2Fg%2F11b6gm9k2f!19sChIJ4QR3mXW_3zgR9S0wTrBd3O0?authuser=0&hl=en&rclk=1,"Store, Islamabad"
47,daynitesuperstorezuu_33.677774_73.016740,Day Nite Super Store (ZuuCart app delivery),"Day Nite Super Store (ZuuCart app delivery)
4.4(608)
Grocery store · 
Open ⋅ Closes 1 AM · +92 51 2353700",Grocery store,Open,33.6777744,73.01674,https://www.google.com/maps/place/Day+Nite+Super+Store+%28ZuuCart+app+delivery%29/data=!4m7!3m6!1s0x38dfbe1f5e16dd6f:0x82fda6f70b6d4c97!8m2!3d33.6777744!4d73.01674!16s%2Fg%2F11g71b9pgy!19sChIJb90WXh--3zgRl0xtC_em_YI?authuser=0&hl=en&rclk=1,"Store, Islamabad"
48,kayalislamabad_33.730551_73.079166,"Kayal, Islamabad","Kayal, Islamabad
4.4(36)
Women's clothing store · 1 Agha Khan Rd
Open ⋅ Closes 9 PM · +92 51 8440038",Women's clothing store,Open,33.7305509,73.079166,"https://www.google.com/maps/place/Kayal,+Islamabad/data=!4m7!3m6!1s0x38dfbf9c8548e4c3:0xf90d9963d10a67b8!8m2!3d33.7305509!4d73.079166!16s%2Fg%2F11b6bv1k9x!19sChIJw-RIhZy_3zgRuGcK0WOZDfk?authuser=0&hl=en&rclk=1","Store, Islamabad"
49,esajees_33.735648_73.078579,Esajee's,"Esajee's
4.3(1,564)
Supermarket ·  · Shop # 9, Kohsar Market, Sector
Open ⋅ Closes 6 PM ⋅ Reopens 6:45 PM · +92 51 2874352",Supermarket,Open,33.735648,73.0785794,https://www.google.com/maps/place/Esajee%27s/data=!4m7!3m6!1s0x38dfbf7adeb1018b:0xa884518a6f351a4f!8m2!3d33.735648!4d73.0785794!16s%2Fg%2F1tk1xf84!19sChIJiwGx3nq_3zgRTxo1b4pRhKg?authuser=0&hl=en&rclk=1,"Store, Islamabad"
50,onedollarstorefactor_33.706079_73.086125,One Dollar Store Factory Outlet,"One Dollar Store Factory Outlet
3.9(128)
Discount store · P34P+CCQ
Open ⋅ Closes 11 PM",Discount store,Open,33.7060794,73.0861247,https://www.google.com/maps/place/One+Dollar+Store+Factory+Outlet/data=!4m7!3m6!1s0x38dfbf8ad0e71a45:0xd03d087830685c5c!8m2!3d33.7060794!4d73.0861247!16s%2Fg%2F11f0_dwkgt!19sChIJRRrn0Iq_3zgRXFxoMHgIPdA?authuser=0&hl=en&rclk=1,"Store, Islamabad"
51,gigamallislamabad_33.521111_73.158519,Giga Mall Islamabad.,"Giga Mall Islamabad.
4.5(46,534)
Shopping mall ·  · Main Grand Trunk Rd, Defense Housing Authority
Brand-name shopping, dining & movies
Open ⋅ Closes 11 PM · +92 51 8491040",Shopping mall,Open,33.5211113,73.1585192,https://www.google.com/maps/place/Giga+Mall+Islamabad./data=!4m7!3m6!1s0x38dfed736df2ee2b:0xd2c18a69157f1c54!8m2!3d33.5211113!4d73.1585192!16s%2Fg%2F1z44bhl9_!19sChIJK-7ybXPt3zgRVBx_FWmKwdI?authuser=0&hl=en&rclk=1,"Store, Islamabad"
52,nikeflagshipstoreisl_33.710761_73.058777,Nike Flagship Store Islamabad,"Nike Flagship Store Islamabad
4.0(428)
Shoe store · Shop# 3-4, Sardar Beagum Plaza, Jinnah Ave، near Domino's Pizza
Mainstay for athletic apparel & footwear
Open ⋅ Closes 10:30 AM Fri · +92 51 2347157",Shoe store,Open,33.7107614,73.0587774,https://www.google.com/maps/place/Nike+Flagship+Store+Islamabad/data=!4m7!3m6!1s0x38dfbfbcbdaf7dcb:0x3c68befa31414abd!8m2!3d33.7107614!4d73.0587774!16s%2Fg%2F1pp2vkqr6!19sChIJy32vvby_3zgRvUpBMfq-aDw?authuser=0&hl=en&rclk=1,"Store, Islamabad"
53,dollarstoreg9_33.690274_73.031273,Dollar Store G-9,"Dollar Store G-9
4.1(187)
Discount store ·  · Lower Ground Awami Trade Center
Open ⋅ Closes 10 PM",Discount store,Open,33.6902737,73.0312732,https://www.google.com/maps/place/Dollar+Store+G-9/data=!4m7!3m6!1s0x38dfbe30ef2c17e3:0xc7f9e6c8235a4529!8m2!3d33.6902737!4d73.0312732!16s%2Fg%2F11c58w_t0y!19sChIJ4xcs7zC-3zgRKUVaI8jm-cc?authuser=0&hl=en&rclk=1,"Store, Islamabad"
54,dxsportsfitnessshopi_33.668429_72.996849,DX Sports & Fitness Shop Islamabad,"DX Sports & Fitness Shop Islamabad
4.3(60)
Sports accessories wholesaler · 19B, Silver City Plaza, MARKAZ
Open ⋅ Closes 5:30 PM ⋅ Reopens 9 PM · +92 300 9508214",Sports accessories wholesaler,Open,33.6684286,72.9968488,https://www.google.com/maps/place/DX+Sports+%26+Fitness+Shop+Islamabad/data=!4m7!3m6!1s0x38df959572b7751b:0xd232cbb6022688d0!8m2!3d33.6684286!4d72.9968488!16s%2Fg%2F11h6m52lgp!19sChIJG3W3cpWV3zgR0IgmArbLMtI?authuser=0&hl=en&rclk=1,"Store, Islamabad"
55,lulusarstoreislamaba_33.731594_73.078884,Lulusar store Islamabad,"Lulusar store Islamabad
4.2(81)
Clothing store · School Rd, near shell pump
Open ⋅ Closes 10 PM · +92 305 2553434",Clothing store,Open,33.7315943,73.0788839,https://www.google.com/maps/place/Lulusar+store+Islamabad/data=!4m7!3m6!1s0x38dfbfa63ccf9823:0xc9e201b064f6e69b!8m2!3d33.7315943!4d73.0788839!16s%2Fg%2F11sghj5wpr!19sChIJI5jPPKa_3zgRm-b2ZLAB4sk?authuser=0&hl=en&rclk=1,"Store, Islamabad"
56,saudasulfgrocerystor_33.684782_72.986486,Sauda Sulf Grocery Store,"Sauda Sulf Grocery Store
4.2(110)
Grocery store · Lower Ground Floor, Select Center
Open ⋅ Closes 11 PM · +92 328 5966532",Grocery store,Open,33.684782,72.9864865,https://www.google.com/maps/place/Sauda+Sulf+Grocery+Store/data=!4m7!3m6!1s0x38dfbde413cb5261:0x45f7486e2a13ade5!8m2!3d33.684782!4d72.9864865!16s%2Fg%2F1232kxtkf!19sChIJYVLLE-S93zgR5a0TKm5I90U?authuser=0&hl=en&rclk=1,"Store, Islamabad"
57,islamabadstore_33.730140_73.077516,Islamabad Store,"Islamabad Store
4.0(4)
Gift shop · Block B, Super Market, Agha Khan Rd
Open ⋅ Closes 10 PM · +92 300 5197837",Gift shop,Open,33.7301399,73.0775158,https://www.google.com/maps/place/Islamabad+Store/data=!4m7!3m6!1s0x38dfbf00493975d9:0xb8f345d2998e30f9!8m2!3d33.7301399!4d73.0775158!16s%2Fg%2F11wqn_cb6q!19sChIJ2XU5SQC_3zgR-TCOmdJF87g?authuser=0&hl=en&rclk=1,"Store, Islamabad"
58,islamabadcashcarryic_33.718475_73.085461,Islamabad Cash & Carry / ICC,"Islamabad Cash & Carry / ICC
4.3(713)
Supermarket ·  · melody market, near General Post Office
Open ⋅ Closes 10 PM · +92 334 0502623",Supermarket,Open,33.7184751,73.0854612,https://www.google.com/maps/place/Islamabad+Cash+%26+Carry+%2F+ICC/data=!4m7!3m6!1s0x38dfbf4ec7fa7b7f:0x558883ae276db0ac!8m2!3d33.7184751!4d73.0854612!16s%2Fg%2F11h8f_py9q!19sChIJf3v6x06_3zgRrLBtJ66DiFU?authuser=0&hl=en&rclk=1,"Store, Islamabad"
59,quickgroceryshopping_33.644692_73.021152,Quick Grocery Shopping,"Quick Grocery Shopping
4.3(85)
Grocery store ·  · Plot 31, main Faqir Aipee Road
Open ⋅ Closes 11 PM · +92 300 5668000",Grocery store,Open,33.6446917,73.0211521,https://www.google.com/maps/place/Quick+Grocery+Shopping/data=!4m7!3m6!1s0x38df9511ca7e79b5:0x7503935182df6938!8m2!3d33.6446917!4d73.0211521!16s%2Fg%2F11t7z86bn5!19sChIJtXl-yhGV3zgROGnfglGTA3U?authuser=0&hl=en&rclk=1,"Store, Islamabad"
60,islamabadmart_33.658329_72.855883,islamabad Mart,"islamabad Mart
3.8(47)
Grocery store · MV54+89J
Open ⋅ Closes 10 PM · +92 318 5112979",Grocery store,Open,33.6583293,72.8558829,https://www.google.com/maps/place/islamabad+Mart/data=!4m7!3m6!1s0x38dfa38dfc2e9f65:0xf6df2feb78e60140!8m2!3d33.6583293!4d72.8558829!16s%2Fg%2F11hf7sw97g!19sChIJZZ8u_I2j3zgRQAHmeOsv3_Y?authuser=0&hl=en&rclk=1,"Store, Islamabad"
61,emporiumislamabad_33.698389_73.011404,Emporium Islamabad,"Emporium Islamabad
4.0(28)
Shopping mall ·  · 10A
Open ⋅ Closes 10 PM · +92 300 5172434",Shopping mall,Open,33.6983886,73.0114044,https://www.google.com/maps/place/Emporium+Islamabad/data=!4m7!3m6!1s0x38dfbf6b10ee3fc9:0x9a15f93293d24e0e!8m2!3d33.6983886!4d73.0114044!16s%2Fg%2F11t7s_xq6p!19sChIJyT_uEGu_3zgRDk7SkzL5FZo?authuser=0&hl=en&rclk=1,"Store, Islamabad"
62,pakistangeneralstore_33.737296_73.206908,Pakistan General Store,"Pakistan General Store
4.3(118)
Grocery store · Seri Chowk
Open ⋅ Closes 10:30 PM · +92 313 5361976",Grocery store,Open,33.737296,73.2069083,https://www.google.com/maps/place/Pakistan+General+Store/data=!4m7!3m6!1s0x38dfc36787537cad:0xa056496627c8f26b!8m2!3d33.737296!4d73.2069083!16s%2Fg%2F11r2pv5xn5!19sChIJrXxTh2fD3zgRa_LIJ2ZJVqA?authuser=0&hl=en&rclk=1,"Store, Islamabad"
63,alternatestore_33.695945_73.013212,Alternate Store,"Alternate Store
4.6(9)
Sportswear store · East, Main F-10 Markaz, Main Double Rd, near Bank Al-Falah
Open ⋅ Closes 11 PM · +92 51 8446916",Sportswear store,Open,33.6959453,73.0132117,https://www.google.com/maps/place/Alternate+Store/data=!4m7!3m6!1s0x38dfbf5b55144ddb:0x358af257a96c2245!8m2!3d33.6959453!4d73.0132117!16s%2Fg%2F11pf8g4x19!19sChIJ200UVVu_3zgRRSJsqVfyijU?authuser=0&hl=en&rclk=1,"Store, Islamabad"
64,hmsupermarketgrocery_33.631906_72.921821,HM Supermarket Grocery Store,"HM Supermarket Grocery Store
4.3(1,786)
Supermarket ·  · Lower Ground Floor, HM Plaza, Opposite Jamia Mosque, Markaz, Khayaban-e-Kashmir
Open ⋅ Closes 12 AM · +92 349 5889250",Supermarket,Open,33.6319063,72.9218215,https://www.google.com/maps/place/HM+Supermarket+Grocery+Store/data=!4m7!3m6!1s0x38df9796187a157d:0x49529b47f9a3a79a!8m2!3d33.6319063!4d72.9218215!16s%2Fg%2F1ptwysmvg!19sChIJfRV6GJaX3zgRmqej-UebUkk?authuser=0&hl=en&rclk=1,"Store, Islamabad"
65,zubaidasgracobabysho_33.683836_72.986746,"Zubaida's Graco Babyshop – F11 MARKAZ, ISLAMABAD","Zubaida's Graco Babyshop – F11 MARKAZ, ISLAMABAD
3.9(89)
Baby store · Besides Standard Chartered Bank, Savoy Arcade, Lower Ground, besides, Plot # 21 Hilal Rd
Open ⋅ Closes 10 PM · +92 345 0022348",Baby store,Open,33.6838361,72.9867457,"https://www.google.com/maps/place/Zubaida%27s+Graco+Babyshop+%E2%80%93+F11+MARKAZ,+ISLAMABAD/data=!4m7!3m6!1s0x38dfbde47a5f2205:0x8711403dd18c706d!8m2!3d33.6838361!4d72.9867457!16s%2Fg%2F11c5_q34q5!19sChIJBSJfeuS93zgRbXCM0T1AEYc?authuser=0&hl=en&rclk=1","Store, Islamabad"
66,samsungoutletislamab_33.711800_73.041135,Samsung Outlet Islamabad,"Samsung Outlet Islamabad
4.5(352)
Outlet store ·  · Ground floor, Royal Inn Plaza, Kohistan Rd
Open ⋅ Closes 10 PM · +92 333 5777792",Outlet store,Open,33.7117998,73.0411355,https://www.google.com/maps/place/Samsung+Outlet+Islamabad/data=!4m7!3m6!1s0x38dfbfad2fe47385:0xea2fcacb2778fb4f!8m2!3d33.7117998!4d73.0411355!16s%2Fg%2F11cs1wk148!19sChIJhXPkL62_3zgRT_t4J8vKL-o?authuser=0&hl=en&rclk=1,"Store, Islamabad"
67,miofficialstore_33.714368_73.066513,Mi Official Store,"Mi Official Store
4.2(205)
Cell phone store ·  · Black Horse Plaza, Shop No. 05 Ali Complex, Akm Fazal-e-Haq Road
Open ⋅ Closes 10 PM · +92 334 8502766",Cell phone store,Open,33.7143676,73.0665131,https://www.google.com/maps/place/Mi+Official+Store/data=!4m7!3m6!1s0x38dfbf5d35c91033:0x67d1926c85a1fc91!8m2!3d33.7143676!4d73.0665131!16s%2Fg%2F11c1s2r9d2!19sChIJMxDJNV2_3zgRkfyhhWyS0Wc?authuser=0&hl=en&rclk=1,"Store, Islamabad"
68,deluxestoreislamabad_33.668086_73.078463,Deluxe store Islamabad,"Deluxe store Islamabad
5.0(1)
Store
Open 24 hours · +92 331 4437773",Store,Open 24 hours,33.6680864,73.0784634,https://www.google.com/maps/place/Deluxe+store+Islamabad/data=!4m7!3m6!1s0x38dfeb59712c89a9:0xd0014e9dd7e081f5!8m2!3d33.6680864!4d73.0784634!16s%2Fg%2F11x1l9fv85!19sChIJqYkscVnr3zgR9YHg151OAdA?authuser=0&hl=en&rclk=1,"Store, Islamabad"
69,gamestoreislamabad_33.720632_73.054862,Game Store Islamabad,"Game Store Islamabad
4.4(509)
Video game store · MCB Bank, Safa Gold Mall, King Arcade Plaza Mid Caltex Petrol Pump and safa gold mall College Road, MARKAZ
Open ⋅ Closes 11 PM · +92 336 2002640",Video game store,Open,33.7206323,73.0548624,https://www.google.com/maps/place/Game+Store+Islamabad/data=!4m7!3m6!1s0x38dfbfb61c6e95d5:0xd366e50b1cb02ea0!8m2!3d33.7206323!4d73.0548624!16s%2Fg%2F11fhtw_x50!19sChIJ1ZVuHLa_3zgRoC6wHAvlZtM?authuser=0&hl=en&rclk=1,"Store, Islamabad"
70,onlyyesblueareaoutle_33.714575_73.065993,Only Yes Blue Area Outlet,"Only Yes Blue Area Outlet
4.1(67)
Clothing store · P378+R9H, Umer Plaza, Jinnah Ave
Open ⋅ Closes 10 PM · +92 51 2344078",Clothing store,Open,33.714575,73.0659934,https://www.google.com/maps/place/Only+Yes+Blue+Area+Outlet/data=!4m7!3m6!1s0x38dfbf983fb459f3:0x5991198f240b6e22!8m2!3d33.714575!4d73.0659934!16s%2Fg%2F12mkw9xqx!19sChIJ81m0P5i_3zgRIm4LJI8ZkVk?authuser=0&hl=en&rclk=1,"Store, Islamabad"
71,safagoldmall_33.720709_73.055502,Safa Gold Mall,"Safa Gold Mall
4.3(32,134)
Shopping mall ·  · Plot No، 5 College Rd
Mall with chain stores & a food court
Open ⋅ Closes 11 PM · +92 51 2656766",Shopping mall,Open,33.7207086,73.0555015,https://www.google.com/maps/place/Safa+Gold+Mall/data=!4m7!3m6!1s0x38dfbfa7067ea8d3:0x49a6054408b8b584!8m2!3d33.7207086!4d73.0555015!16s%2Fg%2F11byxfvf5h!19sChIJ06h-Bqe_3zgRhLW4CEQFpkk?authuser=0&hl=en&rclk=1,"Store, Islamabad"
72,islamabadsportsshop_33.706487_73.086969,Islamabad Sports Shop,"Islamabad Sports Shop
4.8(45)
Sporting goods store · Shop # 32-G, Liberty Shoping Center, Abpara Market
Open ⋅ Closes 10 PM · +92 333 5363162",Sporting goods store,Open,33.7064868,73.0869688,https://www.google.com/maps/place/Islamabad+Sports+Shop/data=!4m7!3m6!1s0x38dfbff5c9cd105d:0x6c12671bc9bbf994!8m2!3d33.7064868!4d73.0869688!16s%2Fg%2F11t7t2fwxm!19sChIJXRDNyfW_3zgRlPm7yRtnEmw?authuser=0&hl=en&rclk=1,"Store, Islamabad"
73,punjabricestore_33.689788_73.031672,Punjab Rice Store,"Punjab Rice Store
4.6(160)
Grocery store · M2QJ+WM7, Allah Wala Plaza, Rohtas Rd
Open ⋅ Closes 8:30 PM · +92 51 2262175",Grocery store,Open,33.6897881,73.0316715,https://www.google.com/maps/place/Punjab+Rice+Store/data=!4m7!3m6!1s0x38dfbf208063133b:0xec196b1af0c479a5!8m2!3d33.6897881!4d73.0316715!16s%2Fg%2F11h3l0nyw0!19sChIJOxNjgCC_3zgRpXnE8BprGew?authuser=0&hl=en&rclk=1,"Store, Islamabad"
74,applestorepk_33.699777_72.973490,Apple.store.pk,"Apple.store.pk
4.4(194)
Cell phone store · Shop no. 2,3, Karsaaz Tower II
Open ⋅ Closes 12:30 AM · +92 302 5018696",Cell phone store,Open,33.6997768,72.97349,https://www.google.com/maps/place/Apple.store.pk/data=!4m7!3m6!1s0x38dfbdb386ff29cf:0xf82d723766d6b4b9!8m2!3d33.6997768!4d72.97349!16s%2Fg%2F11ll8hsffx!19sChIJzyn_hrO93zgRubTWZjdyLfg?authuser=0&hl=en&rclk=1,"Store, Islamabad"
75,minisoi8markazislama_33.667994_73.075806,Miniso I-8 Markaz Islamabad,"Miniso I-8 Markaz Islamabad
3.8(55)
Cosmetics store · Plot # 17,18
Open ⋅ Closes 11 PM · +92 343 5367536",Cosmetics store,Open,33.6679937,73.0758062,https://www.google.com/maps/place/Miniso+I-8+Markaz+Islamabad/data=!4m7!3m6!1s0x38df950fb78282a7:0xb9a7002a7c3d1f0!8m2!3d33.6679937!4d73.0758062!16s%2Fg%2F11fr6sy5_c!19sChIJp4KCtw-V3zgR8NHDpwJwmgs?authuser=0&hl=en&rclk=1,"Store, Islamabad"
76,alsyedmobilesgadgets_33.666729_73.073557,Al Syed Mobiles & Gadgets i-8 Markaz Islamabad,"Al Syed Mobiles & Gadgets i-8 Markaz Islamabad
4.8(101)
Cell phone store
Open ⋅ Closes 11 PM · +92 333 5147779",Cell phone store,Open,33.6667293,73.0735574,https://www.google.com/maps/place/Al+Syed+Mobiles+%26+Gadgets+i-8+Markaz+Islamabad/data=!4m7!3m6!1s0x38df9545c9d0fd65:0x3fac5ff1652a7901!8m2!3d33.6667293!4d73.0735574!16s%2Fg%2F1tzlxb93!19sChIJZf3QyUWV3zgRAXkqZfFfrD8?authuser=0&hl=en&rclk=1,"Store, Islamabad"
77,noorhardwarestore_33.653540_73.050143,Noor Hardware Store,"Noor Hardware Store
4.5(44)
Hardware store ·  · Bhatti Plaza, Basement, I-9-1
Open ⋅ Closes 5:43 PM · +92 51 4440766",Hardware store,Open,33.6535395,73.0501425,https://www.google.com/maps/place/Noor+Hardware+Store/data=!4m7!3m6!1s0x38df95097dc65ed5:0xf9d227fdbe7168d2!8m2!3d33.6535395!4d73.0501425!16s%2Fg%2F12mkz5x6p!19sChIJ1V7GfQmV3zgR0mhxvv0n0vk?authuser=0&hl=en&rclk=1,"Store, Islamabad"
78,imagef10markazislama_33.696705_73.012612,Image - F-10 Markaz - Islamabad,"Image - F-10 Markaz - Islamabad
4.1(27)
Women's clothing store · Pak Plaza
Open ⋅ Closes 10 PM · +92 51 8739054",Women's clothing store,Open,33.696705,73.0126115,https://www.google.com/maps/place/Image+-+F-10+Markaz+-+Islamabad/data=!4m7!3m6!1s0x38dfbff083da6be3:0x221935261569e37f!8m2!3d33.696705!4d73.0126115!16s%2Fg%2F11q46l4tc8!19sChIJ42vag_C_3zgRf-NpFSY1GSI?authuser=0&hl=en&rclk=1,"Store, Islamabad"
79,gamestopislamabadpsn_33.666739_73.075953,Game Stop Islamabad & PSN Gift Card Store,"Game Stop Islamabad & PSN Gift Card Store
4.8(12)
Shopping mall ·  · Pak Land Business Centre, Markaz
Open ⋅ Closes 10 PM · +92 305 6916224",Shopping mall,Open,33.6667391,73.0759528,https://www.google.com/maps/place/Game+Stop+Islamabad+%26+PSN+Gift+Card+Store/data=!4m7!3m6!1s0x38dfbfcf470931e1:0xbf9e4a3e298f495f!8m2!3d33.6667391!4d73.0759528!16s%2Fg%2F11ny23n9gh!19sChIJ4TEJR8-_3zgRX0mPKT5Knr8?authuser=0&hl=en&rclk=1,"Store, Islamabad"
80,ittfaqgeneralstoreki_33.636533_73.215361,Ittfaq General store kirpa road Islamabad,"Ittfaq General store kirpa road Islamabad
4.1(9)
General store · J6P8+J49
Open ⋅ Closes 9:30 PM · +92 333 6582886",General store,Open,33.6365334,73.2153612,https://www.google.com/maps/place/Ittfaq+General+store+kirpa+road+Islamabad/data=!4m7!3m6!1s0x38dfe97e247bfac9:0xd70a235d2b6cae53!8m2!3d33.6365334!4d73.2153612!16s%2Fg%2F11jyf42m68!19sChIJyfp7JH7p3zgRU65sK10jCtc?authuser=0&hl=en&rclk=1,"Store, Islamabad"
81,muhammadimachineryst_33.689983_73.053299,Muhammadi Machinery Store,"Muhammadi Machinery Store
4.2(60)
Appliance store · I & T Center, Block# 52
Open ⋅ Closes 5 PM · +92 51 2331812",Appliance store,Open,33.6899828,73.053299,https://www.google.com/maps/place/Muhammadi+Machinery+Store/data=!4m7!3m6!1s0x38dfbfc54c5d9cd3:0x8fa3c43a94486dbb!8m2!3d33.6899828!4d73.053299!16s%2Fg%2F12mkwb0pr!19sChIJ05xdTMW_3zgRu21IlDrEo48?authuser=0&hl=en&rclk=1,"Store, Islamabad"
82,babageneralstoredebt_33.641341_73.189401,Baba General store Debtian road panjgran Alipur farash Islamabad,"Baba General store Debtian road panjgran Alipur farash Islamabad
4.2(13)
Store · Panjgran Link Road
Open ⋅ Closes 11 PM · +92 345 8977122",Store,Open,33.6413412,73.1894006,https://www.google.com/maps/place/Baba+General+store+Debtian+road+panjgran+Alipur+farash+Islamabad/data=!4m7!3m6!1s0x38dfe914806ddd8f:0xf324359c788874fc!8m2!3d33.6413412!4d73.1894006!16s%2Fg%2F11k5gcv6l8!19sChIJj91tgBTp3zgR_HSIeJw1JPM?authuser=0&hl=en&rclk=1,"Store, Islamabad"
83,laptopstorei9islamab_33.650864_73.050110,laptop store i9 Islamabad,"laptop store i9 Islamabad
4.9(53)
Computer store · 652 Street 22B
Open ⋅ Closes 10 PM · +92 331 5858063",Computer store,Open,33.650864,73.05011,https://www.google.com/maps/place/laptop+store+i9+Islamabad/data=!4m7!3m6!1s0x38df958dd08801fd:0xbcad811fba120525!8m2!3d33.650864!4d73.05011!16s%2Fg%2F11tdblkk2c!19sChIJ_QGI0I2V3zgRJQUSuh-Brbw?authuser=0&hl=en&rclk=1,"Store, Islamabad"
84,islamabadgrocerystor_33.640296_72.911658,Islamabad Grocery Store - Online Grocery Store in Islamabad & Rawalpindi,"Islamabad Grocery Store - Online Grocery Store in Islamabad & Rawalpindi
4.8(10)
Grocery delivery service · Main rd no 4, sector f-15/1
Open ⋅ Closes 10 PM · +92 314 8969059",Grocery delivery service,Open,33.6402962,72.9116576,https://www.google.com/maps/place/Islamabad+Grocery+Store+-+Online+Grocery+Store+in+Islamabad+%26+Rawalpindi/data=!4m7!3m6!1s0x38df97b52daab393:0xdb0cdb18b883714c!8m2!3d33.6402962!4d72.9116576!16s%2Fg%2F11vqz12dd2!19sChIJk7OqLbWX3zgRTHGDuBjbDNs?authuser=0&hl=en&rclk=1,"Store, Islamabad"
85,imransportstoysandba_33.688900_73.032953,IMRAN SPORTS (Toys and Baby Items Shop),"IMRAN SPORTS (Toys and Baby Items Shop)
3.9(66)
Sporting goods store · Oposit utility store parking, Rose Plaza, Parking lot
Open ⋅ Closes 10:30 PM · +92 51 2263746",Sporting goods store,Open,33.6888996,73.032953,https://www.google.com/maps/place/IMRAN+SPORTS+%28Toys+and+Baby+Items+Shop%29/data=!4m7!3m6!1s0x38dfbe31bd1ec221:0x4f6a28f35ec53aab!8m2!3d33.6888996!4d73.032953!16s%2Fg%2F12mkznykm!19sChIJIcIevTG-3zgRqzrFXvMoak8?authuser=0&hl=en&rclk=1,"Store, Islamabad"
86,islamabadsuperstore_33.663187_73.084187,Islamabad super store,"Islamabad super store
5.0(9)
Market · M37M+7MJ، Faizabad Road
Open ⋅ Closes 10:30 PM · +92 345 6170668",Market,Open,33.6631875,73.0841875,https://www.google.com/maps/place/Islamabad+super+store/data=!4m7!3m6!1s0x38df95e869144671:0x31f229fffa4588a9!8m2!3d33.6631875!4d73.0841875!16s%2Fg%2F11v656md5_!19sChIJcUYUaeiV3zgRqYhF-v8p8jE?authuser=0&hl=en&rclk=1,"Store, Islamabad"
87,shams_33.729373_73.074938,Shams,"Shams
4.3(1,530)
Supermarket ·  · B-8 School Rd
Open ⋅ Closes 10 PM · +92 51 2826859",Supermarket,Open,33.7293731,73.0749379,https://www.google.com/maps/place/Shams/data=!4m7!3m6!1s0x38dfbf776a536ce9:0x789c4592e4973969!8m2!3d33.7293731!4d73.0749379!16s%2Fg%2F1tkrk548!19sChIJ6WxTane_3zgRaTmX5JJFnHg?authuser=0&hl=en&rclk=1,"Store, Islamabad"
88,storebyarj_33.696412_73.011366,Store By Arj,"Store By Arj
4.3(9)
Gift shop · Store by Arj, Capital trade Center
Open ⋅ Closes 10 PM · +92 320 5000330",Gift shop,Open,33.6964122,73.0113656,https://www.google.com/maps/place/Store+By+Arj/data=!4m7!3m6!1s0x38dfbd674c614b09:0x7bcdc715a93b2237!8m2!3d33.6964122!4d73.0113656!16s%2Fg%2F11hfpspth6!19sChIJCUthTGe93zgRNyI7qRXHzXs?authuser=0&hl=en&rclk=1,"Store, Islamabad"
89,homestore_33.696855_72.987937,@home store,"@home store
4.4(32)
Furniture store ·  · Service road
Open ⋅ Closes 9 PM · +92 333 5550610",Furniture store,Open,33.6968551,72.9879367,https://www.google.com/maps/place/%27@home+store%27/data=!4m7!3m6!1s0x38dfbda47f8f8cf7:0x75be9427ba4c993e!8m2!3d33.6968551!4d72.9879367!16s%2Fg%2F11lkys5__q!19sChIJ94yPf6S93zgRPplMuieUvnU?authuser=0&hl=en&rclk=1,"Store, Islamabad"
90,perfumesshopinislama_33.521200_73.158774,Perfumes Shop in Islamabad - Scents N Stories - GIGA Mall,"Perfumes Shop in Islamabad - Scents N Stories - GIGA Mall
4.4(123)
Perfume store · GIGA MAll, Main GT Rd
Open ⋅ Closes 11 PM · +92 51 8488052",Perfume store,Open,33.5212,73.1587741,https://www.google.com/maps/place/Perfumes+Shop+in+Islamabad+-+Scents+N+Stories+-+GIGA+Mall/data=!4m7!3m6!1s0x38dfedc09b6ef279:0x16659db66ee2bff1!8m2!3d33.5212!4d73.1587741!16s%2Fg%2F11k9fl888r!19sChIJefJum8Dt3zgR8b_ibradZRY?authuser=0&hl=en&rclk=1,"Store, Islamabad"
91,mobilestore_33.695893_73.013501,Mobile Store,"Mobile Store
4.0(16)
Store · F10-East, Service Road،
Open ⋅ Closes 11 PM · +92 345 5415552",Store,Open,33.6958928,73.013501,https://www.google.com/maps/place/Mobile+Store/data=!4m7!3m6!1s0x38dfbfa35afdbc8d:0x36a214b7b85e8f19!8m2!3d33.6958928!4d73.013501!16s%2Fg%2F11fplypmcs!19sChIJjbz9WqO_3zgRGY9euLcUojY?authuser=0&hl=en&rclk=1,"Store, Islamabad"
92,umarhomestore_33.720119_73.076560,Umar Home Store,"Umar Home Store
4.3(100)
Electronics store · Rizwan Plaza, Shop 1 Unit 9
Open ⋅ Closes 9 PM · +92 51 8730136",Electronics store,Open,33.7201186,73.0765598,https://www.google.com/maps/place/Umar+Home+Store/data=!4m7!3m6!1s0x38dfbf870dbffa13:0xc4213c1c515272aa!8m2!3d33.7201186!4d73.0765598!16s%2Fg%2F11ghs3bczf!19sChIJE_q_DYe_3zgRqnJSURw8IcQ?authuser=0&hl=en&rclk=1,"Store, Islamabad"
93,samsungstoreofficial_33.520941_73.157825,Samsung Store Official Outlet,"Samsung Store Official Outlet
4.7(70)
Shopping mall ·  · Ground Floor, Giga Mall Main GT Road, Defense Housing Authority
Open ⋅ Closes 11 PM · +92 333 5222791",Shopping mall,Open,33.5209409,73.1578252,https://www.google.com/maps/place/Samsung+Store+Official+Outlet/data=!4m7!3m6!1s0x38dfed0821548969:0xdc7df121a2d00b58!8m2!3d33.5209409!4d73.1578252!16s%2Fg%2F11lkwbgqwf!19sChIJaYlUIQjt3zgRWAvQoiHxfdw?authuser=0&hl=en&rclk=1,"Store, Islamabad"
94,djistorepk_33.709954_73.058203,DJI Store.PK,"DJI Store.PK
4.4(283)
Camera store · Shop No 2, Ground Floor, Asif Plaza, AKM Fazl-ul-Haq Road, Blue Area, Islamabad, Islamabad Capital Territory 44000 Blue
Open ⋅ Closes 10 PM · +92 331 5200374",Camera store,Open,33.709954,73.0582029,https://www.google.com/maps/place/DJI+Store.PK/data=!4m7!3m6!1s0x38df95cf873cf2c7:0xc8d32195c3a210b2!8m2!3d33.709954!4d73.0582029!16s%2Fg%2F11fk3dg12m!19sChIJx_I8h8-V3zgRshCiw5Uh08g?authuser=0&hl=en&rclk=1,"Store, Islamabad"
95,mallofpakistan_33.704834_73.199853,Mall of Pakistan,"Mall of Pakistan
4.5(6)
Grocery store · P53X+WWQ
Open ⋅ Closes 7 PM · +92 331 2176504",Grocery store,Open,33.7048338,73.1998527,https://www.google.com/maps/place/Mall+of+Pakistan/data=!4m7!3m6!1s0x38dfc338eefd27c3:0xb6f1ce70a13d73b8!8m2!3d33.7048338!4d73.1998527!16s%2Fg%2F11h56qjkd9!19sChIJwyf97jjD3zgRuHM9oXDO8bY?authuser=0&hl=en&rclk=1,"Store, Islamabad"
99,fragrancestoreislama_33.698370_73.011386,Fragrance Store Islamabad | Lattafa Store | Surrati Store | Armaf | Afnan Store,"Fragrance Store Islamabad | Lattafa Store | Surrati Store | Armaf | Afnan Store
5.0(27)
Perfume store · Kiosk#1 first floor, emporium mall
Open ⋅ Closes 10:10 PM · +92 336 5390004",Perfume store,Open,33.6983701,73.0113856,https://www.google.com/maps/place/Fragrance+Store+Islamabad+%7C+Lattafa+Store+%7C+Surrati+Store+%7C+Armaf+%7C+Afnan+Store/data=!4m7!3m6!1s0x38dfbf7ccac6e869:0xe23f4e089695a912!8m2!3d33.6983701!4d73.0113856!16s%2Fg%2F11v41fnskz!19sChIJaejGyny_3zgREqmVlghOP-I?authuser=0&hl=en&rclk=1,"Store, Islamabad"
100,utilitystore_33.738457_73.192213,Utility Store,"Utility Store
4.2(66)
Grocery store · P5QR+9VP
Open ⋅ Closes 9 PM",Grocery store,Open,33.7384567,73.1922135,https://www.google.com/maps/place/Utility+Store/data=!4m7!3m6!1s0x38dfc358b321327b:0xae4fe4a3f37529b2!8m2!3d33.7384567!4d73.1922135!16s%2Fg%2F11j6j7vt25!19sChIJezIhs1jD3zgRsil186PkT64?authuser=0&hl=en&rclk=1,"Store, Islamabad"
101,irshadvarietycentrec_33.689136_73.032028,Irshad Variety Centre (Cosmetics and Newborn Items),"Irshad Variety Centre (Cosmetics and Newborn Items)
3.9(59)
Cosmetics store · M2QJ+MQF Parking lot, Ahmed Centre, Rohtas Rd, G-9 Markaz, G-9
Open ⋅ Closes 10 PM · +92 51 2252831",Cosmetics store,Open,33.689136,73.0320277,https://www.google.com/maps/place/Irshad+Variety+Centre+%28Cosmetics+and+Newborn+Items%29/data=!4m7!3m6!1s0x38dfbe31abbb1c17:0xf21c0257692fee1!8m2!3d33.689136!4d73.0320277!16s%2Fg%2F12mkzj2__!19sChIJFxy7qzG-3zgR4f6SdiXAIQ8?authuser=0&hl=en&rclk=1,"Store, Islamabad"
102,haierstoreislamabad_33.720125_73.077628,Haier Store Islamabad,"Haier Store Islamabad
4.3(25)
Electronics store · Shop # 2, Bewal Plaza, Blue, near punjab college
Open ⋅ Closes 9 PM · +92 51 2805216",Electronics store,Open,33.7201252,73.0776284,https://www.google.com/maps/place/Haier+Store+Islamabad/data=!4m7!3m6!1s0x38dfbff847477943:0x90c456246464a730!8m2!3d33.7201252!4d73.0776284!16s%2Fg%2F11krdp7cx9!19sChIJQ3lHR_i_3zgRMKdkZCRWxJA?authuser=0&hl=en&rclk=1,"Store, Islamabad"
103,ulhaqgeneralstoresoh_33.659733_73.101249,Ul Haq General Store Sohan Malak Tahir Town Islamabad,"Ul Haq General Store Sohan Malak Tahir Town Islamabad
5.0(3)
General store · M452+VFX
Open ⋅ Closes 11 PM · +92 306 0051343",General store,Open,33.6597333,73.101249,https://www.google.com/maps/place/Ul+Haq+General+Store+Sohan+Malak+Tahir+Town+Islamabad/data=!4m7!3m6!1s0x38dfeb4ddfbf6ab3:0xfe52cc01f37eb4e3!8m2!3d33.6597333!4d73.101249!16s%2Fg%2F11rrv0rjh9!19sChIJs2q_303r3zgR47R-8wHMUv4?authuser=0&hl=en&rclk=1,"Store, Islamabad"
104,islamabadmobilemobil_33.714297_73.066459,Islamabad Mobile MOBILO,"Islamabad Mobile MOBILO
3.8(40)
Cell phone store
Open ⋅ Closes 11 PM · +92 335 5288846",Cell phone store,Open,33.7142972,73.0664588,https://www.google.com/maps/place/Islamabad+Mobile+MOBILO/data=!4m7!3m6!1s0x38dfbf9837524a97:0xa90081f5d9928f28!8m2!3d33.7142972!4d73.0664588!16s%2Fg%2F1yfprs1t5!19sChIJl0pSN5i_3zgRKI-S2fWBAKk?authuser=0&hl=en&rclk=1,"Store, Islamabad"
105,islamabadgeneralstor_33.706136_73.037263,Islamabad General Store,"Islamabad General Store
No reviews
General store
Open ⋅ Closes 10 PM · +92 333 5513462",General store,Open,33.7061355,73.0372631,https://www.google.com/maps/place/Islamabad+General+Store/data=!4m7!3m6!1s0x38dfbe4c541d7a11:0x1444b7e1ab756fe3!8m2!3d33.7061355!4d73.0372631!16s%2Fg%2F11xcwpywx!19sChIJEXodVEy-3zgR4291q-G3RBQ?authuser=0&hl=en&rclk=1,"Store, Islamabad"
106,saleemsonspaintshard_33.685880_73.045409,Saleem Sons Paints & Hardware Store,"Saleem Sons Paints & Hardware Store
4.2(75)
Hardware store ·  · Saleem Sons Paints & Hardware, Shop#1, Najam Square, I&T Centre, Street#54,, Sector# G-9/4
Open ⋅ Closes 7 PM · +92 51 2850237",Hardware store,Open,33.68588,73.045409,https://www.google.com/maps/place/Saleem+Sons+Paints+%26+Hardware+Store/data=!4m7!3m6!1s0x38dfbfd3b69be781:0x628ce2c9c4602ebe!8m2!3d33.68588!4d73.045409!16s%2Fg%2F11bxf8szp4!19sChIJgeebttO_3zgRvi5gxMnijGI?authuser=0&hl=en&rclk=1,"Store, Islamabad"
107,bestchoiceutilityand_33.659523_72.988904,Best Choice Utility and General Store G12/4 Islamabad,"Best Choice Utility and General Store G12/4 Islamabad
4.0(15)
Store · MX5Q+RH2
Open now",Store,Open now,33.6595228,72.9889039,https://www.google.com/maps/place/Best+Choice+Utility+and+General+Store+G12%2F4+Islamabad/data=!4m7!3m6!1s0x38df978ae7aa5d3b:0x505cae0ff1f5491b!8m2!3d33.6595228!4d72.9889039!16s%2Fg%2F11q27lgzgn!19sChIJO12q54qX3zgRG0n18Q-uXFA?authuser=0&hl=en&rclk=1,"Store, Islamabad"
108,perfumesshopinislama_33.707685_73.049963,Perfumes Shop in Islamabad - Scents N Stories - Centaurus Mall,"Perfumes Shop in Islamabad - Scents N Stories - Centaurus Mall
4.8(132)
Perfume store · 3rd Floor, 4 Jinnah Avenue
Open ⋅ Closes 11 PM · +92 315 2006515",Perfume store,Open,33.7076847,73.0499625,https://www.google.com/maps/place/Perfumes+Shop+in+Islamabad+-+Scents+N+Stories+-+Centaurus+Mall/data=!4m7!3m6!1s0x38dfbf9d553e31e3:0xbd0f5e159d754c9d!8m2!3d33.7076847!4d73.0499625!16s%2Fg%2F11vf31kj0s!19sChIJ4zE-VZ2_3zgRnUx1nRVeD70?authuser=0&hl=en&rclk=1,"Store, Islamabad"
109,pumaflagshipstoreisl_33.711135_73.059222,Puma Flagship Store Islamabad,"Puma Flagship Store Islamabad
3.0(2)
Sportswear store · Shop no 4 Saddar Bagum Plaza
Open ⋅ Closes 11 PM · +92 51 2120140",Sportswear store,Open,33.7111345,73.0592222,https://www.google.com/maps/place/Puma+Flagship+Store+Islamabad/data=!4m7!3m6!1s0x38dfbfa75b4519a5:0x906a898e2afb71ba!8m2!3d33.7111345!4d73.0592222!16s%2Fg%2F11jz4d_094!19sChIJpRlFW6e_3zgRunH7Ko6JapA?authuser=0&hl=en&rclk=1,"Store, Islamabad"
110,selectionspotislamab_33.567566_73.137044,Selection Spot Islamabad,"Selection Spot Islamabad
4.6(69)
Game store ·  · Bilal complex Plaza, Main PWD Rd, near JS Bank
Open ⋅ Closes 11 PM · +92 334 3345511",Game store,Open,33.5675661,73.1370439,https://www.google.com/maps/place/Selection+Spot+Islamabad/data=!4m7!3m6!1s0x38dfedd49f883337:0xd9a07ab9bb59d85d!8m2!3d33.5675661!4d73.1370439!16s%2Fg%2F11h64v6905!19sChIJNzOIn9Tt3zgRXdhZu7l6oNk?authuser=0&hl=en&rclk=1,"Store, Islamabad"
111,islamabadsanitarysto_33.687918_73.049329,Islamabad Sanitary Store,"Islamabad Sanitary Store
4.1(79)
Bathroom supply store · I&T Centre Plot 78,Shop#01, Street 14
Open ⋅ Closes 8 PM · +92 51 2252670",Bathroom supply store,Open,33.6879184,73.0493285,https://www.google.com/maps/place/Islamabad+Sanitary+Store/data=!4m7!3m6!1s0x38dfbfd1caafd235:0x133ced8a4b944820!8m2!3d33.6879184!4d73.0493285!16s%2Fg%2F12mkzjj8y!19sChIJNdKvytG_3zgRIEiUS4rtPBM?authuser=0&hl=en&rclk=1,"Store, Islamabad"
112,sapphirecentaurusmal_33.707877_73.049793,SAPPHIRE Centaurus Mall Islamabad,"SAPPHIRE Centaurus Mall Islamabad
4.1(717)
Clothing store ·  · Centaurus Mall, 1st Floor, Shop #117
Open ⋅ Closes 11 PM · +92 51 2701510",Clothing store,Open,33.7078766,73.0497927,https://www.google.com/maps/place/SAPPHIRE+Centaurus+Mall+Islamabad/data=!4m7!3m6!1s0x38dfbfb0f3312ccf:0xe163dcecf984386c!8m2!3d33.7078766!4d73.0497927!16s%2Fg%2F11clz1pmz4!19sChIJzywx87C_3zgRbDiE-ezcY-E?authuser=0&hl=en&rclk=1,"Store, Islamabad"
113,islamabadsupermart_33.736175_73.182013,Islamabad Super Mart,"Islamabad Super Mart
4.7(27)
Grocery store · P5PJ+FRC
Open now · +92 300 5818284",Grocery store,Open now,33.7361754,73.1820134,https://www.google.com/maps/place/Islamabad+Super+Mart/data=!4m7!3m6!1s0x38dfc10ca0db952d:0x691f18ed789b4232!8m2!3d33.7361754!4d73.1820134!16s%2Fg%2F11rc9sqk91!19sChIJLZXboAzB3zgRMkKbeO0YH2k?authuser=0&hl=en&rclk=1,"Store, Islamabad"
114,shalimarelectricstor_33.687374_73.048284,Shalimar Electric Store,"Shalimar Electric Store
4.5(46)
Electronics store · I&T Centre, Block 81, St 14, G-8-1, G-8
Open ⋅ Closes 7 PM · +92 51 2335537",Electronics store,Open,33.6873741,73.0482842,https://www.google.com/maps/place/Shalimar+Electric+Store/data=!4m7!3m6!1s0x38dfbfd1bbfd5d39:0xa6a015f6593aa9b1!8m2!3d33.6873741!4d73.0482842!16s%2Fg%2F12mkzj310!19sChIJOV39u9G_3zgRsak6WfYVoKY?authuser=0&hl=en&rclk=1,"Store, Islamabad"
115,shopshopsupermarket_33.669020_73.075080,Shop & Shop Super Market,"Shop & Shop Super Market
3.8(4)
General store · Anlque Arcade, I-8 Markaz, I-8, Islamabad, ICT
Open ⋅ Closes 10 PM",General store,Open,33.66902,73.07508,https://www.google.com/maps/place/Shop+%26+Shop+Super+Market/data=!4m7!3m6!1s0x38df954570268a01:0xe293df015593b19c!8m2!3d33.66902!4d73.07508!16s%2Fg%2F11xbq9bwb!19sChIJAYomcEWV3zgRnLGTVQHfk-I?authuser=0&hl=en&rclk=1,"Store, Islamabad"
116,thebrands_33.712822_73.062802,The Brands,"The Brands
3.1(8)
Clothing store · P377+44F, Al-Malik Centre, Jinnah Ave, Block H, Blue Area, Islamabad, ICT
Open ⋅ Closes 9 PM · +92 51 2277959",Clothing store,Open,33.7128219,73.0628022,https://www.google.com/maps/place/The+Brands/data=!4m7!3m6!1s0x38dfbfa2b511f6f3:0xf8ee4d63a9f3fd87!8m2!3d33.7128219!4d73.0628022!16s%2Fg%2F11xlnp9fy!19sChIJ8_YRtaK_3zgRh_3zqWNN7vg?authuser=0&hl=en&rclk=1,"Store, Islamabad"
117,khasstoreislamabadse_33.683880_72.826380,Khas Store Islamabad - Sector B-17,"Khas Store Islamabad - Sector B-17
2.3(6)
Clothing store · Shop # G 137 to G 145, Capital Square Mall, Sector
Open ⋅ Closes 10 PM · +92 310 7488891",Clothing store,Open,33.6838798,72.8263797,https://www.google.com/maps/place/Khas+Store+Islamabad+-+Sector+B-17/data=!4m7!3m6!1s0x38dfa33b2b94647d:0x6958b4f007df276d!8m2!3d33.6838798!4d72.8263797!16s%2Fg%2F11s1bdmldj!19sChIJfWSUKzuj3zgRbSffB_C0WGk?authuser=0&hl=en&rclk=1,"Store, Islamabad"
118,exhibitislamabadmult_33.729025_73.075437,Exhibit Islamabad multidesigner store,"Exhibit Islamabad multidesigner store
5.0(2)
Clothing store · P3HG+J57 Roomy Signature Hotel
Open ⋅ Closes 11:26 PM · +92 317 4449115",Clothing store,Open,33.7290254,73.0754371,https://www.google.com/maps/place/Exhibit+Islamabad+multidesigner+store/data=!4m7!3m6!1s0x38dfbf00727a24fb:0x2b5b3e0d3b64981f!8m2!3d33.7290254!4d73.0754371!16s%2Fg%2F11vplxb82l!19sChIJ-yR6cgC_3zgRH5hkOw0-Wys?authuser=0&hl=en&rclk=1,"Store, Islamabad"
119,omegaboutiqueislamab_33.720283_73.073718,OMEGA Boutique - Islamabad,"OMEGA Boutique - Islamabad
4.0(22)
Watch store · New Era Watches, G - 9 Beverly Centre, Jinnah Ave
High-end Swiss watches & accessories
Open ⋅ Closes 8 PM · +92 51 2814078",Watch store,Open,33.720283,73.073718,https://www.google.com/maps/place/OMEGA+Boutique+-+Islamabad/data=!4m7!3m6!1s0x38dfbf9c852dac11:0xffcc1f9512833918!8m2!3d33.720283!4d73.073718!16s%2Fg%2F11g6htgtr6!19sChIJEawthZy_3zgRGDmDEpUfzP8?authuser=0&hl=en&rclk=1,"Store, Islamabad"
120,gofreshmeatshopf6mar_33.729283_73.075260,"Go Fresh Meat Shop F-6 Markaz, Islamabad","Go Fresh Meat Shop F-6 Markaz, Islamabad
3.6(20)
Meat products store · Behind United Bakers
Open ⋅ Closes 8 PM · +92 51 2823314",Meat products store,Open,33.729283,73.07526,"https://www.google.com/maps/place/Go+Fresh+Meat+Shop+F-6+Markaz,+Islamabad/data=!4m7!3m6!1s0x38dfbf7767cc4201:0x6a224f90fd2c33f9!8m2!3d33.729283!4d73.07526!16s%2Fg%2F11fzb21_hp!19sChIJAULMZ3e_3zgR-TMs_ZBPImo?authuser=0&hl=en&rclk=1","Store, Islamabad"
121,onestopshopbiggestst_33.680096_73.249285,One stop Shop - Biggest store in Bahria Enclave,"One stop Shop - Biggest store in Bahria Enclave
4.4(10)
Grocery store · Ground Floor, The Galleria Mall
Open ⋅ Closes 11 PM · +92 319 9302181",Grocery store,Open,33.6800962,73.2492845,https://www.google.com/maps/place/One+stop+Shop+-+Biggest+store+in+Bahria+Enclave/data=!4m7!3m6!1s0x38dfe90028222c49:0x30b22df4e0f5d6d0!8m2!3d33.6800962!4d73.2492845!16s%2Fg%2F11vtb7bg8n!19sChIJSSwiKADp3zgR0Nb14PQtsjA?authuser=0&hl=en&rclk=1,"Store, Islamabad"
122,appleeyesapplestore_33.713977_73.065819,Apple Eyes (Apple Store),"Apple Eyes (Apple Store)
4.7(95)
Cell phone store ·  · Unit#3, Rehman Plaza, 75 East Fazal-e-Haq Road
Open ⋅ Closes 11 PM · +92 300 6562064",Cell phone store,Open,33.7139766,73.0658191,https://www.google.com/maps/place/Apple+Eyes+%28Apple+Store%29/data=!4m7!3m6!1s0x38dfbff2aea8585d:0x4de2c07ee75e595a!8m2!3d33.7139766!4d73.0658191!16s%2Fg%2F11pv5r7w4p!19sChIJXViorvK_3zgRWlle537A4k0?authuser=0&hl=en&rclk=1,"Store, Islamabad"
123,islamabadgeneralstor_33.584475_72.977092,Islamabad General Store New Chakra,"Islamabad General Store New Chakra
4.0(2)
General store ·  · HXMG+QRP Allah Ditta Market Raja Fazal Dad Road, Potohar Town New
Open ⋅ Closes 10:30 PM · +92 316 1627361",General store,Open,33.5844748,72.9770917,https://www.google.com/maps/place/Islamabad+General+Store+New+Chakra/data=!4m7!3m6!1s0x38df973db435949b:0x2283968c11b44681!8m2!3d33.5844748!4d72.9770917!16s%2Fg%2F11h_ytx8t5!19sChIJm5Q1tD2X3zgRgUa0EYyWgyI?authuser=0&hl=en&rclk=1,"Store, Islamabad"
124,skechersflagshipstor_33.710788_73.058851,SKECHERS Flagship Store ISLAMABAD (PENTA SPORTS),"SKECHERS Flagship Store ISLAMABAD (PENTA SPORTS)
4.0(18)
Shoe store · Shop#01 , Sardar Beagum Plaza, Jinnah Ave, near Domino's Pizza
Open ⋅ Closes 11 PM · +92 51 2120140",Shoe store,Open,33.7107882,73.0588509,https://www.google.com/maps/place/SKECHERS+Flagship+Store+ISLAMABAD+%28PENTA+SPORTS%29/data=!4m7!3m6!1s0x38dfbf09e09c1151:0x75832ef046df8d75!8m2!3d33.7107882!4d73.0588509!16s%2Fg%2F11rd3lxsvm!19sChIJURGc4Am_3zgRdY3fRvAug3U?authuser=0&hl=en&rclk=1,"Store, Islamabad"
125,savemartpakistan_33.667830_73.076115,Save Mart Pakistan,"Save Mart Pakistan
4.2(940)
Supermarket · EOBI Plaza, Plot # 17,18
Open ⋅ Closes 11 PM · +92 51 8482270",Supermarket,Open,33.6678295,73.0761154,https://www.google.com/maps/place/Save+Mart+Pakistan/data=!4m7!3m6!1s0x38df95ebea8635d1:0xefb515003fbd26af!8m2!3d33.6678295!4d73.0761154!16s%2Fg%2F11j84vg1dq!19sChIJ0TWG6uuV3zgRrya9PwAVte8?authuser=0&hl=en&rclk=1,"Store, Islamabad"
126,alvihardwareandtools_33.764054_73.223803,Alvi Hardware and Tools store Islamabad,"Alvi Hardware and Tools store Islamabad
5.0(10)
Hardware store · Islamabad - Murree Expy
Open ⋅ Closes 8:45 PM · +92 321 5682433",Hardware store,Open,33.7640538,73.2238028,https://www.google.com/maps/place/Alvi+Hardware+and+Tools+store+Islamabad/data=!4m7!3m6!1s0x38dfdb8e84cd4773:0x7ea972f39372087b!8m2!3d33.7640538!4d73.2238028!16s%2Fg%2F11lkx896vm!19sChIJc0fNhI7b3zgRewhyk_NyqX4?authuser=0&hl=en&rclk=1,"Store, Islamabad"
127,newislamabaddiscount_33.640135_73.134214,New Islamabad discount store,"New Islamabad discount store
4.3(3)
General store · A27
Open now · +92 335 5531858",General store,Open now,33.6401347,73.1342137,https://www.google.com/maps/place/New+Islamabad+discount+store/data=!4m7!3m6!1s0x38dfeb13ac5a0257:0xb5b6938bab9a52e!8m2!3d33.6401347!4d73.1342137!16s%2Fg%2F11sk82731s!19sChIJVwJarBPr3zgRLqW5ujhpWws?authuser=0&hl=en&rclk=1,"Store, Islamabad"
128,machiveapplestoreini_33.712238_73.062413,Mac Hive Apple Store in Islamabad,"Mac Hive Apple Store in Islamabad
5.0(55)
Computer store · Shop#3A, Lower Ground Floor, Adeel Plaza, AKM Fazl-ul-Haq Rd
Open ⋅ Closes 8 PM · +92 333 1547278",Computer store,Open,33.712238,73.0624131,https://www.google.com/maps/place/Mac+Hive+Apple+Store+in+Islamabad/data=!4m7!3m6!1s0x38dfbf671c62174d:0x8b1d6ad302c0d77b!8m2!3d33.712238!4d73.0624131!16s%2Fg%2F11flph_8k9!19sChIJTRdiHGe_3zgRe9fAAtNqHYs?authuser=0&hl=en&rclk=1,"Store, Islamabad"
129,artplanetislamabadha_33.721985_73.059108,Art Planet Islamabad (Handmade Rugs & Kilims).,"Art Planet Islamabad (Handmade Rugs & Kilims).
4.9(209)
Carpet store ·  · Shop# 11-12, Address of Art planet :, Block 13-J Markaz, next to Generations & Fish Shop, beside PSO PUMP
Open ⋅ Closes 10 PM · +92 51 2650701",Carpet store,Open,33.7219848,73.0591077,https://www.google.com/maps/place/Art+Planet+Islamabad+%28Handmade+Rugs+%26+Kilims%29./data=!4m7!3m6!1s0x38dfbfa0b9cca349:0xad5bb9999bd12491!8m2!3d33.7219848!4d73.0591077!16s%2Fg%2F11g8b57pql!19sChIJSaPMuaC_3zgRkSTRm5m5W60?authuser=0&hl=en&rclk=1,"Store, Islamabad"
130,mastermoltyfoamcompa_33.694803_73.013865,Master MoltyFoam Company Outlet Islamabad,"Master MoltyFoam Company Outlet Islamabad
4.2(42)
Mattress store ·  · Gul Plaza F10 Markaz Sumbal Road, Main double Road
Open 24 hours · +92 51 4718879",Mattress store,Open 24 hours,33.6948029,73.0138654,https://www.google.com/maps/place/Master+MoltyFoam+Company+Outlet+Islamabad/data=!4m7!3m6!1s0x38dfbfa17c956c1d:0xad9fecf6073abce7!8m2!3d33.6948029!4d73.0138654!16s%2Fg%2F1hm27fj0x!19sChIJHWyVfKG_3zgR57w6B_bsn60?authuser=0&hl=en&rclk=1,"Store, Islamabad"
131,tclflagshipstoreisla_33.705991_73.051079,TCL Flagship Store Islamabad,"TCL Flagship Store Islamabad
4.6(91)
Electronics store · Elysium Tower, 3
Open ⋅ Closes 8:30 PM · +92 51 8748090",Electronics store,Open,33.705991,73.0510787,https://www.google.com/maps/place/TCL+Flagship+Store+Islamabad/data=!4m7!3m6!1s0x38dfbf5be08a3f5f:0x65749abf21268438!8m2!3d33.705991!4d73.0510787!16s%2Fg%2F11j48dw4sh!19sChIJXz-K4Fu_3zgROIQmIb-adGU?authuser=0&hl=en&rclk=1,"Store, Islamabad"
132,midwaygrocerystore_33.683150_72.988075,Midway Grocery Store,"Midway Grocery Store
3.7(34)
Grocery store ·  · 16 Hilal Rd
Open ⋅ Closes 12 AM · +92 349 4949376",Grocery store,Open,33.6831498,72.9880749,https://www.google.com/maps/place/Midway+Grocery+Store/data=!4m7!3m6!1s0x38dfbde37841ebe5:0x68ce0bbfe805154e!8m2!3d33.6831498!4d72.9880749!16s%2Fg%2F1tx_4r3_!19sChIJ5etBeOO93zgRThUF6L8Lzmg?authuser=0&hl=en&rclk=1,"Store, Islamabad"
133,ibrahimsuperstorefai_33.662852_73.082731,Ibrahim Super Store Faizabad Islamabad,"Ibrahim Super Store Faizabad Islamabad
3.0(1)
Store · Frontier Punjab Travel I 8
Open 24 hours · +92 305 5234656",Store,Open 24 hours,33.6628525,73.0827307,https://www.google.com/maps/place/Ibrahim+Super+Store+Faizabad+Islamabad/data=!4m7!3m6!1s0x38df95cb679a19e9:0x519bc36c6eccf498!8m2!3d33.6628525!4d73.0827307!16s%2Fg%2F11v0x2btp4!19sChIJ6RmaZ8uV3zgRmPTMbmzDm1E?authuser=0&hl=en&rclk=1,"Store, Islamabad"
134,baigapaintshardwares_33.685320_73.044258,Baiga Paints & Hardware Store,"Baiga Paints & Hardware Store
4.3(50)
Hardware store · 14 Street 54
Open ⋅ Closes 8 PM · +92 51 2851007",Hardware store,Open,33.6853203,73.0442575,https://www.google.com/maps/place/Baiga+Paints+%26+Hardware+Store/data=!4m7!3m6!1s0x38dfbf636d56e01f:0x62f6b5f94bbd334e!8m2!3d33.6853203!4d73.0442575!16s%2Fg%2F11gsbdgrnn!19sChIJH-BWbWO_3zgRTjO9S_m19mI?authuser=0&hl=en&rclk=1,"Store, Islamabad"
135,tshopbytexitechislam_33.682401_73.031316,T-Shop by Texitech Islamabad,"T-Shop by Texitech Islamabad
4.9(36)
Computer store · Ground Floor, Arshad Nouman Arcade, Street 36, Ideal Market
Open ⋅ Closes 5 PM · +92 335 8282017",Computer store,Open,33.6824009,73.0313157,https://www.google.com/maps/place/T-Shop+by+Texitech+Islamabad/data=!4m7!3m6!1s0x38dfbf522476d177:0x738751f82273c7c9!8m2!3d33.6824009!4d73.0313157!16s%2Fg%2F11pcth3_d_!19sChIJd9F2JFK_3zgRycdzIvhRh3M?authuser=0&hl=en&rclk=1,"Store, Islamabad"
136,lulusarstoregigamall_33.556846_73.159035,"Lulusar Store Giga Mall, Islamabad","Lulusar Store Giga Mall, Islamabad
3.0(3)
Clothing store · World Trade Center, Near Gate, Shop No.23, Ground Floor, Giga Mall, 2 GT Rd
Open ⋅ Closes 11 PM · +92 327 0553434",Clothing store,Open,33.5568464,73.1590351,"https://www.google.com/maps/place/Lulusar+Store+Giga+Mall,+Islamabad/data=!4m7!3m6!1s0x38dfed014dd69823:0x236370d05a315800!8m2!3d33.5568464!4d73.1590351!16s%2Fg%2F11w95qctpy!19sChIJI5jWTQHt3zgRAFgxWtBwYyM?authuser=0&hl=en&rclk=1","Store, Islamabad"
137,uniworthcentaurusmal_33.707790_73.049772,"Uniworth, Centaurus Mall, Islamabad","Uniworth, Centaurus Mall, Islamabad
4.1(181)
Men's clothing store · Shop, 270, 2nd Floor, 1st Auditorium, Jinnah Avenue
Open ⋅ Closes 11 PM · +92 42 111 789 456",Men's clothing store,Open,33.7077897,73.0497724,"https://www.google.com/maps/place/Uniworth,+Centaurus+Mall,+Islamabad/data=!4m7!3m6!1s0x38dfbfb0fc7232f7:0x6ab42e4468f74952!8m2!3d33.7077897!4d73.0497724!16s%2Fg%2F11bzsbg9r1!19sChIJ9zJy_LC_3zgRUkn3aEQutGo?authuser=0&hl=en&rclk=1","Store, Islamabad"
138,topshop_33.684405_73.042120,Top Shop,"Top Shop
4.4(7)
Clothing store · 37/6، Nishtar Market, Street 55
Open ⋅ Closes 9 PM · +92 345 5167594",Clothing store,Open,33.684405,73.04212,https://www.google.com/maps/place/Top+Shop/data=!4m7!3m6!1s0x38dfbfd315e1437d:0xa14432dc210113ff!8m2!3d33.684405!4d73.04212!16s%2Fg%2F11c0r55fmx!19sChIJfUPhFdO_3zgR_xMBIdwyRKE?authuser=0&hl=en&rclk=1,"Store, Islamabad"
139,quitterzvapeshopisla_33.568998_73.139671,QuitterZ Vape Shop Islamabad,"QuitterZ Vape Shop Islamabad
4.6(100)
Vaporizer store · PWD Jinnah Center, Shop No 1 & 2, Plot No 1B, Block B Jinnah Centre 2, Main Double Road PWD
Open ⋅ Closes 11:58 PM · +92 331 1116565",Vaporizer store,Open,33.5689982,73.139671,https://www.google.com/maps/place/QuitterZ+Vape+Shop+Islamabad/data=!4m7!3m6!1s0x38dfed4dfb4ea155:0x2dcbbdfff889c78b!8m2!3d33.5689982!4d73.139671!16s%2Fg%2F11t3yqw8tp!19sChIJVaFO-03t3zgRi8eJ-P-9yy0?authuser=0&hl=en&rclk=1,"Store, Islamabad"
140,madinaislamabadgener_33.658090_73.097465,Madina Islamabad General Store Sohan Islamabad,"Madina Islamabad General Store Sohan Islamabad
5.0(2)
General store · M35W+6RX
Open ⋅ Closes 9 PM · +92 333 7666687",General store,Open,33.6580901,73.0974647,https://www.google.com/maps/place/Madina+Islamabad+General+Store+Sohan+Islamabad/data=!4m7!3m6!1s0x38dfeb5e2375920f:0x6d3f2ecfa841d821!8m2!3d33.6580901!4d73.0974647!16s%2Fg%2F11vbf6clm5!19sChIJD5J1I17r3zgRIdhBqM8uP20?authuser=0&hl=en&rclk=1,"Store, Islamabad"
141,mastermoltyfoamcompa_33.524890_73.142643,Master MoltyFoam Company Outlet DHA Islamabad,"Master MoltyFoam Company Outlet DHA Islamabad
4.0(58)
Mattress store ·  · Ground Floor, Sunrise Arcade, Gate II, Shop No 007, N-5 GT Rd, near DHA Phase II
Open ⋅ Closes 9 PM · +92 321 9340046",Mattress store,Open,33.5248903,73.1426432,https://www.google.com/maps/place/Master+MoltyFoam+Company+Outlet+DHA+Islamabad/data=!4m7!3m6!1s0x38dfed8442adfaab:0x9a56f6e01cddbf9d!8m2!3d33.5248903!4d73.1426432!16s%2Fg%2F11b7gtv3z6!19sChIJq_qtQoTt3zgRnb_dHOD2Vpo?authuser=0&hl=en&rclk=1,"Store, Islamabad"
142,islamabadtechcameras_33.719553_73.076536,Islamabad Tech Cameras,"Islamabad Tech Cameras
4.5(247)
Camera store ·  · Shop # 4, Potohar plaza, Imam bargah, Islamabad tech, Fazal e haq Road, opposite G-6
Open ⋅ Closes 8 PM · +92 316 0000047",Camera store,Open,33.7195529,73.0765362,https://www.google.com/maps/place/Islamabad+Tech+Cameras/data=!4m7!3m6!1s0x38dfbf9985ec6ccb:0x17c658305b7c23d9!8m2!3d33.7195529!4d73.0765362!16s%2Fg%2F11f15k6lfl!19sChIJy2zshZm_3zgR2SN8WzBYxhc?authuser=0&hl=en&rclk=1,"Store, Islamabad"
1,na_noloc,,,,,,,,"Store, Islamabad"
5,islamabadelectronics_33.720607_73.077462,Islamabad Electronics,,Electronics store,Open,33.7206073,73.0774625,https://www.google.com/maps/place/Islamabad+Electronics/data=!4m7!3m6!1s0x38dfbf8ecf7c1d1b:0x88b0bb068f3f808d!8m2!3d33.7206073!4d73.0774625!16s%2Fg%2F11kmvf2_qn!19sChIJGx18z46_3zgRjYA_jwa7sIg?authuser=0&hl=en&rclk=1,"Store, Islamabad"
37,gigamallislamabad_33.521111_73.158519,Giga Mall Islamabad.,"Giga Mall Islamabad.
4.5(46,534)
Shopping mall ·  · Main Grand Trunk Rd, Defense Housing Authority
Brand-name shopping, dining & movies
Open ⋅ Closes 11 PM · +92 51 8491040",Shopping mall,Open,33.5211113,73.1585192,https://www.google.com/maps/place/Giga+Mall+Islamabad./data=!4m7!3m6!1s0x38dfed736df2ee2b:0xd2c18a69157f1c54!8m2!3d33.5211113!4d73.1585192!16s%2Fg%2F1z44bhl9_!19sChIJK-7ybXPt3zgRVBx_FWmKwdI?authuser=0&hl=en&rclk=1,"Store, Islamabad"
38,emporiumislamabad_33.698389_73.011404,Emporium Islamabad,"Emporium Islamabad
4.0(28)
Shopping mall ·  · 10A
Open ⋅ Closes 10 PM · +92 300 5172434",Shopping mall,Open,33.6983886,73.0114044,https://www.google.com/maps/place/Emporium+Islamabad/data=!4m7!3m6!1s0x38dfbf6b10ee3fc9:0x9a15f93293d24e0e!8m2!3d33.6983886!4d73.0114044!16s%2Fg%2F11t7s_xq6p!19sChIJyT_uEGu_3zgRDk7SkzL5FZo?authuser=0&hl=en&rclk=1,"Store, Islamabad"
39,albalaghislamicstore_33.678189_73.016757,AlBalagh Islamic Store G10 Islamabad البلاغ جی ٹین اسلام آباد,"AlBalagh Islamic Store G10 Islamabad البلاغ جی ٹین اسلام آباد
4.3(314)
Religious goods store ·  · Shop18, Adnan Plaza Sawan Road, Markaz, near Post Office & Babri Masjid
Open ⋅ Closes 10 PM · +92 300 5511552",Religious goods store,Open,33.678189,73.0167574,https://www.google.com/maps/place/AlBalagh+Islamic+Store+G10+Islamabad+%D8%A7%D9%84%D8%A8%D9%84%D8%A7%D8%BA+%D8%AC%DB%8C+%D9%B9%DB%8C%D9%86+%D8%A7%D8%B3%D9%84%D8%A7%D9%85+%D8%A2%D8%A8%D8%A7%D8%AF%E2%80%AD/data=!4m7!3m6!1s0x38dfbe21dfe18365:0x8aae3b12ab78626b!8m2!3d33.678189!4d73.0167574!16s%2Fg%2F11clwn96v6!19sChIJZYPh3yG-3zgRa2J4qxI7roo?authuser=0&hl=en&rclk=1,"Store, Islamabad"
40,themoimall_33.682369_72.990509,The MOI Mall,"The MOI Mall
4.2(437)
Shopping mall ·  · Plot no, 07 Hilal Rd
Open ⋅ Closes 11 PM · +92 331 0001086",Shopping mall,Open,33.6823685,72.9905094,https://www.google.com/maps/place/The+MOI+Mall/data=!4m7!3m6!1s0x38dfbde3aa2eb38d:0x4773b3d8251ee308!8m2!3d33.6823685!4d72.9905094!16s%2Fg%2F11bw3yp0k4!19sChIJjbMuquO93zgRCOMeJdizc0c?authuser=0&hl=en&rclk=1,"Store, Islamabad"
41,metroislamabadstore_33.639918_73.026167,METRO Islamabad Store,"METRO Islamabad Store
4.3(13,790)
Grocery store ·  · Plot 1-A, Laila Rd, adjacent Railway Carriage Factory Road
Open ⋅ Closes 11 PM · +92 51 4020073",Grocery store,Open,33.6399179,73.0261665,https://www.google.com/maps/place/METRO+Islamabad+Store/data=!4m7!3m6!1s0x38df95b111b61cd7:0x2613048254d87137!8m2!3d33.6399179!4d73.0261665!16s%2Fg%2F11c51w48nq!19sChIJ1xy2EbGV3zgRN3HYVIIEEyY?authuser=0&hl=en&rclk=1,"Store, Islamabad"
42,safagoldmall_33.720709_73.055502,Safa Gold Mall,"Safa Gold Mall
4.3(32,134)
Shopping mall ·  · Plot No، 5 College Rd
Mall with chain stores & a food court
Open ⋅ Closes 11 PM · +92 51 2656766",Shopping mall,Open,33.7207086,73.0555015,https://www.google.com/maps/place/Safa+Gold+Mall/data=!4m7!3m6!1s0x38dfbfa7067ea8d3:0x49a6054408b8b584!8m2!3d33.7207086!4d73.0555015!16s%2Fg%2F11byxfvf5h!19sChIJ06h-Bqe_3zgRhLW4CEQFpkk?authuser=0&hl=en&rclk=1,"Store, Islamabad"
43,kayalislamabad_33.730551_73.079166,"Kayal, Islamabad","Kayal, Islamabad
4.4(36)
Women's clothing store · 1 Agha Khan Rd
Open ⋅ Closes 9 PM · +92 51 8440038",Women's clothing store,Open,33.7305509,73.079166,"https://www.google.com/maps/place/Kayal,+Islamabad/data=!4m7!3m6!1s0x38dfbf9c8548e4c3:0xf90d9963d10a67b8!8m2!3d33.7305509!4d73.079166!16s%2Fg%2F11b6bv1k9x!19sChIJw-RIhZy_3zgRuGcK0WOZDfk?authuser=0&hl=en&rclk=1","Store, Islamabad"
44,oneshoptoysofficial_33.696505_73.012303,One Shop Toys Official,"One Shop Toys Official
3.9(630)
Toy store ·  · Shop No. 7 L, Ajaib Plaza, next to Faysal Bank
Open ⋅ Closes 11 PM · +92 51 2222955",Toy store,Open,33.6965049,73.0123028,https://www.google.com/maps/place/One+Shop+Toys+Official/data=!4m7!3m6!1s0x38dfbe6b6c3e17a3:0x83e469d7dfa37b78!8m2!3d33.6965049!4d73.0123028!16s%2Fg%2F12mkz5pkm!19sChIJoxc-bGu-3zgReHuj39dp5IM?authuser=0&hl=en&rclk=1,"Store, Islamabad"
45,khasstoreislamabadpw_33.573082_73.148406,Khas Store Islamabad - PWD,"Khas Store Islamabad - PWD
4.0(154)
Clothing store · 24-D Main PWD Rd
Open ⋅ Closes 10 PM · +92 321 9434712",Clothing store,Open,33.5730819,73.1484061,https://www.google.com/maps/place/Khas+Store+Islamabad+-+PWD/data=!4m7!3m6!1s0x38dfec456641e99f:0x8b9a109b1d492802!8m2!3d33.5730819!4d73.1484061!16s%2Fg%2F11b75mh21v!19sChIJn-lBZkXs3zgRAihJHZsQmos?authuser=0&hl=en&rclk=1,"Store, Islamabad"
46,labelsislamabad_33.721479_73.059061,Labels Islamabad,"Labels Islamabad
4.0(41)
Clothing store · 13Y,Chaudhary Plaza, Next to PSO Pump, Bhittai Road,F-7 Markaz, Islamabad
Open ⋅ Closes 9 PM · +92 51 8437941",Clothing store,Open,33.721479,73.059061,https://www.google.com/maps/place/Labels+Islamabad/data=!4m7!3m6!1s0x38dfbf75997704e1:0xeddc5db04e302df5!8m2!3d33.721479!4d73.059061!16s%2Fg%2F11b6gm9k2f!19sChIJ4QR3mXW_3zgR9S0wTrBd3O0?authuser=0&hl=en&rclk=1,"Store, Islamabad"
47,lulusarstoreislamaba_33.731594_73.078884,Lulusar store Islamabad,"Lulusar store Islamabad
4.2(81)
Clothing store · School Rd, near shell pump
Open ⋅ Closes 10 PM · +92 305 2553434",Clothing store,Open,33.7315943,73.0788839,https://www.google.com/maps/place/Lulusar+store+Islamabad/data=!4m7!3m6!1s0x38dfbfa63ccf9823:0xc9e201b064f6e69b!8m2!3d33.7315943!4d73.0788839!16s%2Fg%2F11sghj5wpr!19sChIJI5jPPKa_3zgRm-b2ZLAB4sk?authuser=0&hl=en&rclk=1,"Store, Islamabad"
48,libertyshoppingcentr_33.706556_73.086996,Liberty Shopping Centre,"Liberty Shopping Centre
4.1(308)
Shopping mall · 700 Khayaban-e-Suhrwardy Rd
Open ⋅ Closes 10 PM · +92 300 5327186",Shopping mall,Open,33.7065564,73.0869956,https://www.google.com/maps/place/Liberty+Shopping+Centre/data=!4m7!3m6!1s0x38dfc07570c3b2e1:0x31a99d0cdf4fff0!8m2!3d33.7065564!4d73.0869956!16s%2Fg%2F11xdmrlt1!19sChIJ4bLDcHXA3zgR8P_0zdCZGgM?authuser=0&hl=en&rclk=1,"Store, Islamabad"
49,dxsportsfitnessshopi_33.668429_72.996849,DX Sports & Fitness Shop Islamabad,"DX Sports & Fitness Shop Islamabad
4.3(60)
Sports accessories wholesaler · 19B, Silver City Plaza, MARKAZ
Open ⋅ Closes 5:30 PM ⋅ Reopens 9 PM · +92 300 9508214",Sports accessories wholesaler,Open,33.6684286,72.9968488,https://www.google.com/maps/place/DX+Sports+%26+Fitness+Shop+Islamabad/data=!4m7!3m6!1s0x38df959572b7751b:0xd232cbb6022688d0!8m2!3d33.6684286!4d72.9968488!16s%2Fg%2F11h6m52lgp!19sChIJG3W3cpWV3zgR0IgmArbLMtI?authuser=0&hl=en&rclk=1,"Store, Islamabad"
50,islamabadsuperstore_33.677277_72.985799,Islamabad Super Store,"Islamabad Super Store
4.3(35)
General store ·  · Ali Market, St 9, F-11-1, F-11, 3
Open ⋅ Closes 11 PM · +92 51 2214226",General store,Open,33.6772769,72.9857993,https://www.google.com/maps/place/Islamabad+Super+Store/data=!4m7!3m6!1s0x38dfbdfba1bbddcf:0x1e6a575e4a1cee1b!8m2!3d33.6772769!4d72.9857993!16s%2Fg%2F12mkzc55r!19sChIJz927ofu93zgRG-4cSl5Xah4?authuser=0&hl=en&rclk=1,"Store, Islamabad"
51,nikeflagshipstoreisl_33.710761_73.058777,Nike Flagship Store Islamabad,"Nike Flagship Store Islamabad
4.0(428)
Shoe store · Shop# 3-4, Sardar Beagum Plaza, Jinnah Ave، near Domino's Pizza
Mainstay for athletic apparel & footwear
Open ⋅ Closes 10:30 AM Fri · +92 51 2347157",Shoe store,Open,33.7107614,73.0587774,https://www.google.com/maps/place/Nike+Flagship+Store+Islamabad/data=!4m7!3m6!1s0x38dfbfbcbdaf7dcb:0x3c68befa31414abd!8m2!3d33.7107614!4d73.0587774!16s%2Fg%2F1pp2vkqr6!19sChIJy32vvby_3zgRvUpBMfq-aDw?authuser=0&hl=en&rclk=1,"Store, Islamabad"
52,gamestoreislamabad_33.720632_73.054862,Game Store Islamabad,"Game Store Islamabad
4.4(509)
Video game store · MCB Bank, Safa Gold Mall, King Arcade Plaza Mid Caltex Petrol Pump and safa gold mall College Road, MARKAZ
Open ⋅ Closes 11 PM · +92 336 2002640",Video game store,Open,33.7206323,73.0548624,https://www.google.com/maps/place/Game+Store+Islamabad/data=!4m7!3m6!1s0x38dfbfb61c6e95d5:0xd366e50b1cb02ea0!8m2!3d33.7206323!4d73.0548624!16s%2Fg%2F11fhtw_x50!19sChIJ1ZVuHLa_3zgRoC6wHAvlZtM?authuser=0&hl=en&rclk=1,"Store, Islamabad"
53,samsungoutletislamab_33.711800_73.041135,Samsung Outlet Islamabad,"Samsung Outlet Islamabad
4.5(352)
Outlet store ·  · Ground floor, Royal Inn Plaza, Kohistan Rd
Open ⋅ Closes 10 PM · +92 333 5777792",Outlet store,Open,33.7117998,73.0411355,https://www.google.com/maps/place/Samsung+Outlet+Islamabad/data=!4m7!3m6!1s0x38dfbfad2fe47385:0xea2fcacb2778fb4f!8m2!3d33.7117998!4d73.0411355!16s%2Fg%2F11cs1wk148!19sChIJhXPkL62_3zgRT_t4J8vKL-o?authuser=0&hl=en&rclk=1,"Store, Islamabad"
54,islamabadsportsshop_33.706487_73.086969,Islamabad Sports Shop,"Islamabad Sports Shop
4.8(45)
Sporting goods store · Shop # 32-G, Liberty Shoping Center, Abpara Market
Open ⋅ Closes 10 PM · +92 333 5363162",Sporting goods store,Open,33.7064868,73.0869688,https://www.google.com/maps/place/Islamabad+Sports+Shop/data=!4m7!3m6!1s0x38dfbff5c9cd105d:0x6c12671bc9bbf994!8m2!3d33.7064868!4d73.0869688!16s%2Fg%2F11t7t2fwxm!19sChIJXRDNyfW_3zgRlPm7yRtnEmw?authuser=0&hl=en&rclk=1,"Store, Islamabad"
55,imagef10markazislama_33.696705_73.012612,Image - F-10 Markaz - Islamabad,"Image - F-10 Markaz - Islamabad
4.1(27)
Women's clothing store · Pak Plaza
Open ⋅ Closes 10 PM · +92 51 8739054",Women's clothing store,Open,33.696705,73.0126115,https://www.google.com/maps/place/Image+-+F-10+Markaz+-+Islamabad/data=!4m7!3m6!1s0x38dfbff083da6be3:0x221935261569e37f!8m2!3d33.696705!4d73.0126115!16s%2Fg%2F11q46l4tc8!19sChIJ42vag_C_3zgRf-NpFSY1GSI?authuser=0&hl=en&rclk=1,"Store, Islamabad"
56,alsyedmobilesgadgets_33.666729_73.073557,Al Syed Mobiles & Gadgets i-8 Markaz Islamabad,"Al Syed Mobiles & Gadgets i-8 Markaz Islamabad
4.8(101)
Cell phone store
Open ⋅ Closes 11 PM · +92 333 5147779",Cell phone store,Open,33.6667293,73.0735574,https://www.google.com/maps/place/Al+Syed+Mobiles+%26+Gadgets+i-8+Markaz+Islamabad/data=!4m7!3m6!1s0x38df9545c9d0fd65:0x3fac5ff1652a7901!8m2!3d33.6667293!4d73.0735574!16s%2Fg%2F1tzlxb93!19sChIJZf3QyUWV3zgRAXkqZfFfrD8?authuser=0&hl=en&rclk=1,"Store, Islamabad"
57,kamaliakhaddarislama_33.706402_73.088923,Kamalia Khaddar Islamabad,"Kamalia Khaddar Islamabad
4.6(85)
Clothing store · Al shuhda on, main Srinagar Hwy, behind masjid
Open ⋅ Closes 9 PM · +92 313 5143143",Clothing store,Open,33.7064016,73.0889232,https://www.google.com/maps/place/Kamalia+Khaddar+Islamabad/data=!4m7!3m6!1s0x38dfc18cb1580da3:0x60bba5fe75c06ed9!8m2!3d33.7064016!4d73.0889232!16s%2Fg%2F11jd9kdcp2!19sChIJow1YsYzB3zgR2W7Adf6lu2A?authuser=0&hl=en&rclk=1,"Store, Islamabad"
58,zubaidasgracobabysho_33.683836_72.986746,"Zubaida's Graco Babyshop – F11 MARKAZ, ISLAMABAD","Zubaida's Graco Babyshop – F11 MARKAZ, ISLAMABAD
3.9(89)
Baby store · Besides Standard Chartered Bank, Savoy Arcade, Lower Ground, besides, Plot # 21 Hilal Rd
Open ⋅ Closes 10 PM · +92 345 0022348",Baby store,Open,33.6838361,72.9867457,"https://www.google.com/maps/place/Zubaida%27s+Graco+Babyshop+%E2%80%93+F11+MARKAZ,+ISLAMABAD/data=!4m7!3m6!1s0x38dfbde47a5f2205:0x8711403dd18c706d!8m2!3d33.6838361!4d72.9867457!16s%2Fg%2F11c5_q34q5!19sChIJBSJfeuS93zgRbXCM0T1AEYc?authuser=0&hl=en&rclk=1","Store, Islamabad"
59,gamestopislamabadpsn_33.666739_73.075953,Game Stop Islamabad & PSN Gift Card Store,"Game Stop Islamabad & PSN Gift Card Store
4.8(12)
Shopping mall ·  · Pak Land Business Centre, Markaz
Open ⋅ Closes 10 PM · +92 305 6916224",Shopping mall,Open,33.6667391,73.0759528,https://www.google.com/maps/place/Game+Stop+Islamabad+%26+PSN+Gift+Card+Store/data=!4m7!3m6!1s0x38dfbfcf470931e1:0xbf9e4a3e298f495f!8m2!3d33.6667391!4d73.0759528!16s%2Fg%2F11ny23n9gh!19sChIJ4TEJR8-_3zgRX0mPKT5Knr8?authuser=0&hl=en&rclk=1,"Store, Islamabad"
60,librajewellers_33.729736_73.076263,Libra Jewellers,"Libra Jewellers
4.7(32)
Jeweler · Islamabad Islamabad Islamabad Capital Territory
Open ⋅ Closes 8 PM · +92 300 9543653",Jeweler,Open,33.7297363,73.0762634,https://www.google.com/maps/place/Libra+Jewellers/data=!4m7!3m6!1s0x38dfbf79e6bf71c7:0x57708d779bd432ed!8m2!3d33.7297363!4d73.0762634!16s%2Fg%2F1tq4pglq!19sChIJx3G_5nm_3zgR7TLUm3eNcFc?authuser=0&hl=en&rclk=1,"Store, Islamabad"
61,centaurusmall_33.707728_73.049792,Centaurus Mall,"Centaurus Mall
4.4(78,171)
Shopping mall ·  · 4 Jinnah Avenue
Sizable, contemporary shopping center
Open ⋅ Closes 11 PM · +92 51 8483040",Shopping mall,Open,33.7077281,73.0497919,https://www.google.com/maps/place/Centaurus+Mall/data=!4m7!3m6!1s0x38dfbfb0f4f77379:0xf8c50b8651f56d02!8m2!3d33.7077281!4d73.0497919!16s%2Fm%2F01xmgnl!19sChIJeXP39LC_3zgRAm31UYYLxfg?authuser=0&hl=en&rclk=1,"Store, Islamabad"
62,mohsinsonsf7islamaba_33.722654_73.059578,Mohsin Sons F-7 Islamabad,"Mohsin Sons F-7 Islamabad
4.1(196)
Clothing store ·  · Ammar Centre, Jinnah Super Market
Open ⋅ Closes 10 PM · +92 51 2654122",Clothing store,Open,33.7226537,73.0595776,https://www.google.com/maps/place/Mohsin+Sons+F-7+Islamabad/data=!4m7!3m6!1s0x38dfbff139aaa01d:0xe63abab5ec106cb9!8m2!3d33.7226537!4d73.0595776!16s%2Fg%2F11szc_jsb5!19sChIJHaCqOfG_3zgRuWwQ7LW6OuY?authuser=0&hl=en&rclk=1,"Store, Islamabad"
63,islamabadgeneralstor_33.683138_72.988114,Islamabad general store,"Islamabad general store
4.4(33)
Supermarket · shop no 5, trade centre
Open 24 hours · +92 51 2113030",Supermarket,Open 24 hours,33.6831375,72.9881144,https://www.google.com/maps/place/Islamabad+general+store/data=!4m7!3m6!1s0x38dfbda6323eabf3:0x6c81b88cdc383ed9!8m2!3d33.6831375!4d72.9881144!16s%2Fg%2F11t9g_4tt1!19sChIJ86s-Mqa93zgR2T443Iy4gWw?authuser=0&hl=en&rclk=1,"Store, Islamabad"
64,minisoi8markazislama_33.667994_73.075806,Miniso I-8 Markaz Islamabad,"Miniso I-8 Markaz Islamabad
3.8(55)
Cosmetics store · Plot # 17,18
Open ⋅ Closes 11 PM · +92 343 5367536",Cosmetics store,Open,33.6679937,73.0758062,https://www.google.com/maps/place/Miniso+I-8+Markaz+Islamabad/data=!4m7!3m6!1s0x38df950fb78282a7:0xb9a7002a7c3d1f0!8m2!3d33.6679937!4d73.0758062!16s%2Fg%2F11fr6sy5_c!19sChIJp4KCtw-V3zgR8NHDpwJwmgs?authuser=0&hl=en&rclk=1,"Store, Islamabad"
65,themobileshop_33.711665_73.061528,The Mobile Shop,"The Mobile Shop
4.2(328)
Cell phone store · Shop 7 Ittehad Center, Fazal e Haq Rd
Open ⋅ Closes 10 PM · +92 310 9111222",Cell phone store,Open,33.7116654,73.0615281,https://www.google.com/maps/place/The+Mobile+Shop/data=!4m7!3m6!1s0x38dfbfbd26c47619:0x685f5af16ef1c6e2!8m2!3d33.7116654!4d73.0615281!16s%2Fg%2F1q6j72jgg!19sChIJGXbEJr2_3zgR4sbxbvFaX2g?authuser=0&hl=en&rclk=1,"Store, Islamabad"
66,saeedtradersislamaba_33.689256_73.033286,Saeed Traders Islamabad,"Saeed Traders Islamabad
4.0(95)
Store ·  · Adeel Plaza Shop#5, G 9 Markaz pso pump ki back side
Open ⋅ Closes 10:30 PM · +92 51 2284808",Store,Open,33.6892561,73.0332859,https://www.google.com/maps/place/Saeed+Traders+Islamabad/data=!4m7!3m6!1s0x38dfbf4a16ac754f:0x6a1b0c07b7518543!8m2!3d33.6892561!4d73.0332859!16s%2Fg%2F11fl08p78l!19sChIJT3WsFkq_3zgRQ4VRtwcMG2o?authuser=0&hl=en&rclk=1,"Store, Islamabad"
67,laptopstorei9islamab_33.650864_73.050110,laptop store i9 Islamabad,"laptop store i9 Islamabad
4.9(53)
Computer store · 652 Street 22B
Open ⋅ Closes 10 PM · +92 331 5858063",Computer store,Open,33.650864,73.05011,https://www.google.com/maps/place/laptop+store+i9+Islamabad/data=!4m7!3m6!1s0x38df958dd08801fd:0xbcad811fba120525!8m2!3d33.650864!4d73.05011!16s%2Fg%2F11tdblkk2c!19sChIJ_QGI0I2V3zgRJQUSuh-Brbw?authuser=0&hl=en&rclk=1,"Store, Islamabad"
68,f7markazjinnahsuperm_33.721219_73.057552,F-7 Markaz (Jinnah Super Market),"F-7 Markaz (Jinnah Super Market)
4.4(49,158)
Supermarket ·  · Opposite To Flower Market, College Rd
Open ⋅ Closes 1 AM · +92 317 5666179",Supermarket,Open,33.7212189,73.0575515,https://www.google.com/maps/place/F-7+Markaz+%28Jinnah+Super+Market%29/data=!4m7!3m6!1s0x38dfbfa76b72ff95:0x7f5e8a6820990b68!8m2!3d33.7212189!4d73.0575515!16s%2Fg%2F1q5bl4ywq!19sChIJlf9ya6e_3zgRaAuZIGiKXn8?authuser=0&hl=en&rclk=1,"Store, Islamabad"
69,khaadi_33.698516_73.011431,Khaadi,"Khaadi
4.3(1,193)
Clothing store · 
Open ⋅ Closes 11 PM · +92 51 2809627",Clothing store,Open,33.698516,73.0114309,https://www.google.com/maps/place/Khaadi/data=!4m7!3m6!1s0x38dfbe152e29e0e9:0xbe11759c47145240!8m2!3d33.698516!4d73.0114309!16s%2Fg%2F1hhwbl5sq!19sChIJ6eApLhW-3zgRQFIUR5x1Eb4?authuser=0&hl=en&rclk=1,"Store, Islamabad"
70,islamabadgiftshoppk_33.722466_73.058177,Islamabad Giftshop Pk,"Islamabad Giftshop Pk
5.0(165)
Gift shop · Flowers market, College Rd
Open 24 hours · +92 332 6362390",Gift shop,Open 24 hours,33.722466,73.058177,https://www.google.com/maps/place/Islamabad+Giftshop+Pk/data=!4m7!3m6!1s0x8aaea4846331ec8f:0x27892c14d58f65d!8m2!3d33.722466!4d73.058177!16s%2Fg%2F11w4lqk7nc!19sChIJj-wxY4SkrooRXfZYTcGSeAI?authuser=0&hl=en&rclk=1,"Store, Islamabad"
71,topshopislamabad_33.532688_73.112062,Top shop islamabad,"Top shop islamabad
5.0(1)
Clothing store
Open ⋅ Closes 10 PM · +92 333 5297471",Clothing store,Open,33.5326875,73.1120625,https://www.google.com/maps/place/Top+shop+islamabad/data=!4m7!3m6!1s0x38dfedb25cf841db:0x8cd6d85fb88c90f5!8m2!3d33.5326875!4d73.1120625!16s%2Fg%2F11pz3k90m_!19sChIJ20H4XLLt3zgR9ZCMuF_Y1ow?authuser=0&hl=en&rclk=1,"Store, Islamabad"
72,perfumesshopinislama_33.521200_73.158774,Perfumes Shop in Islamabad - Scents N Stories - GIGA Mall,"Perfumes Shop in Islamabad - Scents N Stories - GIGA Mall
4.4(123)
Perfume store · GIGA MAll, Main GT Rd
Open ⋅ Closes 11 PM · +92 51 8488052",Perfume store,Open,33.5212,73.1587741,https://www.google.com/maps/place/Perfumes+Shop+in+Islamabad+-+Scents+N+Stories+-+GIGA+Mall/data=!4m7!3m6!1s0x38dfedc09b6ef279:0x16659db66ee2bff1!8m2!3d33.5212!4d73.1587741!16s%2Fg%2F11k9fl888r!19sChIJefJum8Dt3zgR8b_ibradZRY?authuser=0&hl=en&rclk=1,"Store, Islamabad"
73,artplanetislamabadha_33.721985_73.059108,Art Planet Islamabad (Handmade Rugs & Kilims).,"Art Planet Islamabad (Handmade Rugs & Kilims).
4.9(209)
Carpet store ·  · Shop# 11-12, Address of Art planet :, Block 13-J Markaz, next to Generations & Fish Shop, beside PSO PUMP
Open ⋅ Closes 10 PM · +92 51 2650701",Carpet store,Open,33.7219848,73.0591077,https://www.google.com/maps/place/Art+Planet+Islamabad+%28Handmade+Rugs+%26+Kilims%29./data=!4m7!3m6!1s0x38dfbfa0b9cca349:0xad5bb9999bd12491!8m2!3d33.7219848!4d73.0591077!16s%2Fg%2F11g8b57pql!19sChIJSaPMuaC_3zgRkSTRm5m5W60?authuser=0&hl=en&rclk=1,"Store, Islamabad"
74,islamabadsanitarysto_33.687918_73.049329,Islamabad Sanitary Store,"Islamabad Sanitary Store
4.1(79)
Bathroom supply store · I&T Centre Plot 78,Shop#01, Street 14
Open ⋅ Closes 8 PM · +92 51 2252670",Bathroom supply store,Open,33.6879184,73.0493285,https://www.google.com/maps/place/Islamabad+Sanitary+Store/data=!4m7!3m6!1s0x38dfbfd1caafd235:0x133ced8a4b944820!8m2!3d33.6879184!4d73.0493285!16s%2Fg%2F12mkzjj8y!19sChIJNdKvytG_3zgRIEiUS4rtPBM?authuser=0&hl=en&rclk=1,"Store, Islamabad"
75,scribblebooksschools_33.696377_73.011371,Scribble Books & School Supplies (Islamabad),"Scribble Books & School Supplies (Islamabad)
4.0(33)
Book store · Shop no.7, Capital trade center, near Rahat Bakery & Subway
Open ⋅ Closes 11 PM · +92 333 5417773",Book store,Open,33.6963774,73.0113711,https://www.google.com/maps/place/Scribble+Books+%26+School+Supplies+%28Islamabad%29/data=!4m7!3m6!1s0x38dfbfc12f64d2cd:0x28aeff9a2b1a5f6e!8m2!3d33.6963774!4d73.0113711!16s%2Fg%2F11h7fmjp7v!19sChIJzdJkL8G_3zgRbl8aK5r_rig?authuser=0&hl=en&rclk=1,"Store, Islamabad"
